{
 "type": "Feature",
 "properties": {
  "id": "retreat-1776",
  "name": "American retreat from Quebec to Ticonderoga, May to July 1776",
  "style": "dashed"
 },
 "geometry": {
  "type": "LineString",
  "coordinates": [
   [
    -71.21,
    46.81
   ],
   [
    -71.9,
    46.55
   ],
   [
    -72.55,
    46.34
   ],
   [
    -73.11,
    46.04
   ],
   [
    -73.2,
    45.6
   ],
   [
    -73.25,
    45.31
   ],
   [
    -73.28,
    45.12
   ],
   [
    -73.35,
    44.75
   ],
   [
    -73.42,
    44.35
   ],
   [
    -73.43,
    44.03
   ],
   [
    -73.39,
    43.84
   ]
  ]
 }
}
