{"type":"Feature","properties":{"name":"Cortés’s fleet from Cozumel to the Grijalva River, March 1519","style":"solid","arrows":true},"geometry":{"type":"LineString","coordinates":[[-86.99,20.55],[-86.86,20.66],[-86.72,20.88],[-86.62,21.2],[-86.72,21.5],[-86.98,21.74],[-87.6,21.71],[-88.2,21.74],[-88.8,21.66],[-89.4,21.52],[-89.95,21.4],[-90.35,21.23],[-90.56,21],[-90.64,20.7],[-90.66,20.4],[-90.68,20.1],[-90.66,19.9],[-90.8,19.7],[-90.84,19.5],[-90.81,19.37],[-90.93,19.24],[-91.13,19.09],[-91.43,18.94],[-91.73,18.79],[-92.08,18.74],[-92.43,18.69],[-92.69,18.645]]}}
