{"type":"Feature","properties":{"name":"Maya canoe trade along the coast of Yucatán, from Xicalango to Nito","style":"dashed","arrows":false},"geometry":{"type":"LineString","coordinates":[[-91.98,18.74],[-91.75,18.82],[-91.35,18.98],[-91.0,19.15],[-90.85,19.4],[-90.7,19.85],[-90.6,20.3],[-90.55,20.8],[-90.45,21.15],[-90.05,21.3],[-89.6,21.42],[-89.0,21.5],[-88.4,21.68],[-87.9,21.68],[-87.4,21.7],[-87.0,21.7],[-86.68,21.45],[-86.64,21.15],[-86.72,20.95],[-86.8,20.82],[-86.98,20.6],[-87.1,20.45],[-87.3,20.2],[-87.35,20.05],[-87.3,19.8],[-87.33,19.4],[-87.45,19.0],[-87.6,18.6],[-87.7,18.2],[-87.68,17.5],[-87.95,16.9],[-88.15,16.5],[-88.4,16.2],[-88.7,15.95],[-88.74,15.86]]}}
