{"type":"Feature","properties":{"name":"Captives and furs from Hedeby and Birka to Bulgar on the Volga, 9th–10th centuries","style":"dashed","arrows":true,"offset":4},"geometry":{"type":"LineString","coordinates":[[9.565,54.491],[9.85,54.6],[10.05,54.68],[10.9,54.75],[12.4,54.7],[13.6,55.0],[15.0,55.45],[16.4,56.0],[17.3,56.9],[17.6,57.5],[18.2,58.3],[18.85,58.8],[18.7,59.25],[18.07,59.33],[17.8,59.32],[17.545,59.336],[17.8,59.36],[18.07,59.38],[18.7,59.55],[19.6,59.75],[20.8,59.6],[22.5,59.55],[23.6,59.62],[25.5,59.85],[27.5,60.0],[29.0,59.98],[30.2,59.94],[30.7,59.88],[31.05,59.95],[31.6,60.1],[32.25,60.12],[32.298,59.997],[32.34,59.9],[32.0,59.45],[31.68,59.12],[31.27,58.52],[31.7,58.43],[32.8,58.58],[33.92,58.39],[34.2,58.0],[34.57,57.59],[34.96,57.04],[35.9,56.86],[37.0,57.08],[37.85,57.24],[38.33,57.53],[38.83,58.05],[39.4,57.83],[39.87,57.63],[40.93,57.77],[42.15,57.44],[43.1,57.3],[43.47,56.65],[44.0,56.33],[45.6,56.1],[47.25,56.13],[48.5,55.85],[49.12,55.79],[49.0,55.35],[49.04,54.98]]}}
