{"type":"Feature","properties":{"name":"Harald Hardrada’s fleet from Solund by Shetland, Orkney and the Tyne to Riccall, August to September 1066","style":"solid","arrows":true},"geometry":{"type":"LineString","coordinates":[[4.52,61.04],[2.5,60.7],[0.2,60.35],[-1.15,60.15],[-1.6,59.6],[-2.4,59.15],[-2.96,58.98],[-2.6,58.6],[-2,57.8],[-1.75,57],[-2,56.3],[-1.9,55.6],[-1.42,55.02],[-1.15,54.64],[-0.75,54.5],[-0.4,54.28],[-0.1,54],[0.13,53.6],[-0.2,53.68],[-0.5,53.72],[-0.75,53.71],[-0.87,53.73],[-0.98,53.78],[-1.0594,53.8333]]}}
