{"type":"Feature","properties":{"name":"Tostig’s raids from Flanders along the English coast and his flight to Scotland, May to summer 1066","style":"solid","arrows":true},"geometry":{"type":"LineString","coordinates":[[2.9,51.25],[2.1,51.05],[1.2,50.6],[0,50.35],[-1,50.45],[-1.25,50.62],[-0.8,50.72],[0.3,50.75],[1,50.92],[1.45,51.2],[1.6,51.6],[1.85,52.3],[1.7,52.85],[1,53.05],[0.4,53.25],[0.25,53.5],[0,53.62],[0.15,54],[-0.4,54.6],[-1.2,55.2],[-1.6,55.75],[-2.4,56.05],[-3.2,56.02],[-3.46,56.07]]}}
