{"type":"Feature","properties":{"name":"Magnus Barefoot’s fleet from Norway by Orkney and the Hebrides to Man and Anglesey, 1098","style":"solid","arrows":true},"geometry":{"type":"LineString","coordinates":[[5.32,60.39],[3,59.9],[0,59.3],[-2.5,59.05],[-2.96,58.981],[-3.5,58.78],[-5.1,58.72],[-6,58.35],[-6.39,58.21],[-6.6,57.75],[-7.15,57.5],[-6.6,57.35],[-6.3,57.1],[-6,56.68],[-6.25,56.2],[-6.3,55.85],[-5.9,55.65],[-5.55,55.85],[-5.415,55.865],[-5.6,55.8],[-5.9,55.5],[-5.9,55.3],[-5.2,54.9],[-4.5,54.2],[-4.3,53.7],[-4.05,53.33]]}}
