{"type":"Feature","properties":{"id":"acalan-1500","family":"chontal","name":"Acalan"},"geometry":{"type":"Polygon","coordinates":[[[-92.250862807,17.941631975],[-92.183574875,17.917460041],[-92.116286943,17.893288106],[-92.052863135,17.883365233],[-91.989439327,17.87344236],[-91.900074721,17.884593056],[-91.829576574,17.903513379],[-91.759078428,17.922433703],[-91.688580281,17.941354026],[-91.623482999,17.943795397],[-91.557104337,17.93521148],[-91.49102151,17.911192341],[-91.424938683,17.887173202],[-91.353982096,17.843329271],[-91.28302551,17.799485341],[-91.212068923,17.755641411],[-91.141112337,17.71179748],[-91.079087187,17.682145511],[-91.017062036,17.652493542],[-90.974151573,17.720804123],[-90.93124111,17.789114705],[-90.885525547,17.843385483],[-90.839809983,17.897656262],[-90.782841391,17.944054384],[-90.725872799,17.990452506],[-90.66643919,18.025270899],[-90.60700558,18.060089291],[-90.54757197,18.094907684],[-90.54259999,18.157074425],[-90.53762801,18.219241166],[-90.599511565,18.259818875],[-90.66139512,18.300396585],[-90.723278675,18.340974294],[-90.773356376,18.385900055],[-90.813381069,18.437660779],[-90.841378986,18.496211157],[-90.85795069,18.559624399],[-90.862429801,18.636559126],[-90.866908911,18.713493854],[-90.932416502,18.710872679],[-90.997924093,18.708251505],[-91.063642684,18.692065202],[-91.129361275,18.6758789],[-91.195079866,18.659692597],[-91.258844413,18.652172941],[-91.349176797,18.666680411],[-91.405281187,18.696071517],[-91.458494089,18.739204011],[-91.4966004,18.780080143],[-91.534706712,18.820956275],[-91.591821316,18.892548355],[-91.648935921,18.964140435],[-91.706050526,19.035732515],[-91.76316513,19.107324596],[-91.820279735,19.178916676],[-91.87739434,19.250508756],[-91.934508944,19.322100836],[-91.991623549,19.393692916],[-92.048738153,19.465284996],[-92.105852758,19.536877076],[-92.114003713,19.475206831],[-92.122154668,19.413536585],[-92.127973155,19.322625946],[-92.133791642,19.231715308],[-92.139610129,19.140804669],[-92.145428616,19.04989403],[-92.164383609,18.960548043],[-92.183338601,18.871202056],[-92.202293594,18.781856069],[-92.221248586,18.692510082],[-92.231421094,18.618474699],[-92.241593602,18.544439317],[-92.242917774,18.458323982],[-92.244241946,18.372208648],[-92.245566118,18.286093313],[-92.246890291,18.199977979],[-92.248214463,18.113862644],[-92.249538635,18.027747309],[-92.250862807,17.941631975]]]}}
