{"type":"Feature","properties":{"id":"aguateca-761","family":"kingdom","name":"Aguateca, seat of the Dos Pilas kings after 761"},"geometry":{"type":"Polygon","coordinates":[[[-90.129851672,16.41],[-90.13016641,16.416371496],[-90.13116996,16.422689376],[-90.132866437,16.42889274],[-90.135247944,16.434918941],[-90.138293303,16.440706311],[-90.141967949,16.446197176],[-90.146225074,16.451340786],[-90.151007948,16.456095804],[-90.156253188,16.460431992],[-90.161894628,16.464330881],[-90.167867324,16.467785269],[-90.174111248,16.470797581],[-90.180574199,16.47337724],[-90.187213563,16.47553734],[-90.193996697,16.477290997],[-90.200899851,16.478647823],[-90.207905733,16.479610954],[-90.215,16.480175022],[-90.222167074,16.480325357],[-90.229385806,16.480038568],[-90.236625529,16.479284504],[-90.24384302,16.478029408],[-90.250980806,16.476239976],[-90.257967092,16.47388787],[-90.264717425,16.470954204],[-90.27113801,16.467433503],[-90.27713039,16.46333667],[-90.282597052,16.458692616],[-90.287447412,16.453548327],[-90.291603558,16.447967337],[-90.295005166,16.442026715],[-90.297613074,16.43581288],[-90.299411131,16.429416636],[-90.300406146,16.422927952],[-90.300625932,16.416431006],[-90.300115669,16.41],[-90.298932982,16.403696144],[-90.297142248,16.397566106],[-90.294808759,16.391642023],[-90.291993326,16.385943039],[-90.288747895,16.380478121],[-90.2851126,16.375249803],[-90.281114508,16.370258398],[-90.276768133,16.365506167],[-90.272077595,16.361000969],[-90.267040105,16.35675897],[-90.261650323,16.352806102],[-90.255905081,16.349178139],[-90.249807868,16.345919381],[-90.243372601,16.343080128],[-90.236626232,16.340713244],[-90.229609942,16.338870206],[-90.222378803,16.337597106],[-90.215,16.33693102],[-90.207549864,16.33689716],[-90.200110072,16.337507071],[-90.192763495,16.338758035],[-90.185590163,16.340633692],[-90.17866379,16.343105733],[-90.172049238,16.346136411],[-90.165801116,16.349681534],[-90.159963618,16.353693547],[-90.154571485,16.358124327],[-90.149651885,16.362927376],[-90.145226854,16.368059181],[-90.141315893,16.373479643],[-90.137938314,16.379151584],[-90.135114968,16.38503951],[-90.132869061,16.391107864],[-90.131225939,16.397319098],[-90.130211825,16.403631914],[-90.129851672,16.41]]]}}
