{"type":"Feature","properties":{"id":"bonampak-790","family":"kingdom","name":"Bonampak, under Yaxchilan"},"geometry":{"type":"Polygon","coordinates":[[[-90.992518034,16.69],[-90.992604663,16.696529956],[-90.993413202,16.703023159],[-90.994928461,16.709398646],[-90.997119207,16.7155813],[-90.999941042,16.721505029],[-91.003340071,16.727114864],[-91.007256946,16.732367817],[-91.011630811,16.73723249],[-91.016402734,16.741687591],[-91.021518282,16.745719617],[-91.026929019,16.749320067],[-91.032592849,16.752482574],[-91.038473273,16.75520036],[-91.044537772,16.757464327],[-91.050755612,16.759262045],[-91.057095454,16.76057772],[-91.063523139,16.761393136],[-91.07,16.761689418],[-91.07648196,16.761449337],[-91.082919563,16.760659848],[-91.089258958,16.759314482],[-91.095443712,16.757415268],[-91.101417224,16.754973897],[-91.107125409,16.752011971],[-91.112519313,16.748560275],[-91.117557272,16.74465716],[-91.122206354,16.740346237],[-91.126442833,16.735673678],[-91.130251655,16.730685477],[-91.133624919,16.725425034],[-91.136559582,16.719931383],[-91.139054668,16.714238323],[-91.141108373,16.708374556],[-91.142715455,16.702364858],[-91.143865292,16.696232121],[-91.144540922,16.69],[-91.144719239,16.683695831],[-91.144372429,16.677353382],[-91.143470514,16.671015062],[-91.141984776,16.664733204],[-91.139891691,16.65857019],[-91.13717693,16.652597281],[-91.133838946,16.646892172],[-91.129891719,16.641535474],[-91.125366279,16.636606427],[-91.120310776,16.632178262],[-91.114789038,16.628313717],[-91.108877673,16.625061157],[-91.102662015,16.622451754],[-91.09623127,16.620498031],[-91.089673382,16.619193975],[-91.083070124,16.618516703],[-91.076492947,16.618429558],[-91.07,16.618886293],[-91.06363464,16.619835924],[-91.057425567,16.62122774],[-91.051388546,16.623015933],[-91.045529509,16.625163365],[-91.039848662,16.627644079],[-91.034345113,16.630444298],[-91.029021498,16.633561826],[-91.023888054,16.637003941],[-91.018965678,16.640784035],[-91.014287607,16.644917396],[-91.009899527,16.64941661],[-91.00585808,16.654287111],[-91.002227925,16.659523367],[-90.999077672,16.665106125],[-90.996475111,16.671001011],[-90.994482266,16.67715863],[-90.993150765,16.68351612],[-90.992518034,16.69]]]}}
