{"type":"Feature","properties":{"id":"britain-1860","family":"britain","name":"British Honduras","clip":["Belize"]},"geometry":{"type":"Polygon","coordinates":[[[-89.4,15.6],[-89.3,15.6],[-89.2,15.6],[-89.1,15.6],[-89,15.6],[-88.9,15.6],[-88.8,15.6],[-88.7,15.6],[-88.6,15.6],[-88.5,15.6],[-88.4,15.6],[-88.3,15.6],[-88.2,15.6],[-88.1,15.6],[-88,15.6],[-87.9,15.6],[-87.8,15.6],[-87.7,15.6],[-87.6,15.6],[-87.5,15.6],[-87.4,15.6],[-87.4,15.699230769],[-87.4,15.798461538],[-87.4,15.897692308],[-87.4,15.996923077],[-87.4,16.096153846],[-87.4,16.195384615],[-87.4,16.294615385],[-87.4,16.393846154],[-87.4,16.493076923],[-87.4,16.592307692],[-87.4,16.691538462],[-87.4,16.790769231],[-87.4,16.89],[-87.4,16.989230769],[-87.4,17.088461538],[-87.4,17.187692308],[-87.4,17.286923077],[-87.4,17.386153846],[-87.4,17.485384615],[-87.4,17.584615385],[-87.4,17.683846154],[-87.4,17.783076923],[-87.4,17.882307692],[-87.4,17.981538462],[-87.4,18.080769231],[-87.4,18.18],[-87.492,18.18],[-87.584,18.18],[-87.676,18.18],[-87.768,18.18],[-87.86,18.18],[-87.933913839,18.230339212],[-88.007827678,18.280678424],[-88.081741517,18.331017636],[-88.155655357,18.381356848],[-88.229569196,18.43169606],[-88.303483035,18.482035272],[-88.371883719,18.482035272],[-88.379083791,18.480346695],[-88.386283863,18.47696954],[-88.389883899,18.475280963],[-88.397083971,18.480346695],[-88.407884079,18.488789581],[-88.411484115,18.490478158],[-88.418684187,18.488789581],[-88.429484295,18.483723849],[-88.451084511,18.47696954],[-88.458284583,18.475280963],[-88.469084691,18.478658117],[-88.479884799,18.483723849],[-88.490684907,18.483723849],[-88.519485195,18.461772345],[-88.526685267,18.453329458],[-88.533885339,18.443197995],[-88.537485375,18.412803604],[-88.548285483,18.389163522],[-88.551885519,18.363834863],[-88.555485555,18.352014822],[-88.566285663,18.333440472],[-88.598685987,18.299668927],[-88.609486095,18.282783154],[-88.613086131,18.265897381],[-88.613086131,18.247323031],[-88.616686167,18.23550299],[-88.627486275,18.220305795],[-88.638286383,18.211862909],[-88.667086671,18.198354291],[-88.695886959,18.178091363],[-88.692286923,18.174714209],[-88.688686887,18.161205591],[-88.692286923,18.14938555],[-88.717487175,18.110548272],[-88.721087211,18.100416809],[-88.724687247,18.076776727],[-88.728287283,18.066645263],[-88.735487355,18.051448068],[-88.749887499,18.043005182],[-88.760687607,18.036250873],[-88.775087751,18.024430832],[-88.782287823,18.014299368],[-88.796687967,17.975462091],[-88.803888039,17.965330627],[-88.857888579,17.928181927],[-88.861488615,17.921427618],[-88.865088651,17.899476114],[-88.872288723,17.891033227],[-88.879488795,17.887656073],[-88.919089191,17.911296155],[-88.933489335,17.919739041],[-88.947889479,17.948444855],[-88.955089551,17.950133432],[-88.969489695,17.948444855],[-88.97,17.94852464],[-88.980289803,17.950133432],[-88.998289983,17.961953473],[-89.027090271,17.992347864],[-89.048690487,17.999102173],[-89.131491315,17.970396359],[-89.153091531,17.941690545],[-89.160291603,17.901164691],[-89.160291603,17.81504725],[-89.240194402,17.81504725],[-89.320097201,17.81504725],[-89.4,17.81504725],[-89.4,17.718740848],[-89.4,17.622434446],[-89.4,17.526128044],[-89.4,17.429821642],[-89.4,17.333515239],[-89.4,17.237208837],[-89.4,17.140902435],[-89.4,17.044596033],[-89.4,16.948289631],[-89.4,16.851983228],[-89.4,16.755676826],[-89.4,16.659370424],[-89.4,16.563064022],[-89.4,16.46675762],[-89.4,16.370451217],[-89.4,16.274144815],[-89.4,16.177838413],[-89.4,16.081532011],[-89.4,15.985225609],[-89.4,15.888919207],[-89.4,15.792612804],[-89.4,15.696306402],[-89.4,15.6]]]}}
