{"type":"Feature","properties":{"id":"cancuen-770","family":"kingdom","name":"Cancuén"},"geometry":{"type":"Polygon","coordinates":[[[-89.932774241,16.0131],[-89.933253489,16.021407776],[-89.934334141,16.029674682],[-89.936013373,16.037888004],[-89.938303716,16.046031438],[-89.941231007,16.054079889],[-89.944830258,16.061995129],[-89.949139869,16.069722912],[-89.954194793,16.077191941],[-89.960019421,16.084314918],[-89.966620945,16.090991667],[-89.973984003,16.097114065],[-89.982067196,16.102572343],[-89.990801928,16.107262117],[-90.000093745,16.111091461],[-90.009826077,16.113987274],[-90.019866034,16.115900296],[-90.030071673,16.116808248],[-90.0403,16.116716778],[-90.050414895,16.11565813],[-90.060294157,16.113687681],[-90.069834965,16.11087875],[-90.078957259,16.107316217],[-90.087604735,16.103089646],[-90.095743461,16.09828663],[-90.103358348,16.092987032],[-90.110447963,16.087258684],[-90.117018335,16.081154939],[-90.123076501,16.074714237],[-90.128624552,16.06796163],[-90.133654862,16.060911987],[-90.138147017,16.053574418],[-90.142066773,16.045957336],[-90.14536711,16.038073518],[-90.147991205,16.029944553],[-90.149876941,16.02160416],[-90.150962393,16.0131],[-90.151191631,16.004493808],[-90.15052017,15.995859878],[-90.14891946,15.98728212],[-90.146379929,15.97885008],[-90.142912308,15.970654419],[-90.138547148,15.962782413],[-90.133332692,15.955313971],[-90.127331423,15.948318635],[-90.120615799,15.94185384],[-90.113263717,15.935964571],[-90.105354298,15.930684349],[-90.096964487,15.926037313],[-90.088166847,15.922041026],[-90.079028748,15.918709547],[-90.069612944,15.916056275],[-90.059979339,15.914096122],[-90.050187581,15.912846678],[-90.0403,15.912328137],[-90.03038434,15.912561985],[-90.0205158,15.913568578],[-90.010777927,15.915363927],[-90.001262118,15.91795612],[-89.99206563,15.921341873],[-89.983288222,15.925503714],[-89.975027758,15.930408241],[-89.967375232,15.936005747],[-89.960409812,15.942231388],[-89.954194482,15.949007827],[-89.948772878,15.956249136],[-89.944167731,15.963865555],[-89.940381187,15.971768583],[-89.937397054,15.979875829],[-89.935184779,15.988115047],[-89.933704756,15.996426872],[-89.932914393,16.004765907],[-89.932774241,16.0131]]]}}
