{"type":"Feature","properties":{"id":"canpech-1517","family":"chontal","name":"Can Pech (Campeche)"},"geometry":{"type":"Polygon","coordinates":[[[-92.731173914,21.023734514],[-92.694154421,20.952614131],[-92.657134929,20.881493747],[-92.608491204,20.80556038],[-92.55984748,20.729627013],[-92.511203756,20.653693647],[-92.462560032,20.57776028],[-92.413916308,20.501826913],[-92.365272584,20.425893546],[-92.31662886,20.349960179],[-92.267985135,20.274026812],[-92.192980119,20.236388077],[-92.117975103,20.198749343],[-92.042970086,20.161110608],[-91.96796507,20.123471873],[-91.892960054,20.085833138],[-91.807954461,20.05323662],[-91.722948868,20.020640101],[-91.637943275,19.988043583],[-91.552937682,19.955447064],[-91.467932089,19.922850546],[-91.382926496,19.890254027],[-91.297920902,19.857657509],[-91.212915309,19.82506099],[-91.127909716,19.792464472],[-91.054120037,19.769380245],[-90.980330358,19.746296018],[-90.906540679,19.723211791],[-90.83238565,19.709114045],[-90.758230622,19.695016298],[-90.684075593,19.680918552],[-90.609920565,19.666820805],[-90.558377584,19.650639656],[-90.506834604,19.634458506],[-90.459690069,19.609443781],[-90.412545534,19.584429056],[-90.354148459,19.544973287],[-90.295751385,19.505517518],[-90.23735431,19.466061749],[-90.169628848,19.433588942],[-90.101903386,19.401116136],[-90.089646007,19.469062839],[-90.077388627,19.537009543],[-90.07375599,19.619837937],[-90.070123353,19.702666331],[-90.066490716,19.785494725],[-90.062858079,19.86832312],[-90.059225442,19.951151514],[-90.131066747,20.015109015],[-90.202908052,20.079066516],[-90.274749357,20.143024018],[-90.346590662,20.206981519],[-90.419054668,20.259372232],[-90.491518673,20.311762945],[-90.566522873,20.351042436],[-90.641527073,20.390321926],[-90.716531273,20.429601417],[-90.791535473,20.468880907],[-90.866539673,20.508160397],[-90.945949833,20.545311043],[-91.025359993,20.582461688],[-91.104770153,20.619612334],[-91.184180313,20.656762979],[-91.258005065,20.682852995],[-91.331829817,20.70894301],[-91.427501494,20.734292507],[-91.52317317,20.759642003],[-91.616096304,20.779956812],[-91.709019438,20.80027162],[-91.801942572,20.820586429],[-91.894865706,20.840901237],[-91.987788841,20.861216046],[-92.080711975,20.881530855],[-92.173635109,20.901845663],[-92.266558243,20.922160472],[-92.359481377,20.94247528],[-92.452404511,20.962790089],[-92.545327645,20.983104897],[-92.63825078,21.003419706],[-92.731173914,21.023734514]]]}}
