{"type":"Feature","properties":{"id":"canul-1500","family":"xiu","name":"Ah Canul and Chakan"},"geometry":{"type":"Polygon","coordinates":[[[-93.943006993,22.6],[-93.917553752,22.513180538],[-93.892100511,22.426361076],[-93.866647269,22.339541614],[-93.841194028,22.252722152],[-93.815740787,22.16590269],[-93.790287546,22.079083228],[-93.764834305,21.992263766],[-93.712240462,21.947829259],[-93.659646619,21.903394752],[-93.607052776,21.858960245],[-93.542627384,21.795992818],[-93.478201992,21.733025391],[-93.4137766,21.670057963],[-93.349351208,21.607090536],[-93.284925816,21.544123109],[-93.220500424,21.481155681],[-93.156075032,21.418188254],[-93.09164964,21.355220827],[-93.027224247,21.2922534],[-92.962798855,21.229285972],[-92.90489262,21.177898108],[-92.846986385,21.126510243],[-92.789080149,21.075122379],[-92.731173914,21.023734514],[-92.63825078,21.003419706],[-92.545327645,20.983104897],[-92.452404511,20.962790089],[-92.359481377,20.94247528],[-92.266558243,20.922160472],[-92.173635109,20.901845663],[-92.080711975,20.881530855],[-91.987788841,20.861216046],[-91.894865706,20.840901237],[-91.801942572,20.820586429],[-91.709019438,20.80027162],[-91.616096304,20.779956812],[-91.52317317,20.759642003],[-91.427501494,20.734292507],[-91.331829817,20.70894301],[-91.258005065,20.682852995],[-91.184180313,20.656762979],[-91.104770153,20.619612334],[-91.025359993,20.582461688],[-90.945949833,20.545311043],[-90.866539673,20.508160397],[-90.791535473,20.468880907],[-90.716531273,20.429601417],[-90.641527073,20.390321926],[-90.566522873,20.351042436],[-90.491518673,20.311762945],[-90.419054668,20.259372232],[-90.346590662,20.206981519],[-90.274749357,20.143024018],[-90.202908052,20.079066516],[-90.131066747,20.015109015],[-90.059225442,19.951151514],[-89.983937529,19.992754926],[-89.908649617,20.034358339],[-89.914721901,20.123547527],[-89.920794185,20.212736716],[-89.915286131,20.279916931],[-89.909778076,20.347097146],[-89.893618043,20.409323869],[-89.87745801,20.471550592],[-89.844551741,20.557045622],[-89.811645471,20.642540651],[-89.717608346,20.626194788],[-89.633714455,20.601139718],[-89.549820564,20.576084649],[-89.498253043,20.571190253],[-89.423472484,20.588790603],[-89.351078118,20.63186313],[-89.362896241,20.695438078],[-89.374714363,20.759013027],[-89.378052555,20.81108281],[-89.381390748,20.863152594],[-89.431346097,20.906093304],[-89.481301446,20.949034013],[-89.533556928,21.002428205],[-89.585812411,21.055822397],[-89.638067893,21.109216589],[-89.69770655,21.186245476],[-89.72271377,21.231235756],[-89.74772099,21.276226037],[-89.774638547,21.346435069],[-89.801556104,21.4166441],[-89.828473661,21.486853132],[-89.859434189,21.579615371],[-89.890394718,21.67237761],[-89.921355246,21.765139849],[-89.952315774,21.857902088],[-89.983276302,21.950664327],[-90.014236831,22.043426566],[-90.045197359,22.136188805],[-90.076157887,22.228951044],[-90.107118415,22.321713283],[-90.138078944,22.414475522],[-90.169039472,22.507237761],[-90.2,22.6],[-90.298500184,22.6],[-90.397000368,22.6],[-90.495500552,22.6],[-90.594000736,22.6],[-90.69250092,22.6],[-90.791001104,22.6],[-90.889501288,22.6],[-90.988001472,22.6],[-91.086501656,22.6],[-91.18500184,22.6],[-91.283502024,22.6],[-91.382002208,22.6],[-91.480502392,22.6],[-91.579002576,22.6],[-91.67750276,22.6],[-91.776002944,22.6],[-91.874503128,22.6],[-91.973003312,22.6],[-92.071503497,22.6],[-92.170003681,22.6],[-92.268503865,22.6],[-92.367004049,22.6],[-92.465504233,22.6],[-92.564004417,22.6],[-92.662504601,22.6],[-92.761004785,22.6],[-92.859504969,22.6],[-92.958005153,22.6],[-93.056505337,22.6],[-93.155005521,22.6],[-93.253505705,22.6],[-93.352005889,22.6],[-93.450506073,22.6],[-93.549006257,22.6],[-93.647506441,22.6],[-93.746006625,22.6],[-93.844506809,22.6],[-93.943006993,22.6]]]}}
