{"type":"Feature","properties":{"id":"caracol-562","family":"kaanul","name":"Caracol, allied with the Kaanul"},"geometry":{"type":"Polygon","coordinates":[[[-88.967079966,16.7639],[-88.968732852,16.775662656],[-88.971376415,16.787185506],[-88.97494414,16.79842106],[-88.979382962,16.809331776],[-88.984654803,16.819884138],[-88.990735547,16.830042933],[-88.997611764,16.839766481],[-89.005275709,16.849003416],[-89.013719352,16.857691389],[-89.022928259,16.865757836],[-89.032876125,16.873122652],[-89.043520676,16.879702404],[-89.054801425,16.885415509],[-89.066639539,16.890187689],[-89.078939764,16.893957026],[-89.091594131,16.896677956],[-89.104486888,16.898323737],[-89.1175,16.898887114],[-89.130518475,16.898379134],[-89.143434819,16.896826339],[-89.156152063,16.894266744],[-89.168584987,16.89074519],[-89.180659452,16.886308731],[-89.192310006,16.881002699],[-89.203476149,16.87486801],[-89.214097901,16.867940097],[-89.224111359,16.860249634],[-89.233445016,16.851824965],[-89.242017478,16.842695912],[-89.249737108,16.832898445],[-89.256503819,16.822479528],[-89.26221302,16.811501437],[-89.266761395,16.800044859],[-89.270053937,16.788210214],[-89.272011495,16.776116848],[-89.272577949,16.7639],[-89.271726153,16.751705713],[-89.269461876,16.739684134],[-89.265825188,16.727981851],[-89.260888995,16.716734083],[-89.254754764,16.706057565],[-89.247545794,16.696044935],[-89.239398684,16.686761287],[-89.23045386,16.678243328],[-89.220846174,16.670501265],[-89.210696568,16.663523285],[-89.200105721,16.657282146],[-89.189150367,16.651743194],[-89.177882687,16.646872891],[-89.166332844,16.642646931],[-89.154514349,16.639056983],[-89.14243165,16.636115303],[-89.130089063,16.633856635],[-89.1175,16.632337152],[-89.104695432,16.631630494],[-89.09173056,16.631821298],[-89.078688908,16.63299688],[-89.065683299,16.635237947],[-89.052853547,16.638609327],[-89.040361037,16.643151703],[-89.028380734,16.648875221],[-89.017091425,16.655755643],[-89.0066652,16.663733446],[-88.997257246,16.672715917],[-88.988997004,16.682582012],[-88.98198155,16.693189422],[-88.976271826,16.704383076],[-88.971892031,16.716004181],[-88.968832108,16.727898862],[-88.96705295,16.739925529],[-88.96649366,16.751960296],[-88.967079966,16.7639]]]}}
