{"type":"Feature","properties":{"id":"champoton-1517","family":"chontal","name":"Champotón (Chakan Putum)"},"geometry":{"type":"Polygon","coordinates":[[[-92.267985135,20.274026812],[-92.251923762,20.181320034],[-92.235862389,20.088613255],[-92.219801015,19.995906477],[-92.197011364,19.904100597],[-92.174221713,19.812294717],[-92.151432061,19.720488836],[-92.12864241,19.628682956],[-92.105852758,19.536877076],[-92.048738153,19.465284996],[-91.991623549,19.393692916],[-91.934508944,19.322100836],[-91.87739434,19.250508756],[-91.820279735,19.178916676],[-91.76316513,19.107324596],[-91.706050526,19.035732515],[-91.648935921,18.964140435],[-91.591821316,18.892548355],[-91.534706712,18.820956275],[-91.4966004,18.780080143],[-91.458494089,18.739204011],[-91.405281187,18.696071517],[-91.349176797,18.666680411],[-91.258844413,18.652172941],[-91.195079866,18.659692597],[-91.129361275,18.6758789],[-91.063642684,18.692065202],[-90.997924093,18.708251505],[-90.932416502,18.710872679],[-90.866908911,18.713493854],[-90.815515801,18.742921953],[-90.764122692,18.772350052],[-90.694084776,18.797724678],[-90.622574129,18.811252507],[-90.548916059,18.812983433],[-90.48311061,18.851101126],[-90.431173057,18.871835125],[-90.379235504,18.892569123],[-90.291550072,18.915940321],[-90.203864639,18.93931152],[-90.116179207,18.962682718],[-90.028493775,18.986053916],[-90.035667033,19.059480262],[-90.042840292,19.132906607],[-90.050013551,19.206332953],[-90.067310163,19.27126068],[-90.084606775,19.336188408],[-90.101903386,19.401116136],[-90.169628848,19.433588942],[-90.23735431,19.466061749],[-90.295751385,19.505517518],[-90.354148459,19.544973287],[-90.412545534,19.584429056],[-90.459690069,19.609443781],[-90.506834604,19.634458506],[-90.558377584,19.650639656],[-90.609920565,19.666820805],[-90.684075593,19.680918552],[-90.758230622,19.695016298],[-90.83238565,19.709114045],[-90.906540679,19.723211791],[-90.980330358,19.746296018],[-91.054120037,19.769380245],[-91.127909716,19.792464472],[-91.212915309,19.82506099],[-91.297920902,19.857657509],[-91.382926496,19.890254027],[-91.467932089,19.922850546],[-91.552937682,19.955447064],[-91.637943275,19.988043583],[-91.722948868,20.020640101],[-91.807954461,20.05323662],[-91.892960054,20.085833138],[-91.96796507,20.123471873],[-92.042970086,20.161110608],[-92.117975103,20.198749343],[-92.192980119,20.236388077],[-92.267985135,20.274026812]]]}}
