{"type":"Feature","properties":{"id":"chetumal-1500","family":"eastern","name":"Chetumal"},"geometry":{"type":"Polygon","coordinates":[[[-88.997897276,17.832779193],[-88.981120008,17.77562423],[-88.96434274,17.718469267],[-88.942335632,17.663232775],[-88.920328524,17.607996284],[-88.860959858,17.603448718],[-88.801591192,17.598901151],[-88.750922955,17.603547077],[-88.700254717,17.608193003],[-88.614343633,17.633020781],[-88.528432549,17.657848559],[-88.442521465,17.682676337],[-88.356610381,17.707504114],[-88.270699297,17.732331892],[-88.218084977,17.736368856],[-88.165470657,17.74040582],[-88.112872437,17.734537263],[-88.060274217,17.728668706],[-87.989023428,17.707982517],[-87.917772639,17.687296329],[-87.832921037,17.65227017],[-87.748069436,17.617244012],[-87.663217834,17.582217854],[-87.579496197,17.545486522],[-87.495774559,17.508755191],[-87.412052921,17.472023859],[-87.328331284,17.435292528],[-87.244609646,17.398561196],[-87.160888009,17.361829865],[-87.077166371,17.325098533],[-86.993444733,17.288367202],[-86.909723096,17.25163587],[-86.826001458,17.214904538],[-86.762428504,17.183738614],[-86.69885555,17.152572689],[-86.628866273,17.10700137],[-86.555743199,17.081363583],[-86.470495466,17.09150654],[-86.385247733,17.101649496],[-86.3,17.111792453],[-86.3,17.208506289],[-86.3,17.305220126],[-86.3,17.401933962],[-86.3,17.498647799],[-86.3,17.595361635],[-86.3,17.692075472],[-86.3,17.788789308],[-86.3,17.885503145],[-86.3,17.982216981],[-86.3,18.078930818],[-86.3,18.175644654],[-86.3,18.272358491],[-86.3,18.369072327],[-86.3,18.465786164],[-86.3,18.5625],[-86.396600327,18.586471002],[-86.493200654,18.610442003],[-86.589800981,18.634413005],[-86.686401308,18.658384006],[-86.783001635,18.682355008],[-86.879601962,18.706326009],[-86.957082861,18.721737914],[-87.03456376,18.737149819],[-87.112044658,18.752561724],[-87.189998357,18.759101485],[-87.267952055,18.765641247],[-87.345905753,18.772181008],[-87.430386352,18.773205602],[-87.51486695,18.774230195],[-87.599347549,18.775254789],[-87.683828148,18.776279383],[-87.768308747,18.777303976],[-87.852789345,18.77832857],[-87.908533822,18.783471028],[-87.964278299,18.788613486],[-88.033704783,18.803924076],[-88.097556821,18.828873776],[-88.139876306,18.857303627],[-88.182195792,18.885733479],[-88.24173711,18.949409018],[-88.301278428,19.013084558],[-88.360819746,19.076760097],[-88.420361064,19.140435637],[-88.479902382,19.204111177],[-88.567244508,19.203529252],[-88.625613155,19.133615585],[-88.683981803,19.063701919],[-88.74235045,18.993788252],[-88.769717291,18.94611388],[-88.797084133,18.898439508],[-88.816074274,18.847365247],[-88.835064416,18.796290985],[-88.849263657,18.72556211],[-88.863462898,18.654833235],[-88.866124767,18.600994369],[-88.868786636,18.547155503],[-88.85974186,18.464576821],[-88.850697083,18.381998139],[-88.841652307,18.299419457],[-88.832607531,18.216840775],[-88.835582328,18.147787007],[-88.838557125,18.078733239],[-88.858098532,18.015913737],[-88.889168374,17.958070162],[-88.943532825,17.895424677],[-88.997897276,17.832779193]]]}}
