{"type":"Feature","properties":{"id":"chichen-900","family":"mayapan","name":"Chichen Itza"},"geometry":{"type":"Polygon","coordinates":[[[-88.29363973,20.6831],[-88.295155055,20.70321897],[-88.298881438,20.723095733],[-88.304709589,20.742564821],[-88.312519247,20.761483899],[-88.322188861,20.779731104],[-88.333602821,20.797200114],[-88.34665546,20.813793896],[-88.361251533,20.829418222],[-88.377303354,20.843976056],[-88.394725245,20.85736375],[-88.413426301,20.869469735],[-88.433302711,20.880176018],[-88.454230934,20.889362408],[-88.4760629,20.896912983],[-88.498624149,20.902723999],[-88.521715401,20.906712199],[-88.545117605,20.908822403],[-88.5686,20.909033301],[-88.591930319,20.907360587],[-88.614885925,20.903856873],[-88.637264501,20.898608237],[-88.658892928,20.891727677],[-88.679633148,20.883346144],[-88.699384187,20.873602168],[-88.71807993,20.862631294],[-88.735682806,20.850556607],[-88.752174047,20.83748153],[-88.767541643,20.823485834],[-88.781767448,20.808625432],[-88.794815076,20.792936067],[-88.806620154,20.776440546],[-88.817084324,20.759158704],[-88.826073956,20.741118943],[-88.833424012,20.722369936],[-88.83894693,20.70299103],[-88.842445774,20.6831],[-88.843730394,20.662857022],[-88.842634947,20.642464203],[-88.83903491,20.622160447],[-88.832861742,20.602211978],[-88.824113539,20.582899354],[-88.812860453,20.564502212],[-88.799244174,20.547283252],[-88.783471423,20.531473103],[-88.765802047,20.517257637],[-88.746532888,20.504769037],[-88.725979059,20.49408154],[-88.704454537,20.485212286],[-88.682254044,20.478127121],[-88.659638035,20.472750703],[-88.636822258,20.468979773],[-88.613972814,20.466698137],[-88.591207056,20.465791713],[-88.5686,20.466162046],[-88.5461953,20.467736847],[-88.524019391,20.470476489],[-88.502097026,20.474375864],[-88.48046636,20.479461498],[-88.459191789,20.485784398],[-88.438373061,20.493409528],[-88.418149643,20.502403185],[-88.398699874,20.51281977],[-88.380235047,20.524689429],[-88.362989154,20.538007954],[-88.347205491,20.552729994],[-88.33312165,20.568766259],[-88.320954593,20.585984873],[-88.310887404,20.604216609],[-88.303059115,20.623263262],[-88.297558566,20.642908102],[-88.294422773,20.662927152],[-88.29363973,20.6831]]]}}
