{"type":"Feature","properties":{"id":"chichen-1000","family":"mayapan","name":"Chichen Itza and its domain"},"geometry":{"type":"Polygon","coordinates":[[[-89.45,21],[-89.45,21.09],[-89.45,21.18],[-89.45,21.27],[-89.45,21.36],[-89.45,21.45],[-89.3875,21.525],[-89.325,21.6],[-89.2625,21.675],[-89.2,21.75],[-89.1125,21.7625],[-89.025,21.775],[-88.9375,21.7875],[-88.85,21.8],[-88.7625,21.8125],[-88.675,21.825],[-88.5875,21.8375],[-88.5,21.85],[-88.40625,21.84375],[-88.3125,21.8375],[-88.21875,21.83125],[-88.125,21.825],[-88.03125,21.81875],[-87.9375,21.8125],[-87.84375,21.80625],[-87.75,21.8],[-87.71,21.71],[-87.67,21.62],[-87.63,21.53],[-87.59,21.44],[-87.55,21.35],[-87.6,21.275],[-87.65,21.2],[-87.7,21.125],[-87.75,21.05],[-87.8125,20.975],[-87.875,20.9],[-87.9375,20.825],[-88,20.75],[-88.03,20.6625],[-88.06,20.575],[-88.09,20.4875],[-88.12,20.4],[-88.196,20.364],[-88.272,20.328],[-88.348,20.292],[-88.424,20.256],[-88.5,20.22],[-88.59,20.236],[-88.68,20.252],[-88.77,20.268],[-88.86,20.284],[-88.95,20.3],[-89.02,20.35],[-89.09,20.4],[-89.16,20.45],[-89.23,20.5],[-89.3,20.55],[-89.33,20.64],[-89.36,20.73],[-89.39,20.82],[-89.42,20.91],[-89.45,21]]]}}
