{"type":"Feature","properties":{"id":"chikinchel-1500","family":"eastern","name":"Chikinchel and Tazes"},"geometry":{"type":"Polygon","coordinates":[[[-88.73,22.6],[-88.706298223,22.50565478],[-88.682596447,22.41130956],[-88.65889467,22.31696434],[-88.635192894,22.222619121],[-88.611491117,22.128273901],[-88.587789341,22.033928681],[-88.564087564,21.939583461],[-88.540385788,21.845238241],[-88.516684011,21.750893021],[-88.492982235,21.656547801],[-88.471284142,21.583820056],[-88.44958605,21.511092311],[-88.429198997,21.461206961],[-88.408811944,21.41132161],[-88.373826479,21.354622992],[-88.338841014,21.297924374],[-88.273500541,21.227562945],[-88.208160067,21.157201515],[-88.156430018,21.117747241],[-88.104699969,21.078292967],[-88.043648145,21.047739309],[-87.982596322,21.017185651],[-87.94789561,20.932616211],[-87.913194898,20.848046771],[-87.871273048,20.774952993],[-87.829351198,20.701859215],[-87.787429347,20.628765437],[-87.735366711,20.62861441],[-87.683304074,20.628463384],[-87.59730048,20.643002442],[-87.555612033,20.66715738],[-87.521754127,20.728235848],[-87.521239733,20.81099779],[-87.546688366,20.900389098],[-87.58817611,20.987230356],[-87.624175837,21.04853911],[-87.660175564,21.109847864],[-87.696175291,21.171156619],[-87.650789641,21.234167016],[-87.605403992,21.297177414],[-87.560018343,21.360187812],[-87.535414748,21.41860449],[-87.52659904,21.468022829],[-87.517783333,21.517441167],[-87.520629882,21.592343563],[-87.52347643,21.667245959],[-87.526322978,21.742148355],[-87.535787092,21.837465205],[-87.545251205,21.932782054],[-87.554715319,22.028098904],[-87.564179432,22.123415753],[-87.573643546,22.218732602],[-87.583107659,22.314049452],[-87.592571773,22.409366301],[-87.602035886,22.504683151],[-87.6115,22.6],[-87.704708333,22.6],[-87.797916667,22.6],[-87.891125,22.6],[-87.984333333,22.6],[-88.077541667,22.6],[-88.17075,22.6],[-88.263958333,22.6],[-88.357166667,22.6],[-88.450375,22.6],[-88.543583333,22.6],[-88.636791667,22.6],[-88.73,22.6]]]}}
