{"type":"Feature","properties":{"id":"coba-1000","family":"kingdom","name":"Coba, in decline"},"geometry":{"type":"Polygon","coordinates":[[[-87.533067579,20.49],[-87.533594643,20.506362064],[-87.535682463,20.522629351],[-87.539341195,20.538659504],[-87.544553579,20.554307721],[-87.551274255,20.569433563],[-87.559431785,20.583907502],[-87.568933097,20.597616296],[-87.579669763,20.610466502],[-87.591525264,20.622385616],[-87.60438225,20.633320713],[-87.618128831,20.643234757],[-87.632663028,20.652101107],[-87.647894769,20.659896969],[-87.663745151,20.666596764],[-87.680143037,20.672166359],[-87.697019449,20.67655909],[-87.714300518,20.679714249],[-87.7319,20.681558447],[-87.749712445,20.682009893],[-87.767608099,20.680985239],[-87.785430423,20.678408317],[-87.802996848,20.674219808],[-87.820102977,20.668386729],[-87.83653006,20.66091058],[-87.852055126,20.651833105],[-87.86646283,20.641238872],[-87.879557816,20.629254195],[-87.89117627,20.616042339],[-87.901195404,20.601795364],[-87.909539775,20.586723373],[-87.916183685,20.571042211],[-87.9211493,20.554960894],[-87.924500621,20.538670071],[-87.926333882,20.522332744],[-87.926765354,20.506078231],[-87.925917849,20.49],[-87.923907352,20.474157581],[-87.920831224,20.458582302],[-87.916759257,20.443286167],[-87.911728523,20.428272841],[-87.905742585,20.413549459],[-87.89877512,20.399137891],[-87.890777546,20.385084138],[-87.881689766,20.37146475],[-87.871452848,20.358389497],[-87.860022207,20.345999922],[-87.847379839,20.334463889],[-87.833544258,20.323966652],[-87.818577051,20.314699391],[-87.802585359,20.306846405],[-87.785720051,20.300572296],[-87.768169803,20.29601048],[-87.750151789,20.29325418],[-87.7319,20.292350767],[-87.713652457,20.293299958],[-87.695638691,20.296055911],[-87.678068745,20.30053286],[-87.661124777,20.306613557],[-87.644955992,20.314159482],[-87.629677226,20.323021661],[-87.615371061,20.33305089],[-87.602092973,20.344106306],[-87.589878644,20.356061478],[-87.578752377,20.36880753],[-87.568735449,20.382253186],[-87.559853319,20.39632202],[-87.552140769,20.410947503],[-87.545644381,20.426066703],[-87.5404221,20.44161364],[-87.536540038,20.457513256],[-87.534067006,20.473676911],[-87.533067579,20.49]]]}}
