{"type":"Feature","properties":{"id":"coba-900","family":"kingdom","name":"Coba"},"geometry":{"type":"Polygon","coordinates":[[[-87.447853684,20.49],[-87.448606633,20.511816085],[-87.451589233,20.533505801],[-87.456815992,20.554879339],[-87.464262255,20.575743627],[-87.473863222,20.595911418],[-87.485516836,20.615210002],[-87.499090138,20.633488395],[-87.514428233,20.650622003],[-87.531364662,20.666514155],[-87.549731785,20.681094283],[-87.569369758,20.69431301],[-87.590132896,20.706134809],[-87.611892527,20.716529292],[-87.63453593,20.725462351],[-87.657961481,20.732888479],[-87.682070641,20.738745454],[-87.706757883,20.742952331],[-87.7319,20.745411263],[-87.75734635,20.746013191],[-87.78291157,20.744646986],[-87.808372033,20.741211089],[-87.833466925,20.73562641],[-87.857904253,20.727848973],[-87.881371515,20.717880774],[-87.90355018,20.705777473],[-87.924132615,20.691651829],[-87.942839738,20.67567226],[-87.959437529,20.658056452],[-87.973750577,20.639060486],[-87.985671107,20.618964497],[-87.995162407,20.598056282],[-88.002256142,20.576614526],[-88.007043744,20.554893428],[-88.009662688,20.533110325],[-88.010279077,20.511437641],[-88.009068356,20.49],[-88.006196216,20.468876775],[-88.001801749,20.448109736],[-87.995984653,20.42771489],[-87.98879789,20.407697121],[-87.98024655,20.388065945],[-87.970293029,20.368850522],[-87.958867923,20.350112184],[-87.945885381,20.331953],[-87.931261211,20.314519329],[-87.914931724,20.297999896],[-87.896871199,20.282618519],[-87.877106083,20.268622203],[-87.855724358,20.256265855],[-87.832879085,20.245795207],[-87.808785787,20.237429728],[-87.783714004,20.231347307],[-87.757973985,20.22767224],[-87.7319,20.226467689],[-87.705832082,20.227733278],[-87.680098131,20.231407881],[-87.654998207,20.237377147],[-87.630792538,20.245484743],[-87.607694275,20.255545976],[-87.585867465,20.267362214],[-87.565430087,20.28073452],[-87.546461389,20.295475075],[-87.529012349,20.311415304],[-87.513117681,20.328410039],[-87.498807784,20.346337581],[-87.486119027,20.365096027],[-87.475101099,20.38459667],[-87.465820544,20.404755605],[-87.458360143,20.425484853],[-87.452814339,20.446684342],[-87.449281437,20.468235881],[-87.447853684,20.49]]]}}
