{"type":"Feature","properties":{"id":"cochuah-1500","family":"eastern","name":"Cochuah and Uaymil"},"geometry":{"type":"Polygon","coordinates":[[[-88.980259792,19.850961046],[-88.931807369,19.802649058],[-88.883354945,19.754337069],[-88.839345143,19.697765964],[-88.79533534,19.641194858],[-88.757158543,19.575283349],[-88.718981746,19.50937184],[-88.681047437,19.432911193],[-88.643113127,19.356450546],[-88.605178817,19.279989899],[-88.567244508,19.203529252],[-88.479902382,19.204111177],[-88.420361064,19.140435637],[-88.360819746,19.076760097],[-88.301278428,19.013084558],[-88.24173711,18.949409018],[-88.182195792,18.885733479],[-88.139876306,18.857303627],[-88.097556821,18.828873776],[-88.033704783,18.803924076],[-87.964278299,18.788613486],[-87.908533822,18.783471028],[-87.852789345,18.77832857],[-87.768308747,18.777303976],[-87.683828148,18.776279383],[-87.599347549,18.775254789],[-87.51486695,18.774230195],[-87.430386352,18.773205602],[-87.345905753,18.772181008],[-87.267952055,18.765641247],[-87.189998357,18.759101485],[-87.112044658,18.752561724],[-87.03456376,18.737149819],[-86.957082861,18.721737914],[-86.879601962,18.706326009],[-86.783001635,18.682355008],[-86.686401308,18.658384006],[-86.589800981,18.634413005],[-86.493200654,18.610442003],[-86.396600327,18.586471002],[-86.3,18.5625],[-86.3,18.652],[-86.3,18.7415],[-86.3,18.831],[-86.3,18.9205],[-86.3,19.01],[-86.355500695,19.063920248],[-86.411001391,19.117840497],[-86.466502086,19.171760745],[-86.522002782,19.225680993],[-86.5834184,19.290109543],[-86.644834017,19.354538094],[-86.706249635,19.418966644],[-86.767665253,19.483395194],[-86.82908087,19.547823745],[-86.890496488,19.612252295],[-86.951912106,19.676680845],[-87.013327724,19.741109395],[-87.076860771,19.762560481],[-87.140393817,19.784011567],[-87.203926864,19.805462653],[-87.284826036,19.838785003],[-87.365725208,19.872107354],[-87.44662438,19.905429704],[-87.510917929,19.939490741],[-87.575211477,19.973551779],[-87.644693822,20.018492018],[-87.714176166,20.063432257],[-87.78365851,20.108372495],[-87.810157625,20.168490089],[-87.83665674,20.228607684],[-87.873801002,20.285731774],[-87.910945264,20.342855865],[-87.948089526,20.399979956],[-88.018056872,20.398486829],[-88.088024219,20.396993702],[-88.157991565,20.395500575],[-88.232655744,20.383702538],[-88.307319922,20.371904501],[-88.381984101,20.360106463],[-88.456648279,20.348308426],[-88.538295084,20.340149722],[-88.619941889,20.331991018],[-88.673601688,20.27915304],[-88.727261487,20.226315063],[-88.780921286,20.173477085],[-88.83537632,20.131350504],[-88.889831353,20.089223923],[-88.944286387,20.047097342],[-88.962273089,19.949029194],[-88.980259792,19.850961046]]]}}
