{"type":"Feature","properties":{"id":"copan-426","family":"tikal","name":"Copán, refounded from Tikal in 426"},"geometry":{"type":"Polygon","coordinates":[[[-88.943809722,14.907880171],[-88.949662003,14.920537991],[-88.957267278,14.932380943],[-88.966522194,14.943266007],[-88.97728429,14.953076073],[-88.989379739,14.961726129],[-89.002613848,14.969166829],[-89.016783253,14.975384966],[-89.031688555,14.980400722],[-89.047146061,14.984261912],[-89.062997335,14.987035782],[-89.07911555,14.988799241],[-89.095407912,14.989628543],[-89.111813929,14.989589579],[-89.1282997,14.988729833],[-89.144848923,14.987072925],[-89.16145163,14.984616354],[-89.17809199,14.981332729],[-89.194736584,14.977174376],[-89.211324571,14.972080833],[-89.227760897,14.96598843],[-89.243913434,14.958840898],[-89.25961445,14.95059987],[-89.274666361,14.941254099],[-89.28885122,14.930826399],[-89.301943004,14.919377546],[-89.313721435,14.907006729],[-89.323985922,14.893848484],[-89.33256819,14.880066475],[-89.339342325,14.865844779],[-89.344231265,14.85137762],[-89.347209145,14.836858619],[-89.348299382,14.822470689],[-89.34756885,14.808377558],[-89.345118881,14.794717732],[-89.341074192,14.781601376],[-89.335570998,14.769110293],[-89.328745613,14.757300757],[-89.320724764,14.746208712],[-89.311618542,14.735856541],[-89.301516627,14.726260474],[-89.290487963,14.717437693],[-89.278583687,14.709412213],[-89.265842695,14.702218872],[-89.252298965,14.695904955],[-89.237989567,14.690529341],[-89.222962251,14.686159342],[-89.207281615,14.682865715],[-89.191033043,14.680716526],[-89.174323965,14.679770671],[-89.157282308,14.68007192],[-89.140052409,14.6816442],[-89.122788982,14.684488723],[-89.10564995,14.688583254],[-89.088789138,14.693883581],[-89.072349755,14.70032692],[-89.056459538,14.707836764],[-89.041228132,14.716328485],[-89.026747014,14.725714924],[-89.013091884,14.735911196],[-89.000327104,14.746838068],[-88.988511487,14.758423457],[-88.977704515,14.770601862],[-88.967972009,14.783311843],[-88.959390282,14.796491901],[-88.952048033,14.810075415],[-88.946045477,14.823985381],[-88.941490581,14.83812979],[-88.938492662,14.85239844],[-88.937153957,14.866661806],[-88.937560068,14.88077235],[-88.939770398,14.894568371],[-88.943809722,14.907880171]]]}}
