{"type":"Feature","properties":{"id":"cozumel-1517","family":"eastern","name":"Cozumel"},"geometry":{"type":"Polygon","coordinates":[[[-87.013327724,19.741109395],[-86.951912106,19.676680845],[-86.890496488,19.612252295],[-86.82908087,19.547823745],[-86.767665253,19.483395194],[-86.706249635,19.418966644],[-86.644834017,19.354538094],[-86.5834184,19.290109543],[-86.522002782,19.225680993],[-86.466502086,19.171760745],[-86.411001391,19.117840497],[-86.355500695,19.063920248],[-86.3,19.01],[-86.3,19.109386792],[-86.3,19.208773585],[-86.3,19.308160377],[-86.3,19.40754717],[-86.3,19.506933962],[-86.3,19.606320755],[-86.3,19.705707547],[-86.3,19.80509434],[-86.3,19.904481132],[-86.3,20.003867925],[-86.3,20.103254717],[-86.3,20.202641509],[-86.3,20.302028302],[-86.3,20.401415094],[-86.3,20.500801887],[-86.3,20.600188679],[-86.3,20.699575472],[-86.3,20.798962264],[-86.3,20.898349057],[-86.3,20.997735849],[-86.374499888,20.974953064],[-86.448999776,20.95217028],[-86.523499664,20.929387495],[-86.597999552,20.90660471],[-86.648875903,20.884551611],[-86.699752255,20.862498513],[-86.760464326,20.82644495],[-86.814297715,20.784623815],[-86.882619506,20.713492799],[-86.929381582,20.643637474],[-86.976143658,20.573782149],[-87.022905733,20.503926824],[-87.057688669,20.429487051],[-87.092471605,20.355047279],[-87.104435337,20.306361569],[-87.11639907,20.257675859],[-87.121490007,20.191192609],[-87.113845502,20.124332237],[-87.106200998,20.057471865],[-87.082982679,19.978381248],[-87.059764361,19.89929063],[-87.036546042,19.820200013],[-87.013327724,19.741109395]]]}}
