{"type":"Feature","properties":{"id":"cruzob-1860","family":"cruzob","name":"Chan Santa Cruz, the Maya state of the Talking Cross"},"geometry":{"type":"Polygon","coordinates":[[[-89,19],[-88.994,18.92],[-88.988,18.84],[-88.982,18.76],[-88.976,18.68],[-88.97,18.6],[-88.97,18.506932091],[-88.97,18.413864183],[-88.97,18.320796274],[-88.97,18.227728366],[-88.97,18.134660457],[-88.97,18.041592548],[-88.97,17.94852464],[-88.969489695,17.948444855],[-88.955089551,17.950133432],[-88.947889479,17.948444855],[-88.933489335,17.919739041],[-88.919089191,17.911296155],[-88.879488795,17.887656073],[-88.872288723,17.891033227],[-88.865088651,17.899476114],[-88.861488615,17.921427618],[-88.857888579,17.928181927],[-88.803888039,17.965330627],[-88.796687967,17.975462091],[-88.782287823,18.014299368],[-88.775087751,18.024430832],[-88.760687607,18.036250873],[-88.749887499,18.043005182],[-88.735487355,18.051448068],[-88.728287283,18.066645263],[-88.724687247,18.076776727],[-88.721087211,18.100416809],[-88.717487175,18.110548272],[-88.692286923,18.14938555],[-88.688686887,18.161205591],[-88.692286923,18.174714209],[-88.695886959,18.178091363],[-88.667086671,18.198354291],[-88.638286383,18.211862909],[-88.627486275,18.220305795],[-88.616686167,18.23550299],[-88.613086131,18.247323031],[-88.613086131,18.265897381],[-88.609486095,18.282783154],[-88.598685987,18.299668927],[-88.566285663,18.333440472],[-88.555485555,18.352014822],[-88.551885519,18.363834863],[-88.548285483,18.389163522],[-88.537485375,18.412803604],[-88.533885339,18.443197995],[-88.526685267,18.453329458],[-88.519485195,18.461772345],[-88.490684907,18.483723849],[-88.479884799,18.483723849],[-88.469084691,18.478658117],[-88.458284583,18.475280963],[-88.451084511,18.47696954],[-88.429484295,18.483723849],[-88.418684187,18.488789581],[-88.411484115,18.490478158],[-88.407884079,18.488789581],[-88.397083971,18.480346695],[-88.389883899,18.475280963],[-88.386283863,18.47696954],[-88.379083791,18.480346695],[-88.371883719,18.482035272],[-88.303483035,18.482035272],[-88.229569196,18.43169606],[-88.155655357,18.381356848],[-88.081741517,18.331017636],[-88.007827678,18.280678424],[-87.933913839,18.230339212],[-87.86,18.18],[-87.768,18.18],[-87.676,18.18],[-87.584,18.18],[-87.492,18.18],[-87.4,18.18],[-87.4,18.277391304],[-87.4,18.374782609],[-87.4,18.472173913],[-87.4,18.569565217],[-87.4,18.666956522],[-87.4,18.764347826],[-87.4,18.86173913],[-87.4,18.959130435],[-87.4,19.056521739],[-87.4,19.153913043],[-87.4,19.251304348],[-87.4,19.348695652],[-87.4,19.446086957],[-87.4,19.543478261],[-87.4,19.640869565],[-87.4,19.73826087],[-87.4,19.835652174],[-87.4,19.933043478],[-87.4,20.030434783],[-87.4,20.127826087],[-87.4,20.225217391],[-87.4,20.322608696],[-87.4,20.42],[-87.325,20.42],[-87.25,20.42],[-87.175,20.42],[-87.1,20.42],[-87.183333333,20.425],[-87.266666667,20.43],[-87.35,20.435],[-87.433333333,20.44],[-87.516666667,20.445],[-87.6,20.45],[-87.683333333,20.441666667],[-87.766666667,20.433333333],[-87.85,20.425],[-87.933333333,20.416666667],[-88.016666667,20.408333333],[-88.1,20.4],[-88.1875,20.3625],[-88.275,20.325],[-88.3625,20.2875],[-88.45,20.25],[-88.5125,20.2],[-88.575,20.15],[-88.6375,20.1],[-88.7,20.05],[-88.7375,19.975],[-88.775,19.9],[-88.8125,19.825],[-88.85,19.75],[-88.875,19.6625],[-88.9,19.575],[-88.925,19.4875],[-88.95,19.4],[-88.96,19.32],[-88.97,19.24],[-88.98,19.16],[-88.99,19.08],[-89,19]]]}}
