{"type":"Feature","properties":{"id":"cuba-1511","family":"spain","name":"Spanish Cuba, from 1511"},"geometry":{"type":"Polygon","coordinates":[[[-85.4,21.6],[-85.35,21.68],[-85.3,21.76],[-85.25,21.84],[-85.2,21.92],[-85.15,22],[-85.1,22.08],[-85.05,22.16],[-85,22.24],[-84.95,22.32],[-84.9,22.4],[-84.817647059,22.452941176],[-84.735294118,22.505882353],[-84.652941176,22.558823529],[-84.570588235,22.611764706],[-84.488235294,22.664705882],[-84.405882353,22.717647059],[-84.323529412,22.770588235],[-84.241176471,22.823529412],[-84.158823529,22.876470588],[-84.076470588,22.929411765],[-83.994117647,22.982352941],[-83.911764706,23.035294118],[-83.829411765,23.088235294],[-83.747058824,23.141176471],[-83.664705882,23.194117647],[-83.582352941,23.247058824],[-83.5,23.3],[-83.40625,23.3125],[-83.3125,23.325],[-83.21875,23.3375],[-83.125,23.35],[-83.03125,23.3625],[-82.9375,23.375],[-82.84375,23.3875],[-82.75,23.4],[-82.65625,23.4125],[-82.5625,23.425],[-82.46875,23.4375],[-82.375,23.45],[-82.28125,23.4625],[-82.1875,23.475],[-82.09375,23.4875],[-82,23.5],[-81.9,23.5],[-81.8,23.5],[-81.7,23.5],[-81.6,23.5],[-81.5,23.5],[-81.4,23.5],[-81.3,23.5],[-81.2,23.5],[-81.1,23.5],[-81,23.5],[-80.9,23.5],[-80.8,23.5],[-80.7,23.5],[-80.6,23.5],[-80.5,23.5],[-80.4,23.5],[-80.3,23.5],[-80.2,23.5],[-80.1,23.5],[-80,23.5],[-80,23.404166667],[-80,23.308333333],[-80,23.2125],[-80,23.116666667],[-80,23.020833333],[-80,22.925],[-80,22.829166667],[-80,22.733333333],[-80,22.6375],[-80,22.541666667],[-80,22.445833333],[-80,22.35],[-80,22.254166667],[-80,22.158333333],[-80,22.0625],[-80,21.966666667],[-80,21.870833333],[-80,21.775],[-80,21.679166667],[-80,21.583333333],[-80,21.4875],[-80,21.391666667],[-80,21.295833333],[-80,21.2],[-80.095238095,21.197619048],[-80.19047619,21.195238095],[-80.285714286,21.192857143],[-80.380952381,21.19047619],[-80.476190476,21.188095238],[-80.571428571,21.185714286],[-80.666666667,21.183333333],[-80.761904762,21.180952381],[-80.857142857,21.178571429],[-80.952380952,21.176190476],[-81.047619048,21.173809524],[-81.142857143,21.171428571],[-81.238095238,21.169047619],[-81.333333333,21.166666667],[-81.428571429,21.164285714],[-81.523809524,21.161904762],[-81.619047619,21.15952381],[-81.714285714,21.157142857],[-81.80952381,21.154761905],[-81.904761905,21.152380952],[-82,21.15],[-82.092307692,21.153846154],[-82.184615385,21.157692308],[-82.276923077,21.161538462],[-82.369230769,21.165384615],[-82.461538462,21.169230769],[-82.553846154,21.173076923],[-82.646153846,21.176923077],[-82.738461538,21.180769231],[-82.830769231,21.184615385],[-82.923076923,21.188461538],[-83.015384615,21.192307692],[-83.107692308,21.196153846],[-83.2,21.2],[-83.291666667,21.216666667],[-83.383333333,21.233333333],[-83.475,21.25],[-83.566666667,21.266666667],[-83.658333333,21.283333333],[-83.75,21.3],[-83.841666667,21.316666667],[-83.933333333,21.333333333],[-84.025,21.35],[-84.116666667,21.366666667],[-84.208333333,21.383333333],[-84.3,21.4],[-84.391666667,21.416666667],[-84.483333333,21.433333333],[-84.575,21.45],[-84.666666667,21.466666667],[-84.758333333,21.483333333],[-84.85,21.5],[-84.941666667,21.516666667],[-85.033333333,21.533333333],[-85.125,21.55],[-85.216666667,21.566666667],[-85.308333333,21.583333333],[-85.4,21.6]]]}}
