{"type":"Feature","properties":{"id":"cupul-1500","family":"eastern","name":"Cupul"},"geometry":{"type":"Polygon","coordinates":[[[-88.912666667,22.6],[-88.900416996,22.508630862],[-88.888167325,22.417261723],[-88.875917654,22.325892585],[-88.863667983,22.234523447],[-88.851418312,22.143154308],[-88.839168641,22.05178517],[-88.82691897,21.960416032],[-88.814669299,21.869046894],[-88.802419628,21.777677755],[-88.790169957,21.686308617],[-88.777920286,21.594939479],[-88.765670615,21.50357034],[-88.748177007,21.411554302],[-88.730683398,21.319538264],[-88.71318979,21.227522227],[-88.695696181,21.135506189],[-88.695945671,21.078511669],[-88.708328454,21.022169409],[-88.748388414,20.936598515],[-88.776458816,20.891553614],[-88.804529219,20.846508714],[-88.774709294,20.777333368],[-88.744889369,20.708158023],[-88.715069444,20.638982677],[-88.685249519,20.569807332],[-88.663480309,20.490535227],[-88.641711099,20.411263122],[-88.619941889,20.331991018],[-88.538295084,20.340149722],[-88.456648279,20.348308426],[-88.381984101,20.360106463],[-88.307319922,20.371904501],[-88.232655744,20.383702538],[-88.157991565,20.395500575],[-88.088024219,20.396993702],[-88.018056872,20.398486829],[-87.948089526,20.399979956],[-87.894536133,20.476241783],[-87.84098274,20.55250361],[-87.787429347,20.628765437],[-87.829351198,20.701859215],[-87.871273048,20.774952993],[-87.913194898,20.848046771],[-87.94789561,20.932616211],[-87.982596322,21.017185651],[-88.043648145,21.047739309],[-88.104699969,21.078292967],[-88.156430018,21.117747241],[-88.208160067,21.157201515],[-88.273500541,21.227562945],[-88.338841014,21.297924374],[-88.373826479,21.354622992],[-88.408811944,21.41132161],[-88.429198997,21.461206961],[-88.44958605,21.511092311],[-88.471284142,21.583820056],[-88.492982235,21.656547801],[-88.516684011,21.750893021],[-88.540385788,21.845238241],[-88.564087564,21.939583461],[-88.587789341,22.033928681],[-88.611491117,22.128273901],[-88.635192894,22.222619121],[-88.65889467,22.31696434],[-88.682596447,22.41130956],[-88.706298223,22.50565478],[-88.73,22.6],[-88.821333333,22.6],[-88.912666667,22.6]]]}}
