{"type":"Feature","properties":{"id":"cuzcatlan-1500","family":"nahua","name":"Pipil of Cuzcatlan"},"geometry":{"type":"Polygon","coordinates":[[[-90.647058824,12.9],[-90.551365546,12.9],[-90.455672269,12.9],[-90.359978992,12.9],[-90.264285714,12.9],[-90.168592437,12.9],[-90.07289916,12.9],[-89.977205882,12.9],[-89.881512605,12.9],[-89.785819328,12.9],[-89.69012605,12.9],[-89.594432773,12.9],[-89.498739496,12.9],[-89.403046218,12.9],[-89.307352941,12.9],[-89.211659664,12.9],[-89.115966387,12.9],[-89.020273109,12.9],[-88.924579832,12.9],[-88.828886555,12.9],[-88.733193277,12.9],[-88.6375,12.9],[-88.651412512,12.984309764],[-88.665325023,13.068619528],[-88.679237535,13.152929292],[-88.693150047,13.237239055],[-88.707062558,13.321548819],[-88.72097507,13.405858583],[-88.732079547,13.50142904],[-88.743184025,13.596999497],[-88.740838827,13.669351789],[-88.738493628,13.741704082],[-88.726122668,13.819474988],[-88.713751707,13.897245894],[-88.701380746,13.9750168],[-88.708845463,14.072184863],[-88.72726581,14.134828571],[-88.773645515,14.221087451],[-88.839196805,14.295625505],[-88.892867058,14.341477426],[-88.94653731,14.387329346],[-89.000025308,14.379011156],[-89.053513305,14.370692966],[-89.125581343,14.367989014],[-89.217618265,14.377680817],[-89.309655188,14.387372619],[-89.401692111,14.397064422],[-89.43646361,14.375750363],[-89.468274363,14.320301768],[-89.500085117,14.264853172],[-89.547684976,14.215892445],[-89.595284835,14.166931718],[-89.658980148,14.127268945],[-89.722675462,14.087606171],[-89.786370775,14.047943398],[-89.850066088,14.008280624],[-89.911686476,13.944317897],[-89.973306863,13.88035517],[-90.03492725,13.816392443],[-90.096547638,13.752429716],[-90.140493854,13.719413706],[-90.184440071,13.686397695],[-90.263859606,13.635482889],[-90.34327914,13.584568083],[-90.422698675,13.533653277],[-90.454750124,13.443131381],[-90.486801574,13.352609484],[-90.518853024,13.262087587],[-90.550904474,13.17156569],[-90.582955924,13.081043794],[-90.615007374,12.990521897],[-90.647058824,12.9]]]}}
