{"type":"Feature","properties":{"id":"dos-pilas-648","family":"kaanul","name":"Dos Pilas, subject to the Kaanul from 648"},"geometry":{"type":"Polygon","coordinates":[[[-90.110300323,16.377384173],[-90.10700317,16.387972365],[-90.104836147,16.398867051],[-90.103844055,16.409996652],[-90.104064878,16.421279478],[-90.105524433,16.432623852],[-90.108231496,16.443929872],[-90.112174116,16.455092651],[-90.117317682,16.466006671],[-90.123605085,16.476570697],[-90.130959047,16.486692645],[-90.139286397,16.496293736],[-90.148483823,16.505311383],[-90.158444401,16.513700376],[-90.169064112,16.521432165],[-90.180247507,16.52849226],[-90.191911792,16.534876038],[-90.203988774,16.540583436],[-90.216424375,16.545613201],[-90.22917572,16.549957433],[-90.242206118,16.553597147],[-90.255478549,16.556499508],[-90.268948452,16.558617177],[-90.282556774,16.559889999],[-90.296224206,16.560248964],[-90.309847459,16.559622103],[-90.323298192,16.557941748],[-90.336424947,16.555152377],[-90.349058068,16.55121819],[-90.361017256,16.546129556],[-90.372121085,16.539907551],[-90.382197549,16.532606049],[-90.391094592,16.524311016],[-90.398689493,16.515137024],[-90.404896134,16.505221272],[-90.409669349,16.494715684],[-90.413005872,16.483777875],[-90.414941759,16.472561899],[-90.415546548,16.461209735],[-90.41491476,16.449844354],[-90.413155642,16.438565082],[-90.410382229,16.427445676],[-90.406700897,16.416535252],[-90.40220247,16.405861893],[-90.396955819,16.395438442],[-90.39100456,16.385269786],[-90.384367141,16.37536074],[-90.377040217,16.365723621],[-90.369004849,16.356384619],[-90.360234762,16.347388235],[-90.350705691,16.338799288],[-90.340404717,16.33070226],[-90.329338548,16.323198067],[-90.317539835,16.31639862],[-90.305070824,16.310419794],[-90.292024023,16.305373583],[-90.278519843,16.301360293],[-90.264701555,16.298461603],[-90.250728194,16.296735213],[-90.236766223,16.296211574],[-90.222980927,16.296892987],[-90.209528449,16.298755022],[-90.19654931,16.301750013],[-90.184164014,16.305812097],[-90.172471072,16.310863144],[-90.161547474,16.316818861],[-90.151451324,16.32359433],[-90.142226122,16.33110839],[-90.133905946,16.33928643],[-90.126520758,16.348061382],[-90.120101033,16.357372953],[-90.114681039,16.367165385],[-90.110300323,16.377384173]]]}}
