{"type":"Feature","properties":{"id":"ecab-1546","family":"spain","name":"Ecab and Cozumel, under Spanish rule"},"geometry":{"type":"Polygon","coordinates":[[[-87.948089526,20.399979956],[-87.910945264,20.342855865],[-87.873801002,20.285731774],[-87.83665674,20.228607684],[-87.810157625,20.168490089],[-87.78365851,20.108372495],[-87.714176166,20.063432257],[-87.644693822,20.018492018],[-87.575211477,19.973551779],[-87.510917929,19.939490741],[-87.44662438,19.905429704],[-87.365725208,19.872107354],[-87.284826036,19.838785003],[-87.203926864,19.805462653],[-87.140393817,19.784011567],[-87.076860771,19.762560481],[-87.013327724,19.741109395],[-86.951912106,19.676680845],[-86.890496488,19.612252295],[-86.82908087,19.547823745],[-86.767665253,19.483395194],[-86.706249635,19.418966644],[-86.644834017,19.354538094],[-86.5834184,19.290109543],[-86.522002782,19.225680993],[-86.466502086,19.171760745],[-86.411001391,19.117840497],[-86.355500695,19.063920248],[-86.3,19.01],[-86.3,19.109386792],[-86.3,19.208773585],[-86.3,19.308160377],[-86.3,19.40754717],[-86.3,19.506933962],[-86.3,19.606320755],[-86.3,19.705707547],[-86.3,19.80509434],[-86.3,19.904481132],[-86.3,20.003867925],[-86.3,20.103254717],[-86.3,20.202641509],[-86.3,20.302028302],[-86.3,20.401415094],[-86.3,20.500801887],[-86.3,20.600188679],[-86.3,20.699575472],[-86.3,20.798962264],[-86.3,20.898349057],[-86.3,20.997735849],[-86.3,21.091986681],[-86.3,21.186237514],[-86.3,21.280488346],[-86.3,21.374739179],[-86.3,21.468990011],[-86.3,21.563240844],[-86.3,21.657491676],[-86.3,21.751742508],[-86.3,21.845993341],[-86.3,21.940244173],[-86.3,22.034495006],[-86.3,22.128745838],[-86.3,22.22299667],[-86.3,22.317247503],[-86.3,22.411498335],[-86.3,22.505749168],[-86.3,22.6],[-86.393678571,22.6],[-86.487357143,22.6],[-86.581035714,22.6],[-86.674714286,22.6],[-86.768392857,22.6],[-86.862071429,22.6],[-86.95575,22.6],[-87.049428571,22.6],[-87.143107143,22.6],[-87.236785714,22.6],[-87.330464286,22.6],[-87.424142857,22.6],[-87.517821429,22.6],[-87.6115,22.6],[-87.602035886,22.504683151],[-87.592571773,22.409366301],[-87.583107659,22.314049452],[-87.573643546,22.218732602],[-87.564179432,22.123415753],[-87.554715319,22.028098904],[-87.545251205,21.932782054],[-87.535787092,21.837465205],[-87.526322978,21.742148355],[-87.52347643,21.667245959],[-87.520629882,21.592343563],[-87.517783333,21.517441167],[-87.52659904,21.468022829],[-87.535414748,21.41860449],[-87.560018343,21.360187812],[-87.605403992,21.297177414],[-87.650789641,21.234167016],[-87.696175291,21.171156619],[-87.660175564,21.109847864],[-87.624175837,21.04853911],[-87.58817611,20.987230356],[-87.546688366,20.900389098],[-87.521239733,20.81099779],[-87.521754127,20.728235848],[-87.555612033,20.66715738],[-87.59730048,20.643002442],[-87.683304074,20.628463384],[-87.735366711,20.62861441],[-87.787429347,20.628765437],[-87.84098274,20.55250361],[-87.894536133,20.476241783],[-87.948089526,20.399979956]]]}}
