{"type":"Feature","properties":{"id":"ek-balam-900","family":"kingdom","name":"Ek' Balam"},"geometry":{"type":"Polygon","coordinates":[[[-88.00951045,20.8911],[-88.008832994,20.90159769],[-88.009297596,20.912180268],[-88.010955733,20.922715995],[-88.013828353,20.933062318],[-88.017902959,20.943073701],[-88.023133458,20.95260984],[-88.029442768,20.961543435],[-88.03672784,20.96976671],[-88.044866562,20.977196077],[-88.053725756,20.983774508],[-88.063169446,20.989471461],[-88.073066521,20.994280484],[-88.083297052,20.998214847],[-88.093756683,21.001301801],[-88.104358762,21.003576146],[-88.115034131,21.005073893],[-88.125728812,21.005826723],[-88.1364,21.005857856],[-88.147011009,21.005179729],[-88.157525876,21.003793677],[-88.167904368,21.001691542],[-88.178098026,20.998858917],[-88.188047755,20.995279552],[-88.19768323,20.990940296],[-88.206924172,20.985835947],[-88.215683282,20.979973376],[-88.223870434,20.973374427],[-88.231397569,20.966077267],[-88.238183651,20.958136047],[-88.244159067,20.949618984],[-88.249268904,20.940605157],[-88.253474751,20.93118046],[-88.25675481,20.921433288],[-88.259102386,20.911450513],[-88.260522998,20.901314277],[-88.261030565,20.8911],[-88.260643226,20.880875829],[-88.259379416,20.870703541],[-88.257254769,20.860640706],[-88.254280321,20.850743754],[-88.250462308,20.841071407],[-88.24580363,20.831687929],[-88.240306833,20.822665598],[-88.23397824,20.814085927],[-88.226832678,20.806039295],[-88.218898175,20.798622858],[-88.210219931,20.791936821],[-88.200862972,20.78607939],[-88.190913004,20.781140906],[-88.180475215,20.777197788],[-88.169670991,20.774306986],[-88.158632791,20.772501607],[-88.147497658,20.771788275],[-88.1364,20.772146606],[-88.125464436,20.773530958],[-88.11479947,20.775874337],[-88.104492725,20.779094114],[-88.094608289,20.783098978],[-88.085186506,20.787796403],[-88.076246263,20.793099831],[-88.067789552,20.798934781],[-88.059807807,20.805243227],[-88.052289312,20.811985739],[-88.045226835,20.819141161],[-88.038624612,20.826703848],[-88.032503845,20.834678785],[-88.02690605,20.843075123],[-88.021893823,20.85189889],[-88.017548857,20.861145684],[-88.013967367,20.870794226],[-88.011253363,20.880801486],[-88.00951045,20.8911]]]}}
