{"type":"Feature","properties":{"id":"el-peru-378","family":"tikal","name":"El Perú (Waka'), allied with Tikal"},"geometry":{"type":"Polygon","coordinates":[[[-90.266220622,17.2783],[-90.265558472,17.286363189],[-90.265898116,17.294502788],[-90.26729581,17.302621975],[-90.269782659,17.310612757],[-90.273360432,17.318361575],[-90.277999754,17.325755679],[-90.28364088,17.3326896],[-90.290196965,17.339071081],[-90.29755948,17.344825857],[-90.305605204,17.349900823],[-90.314204055,17.354265289],[-90.323226951,17.357910248],[-90.332552915,17.360845788],[-90.342074716,17.363096982],[-90.351702552,17.364698751],[-90.361365474,17.365690281],[-90.371010553,17.366109641],[-90.3806,17.365989159],[-90.390106714,17.365352064],[-90.39950887,17.364210695],[-90.408784259,17.362566429],[-90.417905091,17.360411249],[-90.426833897,17.357730697],[-90.435521005,17.354507817],[-90.443903871,17.350727568],[-90.451908303,17.346381167],[-90.459451398,17.341469846],[-90.466445792,17.336007593],[-90.472804697,17.330022588],[-90.478447103,17.323557208],[-90.483302527,17.316666669],[-90.487314769,17.309416505],[-90.490444271,17.301879266],[-90.492668864,17.294130847],[-90.493982908,17.286246937],[-90.49439501,17.2783],[-90.493924716,17.270357141],[-90.492598658,17.26247907],[-90.490446734,17.254720205],[-90.487498836,17.247129823],[-90.483782597,17.239753991],[-90.479322444,17.23263792],[-90.474140077,17.225828325],[-90.468256293,17.219375345],[-90.461693854,17.213333666],[-90.454480991,17.207762575],[-90.446654978,17.20272482],[-90.438265233,17.198284321],[-90.429375413,17.194502932],[-90.420064104,17.191436605],[-90.410423871,17.189131393],[-90.400558637,17.18761979],[-90.390579589,17.186917871],[-90.3806,17.187023642],[-90.370729508,17.18791686],[-90.361068494,17.189560416],[-90.351703211,17.191903222],[-90.342702266,17.1948843],[-90.334114874,17.198437687],[-90.325971179,17.202497615],[-90.318284614,17.207003382],[-90.311056102,17.211903388],[-90.304279636,17.217157829],[-90.297948602,17.222739755],[-90.292062132,17.228634334],[-90.286630699,17.234836391],[-90.281680293,17.241346482],[-90.277254609,17.248165957],[-90.273414924,17.255291559],[-90.270237584,17.262710206],[-90.267809288,17.270394569],[-90.266220622,17.2783]]]}}
