{"type":"Feature","properties":{"id":"guatemala-1618","family":"spain","name":"Spanish Guatemala, Chiapas and Verapaz"},"geometry":{"type":"Polygon","coordinates":[[[-95.354444444,12.9],[-95.256235605,12.9],[-95.158026766,12.9],[-95.059817927,12.9],[-94.961609088,12.9],[-94.863400249,12.9],[-94.76519141,12.9],[-94.666982571,12.9],[-94.568773732,12.9],[-94.470564893,12.9],[-94.372356054,12.9],[-94.274147214,12.9],[-94.175938375,12.9],[-94.077729536,12.9],[-93.979520697,12.9],[-93.881311858,12.9],[-93.783103019,12.9],[-93.68489418,12.9],[-93.586685341,12.9],[-93.488476502,12.9],[-93.390267663,12.9],[-93.292058824,12.9],[-93.195938914,12.9],[-93.099819005,12.9],[-93.003699095,12.9],[-92.907579186,12.9],[-92.811459276,12.9],[-92.715339367,12.9],[-92.619219457,12.9],[-92.523099548,12.9],[-92.426979638,12.9],[-92.330859729,12.9],[-92.234739819,12.9],[-92.13861991,12.9],[-92.0425,12.9],[-91.9575,12.9],[-91.863897059,12.9],[-91.770294118,12.9],[-91.676691176,12.9],[-91.583088235,12.9],[-91.489485294,12.9],[-91.395882353,12.9],[-91.302279412,12.9],[-91.208676471,12.9],[-91.115073529,12.9],[-91.021470588,12.9],[-90.927867647,12.9],[-90.834264706,12.9],[-90.740661765,12.9],[-90.647058824,12.9],[-90.551365546,12.9],[-90.455672269,12.9],[-90.359978992,12.9],[-90.264285714,12.9],[-90.168592437,12.9],[-90.07289916,12.9],[-89.977205882,12.9],[-89.881512605,12.9],[-89.785819328,12.9],[-89.69012605,12.9],[-89.594432773,12.9],[-89.498739496,12.9],[-89.403046218,12.9],[-89.307352941,12.9],[-89.211659664,12.9],[-89.115966387,12.9],[-89.020273109,12.9],[-88.924579832,12.9],[-88.828886555,12.9],[-88.733193277,12.9],[-88.6375,12.9],[-88.651412512,12.984309764],[-88.665325023,13.068619528],[-88.679237535,13.152929292],[-88.693150047,13.237239055],[-88.707062558,13.321548819],[-88.72097507,13.405858583],[-88.732079547,13.50142904],[-88.743184025,13.596999497],[-88.740838827,13.669351789],[-88.738493628,13.741704082],[-88.726122668,13.819474988],[-88.713751707,13.897245894],[-88.701380746,13.9750168],[-88.708845463,14.072184863],[-88.72726581,14.134828571],[-88.773645515,14.221087451],[-88.839196805,14.295625505],[-88.892867058,14.341477426],[-88.94653731,14.387329346],[-88.927860479,14.484557046],[-88.909183647,14.581784745],[-88.890506815,14.679012444],[-88.871829983,14.776240144],[-88.855399961,14.826025624],[-88.838969938,14.875811105],[-88.807215254,14.932598369],[-88.765468203,14.979607127],[-88.714035956,15.017166798],[-88.653855742,15.046641915],[-88.593675527,15.076117032],[-88.533495313,15.10559215],[-88.478650419,15.141450346],[-88.431718864,15.185796972],[-88.377623196,15.26858161],[-88.35976873,15.317078719],[-88.341914265,15.365575829],[-88.333376681,15.417317656],[-88.324839098,15.469059484],[-88.326836175,15.520943124],[-88.328833253,15.572826764],[-88.340548486,15.622139058],[-88.352263719,15.671451353],[-88.447639257,15.653686239],[-88.497845211,15.637738701],[-88.548051166,15.621791163],[-88.623032421,15.586120084],[-88.698013676,15.550449004],[-88.772994931,15.514777925],[-88.847976186,15.479106846],[-88.911647368,15.45843025],[-88.975318551,15.437753655],[-89.066171177,15.437209654],[-89.15604071,15.462866586],[-89.245910243,15.488523518],[-89.343130444,15.506185763],[-89.414491543,15.504631669],[-89.485852641,15.503077574],[-89.55721374,15.50152348],[-89.603468029,15.551087478],[-89.649722317,15.600651477],[-89.690125207,15.632917592],[-89.730528097,15.665183707],[-89.798158843,15.703372225],[-89.86578959,15.741560744],[-89.933420337,15.779749262],[-90.001051083,15.81793778],[-90.042806223,15.848961512],[-90.084561363,15.879985244],[-90.121362024,15.917630994],[-90.158162685,15.955276744],[-90.196970216,16.01124368],[-90.235777747,16.067210616],[-90.296186532,16.089798894],[-90.356595316,16.112387172],[-90.414765873,16.062829159],[-90.472936429,16.013271147],[-90.531106985,15.963713134],[-90.583176927,15.914312022],[-90.635246868,15.864910911],[-90.687316809,15.815509799],[-90.767263392,15.845520684],[-90.847209976,15.875531569],[-90.918259582,15.912183834],[-90.989309188,15.948836099],[-91.060358794,15.985488364],[-91.109903658,16.00686823],[-91.159448522,16.028248096],[-91.245507045,16.05385995],[-91.331565569,16.079471804],[-91.417624093,16.105083659],[-91.503682616,16.130695513],[-91.584229926,16.160552449],[-91.664777237,16.190409384],[-91.745324547,16.22026632],[-91.772613949,16.300447725],[-91.799903352,16.38062913],[-91.827192754,16.460810536],[-91.839177248,16.529097912],[-91.839243725,16.596908194],[-91.822226804,16.663912137],[-91.805209884,16.730916081],[-91.773148723,16.804121342],[-91.741087563,16.877326603],[-91.709026402,16.950531864],[-91.78483796,17.004222473],[-91.860649518,17.057913083],[-91.926631587,17.094008343],[-91.992613656,17.130103603],[-92.058595725,17.166198864],[-92.141127433,17.198814229],[-92.223659141,17.231429594],[-92.306190848,17.26404496],[-92.388722556,17.296660325],[-92.471254264,17.329275691],[-92.52222844,17.314198197],[-92.573202617,17.299120704],[-92.637721115,17.2896952],[-92.714770168,17.287590112],[-92.791819221,17.285485024],[-92.868868274,17.283379936],[-92.9507398,17.274490575],[-93.032611327,17.265601214],[-93.114482853,17.256711853],[-93.196354379,17.247822492],[-93.289690985,17.248689404],[-93.383027591,17.249556316],[-93.476364198,17.250423228],[-93.569700804,17.25129014],[-93.66303741,17.252157052],[-93.756374017,17.253023964],[-93.849710623,17.253890876],[-93.943047229,17.254757788],[-93.961898677,17.204020858],[-93.980750124,17.153283927],[-93.986769662,17.103002719],[-93.9927892,17.05272151],[-93.985762359,17.001467101],[-93.978735519,16.950212693],[-93.949340745,16.856103259],[-93.91994597,16.761993826],[-93.954545047,16.69977968],[-93.989144125,16.637565535],[-94.023743202,16.575351389],[-94.063467481,16.496057509],[-94.103191759,16.416763629],[-94.142916038,16.337469749],[-94.182640317,16.258175868],[-94.222364596,16.178881988],[-94.262088875,16.099588108],[-94.301813154,16.020294228],[-94.341537432,15.941000348],[-94.382797758,15.853070386],[-94.424058084,15.765140424],[-94.450362525,15.69541997],[-94.476666965,15.625699517],[-94.49851092,15.529670815],[-94.520354876,15.433642113],[-94.542198832,15.337613412],[-94.558128832,15.249037472],[-94.574058833,15.160461532],[-94.589988834,15.071885592],[-94.605918835,14.983309652],[-94.621848836,14.894733713],[-94.637778837,14.806157773],[-94.653708838,14.717581833],[-94.669638839,14.629005893],[-94.68556884,14.540429954],[-94.694570402,14.472735706],[-94.703571965,14.405041459],[-94.712573528,14.337347211],[-94.75269046,14.247513011],[-94.792807392,14.15767881],[-94.832924325,14.067844609],[-94.873041257,13.978010409],[-94.913158189,13.888176208],[-94.953275121,13.798342007],[-94.993392054,13.708507806],[-95.033508986,13.618673606],[-95.073625918,13.528839405],[-95.113742851,13.439005204],[-95.153859783,13.349171004],[-95.193976715,13.259336803],[-95.234093648,13.169502602],[-95.27421058,13.079668401],[-95.314327512,12.989834201],[-95.354444444,12.9]]]}}
