{"type":"Feature","properties":{"id":"itza-1697","family":"itza","name":"Itza, still unconquered"},"geometry":{"type":"Polygon","coordinates":[[[-90.139701012,16.566702255],[-90.0938187,16.592878262],[-90.047936388,16.619054268],[-89.993200339,16.666547197],[-89.938464291,16.714040126],[-89.95532954,16.78701941],[-89.95626137,16.834860801],[-89.945723272,16.875042164],[-89.913045268,16.908234277],[-89.888449228,16.90650156],[-89.877820234,16.898104679],[-89.862915108,16.867921854],[-89.858798668,16.799860257],[-89.870510137,16.726390547],[-89.786317653,16.695627584],[-89.731542774,16.693738861],[-89.677990903,16.708237617],[-89.625933978,16.73683998],[-89.645732056,16.788328192],[-89.665530134,16.839816403],[-89.689391169,16.931037574],[-89.69511123,16.980834445],[-89.70083129,17.030631316],[-89.6997157,17.084069405],[-89.698600109,17.137507495],[-89.740251787,17.19528494],[-89.781903466,17.253062385],[-89.815081751,17.312226911],[-89.848260036,17.371391437],[-89.926321774,17.387947889],[-90.004383513,17.404504341],[-90.082445252,17.421060793],[-90.16050699,17.437617245],[-90.220710133,17.38134733],[-90.280913275,17.325077416],[-90.341116417,17.268807502],[-90.375764494,17.228641394],[-90.410412571,17.188475285],[-90.456601082,17.102329832],[-90.469927446,17.012489225],[-90.45965464,16.953971322],[-90.419115895,16.873774072],[-90.359183224,16.811099034],[-90.299250554,16.748423996],[-90.239317883,16.685748958],[-90.189509447,16.626225607],[-90.139701012,16.566702255]]]}}
