{"type":"Feature","properties":{"id":"kaanul-550","family":"kaanul","name":"Kaanul kingdom of Dzibanche"},"geometry":{"type":"Polygon","coordinates":[[[-88.485269027,18.789475963],[-88.498214209,18.808366908],[-88.512589779,18.826369641],[-88.528430575,18.843425235],[-88.545790194,18.859432625],[-88.5647222,18.874247356],[-88.585260865,18.887686144],[-88.607403638,18.8995367],[-88.63109729,18.909571708],[-88.656229217,18.917565369],[-88.68262478,18.923310707],[-88.710050833,18.926635753],[-88.738224916,18.927416915],[-88.766828939,18.925588197],[-88.795525723,18.92114543],[-88.823976523,18.914145283],[-88.851857563,18.904699398],[-88.87887389,18.892964559],[-88.904769175,18.879130188],[-88.92933069,18.863404744],[-88.952389279,18.846002614],[-88.973814788,18.827132965],[-88.99350795,18.806991698],[-89.011390138,18.785757182],[-89.027392608,18.763589938],[-89.041446866,18.740635914],[-89.053477558,18.717032516],[-89.063398932,18.692916218],[-89.071115372,18.668430409],[-89.076525938,18.643732102],[-89.079532287,18.618996342],[-89.080048866,18.594417472],[-89.078013941,18.570206867],[-89.073399904,18.546587256],[-89.066221333,18.523784231],[-89.056539602,18.502015965],[-89.044463238,18.481482441],[-89.03014378,18.462355586],[-89.013767493,18.444771672],[-88.995543846,18.428827047],[-88.975692085,18.414577887],[-88.954427566,18.402044157],[-88.931949535,18.3912174],[-88.908431948,18.382071507],[-88.884018553,18.374575168],[-88.858822956,18.368704463],[-88.832933767,18.364453965],[-88.806424295,18.361844845],[-88.779365636,18.360928792],[-88.751841547,18.361787035],[-88.723963195,18.364524299],[-88.695881815,18.369258169],[-88.667797475,18.376104894],[-88.639962562,18.385163112],[-88.612679144,18.39649731],[-88.586290092,18.410122894],[-88.561164539,18.42599466],[-88.537678958,18.444000087],[-88.516195652,18.463958402],[-88.497040839,18.485625725],[-88.480484574,18.508705951],[-88.46672466,18.532866359],[-88.455876251,18.557756442],[-88.44796831,18.583028048],[-88.44294731,18.608354786],[-88.440687843,18.633448714],[-88.441008994,18.658072616],[-88.443694767,18.682046682],[-88.448516398,18.705248983],[-88.455254177,18.727609859],[-88.463716518,18.749100997],[-88.473754293,18.76972053],[-88.485269027,18.789475963]]]}}
