{"type":"Feature","properties":{"id":"kaanul-636","family":"kaanul","name":"Kaanul kingdom of Calakmul"},"geometry":{"type":"Polygon","coordinates":[[[-89.459502442,18.1054],[-89.463674728,18.131232552],[-89.47083793,18.156389239],[-89.480722536,18.180631136],[-89.493027031,18.2037812],[-89.507442149,18.225725335],[-89.523674036,18.24640715],[-89.541463919,18.265817082],[-89.560602331,18.28397723],[-89.580936526,18.300923634],[-89.602370484,18.316688074],[-89.624857767,18.331281443],[-89.648388216,18.344680583],[-89.672970196,18.356820036],[-89.698610535,18.367589625],[-89.725294523,18.37683808],[-89.75296828,18.384382288],[-89.781525497,18.39002107],[-89.8108,18.393551953],[-89.840564912,18.394789066],[-89.870538407,18.393580214],[-89.900395316,18.38982132],[-89.929783201,18.383466758],[-89.958341034,18.374534622],[-89.985718401,18.363106528],[-90.011593137,18.349322227],[-90.035685593,18.333369841],[-90.057768153,18.315473005],[-90.077669284,18.295876506],[-90.09527203,18.274832082],[-90.11050758,18.252585963],[-90.123345085,18.229369405],[-90.133779298,18.205393057],[-90.141817854,18.18084547],[-90.147469932,18.155895467],[-90.150737801,18.130697671],[-90.151612324,18.1054],[-90.150072917,18.080151809],[-90.146091821,18.055111229],[-90.139641985,18.030450454],[-90.130707329,18.006358011],[-90.119293851,17.983037496],[-90.105439919,17.960702758],[-90.089224169,17.939570035],[-90.07076977,17.919847985],[-90.050244276,17.901726863],[-90.027854867,17.885368281],[-90.00383942,17.870896939],[-89.978454401,17.858395491],[-89.951961029,17.847903363],[-89.924611425,17.839419812],[-89.896636522,17.832911012],[-89.868237306,17.828320377],[-89.839580596,17.825580938],[-89.8108,17.824628232],[-89.782002038,17.825412095],[-89.753276749,17.827905775],[-89.724711501,17.832111109],[-89.696406252,17.83805891],[-89.668488262,17.845804314],[-89.641124216,17.855417398],[-89.614527993,17.866970013],[-89.588962696,17.880520254],[-89.56473628,17.896096312],[-89.54219077,17.913681617],[-89.521685877,17.933203078],[-89.503578464,17.954523944],[-89.488199877,17.977442316],[-89.475833445,18.001695737],[-89.466694528,18.026971605],[-89.460915264,18.052922509],[-89.458535716,18.07918501],[-89.459502442,18.1054]]]}}
