{"type":"Feature","properties":{"id":"kaanul-599","family":"kaanul","name":"Kaanul kingdom of Dzibanche and Calakmul"},"geometry":{"type":"Polygon","coordinates":[[[-88.507191621,18.767150814],[-88.522935469,18.787726009],[-88.544822272,18.804906653],[-88.572717611,18.818496072],[-88.606374335,18.828355837],[-88.645436314,18.834416347],[-88.689452941,18.836681608],[-88.73790295,18.835227332],[-88.790224815,18.830192333],[-88.845850107,18.821764055],[-88.904235636,18.810159854],[-88.964890314,18.79560627],[-89.027393195,18.778318828],[-89.091400205,18.75848493],[-89.156638463,18.736252097],[-89.222888657,18.711723192],[-89.289957469,18.684959452],[-89.357643433,18.655991185],[-89.425700531,18.624835045],[-89.49380433,18.59151591],[-89.561525353,18.556090785],[-89.628313664,18.518671769],[-89.693497493,18.479445145],[-89.756297154,18.438683995],[-89.815853735,18.396752418],[-89.871270326,18.354100327],[-89.92166198,18.311248878],[-89.966209511,18.268767641],[-90.004211611,18.227245592],[-90.035129812,18.187258776],[-90.05862147,18.149337889],[-90.074557145,18.113939152],[-90.083020396,18.081421476],[-90.084289871,18.052032344],[-90.078805501,18.025903841],[-90.067122294,18.003059202],[-90.049856579,17.983429103],[-90.027630353,17.966875841],[-90.001019533,17.953222715],[-89.970511465,17.942285352],[-89.936475959,17.933901544],[-89.899152589,17.927956345],[-89.858655181,17.92439975],[-89.814992478,17.923255117],[-89.768102229,17.924617544],[-89.717894485,17.928642545],[-89.664298958,17.935526444],[-89.607310943,17.945480771],[-89.547030588,17.958703615],[-89.483691164,17.975351127],[-89.417673331,17.995512305],[-89.349504045,18.019189727],[-89.279840526,18.046288197],[-89.209441396,18.076612288],[-89.139128455,18.109872781],[-89.069743543,18.145700972],[-89.002105316,18.183668971],[-88.936970584,18.223313549],[-88.875004145,18.264160748],[-88.816759863,18.305748543],[-88.762674281,18.347645223],[-88.713072483,18.389461767],[-88.66818442,18.430857352],[-88.628168711,18.471538016],[-88.5931401,18.511249379],[-88.563196457,18.549765059],[-88.538441423,18.586872926],[-88.518999554,18.622361517],[-88.50502189,18.656008892],[-88.496681288,18.687575737],[-88.494158266,18.716803968],[-88.497619432,18.743421218],[-88.507191621,18.767150814]]]}}
