{"type":"Feature","properties":{"id":"kaqchikel-1524","family":"kaqchikel","name":"Kaqchikel of Iximche, allied with Alvarado"},"geometry":{"type":"Polygon","coordinates":[[[-91.243160835,14.759985289],[-91.188523249,14.716896812],[-91.146791699,14.670029956],[-91.131074803,14.634972725],[-91.115198217,14.561945707],[-91.099321631,14.488918689],[-91.059050466,14.423859474],[-91.020678995,14.382074262],[-90.982307525,14.34028905],[-90.894197846,14.363076177],[-90.806088166,14.385863305],[-90.717978487,14.408650432],[-90.706611399,14.467061585],[-90.69524431,14.525472738],[-90.689842079,14.588497012],[-90.684439848,14.651521285],[-90.731957587,14.69698407],[-90.779475327,14.742446855],[-90.812088995,14.798492784],[-90.844702664,14.854538712],[-90.918614644,14.855613159],[-90.992526625,14.856687605],[-91.045041379,14.848844069],[-91.097556133,14.841000533],[-91.166481054,14.815261991],[-91.243160835,14.759985289]]]}}
