{"type":"Feature","properties":{"id":"kejache-1525","family":"lowland","name":"Kejache"},"geometry":{"type":"Polygon","coordinates":[[[-90.548916059,18.812983433],[-90.52910665,18.729762268],[-90.509297241,18.646541104],[-90.489487832,18.56331994],[-90.479549153,18.494244877],[-90.469610473,18.425169814],[-90.472805692,18.360801839],[-90.488669102,18.301102142],[-90.53762801,18.219241166],[-90.54259999,18.157074425],[-90.54757197,18.094907684],[-90.519169118,18.0505143],[-90.490766265,18.006120916],[-90.446124077,17.919683129],[-90.40148189,17.833245343],[-90.356839702,17.746807556],[-90.306955403,17.671457104],[-90.257071103,17.596106652],[-90.207186804,17.5207562],[-90.16050699,17.437617245],[-90.082445252,17.421060793],[-90.004383513,17.404504341],[-89.926321774,17.387947889],[-89.848260036,17.371391437],[-89.780549803,17.421341255],[-89.71283957,17.471291074],[-89.666587757,17.516683895],[-89.630925858,17.568387065],[-89.599379378,17.659227547],[-89.591179946,17.730471725],[-89.582980515,17.801715902],[-89.574781083,17.872960079],[-89.630679134,17.944430988],[-89.686577185,18.015901897],[-89.711846495,18.062669376],[-89.737115804,18.109436855],[-89.762083191,18.175119379],[-89.775120806,18.243939371],[-89.78815842,18.312759362],[-89.790225052,18.391503153],[-89.792291685,18.470246944],[-89.794358317,18.548990736],[-89.796424949,18.627734527],[-89.808107332,18.677009434],[-89.819789716,18.726284342],[-89.848548389,18.788534547],[-89.88847633,18.847691306],[-89.958485052,18.916872611],[-90.028493775,18.986053916],[-90.116179207,18.962682718],[-90.203864639,18.93931152],[-90.291550072,18.915940321],[-90.379235504,18.892569123],[-90.431173057,18.871835125],[-90.48311061,18.851101126],[-90.548916059,18.812983433]]]}}
