{"type":"Feature","properties":{"id":"kiche-1500","family":"kiche","name":"K'iche' kingdom of Q'umarkaj"},"geometry":{"type":"Polygon","coordinates":[[[-93.292058824,12.9],[-93.195938914,12.9],[-93.099819005,12.9],[-93.003699095,12.9],[-92.907579186,12.9],[-92.811459276,12.9],[-92.715339367,12.9],[-92.619219457,12.9],[-92.523099548,12.9],[-92.426979638,12.9],[-92.330859729,12.9],[-92.234739819,12.9],[-92.13861991,12.9],[-92.0425,12.9],[-92.014971447,12.99038307],[-91.987442894,13.08076614],[-91.959914342,13.171149209],[-91.932385789,13.261532279],[-91.904857236,13.351915349],[-91.877328683,13.442298419],[-91.849800131,13.532681489],[-91.822271578,13.623064558],[-91.794743025,13.713447628],[-91.760903419,13.804996863],[-91.727063813,13.896546097],[-91.69441523,13.975631514],[-91.661766647,14.054716931],[-91.629118064,14.133802348],[-91.59646948,14.212887764],[-91.563820897,14.291973181],[-91.53725531,14.368927305],[-91.510689724,14.445881429],[-91.484124137,14.522835554],[-91.469005826,14.584273113],[-91.453887514,14.645710672],[-91.402013182,14.700234442],[-91.350138851,14.754758212],[-91.296649843,14.75737175],[-91.243160835,14.759985289],[-91.166481054,14.815261991],[-91.097556133,14.841000533],[-91.045041379,14.848844069],[-90.992526625,14.856687605],[-90.918614644,14.855613159],[-90.844702664,14.854538712],[-90.783141991,14.910212076],[-90.721581318,14.965885439],[-90.660020645,15.021558802],[-90.682140316,15.085158322],[-90.704259988,15.148757841],[-90.726379659,15.212357361],[-90.716359361,15.257595593],[-90.771900947,15.290278032],[-90.827442534,15.322960472],[-90.889010946,15.346629782],[-90.950579358,15.370299092],[-91.047189436,15.383354044],[-91.113193887,15.377008118],[-91.179198338,15.370662193],[-91.193257337,15.293175843],[-91.207316336,15.215689494],[-91.289779778,15.19296498],[-91.37224322,15.170240466],[-91.454706661,15.147515952],[-91.505096104,15.11908875],[-91.567231997,15.057887241],[-91.60058133,15.047839052],[-91.670974822,15.08592324],[-91.741368314,15.124007429],[-91.811761806,15.162091618],[-91.899735323,15.199886783],[-91.962213936,15.211899274],[-92.024692549,15.223911766],[-92.086751507,15.223561661],[-92.148810464,15.223211555],[-92.153958007,15.159278036],[-92.15910555,15.095344517],[-92.153541191,14.996821125],[-92.135206738,14.901618134],[-92.113429208,14.832081435],[-92.091651678,14.762544737],[-92.084274826,14.710736247],[-92.090103426,14.657365193],[-92.124414894,14.571387941],[-92.16472007,14.508748038],[-92.205025246,14.446108135],[-92.245330423,14.383468232],[-92.300421391,14.305390957],[-92.35551236,14.227313682],[-92.410603328,14.149236406],[-92.465694297,14.071159131],[-92.520785265,13.993081856],[-92.575876234,13.91500458],[-92.630967202,13.836927305],[-92.686058171,13.758850029],[-92.741149139,13.680772754],[-92.796240107,13.602695479],[-92.851331076,13.524618203],[-92.906422044,13.446540928],[-92.961513013,13.368463652],[-93.016603981,13.290386377],[-93.07169495,13.212309102],[-93.126785918,13.134231826],[-93.181876887,13.056154551],[-93.236967855,12.978077275],[-93.292058824,12.9]]]}}
