{"type":"Feature","properties":{"id":"kiche-1450","family":"kiche","name":"K'iche' kingdom under K'iq'ab"},"geometry":{"type":"Polygon","coordinates":[[[-93.292058824,12.9],[-93.195938914,12.9],[-93.099819005,12.9],[-93.003699095,12.9],[-92.907579186,12.9],[-92.811459276,12.9],[-92.715339367,12.9],[-92.619219457,12.9],[-92.523099548,12.9],[-92.426979638,12.9],[-92.330859729,12.9],[-92.234739819,12.9],[-92.13861991,12.9],[-92.0425,12.9],[-92.014971447,12.99038307],[-91.987442894,13.08076614],[-91.959914342,13.171149209],[-91.932385789,13.261532279],[-91.904857236,13.351915349],[-91.877328683,13.442298419],[-91.849800131,13.532681489],[-91.822271578,13.623064558],[-91.794743025,13.713447628],[-91.760903419,13.804996863],[-91.727063813,13.896546097],[-91.69441523,13.975631514],[-91.661766647,14.054716931],[-91.629118064,14.133802348],[-91.59646948,14.212887764],[-91.563820897,14.291973181],[-91.53725531,14.368927305],[-91.510689724,14.445881429],[-91.484124137,14.522835554],[-91.469005826,14.584273113],[-91.453887514,14.645710672],[-91.402013182,14.700234442],[-91.350138851,14.754758212],[-91.296649843,14.75737175],[-91.243160835,14.759985289],[-91.188523249,14.716896812],[-91.146791699,14.670029956],[-91.131074803,14.634972725],[-91.115198217,14.561945707],[-91.099321631,14.488918689],[-91.059050466,14.423859474],[-91.020678995,14.382074262],[-90.982307525,14.34028905],[-90.894197846,14.363076177],[-90.806088166,14.385863305],[-90.717978487,14.408650432],[-90.706611399,14.467061585],[-90.69524431,14.525472738],[-90.689842079,14.588497012],[-90.684439848,14.651521285],[-90.731957587,14.69698407],[-90.779475327,14.742446855],[-90.812088995,14.798492784],[-90.844702664,14.854538712],[-90.783141991,14.910212076],[-90.721581318,14.965885439],[-90.660020645,15.021558802],[-90.602712643,14.980524468],[-90.545404641,14.939490134],[-90.488096639,14.8984558],[-90.412750048,14.910501486],[-90.337403457,14.922547173],[-90.262056865,14.934592859],[-90.19349837,14.95521469],[-90.124939875,14.97583652],[-90.05638138,14.996458351],[-90.044006063,15.052595776],[-90.031630746,15.108733201],[-89.953842063,15.155552859],[-89.876053379,15.202372517],[-89.798264695,15.249192175],[-89.754171768,15.280565721],[-89.710078841,15.311939268],[-89.67273568,15.349278688],[-89.635392518,15.386618109],[-89.596303129,15.444070795],[-89.55721374,15.50152348],[-89.603468029,15.551087478],[-89.649722317,15.600651477],[-89.690125207,15.632917592],[-89.730528097,15.665183707],[-89.798158843,15.703372225],[-89.86578959,15.741560744],[-89.933420337,15.779749262],[-90.001051083,15.81793778],[-90.042806223,15.848961512],[-90.084561363,15.879985244],[-90.121362024,15.917630994],[-90.158162685,15.955276744],[-90.196970216,16.01124368],[-90.235777747,16.067210616],[-90.296186532,16.089798894],[-90.356595316,16.112387172],[-90.414765873,16.062829159],[-90.472936429,16.013271147],[-90.531106985,15.963713134],[-90.583176927,15.914312022],[-90.635246868,15.864910911],[-90.687316809,15.815509799],[-90.671267163,15.744308943],[-90.655217518,15.673108087],[-90.639167872,15.601907231],[-90.631050954,15.514632675],[-90.622934035,15.427358119],[-90.614817117,15.340083564],[-90.665588239,15.298839578],[-90.716359361,15.257595593],[-90.771900947,15.290278032],[-90.827442534,15.322960472],[-90.889010946,15.346629782],[-90.950579358,15.370299092],[-91.047189436,15.383354044],[-91.113193887,15.377008118],[-91.179198338,15.370662193],[-91.193257337,15.293175843],[-91.207316336,15.215689494],[-91.289779778,15.19296498],[-91.37224322,15.170240466],[-91.454706661,15.147515952],[-91.505096104,15.11908875],[-91.567231997,15.057887241],[-91.60058133,15.047839052],[-91.670974822,15.08592324],[-91.741368314,15.124007429],[-91.811761806,15.162091618],[-91.899735323,15.199886783],[-91.962213936,15.211899274],[-92.024692549,15.223911766],[-92.086751507,15.223561661],[-92.148810464,15.223211555],[-92.153958007,15.159278036],[-92.15910555,15.095344517],[-92.153541191,14.996821125],[-92.135206738,14.901618134],[-92.113429208,14.832081435],[-92.091651678,14.762544737],[-92.084274826,14.710736247],[-92.090103426,14.657365193],[-92.124414894,14.571387941],[-92.16472007,14.508748038],[-92.205025246,14.446108135],[-92.245330423,14.383468232],[-92.300421391,14.305390957],[-92.35551236,14.227313682],[-92.410603328,14.149236406],[-92.465694297,14.071159131],[-92.520785265,13.993081856],[-92.575876234,13.91500458],[-92.630967202,13.836927305],[-92.686058171,13.758850029],[-92.741149139,13.680772754],[-92.796240107,13.602695479],[-92.851331076,13.524618203],[-92.906422044,13.446540928],[-92.961513013,13.368463652],[-93.016603981,13.290386377],[-93.07169495,13.212309102],[-93.126785918,13.134231826],[-93.181876887,13.056154551],[-93.236967855,12.978077275],[-93.292058824,12.9]]]}}
