{"type":"Feature","properties":{"id":"kowoj-1525","family":"itza","name":"Kowoj"},"geometry":{"type":"Polygon","coordinates":[[[-89.625933978,16.73683998],[-89.57395414,16.735389137],[-89.521974302,16.733938294],[-89.472637029,16.742686288],[-89.423299756,16.751434282],[-89.360773484,16.775864566],[-89.298247211,16.80029485],[-89.221898342,16.840689054],[-89.145549472,16.881083257],[-89.134406803,16.971997513],[-89.190687593,17.041860292],[-89.246968383,17.111723071],[-89.303249173,17.181585849],[-89.342678184,17.21814018],[-89.384699402,17.238139993],[-89.430852522,17.24001469],[-89.481325398,17.226732372],[-89.553750302,17.196990746],[-89.626175205,17.167249121],[-89.698600109,17.137507495],[-89.6997157,17.084069405],[-89.70083129,17.030631316],[-89.69511123,16.980834445],[-89.689391169,16.931037574],[-89.665530134,16.839816403],[-89.645732056,16.788328192],[-89.625933978,16.73683998]]]}}
