{"type":"Feature","properties":{"id":"la-corona-550","family":"kingdom","name":"La Corona (Sak Nikte')"},"geometry":{"type":"Polygon","coordinates":[[[-90.28071136,17.5197],[-90.28116744,17.526199437],[-90.28218393,17.53265287],[-90.28377359,17.539035778],[-90.285953539,17.545317359],[-90.288741336,17.551459319],[-90.292150753,17.557415844],[-90.296187818,17.563134736],[-90.300847574,17.568559552],[-90.306111955,17.573632445],[-90.311948989,17.578297355],[-90.318313393,17.582503126],[-90.325148422,17.586206183],[-90.332388698,17.589372443],[-90.339963617,17.591978252],[-90.347800885,17.594010267],[-90.355829704,17.59546436],[-90.36398323,17.596343712],[-90.3722,17.596656417],[-90.380424191,17.59641294],[-90.388604749,17.595623814],[-90.39669356,17.594297912],[-90.404643016,17.592441552],[-90.412403374,17.590058595],[-90.419920385,17.587151524],[-90.427133625,17.583723393],[-90.433975884,17.579780376],[-90.440373822,17.575334585],[-90.44624997,17.570406732],[-90.451525928,17.56502827],[-90.456126485,17.559242635],[-90.459984224,17.553105366],[-90.463044099,17.546682973],[-90.465267433,17.540050608],[-90.466634857,17.533288712],[-90.467147766,17.52647897],[-90.466828075,17.5197],[-90.46571622,17.513023237],[-90.463867549,17.50650949],[-90.461347458,17.500206554],[-90.458225763,17.494148194],[-90.454570914,17.488354613],[-90.450444669,17.482834398],[-90.445897839,17.477587721],[-90.440967565,17.472610467],[-90.435676454,17.467898795],[-90.430033677,17.463453632],[-90.424037921,17.459284552],[-90.417681861,17.455412571],[-90.410957653,17.451871514],[-90.40386283,17.44870773],[-90.396405911,17.445978158],[-90.388611079,17.443746889],[-90.380521374,17.442080568],[-90.3722,17.4410431],[-90.363729568,17.440690199],[-90.355209311,17.44106436],[-90.346750531,17.44219076],[-90.338470747,17.444074535],[-90.330487129,17.446699684],[-90.322909898,17.450029721],[-90.315836364,17.454009975],[-90.309346189,17.458571282],[-90.303498334,17.463634658],[-90.298329944,17.469116466],[-90.293857219,17.474933517],[-90.290078094,17.481007606],[-90.286976359,17.487269038],[-90.284526702,17.493658835],[-90.282700066,17.50012948],[-90.281468713,17.506644213],[-90.280810417,17.513175073],[-90.28071136,17.5197]]]}}
