{"type":"Feature","properties":{"id":"lakandon-1525","family":"lowland","name":"Lakandon Ch'ol"},"geometry":{"type":"Polygon","coordinates":[[[-91.745324547,16.22026632],[-91.664777237,16.190409384],[-91.584229926,16.160552449],[-91.503682616,16.130695513],[-91.417624093,16.105083659],[-91.331565569,16.079471804],[-91.245507045,16.05385995],[-91.159448522,16.028248096],[-91.109903658,16.00686823],[-91.060358794,15.985488364],[-90.989309188,15.948836099],[-90.918259582,15.912183834],[-90.847209976,15.875531569],[-90.767263392,15.845520684],[-90.687316809,15.815509799],[-90.635246868,15.864910911],[-90.583176927,15.914312022],[-90.531106985,15.963713134],[-90.472936429,16.013271147],[-90.414765873,16.062829159],[-90.356595316,16.112387172],[-90.364873381,16.175902821],[-90.373151446,16.239418469],[-90.412644925,16.274256821],[-90.452138404,16.309095173],[-90.487579233,16.349203461],[-90.523020061,16.389311748],[-90.57113568,16.464599034],[-90.619251298,16.53988632],[-90.667366917,16.615173605],[-90.731223691,16.686160173],[-90.772398401,16.716008428],[-90.813573112,16.745856682],[-90.896084592,16.79405265],[-90.978596072,16.842248619],[-91.061107552,16.890444587],[-91.118843572,16.882949397],[-91.176579591,16.875454207],[-91.24872937,16.877355485],[-91.31828213,16.889096036],[-91.386736495,16.907558755],[-91.455190859,16.926021474],[-91.523645224,16.944484193],[-91.595044965,16.953425906],[-91.652035683,16.951978885],[-91.709026402,16.950531864],[-91.741087563,16.877326603],[-91.773148723,16.804121342],[-91.805209884,16.730916081],[-91.822226804,16.663912137],[-91.839243725,16.596908194],[-91.839177248,16.529097912],[-91.827192754,16.460810536],[-91.799903352,16.38062913],[-91.772613949,16.300447725],[-91.745324547,16.22026632]]]}}
