{"type":"Feature","properties":{"id":"mam-1450","family":"highland","name":"Mam kingdom of Zaculeu"},"geometry":{"type":"Polygon","coordinates":[[[-92.262179124,15.371692245],[-92.205494794,15.2974519],[-92.148810464,15.223211555],[-92.086751507,15.223561661],[-92.024692549,15.223911766],[-91.962213936,15.211899274],[-91.899735323,15.199886783],[-91.811761806,15.162091618],[-91.741368314,15.124007429],[-91.670974822,15.08592324],[-91.60058133,15.047839052],[-91.567231997,15.057887241],[-91.505096104,15.11908875],[-91.454706661,15.147515952],[-91.37224322,15.170240466],[-91.289779778,15.19296498],[-91.207316336,15.215689494],[-91.193257337,15.293175843],[-91.179198338,15.370662193],[-91.231424214,15.41959588],[-91.283650091,15.468529567],[-91.335936822,15.507252137],[-91.388223553,15.545974707],[-91.472069023,15.589025213],[-91.532417385,15.609936851],[-91.592765748,15.630848488],[-91.655561556,15.64063546],[-91.718357363,15.650422432],[-91.79632332,15.648389793],[-91.874289276,15.646357154],[-91.952255233,15.644324515],[-92.021825391,15.645689265],[-92.09139555,15.647054015],[-92.160965709,15.648418764],[-92.194703514,15.556176591],[-92.228441319,15.463934418],[-92.262179124,15.371692245]]]}}
