{"type":"Feature","properties":{"id":"manche-1525","family":"lowland","name":"Manche Ch'ol"},"geometry":{"type":"Polygon","coordinates":[[[-90.235777747,16.067210616],[-90.196970216,16.01124368],[-90.158162685,15.955276744],[-90.121362024,15.917630994],[-90.084561363,15.879985244],[-90.042806223,15.848961512],[-90.001051083,15.81793778],[-89.933420337,15.779749262],[-89.86578959,15.741560744],[-89.798158843,15.703372225],[-89.730528097,15.665183707],[-89.690125207,15.632917592],[-89.649722317,15.600651477],[-89.603468029,15.551087478],[-89.55721374,15.50152348],[-89.485852641,15.503077574],[-89.414491543,15.504631669],[-89.343130444,15.506185763],[-89.245910243,15.488523518],[-89.15604071,15.462866586],[-89.066171177,15.437209654],[-88.975318551,15.437753655],[-88.911647368,15.45843025],[-88.847976186,15.479106846],[-88.772994931,15.514777925],[-88.698013676,15.550449004],[-88.623032421,15.586120084],[-88.548051166,15.621791163],[-88.497845211,15.637738701],[-88.447639257,15.653686239],[-88.352263719,15.671451353],[-88.314555329,15.736556887],[-88.276846938,15.801662422],[-88.239138547,15.866767957],[-88.197011317,15.926214207],[-88.154884088,15.985660458],[-88.105622339,16.041403441],[-88.056360591,16.097146424],[-87.999383696,16.147207543],[-87.942406801,16.197268663],[-87.877908717,16.241018022],[-87.813410632,16.284767381],[-87.748912548,16.32851674],[-87.668768988,16.377478018],[-87.588625427,16.426439295],[-87.508481867,16.475400573],[-87.428338307,16.524361851],[-87.348194747,16.573323129],[-87.268051186,16.622284407],[-87.187907626,16.671245685],[-87.107764066,16.720206963],[-87.027620505,16.76916824],[-86.947476945,16.818129518],[-86.867333385,16.867090796],[-86.787189825,16.916052074],[-86.707046264,16.965013352],[-86.663842107,16.994673382],[-86.62063795,17.024333411],[-86.555743199,17.081363583],[-86.628866273,17.10700137],[-86.714534433,17.101771599],[-86.800202593,17.096541828],[-86.885870753,17.091312057],[-86.984812473,17.087626691],[-87.083754193,17.083941326],[-87.182695912,17.08025596],[-87.281637632,17.076570594],[-87.380579351,17.072885228],[-87.479521071,17.069199862],[-87.57846279,17.065514496],[-87.67740451,17.06182913],[-87.776346229,17.058143764],[-87.875287949,17.054458398],[-87.974229668,17.050773032],[-88.073171388,17.047087667],[-88.15062442,17.041105672],[-88.228077451,17.035123678],[-88.282876424,17.025336673],[-88.337675396,17.015549668],[-88.38713017,16.997502009],[-88.436584943,16.97945435],[-88.479132098,16.951234083],[-88.521679252,16.923013815],[-88.557719136,16.885722473],[-88.593759021,16.84843113],[-88.643933652,16.78400797],[-88.694108283,16.71958481],[-88.744282915,16.65516165],[-88.819736279,16.589721389],[-88.877737487,16.555880338],[-88.91121476,16.487181007],[-88.944692033,16.418481677],[-88.998135489,16.349056048],[-89.051578945,16.279630419],[-89.102589704,16.235190582],[-89.153600462,16.190750745],[-89.212621288,16.160104509],[-89.271642114,16.129458272],[-89.367695926,16.112615491],[-89.432428882,16.117831274],[-89.52612796,16.14668313],[-89.60881804,16.184527993],[-89.69150812,16.222372856],[-89.743434552,16.233715652],[-89.797729364,16.233406489],[-89.887271121,16.21360122],[-89.936386741,16.196297333],[-89.985502362,16.178993446],[-90.06892749,16.141732503],[-90.152352619,16.104471559],[-90.235777747,16.067210616]]]}}
