{"type":"Feature","properties":{"id":"mani-1542","family":"xiu","name":"Maní, allied with Spain from 1542"},"geometry":{"type":"Polygon","coordinates":[[[-89.908649617,20.034358339],[-89.832785089,19.980760281],[-89.756920562,19.927162224],[-89.701854465,19.873267582],[-89.646788368,19.81937294],[-89.591722271,19.765478298],[-89.536656174,19.711583656],[-89.461044424,19.673051818],[-89.406333749,19.666979723],[-89.319006479,19.685665375],[-89.234319807,19.726989293],[-89.149633135,19.768313211],[-89.064946464,19.809637128],[-88.980259792,19.850961046],[-88.962273089,19.949029194],[-88.944286387,20.047097342],[-88.997829433,20.119719519],[-89.051372478,20.192341697],[-89.104915524,20.264963875],[-89.156256149,20.34633956],[-89.187215013,20.42915853],[-89.196147429,20.503268429],[-89.205079846,20.577378329],[-89.278078982,20.604620729],[-89.351078118,20.63186313],[-89.423472484,20.588790603],[-89.498253043,20.571190253],[-89.549820564,20.576084649],[-89.633714455,20.601139718],[-89.717608346,20.626194788],[-89.811645471,20.642540651],[-89.844551741,20.557045622],[-89.87745801,20.471550592],[-89.893618043,20.409323869],[-89.909778076,20.347097146],[-89.915286131,20.279916931],[-89.920794185,20.212736716],[-89.914721901,20.123547527],[-89.908649617,20.034358339]]]}}
