{"type":"Feature","properties":{"id":"mayapan-1300","family":"mayapan","name":"League of Mayapan"},"geometry":{"type":"Polygon","coordinates":[[[-93.943006993,22.6],[-93.917553752,22.513180538],[-93.892100511,22.426361076],[-93.866647269,22.339541614],[-93.841194028,22.252722152],[-93.815740787,22.16590269],[-93.790287546,22.079083228],[-93.764834305,21.992263766],[-93.712240462,21.947829259],[-93.659646619,21.903394752],[-93.607052776,21.858960245],[-93.542627384,21.795992818],[-93.478201992,21.733025391],[-93.4137766,21.670057963],[-93.349351208,21.607090536],[-93.284925816,21.544123109],[-93.220500424,21.481155681],[-93.156075032,21.418188254],[-93.09164964,21.355220827],[-93.027224247,21.2922534],[-92.962798855,21.229285972],[-92.90489262,21.177898108],[-92.846986385,21.126510243],[-92.789080149,21.075122379],[-92.731173914,21.023734514],[-92.694154421,20.952614131],[-92.657134929,20.881493747],[-92.608491204,20.80556038],[-92.55984748,20.729627013],[-92.511203756,20.653693647],[-92.462560032,20.57776028],[-92.413916308,20.501826913],[-92.365272584,20.425893546],[-92.31662886,20.349960179],[-92.267985135,20.274026812],[-92.192980119,20.236388077],[-92.117975103,20.198749343],[-92.042970086,20.161110608],[-91.96796507,20.123471873],[-91.892960054,20.085833138],[-91.807954461,20.05323662],[-91.722948868,20.020640101],[-91.637943275,19.988043583],[-91.552937682,19.955447064],[-91.467932089,19.922850546],[-91.382926496,19.890254027],[-91.297920902,19.857657509],[-91.212915309,19.82506099],[-91.127909716,19.792464472],[-91.054120037,19.769380245],[-90.980330358,19.746296018],[-90.906540679,19.723211791],[-90.83238565,19.709114045],[-90.758230622,19.695016298],[-90.684075593,19.680918552],[-90.609920565,19.666820805],[-90.558377584,19.650639656],[-90.506834604,19.634458506],[-90.459690069,19.609443781],[-90.412545534,19.584429056],[-90.354148459,19.544973287],[-90.295751385,19.505517518],[-90.23735431,19.466061749],[-90.169628848,19.433588942],[-90.101903386,19.401116136],[-90.089646007,19.469062839],[-90.077388627,19.537009543],[-90.07375599,19.619837937],[-90.070123353,19.702666331],[-90.066490716,19.785494725],[-90.062858079,19.86832312],[-90.059225442,19.951151514],[-89.983937529,19.992754926],[-89.908649617,20.034358339],[-89.832785089,19.980760281],[-89.756920562,19.927162224],[-89.701854465,19.873267582],[-89.646788368,19.81937294],[-89.591722271,19.765478298],[-89.536656174,19.711583656],[-89.461044424,19.673051818],[-89.406333749,19.666979723],[-89.319006479,19.685665375],[-89.234319807,19.726989293],[-89.149633135,19.768313211],[-89.064946464,19.809637128],[-88.980259792,19.850961046],[-88.931807369,19.802649058],[-88.883354945,19.754337069],[-88.839345143,19.697765964],[-88.79533534,19.641194858],[-88.757158543,19.575283349],[-88.718981746,19.50937184],[-88.681047437,19.432911193],[-88.643113127,19.356450546],[-88.605178817,19.279989899],[-88.567244508,19.203529252],[-88.479902382,19.204111177],[-88.425884376,19.284534612],[-88.371866369,19.364958048],[-88.317848362,19.445381484],[-88.261379057,19.515101288],[-88.204909752,19.584821092],[-88.148440447,19.654540895],[-88.091971142,19.724260699],[-88.055669432,19.790146721],[-88.019367722,19.856032743],[-87.983066013,19.921918766],[-87.945890246,19.974227287],[-87.878304396,20.041394409],[-87.830981453,20.074883452],[-87.78365851,20.108372495],[-87.714176166,20.063432257],[-87.644693822,20.018492018],[-87.575211477,19.973551779],[-87.510917929,19.939490741],[-87.44662438,19.905429704],[-87.365725208,19.872107354],[-87.284826036,19.838785003],[-87.203926864,19.805462653],[-87.140393817,19.784011567],[-87.076860771,19.762560481],[-87.013327724,19.741109395],[-86.951912106,19.676680845],[-86.890496488,19.612252295],[-86.82908087,19.547823745],[-86.767665253,19.483395194],[-86.706249635,19.418966644],[-86.644834017,19.354538094],[-86.5834184,19.290109543],[-86.522002782,19.225680993],[-86.466502086,19.171760745],[-86.411001391,19.117840497],[-86.355500695,19.063920248],[-86.3,19.01],[-86.3,19.109386792],[-86.3,19.208773585],[-86.3,19.308160377],[-86.3,19.40754717],[-86.3,19.506933962],[-86.3,19.606320755],[-86.3,19.705707547],[-86.3,19.80509434],[-86.3,19.904481132],[-86.3,20.003867925],[-86.3,20.103254717],[-86.3,20.202641509],[-86.3,20.302028302],[-86.3,20.401415094],[-86.3,20.500801887],[-86.3,20.600188679],[-86.3,20.699575472],[-86.3,20.798962264],[-86.3,20.898349057],[-86.3,20.997735849],[-86.3,21.091986681],[-86.3,21.186237514],[-86.3,21.280488346],[-86.3,21.374739179],[-86.3,21.468990011],[-86.3,21.563240844],[-86.3,21.657491676],[-86.3,21.751742508],[-86.3,21.845993341],[-86.3,21.940244173],[-86.3,22.034495006],[-86.3,22.128745838],[-86.3,22.22299667],[-86.3,22.317247503],[-86.3,22.411498335],[-86.3,22.505749168],[-86.3,22.6],[-86.393678571,22.6],[-86.487357143,22.6],[-86.581035714,22.6],[-86.674714286,22.6],[-86.768392857,22.6],[-86.862071429,22.6],[-86.95575,22.6],[-87.049428571,22.6],[-87.143107143,22.6],[-87.236785714,22.6],[-87.330464286,22.6],[-87.424142857,22.6],[-87.517821429,22.6],[-87.6115,22.6],[-87.704708333,22.6],[-87.797916667,22.6],[-87.891125,22.6],[-87.984333333,22.6],[-88.077541667,22.6],[-88.17075,22.6],[-88.263958333,22.6],[-88.357166667,22.6],[-88.450375,22.6],[-88.543583333,22.6],[-88.636791667,22.6],[-88.73,22.6],[-88.821333333,22.6],[-88.912666667,22.6],[-89.011692308,22.6],[-89.110717949,22.6],[-89.20974359,22.6],[-89.308769231,22.6],[-89.407794872,22.6],[-89.506820513,22.6],[-89.605846154,22.6],[-89.704871795,22.6],[-89.803897436,22.6],[-89.902923077,22.6],[-90.001948718,22.6],[-90.100974359,22.6],[-90.2,22.6],[-90.298500184,22.6],[-90.397000368,22.6],[-90.495500552,22.6],[-90.594000736,22.6],[-90.69250092,22.6],[-90.791001104,22.6],[-90.889501288,22.6],[-90.988001472,22.6],[-91.086501656,22.6],[-91.18500184,22.6],[-91.283502024,22.6],[-91.382002208,22.6],[-91.480502392,22.6],[-91.579002576,22.6],[-91.67750276,22.6],[-91.776002944,22.6],[-91.874503128,22.6],[-91.973003312,22.6],[-92.071503497,22.6],[-92.170003681,22.6],[-92.268503865,22.6],[-92.367004049,22.6],[-92.465504233,22.6],[-92.564004417,22.6],[-92.662504601,22.6],[-92.761004785,22.6],[-92.859504969,22.6],[-92.958005153,22.6],[-93.056505337,22.6],[-93.155005521,22.6],[-93.253505705,22.6],[-93.352005889,22.6],[-93.450506073,22.6],[-93.549006257,22.6],[-93.647506441,22.6],[-93.746006625,22.6],[-93.844506809,22.6],[-93.943006993,22.6]]]}}
