{"type":"Feature","properties":{"id":"mexico-1860","family":"mexico","name":"Mexico, with the states of Yucatán and Campeche","clip":["Mexico"]},"geometry":{"type":"Polygon","coordinates":[[[-94.5,14.4],[-94.401204819,14.4],[-94.302409639,14.4],[-94.203614458,14.4],[-94.104819277,14.4],[-94.006024096,14.4],[-93.907228916,14.4],[-93.808433735,14.4],[-93.709638554,14.4],[-93.610843373,14.4],[-93.512048193,14.4],[-93.413253012,14.4],[-93.314457831,14.4],[-93.215662651,14.4],[-93.11686747,14.4],[-93.018072289,14.4],[-92.919277108,14.4],[-92.820481928,14.4],[-92.721686747,14.4],[-92.622891566,14.4],[-92.524096386,14.4],[-92.425301205,14.4],[-92.326506024,14.4],[-92.227710843,14.4],[-92.128915663,14.4],[-92.030120482,14.4],[-91.931325301,14.4],[-91.83253012,14.4],[-91.73373494,14.4],[-91.634939759,14.4],[-91.536144578,14.4],[-91.437349398,14.4],[-91.338554217,14.4],[-91.239759036,14.4],[-91.140963855,14.4],[-91.042168675,14.4],[-90.943373494,14.4],[-90.844578313,14.4],[-90.745783133,14.4],[-90.646987952,14.4],[-90.548192771,14.4],[-90.44939759,14.4],[-90.35060241,14.4],[-90.251807229,14.4],[-90.153012048,14.4],[-90.054216867,14.4],[-89.955421687,14.4],[-89.856626506,14.4],[-89.757831325,14.4],[-89.659036145,14.4],[-89.560240964,14.4],[-89.461445783,14.4],[-89.362650602,14.4],[-89.263855422,14.4],[-89.165060241,14.4],[-89.06626506,14.4],[-88.96746988,14.4],[-88.868674699,14.4],[-88.769879518,14.4],[-88.671084337,14.4],[-88.572289157,14.4],[-88.473493976,14.4],[-88.374698795,14.4],[-88.275903614,14.4],[-88.177108434,14.4],[-88.078313253,14.4],[-87.979518072,14.4],[-87.880722892,14.4],[-87.781927711,14.4],[-87.68313253,14.4],[-87.584337349,14.4],[-87.485542169,14.4],[-87.386746988,14.4],[-87.287951807,14.4],[-87.189156627,14.4],[-87.090361446,14.4],[-86.991566265,14.4],[-86.892771084,14.4],[-86.793975904,14.4],[-86.695180723,14.4],[-86.596385542,14.4],[-86.497590361,14.4],[-86.398795181,14.4],[-86.3,14.4],[-86.3,14.49684973],[-86.3,14.593699461],[-86.3,14.690549191],[-86.3,14.787398922],[-86.3,14.884248652],[-86.3,14.981098383],[-86.3,15.077948113],[-86.3,15.174797844],[-86.3,15.271647574],[-86.3,15.368497305],[-86.3,15.465347035],[-86.3,15.562196765],[-86.3,15.659046496],[-86.3,15.755896226],[-86.3,15.852745957],[-86.3,15.949595687],[-86.3,16.046445418],[-86.3,16.143295148],[-86.3,16.240144879],[-86.3,16.336994609],[-86.3,16.43384434],[-86.3,16.53069407],[-86.3,16.627543801],[-86.3,16.724393531],[-86.3,16.821243261],[-86.3,16.918092992],[-86.3,17.014942722],[-86.3,17.111792453],[-86.3,17.208506289],[-86.3,17.305220126],[-86.3,17.401933962],[-86.3,17.498647799],[-86.3,17.595361635],[-86.3,17.692075472],[-86.3,17.788789308],[-86.3,17.885503145],[-86.3,17.982216981],[-86.3,18.078930818],[-86.3,18.175644654],[-86.3,18.272358491],[-86.3,18.369072327],[-86.3,18.465786164],[-86.3,18.5625],[-86.3,18.652],[-86.3,18.7415],[-86.3,18.831],[-86.3,18.9205],[-86.3,19.01],[-86.3,19.109386792],[-86.3,19.208773585],[-86.3,19.308160377],[-86.3,19.40754717],[-86.3,19.506933962],[-86.3,19.606320755],[-86.3,19.705707547],[-86.3,19.80509434],[-86.3,19.904481132],[-86.3,20.003867925],[-86.3,20.103254717],[-86.3,20.202641509],[-86.3,20.302028302],[-86.3,20.401415094],[-86.3,20.500801887],[-86.3,20.600188679],[-86.3,20.699575472],[-86.3,20.798962264],[-86.3,20.898349057],[-86.3,20.997735849],[-86.3,21.091986681],[-86.3,21.186237514],[-86.3,21.280488346],[-86.3,21.374739179],[-86.3,21.468990011],[-86.3,21.563240844],[-86.3,21.657491676],[-86.3,21.751742508],[-86.3,21.845993341],[-86.3,21.940244173],[-86.3,22.034495006],[-86.3,22.128745838],[-86.3,22.22299667],[-86.3,22.317247503],[-86.3,22.411498335],[-86.3,22.505749168],[-86.3,22.6],[-86.393678571,22.6],[-86.487357143,22.6],[-86.581035714,22.6],[-86.674714286,22.6],[-86.768392857,22.6],[-86.862071429,22.6],[-86.95575,22.6],[-87.049428571,22.6],[-87.143107143,22.6],[-87.236785714,22.6],[-87.330464286,22.6],[-87.424142857,22.6],[-87.517821429,22.6],[-87.6115,22.6],[-87.704708333,22.6],[-87.797916667,22.6],[-87.891125,22.6],[-87.984333333,22.6],[-88.077541667,22.6],[-88.17075,22.6],[-88.263958333,22.6],[-88.357166667,22.6],[-88.450375,22.6],[-88.543583333,22.6],[-88.636791667,22.6],[-88.73,22.6],[-88.821333333,22.6],[-88.912666667,22.6],[-89.011692308,22.6],[-89.110717949,22.6],[-89.20974359,22.6],[-89.308769231,22.6],[-89.407794872,22.6],[-89.506820513,22.6],[-89.605846154,22.6],[-89.704871795,22.6],[-89.803897436,22.6],[-89.902923077,22.6],[-90.001948718,22.6],[-90.100974359,22.6],[-90.2,22.6],[-90.298500184,22.6],[-90.397000368,22.6],[-90.495500552,22.6],[-90.594000736,22.6],[-90.69250092,22.6],[-90.791001104,22.6],[-90.889501288,22.6],[-90.988001472,22.6],[-91.086501656,22.6],[-91.18500184,22.6],[-91.283502024,22.6],[-91.382002208,22.6],[-91.480502392,22.6],[-91.579002576,22.6],[-91.67750276,22.6],[-91.776002944,22.6],[-91.874503128,22.6],[-91.973003312,22.6],[-92.071503497,22.6],[-92.170003681,22.6],[-92.268503865,22.6],[-92.367004049,22.6],[-92.465504233,22.6],[-92.564004417,22.6],[-92.662504601,22.6],[-92.761004785,22.6],[-92.859504969,22.6],[-92.958005153,22.6],[-93.056505337,22.6],[-93.155005521,22.6],[-93.253505705,22.6],[-93.352005889,22.6],[-93.450506073,22.6],[-93.549006257,22.6],[-93.647506441,22.6],[-93.746006625,22.6],[-93.844506809,22.6],[-93.943006993,22.6],[-94.035839161,22.6],[-94.128671329,22.6],[-94.221503497,22.6],[-94.314335664,22.6],[-94.407167832,22.6],[-94.5,22.6],[-94.5,22.5],[-94.5,22.4],[-94.5,22.3],[-94.5,22.2],[-94.5,22.1],[-94.5,22],[-94.5,21.9],[-94.5,21.8],[-94.5,21.7],[-94.5,21.6],[-94.5,21.5],[-94.5,21.4],[-94.5,21.3],[-94.5,21.2],[-94.5,21.1],[-94.5,21],[-94.5,20.9],[-94.5,20.8],[-94.5,20.7],[-94.5,20.6],[-94.5,20.5],[-94.5,20.4],[-94.5,20.3],[-94.5,20.2],[-94.5,20.1],[-94.5,20],[-94.5,19.9],[-94.5,19.8],[-94.5,19.7],[-94.5,19.6],[-94.5,19.5],[-94.5,19.4],[-94.5,19.3],[-94.5,19.2],[-94.5,19.1],[-94.5,19],[-94.5,18.9],[-94.5,18.8],[-94.5,18.7],[-94.5,18.6],[-94.5,18.5],[-94.5,18.4],[-94.5,18.3],[-94.5,18.2],[-94.5,18.1],[-94.5,18],[-94.5,17.9],[-94.5,17.8],[-94.5,17.7],[-94.5,17.6],[-94.5,17.5],[-94.5,17.4],[-94.5,17.3],[-94.5,17.2],[-94.5,17.1],[-94.5,17],[-94.5,16.9],[-94.5,16.8],[-94.5,16.7],[-94.5,16.6],[-94.5,16.5],[-94.5,16.4],[-94.5,16.3],[-94.5,16.2],[-94.5,16.1],[-94.5,16],[-94.5,15.9],[-94.5,15.8],[-94.5,15.7],[-94.5,15.6],[-94.5,15.5],[-94.5,15.4],[-94.5,15.3],[-94.5,15.2],[-94.5,15.1],[-94.5,15],[-94.5,14.9],[-94.5,14.8],[-94.5,14.7],[-94.5,14.6],[-94.5,14.5],[-94.5,14.4]],[[-89.4,15.6],[-89.4,15.696306402],[-89.4,15.792612804],[-89.4,15.888919207],[-89.4,15.985225609],[-89.4,16.081532011],[-89.4,16.177838413],[-89.4,16.274144815],[-89.4,16.370451217],[-89.4,16.46675762],[-89.4,16.563064022],[-89.4,16.659370424],[-89.4,16.755676826],[-89.4,16.851983228],[-89.4,16.948289631],[-89.4,17.044596033],[-89.4,17.140902435],[-89.4,17.237208837],[-89.4,17.333515239],[-89.4,17.429821642],[-89.4,17.526128044],[-89.4,17.622434446],[-89.4,17.718740848],[-89.4,17.81504725],[-89.320097201,17.81504725],[-89.240194402,17.81504725],[-89.160291603,17.81504725],[-89.160291603,17.901164691],[-89.153091531,17.941690545],[-89.131491315,17.970396359],[-89.048690487,17.999102173],[-89.027090271,17.992347864],[-88.998289983,17.961953473],[-88.980289803,17.950133432],[-88.97,17.94852464],[-88.97,18.041592548],[-88.97,18.134660457],[-88.97,18.227728366],[-88.97,18.320796274],[-88.97,18.413864183],[-88.97,18.506932091],[-88.97,18.6],[-88.976,18.68],[-88.982,18.76],[-88.988,18.84],[-88.994,18.92],[-89,19],[-88.99,19.08],[-88.98,19.16],[-88.97,19.24],[-88.96,19.32],[-88.95,19.4],[-88.925,19.4875],[-88.9,19.575],[-88.875,19.6625],[-88.85,19.75],[-88.8125,19.825],[-88.775,19.9],[-88.7375,19.975],[-88.7,20.05],[-88.6375,20.1],[-88.575,20.15],[-88.5125,20.2],[-88.45,20.25],[-88.3625,20.2875],[-88.275,20.325],[-88.1875,20.3625],[-88.1,20.4],[-88.016666667,20.408333333],[-87.933333333,20.416666667],[-87.85,20.425],[-87.766666667,20.433333333],[-87.683333333,20.441666667],[-87.6,20.45],[-87.516666667,20.445],[-87.433333333,20.44],[-87.35,20.435],[-87.266666667,20.43],[-87.183333333,20.425],[-87.1,20.42],[-87.175,20.42],[-87.25,20.42],[-87.325,20.42],[-87.4,20.42],[-87.4,20.322608696],[-87.4,20.225217391],[-87.4,20.127826087],[-87.4,20.030434783],[-87.4,19.933043478],[-87.4,19.835652174],[-87.4,19.73826087],[-87.4,19.640869565],[-87.4,19.543478261],[-87.4,19.446086957],[-87.4,19.348695652],[-87.4,19.251304348],[-87.4,19.153913043],[-87.4,19.056521739],[-87.4,18.959130435],[-87.4,18.86173913],[-87.4,18.764347826],[-87.4,18.666956522],[-87.4,18.569565217],[-87.4,18.472173913],[-87.4,18.374782609],[-87.4,18.277391304],[-87.4,18.18],[-87.4,18.080769231],[-87.4,17.981538462],[-87.4,17.882307692],[-87.4,17.783076923],[-87.4,17.683846154],[-87.4,17.584615385],[-87.4,17.485384615],[-87.4,17.386153846],[-87.4,17.286923077],[-87.4,17.187692308],[-87.4,17.088461538],[-87.4,16.989230769],[-87.4,16.89],[-87.4,16.790769231],[-87.4,16.691538462],[-87.4,16.592307692],[-87.4,16.493076923],[-87.4,16.393846154],[-87.4,16.294615385],[-87.4,16.195384615],[-87.4,16.096153846],[-87.4,15.996923077],[-87.4,15.897692308],[-87.4,15.798461538],[-87.4,15.699230769],[-87.4,15.6],[-87.5,15.6],[-87.6,15.6],[-87.7,15.6],[-87.8,15.6],[-87.9,15.6],[-88,15.6],[-88.1,15.6],[-88.2,15.6],[-88.3,15.6],[-88.4,15.6],[-88.5,15.6],[-88.6,15.6],[-88.7,15.6],[-88.8,15.6],[-88.9,15.6],[-89,15.6],[-89.1,15.6],[-89.2,15.6],[-89.3,15.6],[-89.4,15.6]]]}}
