{"type":"Feature","properties":{"id":"mirador-300bc","family":"kingdom","name":"El Mirador and the cities of the Mirador Basin"},"geometry":{"type":"Polygon","coordinates":[[[-89.634619979,17.805650746],[-89.644034846,17.820432989],[-89.654848965,17.834266288],[-89.666882961,17.847162346],[-89.679995621,17.859148196],[-89.694088711,17.870253138],[-89.709106165,17.880496213],[-89.725027905,17.889875621],[-89.741859146,17.898361287],[-89.759616519,17.905891369],[-89.778312676,17.912373086],[-89.797941173,17.917687745],[-89.818463374,17.92169937],[-89.839798835,17.92426596],[-89.861820215,17.925252112],[-89.884353219,17.924541622],[-89.907181501,17.922048725],[-89.930055894,17.917726782],[-89.952706864,17.911573586],[-89.974858748,17.903632815],[-89.996244194,17.893991646],[-90.01661723,17.882774937],[-90.035763656,17.870136786],[-90.053507751,17.856250524],[-90.069714839,17.841298318],[-90.084289711,17.825461568],[-90.09717145,17.808913104],[-90.108325575,17.79181192],[-90.117734766,17.77430082],[-90.125389508,17.756506976],[-90.131279962,17.738544986],[-90.135390179,17.720521754],[-90.137695376,17.70254224],[-90.138162598,17.684715088],[-90.136754587,17.667157156],[-90.13343625,17.649996166],[-90.128182764,17.633370947],[-90.120988107,17.61742911],[-90.111872775,17.602322364],[-90.100889496,17.588199996],[-90.088126058,17.575201343],[-90.073704711,17.563448233],[-90.057778073,17.553038404],[-90.040521931,17.54404082],[-90.022125757,17.536493585],[-90.002782077,17.530404814],[-89.982676022,17.525756485],[-89.961976388,17.522510857],[-89.94082939,17.520618745],[-89.919355954,17.520028639],[-89.897652984,17.520695533],[-89.875798526,17.522588319],[-89.853860223,17.525694742],[-89.831906059,17.530023168],[-89.810015999,17.535600822],[-89.788293003,17.542468521],[-89.76687188,17.550672421],[-89.74592465,17.56025363],[-89.725661464,17.571236853],[-89.706326603,17.583619399],[-89.688189654,17.597361874],[-89.671532547,17.612381734],[-89.65663361,17.628550599],[-89.643750223,17.645695796],[-89.633101831,17.663606174],[-89.624855117,17.682041702],[-89.619112936,17.70074599],[-89.615908233,17.719460469],[-89.615203648,17.73793882],[-89.616896925,17.755960162],[-89.620831595,17.773339634],[-89.626811834,17.789935308],[-89.634619979,17.805650746]]]}}
