{"type":"Feature","properties":{"id":"naranjo-744","family":"kaanul","name":"Naranjo, Kaanul ally, defeated in 744"},"geometry":{"type":"Polygon","coordinates":[[[-89.157569038,17.1336],[-89.15702766,17.144062255],[-89.157423832,17.154606479],[-89.158797585,17.165103232],[-89.161164065,17.175413229],[-89.164511519,17.185395005],[-89.16880152,17.194912801],[-89.173971361,17.203843855],[-89.179938293,17.212084378],[-89.186605142,17.219553631],[-89.193866645,17.226195779],[-89.201615841,17.231979424],[-89.209749854,17.236895002],[-89.218174484,17.240950453],[-89.226807231,17.244165757],[-89.235578522,17.246567023],[-89.244431166,17.248180874],[-89.25331827,17.249029747],[-89.2622,17.249128663],[-89.271039718,17.248483745],[-89.279800067,17.247092593],[-89.288439559,17.244946367],[-89.29691013,17.242033217],[-89.305155988,17.23834255],[-89.3131139,17.233869527],[-89.320714854,17.22861919],[-89.32788688,17.222609647],[-89.334558621,17.215873933],[-89.340663201,17.208460294],[-89.346141848,17.200430896],[-89.350946819,17.19185915],[-89.355043233,17.182826026],[-89.358409582,17.173415866],[-89.361036878,17.163712266],[-89.362926554,17.153794575],[-89.364087431,17.143735481],[-89.36453218,17.1336],[-89.364273778,17.123445982],[-89.363322487,17.113326045],[-89.36168379,17.103290641],[-89.359357631,17.093391788],[-89.356339119,17.083686888],[-89.352620666,17.074242029],[-89.348195344,17.065134199],[-89.343061054,17.056451959],[-89.337225008,17.048294306],[-89.330707912,17.040767686],[-89.323547307,17.03398134],[-89.315799537,17.028041395],[-89.307540027,17.023044284],[-89.298861679,17.019070213],[-89.28987147,17.016177382],[-89.280685515,17.014397664],[-89.271423057,17.01373426],[-89.2622,17.014161678],[-89.253122665,17.015628109],[-89.244282431,17.018060021],[-89.235751862,17.021368535],[-89.22758275,17.025456936],[-89.219806309,17.030228538],[-89.212435491,17.035594077],[-89.205469196,17.041477837],[-89.198897891,17.04782186],[-89.192710011,17.054587789],[-89.186898421,17.061756152],[-89.181466187,17.069323204],[-89.176430994,17.077295679],[-89.17182768,17.085684067],[-89.167708573,17.094495184],[-89.164141552,17.103724895],[-89.161206009,17.113351807],[-89.158987123,17.123332667],[-89.157569038,17.1336]]]}}
