{"type":"Feature","properties":{"id":"palenque-650","family":"tikal","name":"Palenque under Pakal, allied with Tikal"},"geometry":{"type":"Polygon","coordinates":[[[-91.854325238,17.4842],[-91.854707073,17.497237089],[-91.856376343,17.51024649],[-91.859387663,17.523153409],[-91.863788754,17.535867345],[-91.869611987,17.54828378],[-91.876867239,17.56028793],[-91.885536908,17.57176004],[-91.895573633,17.582581527],[-91.906900895,17.592641167],[-91.919416321,17.601840574],[-91.932997177,17.610098293],[-91.94750725,17.617352045],[-91.962804179,17.623558922],[-91.978746278,17.628693591],[-91.995197959,17.632744844],[-92.012033104,17.635711048],[-92.029136026,17.637595194],[-92.0464,17.638400301],[-92.063723699,17.638125868],[-92.081006177,17.63676595],[-92.098141255,17.634309185],[-92.115012279,17.63074086],[-92.131488199,17.6260468],[-92.147421765,17.620218612],[-92.162650375,17.613259607],[-92.176999783,17.605190615],[-92.190290486,17.596054855],[-92.202346238,17.585921134],[-92.213003858,17.57488482],[-92.222123243,17.563066277],[-92.229596453,17.550606772],[-92.235354749,17.537662152],[-92.239372693,17.524394911],[-92.24166869,17.510965425],[-92.242301783,17.497523334],[-92.241364885,17.4842],[-92.238975124,17.471102913],[-92.235262235,17.458312706],[-92.230356268,17.44588315],[-92.224375931,17.433844154],[-92.217418856,17.422207478],[-92.209554901,17.410974515],[-92.200823248,17.400145257],[-92.19123366,17.389727416],[-92.180771784,17.379744613],[-92.169407922,17.370242658],[-92.15710832,17.361293108],[-92.143847688,17.352993628],[-92.129621564,17.345464985],[-92.11445708,17.338844925],[-92.098420912,17.333279487],[-92.081623468,17.328912643],[-92.064218769,17.325875298],[-92.0464,17.324274809],[-92.028391117,17.324186087],[-92.010435386,17.325645203],[-91.992782015,17.328646139],[-91.975672265,17.333140987],[-91.959326457,17.339043521],[-91.943933173,17.346235716],[-91.929641685,17.354576484],[-91.916558281,17.363911673],[-91.904746712,17.374084255],[-91.894232505,17.384943677],[-91.885010504,17.39635343],[-91.877054617,17.408196168],[-91.870328575,17.420375975],[-91.864796393,17.432817753],[-91.860431359,17.445463986],[-91.857222523,17.458269496],[-91.855178064,17.471194943],[-91.854325238,17.4842]]]}}
