{"type":"Feature","properties":{"id":"pech-1500","family":"xiu","name":"Ceh Pech, Ah Kin Chel and Hocaba"},"geometry":{"type":"Polygon","coordinates":[[[-90.2,22.6],[-90.169039472,22.507237761],[-90.138078944,22.414475522],[-90.107118415,22.321713283],[-90.076157887,22.228951044],[-90.045197359,22.136188805],[-90.014236831,22.043426566],[-89.983276302,21.950664327],[-89.952315774,21.857902088],[-89.921355246,21.765139849],[-89.890394718,21.67237761],[-89.859434189,21.579615371],[-89.828473661,21.486853132],[-89.801556104,21.4166441],[-89.774638547,21.346435069],[-89.74772099,21.276226037],[-89.72271377,21.231235756],[-89.69770655,21.186245476],[-89.638067893,21.109216589],[-89.585812411,21.055822397],[-89.533556928,21.002428205],[-89.481301446,20.949034013],[-89.431346097,20.906093304],[-89.381390748,20.863152594],[-89.378052555,20.81108281],[-89.374714363,20.759013027],[-89.362896241,20.695438078],[-89.351078118,20.63186313],[-89.278078982,20.604620729],[-89.205079846,20.577378329],[-89.162854893,20.622996517],[-89.12062994,20.668614706],[-89.084451961,20.735686506],[-89.048273981,20.802758307],[-88.978315704,20.817904247],[-88.908357427,20.833050187],[-88.856443323,20.83977945],[-88.804529219,20.846508714],[-88.776458816,20.891553614],[-88.748388414,20.936598515],[-88.708328454,21.022169409],[-88.695945671,21.078511669],[-88.695696181,21.135506189],[-88.71318979,21.227522227],[-88.730683398,21.319538264],[-88.748177007,21.411554302],[-88.765670615,21.50357034],[-88.777920286,21.594939479],[-88.790169957,21.686308617],[-88.802419628,21.777677755],[-88.814669299,21.869046894],[-88.82691897,21.960416032],[-88.839168641,22.05178517],[-88.851418312,22.143154308],[-88.863667983,22.234523447],[-88.875917654,22.325892585],[-88.888167325,22.417261723],[-88.900416996,22.508630862],[-88.912666667,22.6],[-89.011692308,22.6],[-89.110717949,22.6],[-89.20974359,22.6],[-89.308769231,22.6],[-89.407794872,22.6],[-89.506820513,22.6],[-89.605846154,22.6],[-89.704871795,22.6],[-89.803897436,22.6],[-89.902923077,22.6],[-90.001948718,22.6],[-90.100974359,22.6],[-90.2,22.6]]]}}
