{"type":"Feature","properties":{"id":"piedras-negras-650","family":"kingdom","name":"Piedras Negras (Yokib)"},"geometry":{"type":"Polygon","coordinates":[[[-91.125322644,17.1667],[-91.126002468,17.17812004],[-91.127502399,17.189461842],[-91.129802141,17.20069649],[-91.132897089,17.211795731],[-91.136798133,17.222725451],[-91.141528919,17.233439542],[-91.147120772,17.243874985],[-91.153605806,17.253948864],[-91.161008978,17.263557806],[-91.169339979,17.272580108],[-91.17858591,17.280880451],[-91.18870564,17.288316867],[-91.199626554,17.294749294],[-91.21124417,17.30004888],[-91.223424779,17.304107089],[-91.236010932,17.30684366],[-91.24882928,17.308212543],[-91.2617,17.308205188],[-91.274446868,17.306850805],[-91.286906953,17.304213538],[-91.298938933,17.300386841],[-91.310429215,17.295485637],[-91.321295227,17.289637057],[-91.331485618,17.282970741],[-91.340977406,17.275609693],[-91.349770449,17.267662608],[-91.357879925,17.259218443],[-91.365327703,17.250343709],[-91.37213359,17.241082686],[-91.378307464,17.231460412],[-91.383843155,17.221488015],[-91.388714759,17.211169673],[-91.392875752,17.200510368],[-91.396260977,17.189523476],[-91.398791235,17.178237331],[-91.400379929,17.1667],[-91.400940993,17.15498175],[-91.400397205,17.14317496],[-91.398687967,17.131391542],[-91.395775713,17.119758186],[-91.391650305,17.108410043],[-91.386330993,17.097483552],[-91.379865832,17.087109253],[-91.372328748,17.077405356],[-91.363814667,17.068472745],[-91.354433381,17.060391878],[-91.3443029,17.053221811],[-91.333543074,17.047001306],[-91.322270194,17.041751715],[-91.310593134,17.037481144],[-91.298611331,17.034189243],[-91.286414693,17.031871923],[-91.274085233,17.030525345],[-91.2617,17.030148624],[-91.249334738,17.030744921],[-91.237067584,17.03232078],[-91.224982157,17.03488386],[-91.213169446,17.0384394],[-91.201728122,17.042985963],[-91.190763095,17.048511086],[-91.180382384,17.054987509],[-91.170692643,17.062370566],[-91.161793857,17.070597193],[-91.15377387,17.07958679],[-91.146703459,17.089243933],[-91.140632624,17.099462682],[-91.135588635,17.110132022],[-91.13157615,17.12114179],[-91.128579513,17.132388379],[-91.126567002,17.143779501],[-91.125496606,17.155237388],[-91.125322644,17.1667]]]}}
