{"type":"Feature","properties":{"id":"pipil-1500","family":"nahua","name":"Pipil of Izcuintepeque (Panatacat)"},"geometry":{"type":"Polygon","coordinates":[[[-91.9575,12.9],[-91.863897059,12.9],[-91.770294118,12.9],[-91.676691176,12.9],[-91.583088235,12.9],[-91.489485294,12.9],[-91.395882353,12.9],[-91.302279412,12.9],[-91.208676471,12.9],[-91.115073529,12.9],[-91.021470588,12.9],[-90.927867647,12.9],[-90.834264706,12.9],[-90.740661765,12.9],[-90.647058824,12.9],[-90.615007374,12.990521897],[-90.582955924,13.081043794],[-90.550904474,13.17156569],[-90.518853024,13.262087587],[-90.486801574,13.352609484],[-90.454750124,13.443131381],[-90.422698675,13.533653277],[-90.445335364,13.608409564],[-90.467972054,13.683165852],[-90.474382501,13.752033702],[-90.480792949,13.820901553],[-90.472711853,13.913896588],[-90.464630758,14.006891624],[-90.456549663,14.099886659],[-90.448468568,14.192881694],[-90.440387472,14.285876729],[-90.52313586,14.316477307],[-90.605884247,14.347077885],[-90.661931367,14.377864159],[-90.717978487,14.408650432],[-90.806088166,14.385863305],[-90.894197846,14.363076177],[-90.982307525,14.34028905],[-91.009501365,14.280925877],[-91.036695205,14.221562704],[-91.074178708,14.160244676],[-91.111662211,14.098926648],[-91.164264511,14.026130631],[-91.216866811,13.953334615],[-91.269469112,13.880538598],[-91.322071412,13.807742581],[-91.374673713,13.734946565],[-91.427657921,13.659042332],[-91.480642129,13.583138098],[-91.533626337,13.507233865],[-91.586610544,13.431329632],[-91.639594752,13.355425399],[-91.69257896,13.279521166],[-91.745563168,13.203616933],[-91.798547376,13.127712699],[-91.851531584,13.051808466],[-91.904515792,12.975904233],[-91.9575,12.9]]]}}
