{"type":"Feature","properties":{"id":"poqomam-1450","family":"highland","name":"Poqomam"},"geometry":{"type":"Polygon","coordinates":[[[-90.717978487,14.408650432],[-90.661931367,14.377864159],[-90.605884247,14.347077885],[-90.52313586,14.316477307],[-90.440387472,14.285876729],[-90.382048989,14.336716532],[-90.323710507,14.387556335],[-90.265372024,14.438396139],[-90.213941642,14.466027616],[-90.159114625,14.48059946],[-90.070079565,14.479422548],[-89.987994023,14.467859661],[-89.90590848,14.456296775],[-89.823822938,14.444733888],[-89.741737396,14.433171001],[-89.659651853,14.421608115],[-89.585255772,14.406322197],[-89.510859691,14.39103628],[-89.43646361,14.375750363],[-89.401692111,14.397064422],[-89.429770234,14.452389066],[-89.458363317,14.494195504],[-89.4869564,14.536001943],[-89.546640618,14.602002738],[-89.606324835,14.668003532],[-89.660271558,14.708744287],[-89.714218281,14.749485041],[-89.779788412,14.786097151],[-89.845358544,14.822709261],[-89.910928675,14.85932137],[-89.985873294,14.922316467],[-90.021127337,14.959387409],[-90.05638138,14.996458351],[-90.124939875,14.97583652],[-90.19349837,14.95521469],[-90.262056865,14.934592859],[-90.337403457,14.922547173],[-90.412750048,14.910501486],[-90.488096639,14.8984558],[-90.536755765,14.824784978],[-90.585414891,14.751114157],[-90.63492737,14.701317721],[-90.684439848,14.651521285],[-90.689842079,14.588497012],[-90.69524431,14.525472738],[-90.706611399,14.467061585],[-90.717978487,14.408650432]]]}}
