{"type":"Feature","properties":{"id":"potonchan-1517","family":"chontal","name":"Potonchán and the Chontal of Tabasco"},"geometry":{"type":"Polygon","coordinates":[[[-93.917815348,17.816940886],[-93.832017253,17.82645688],[-93.746219158,17.835972874],[-93.660421062,17.845488868],[-93.574622967,17.855004862],[-93.488824872,17.864520856],[-93.417324214,17.866581165],[-93.345823555,17.868641475],[-93.281641884,17.855909949],[-93.217460212,17.843178422],[-93.147669193,17.813842661],[-93.077878174,17.7845069],[-93.008087154,17.755171139],[-92.942921567,17.740281284],[-92.874636753,17.736594228],[-92.821638842,17.744458957],[-92.76864093,17.752323686],[-92.675438482,17.781739717],[-92.582236033,17.811155748],[-92.489033585,17.84057178],[-92.392075868,17.852402329],[-92.321469338,17.897017152],[-92.250862807,17.941631975],[-92.249538635,18.027747309],[-92.248214463,18.113862644],[-92.246890291,18.199977979],[-92.245566118,18.286093313],[-92.244241946,18.372208648],[-92.242917774,18.458323982],[-92.241593602,18.544439317],[-92.231421094,18.618474699],[-92.221248586,18.692510082],[-92.202293594,18.781856069],[-92.183338601,18.871202056],[-92.164383609,18.960548043],[-92.145428616,19.04989403],[-92.139610129,19.140804669],[-92.133791642,19.231715308],[-92.127973155,19.322625946],[-92.122154668,19.413536585],[-92.114003713,19.475206831],[-92.105852758,19.536877076],[-92.12864241,19.628682956],[-92.151432061,19.720488836],[-92.174221713,19.812294717],[-92.197011364,19.904100597],[-92.219801015,19.995906477],[-92.235862389,20.088613255],[-92.251923762,20.181320034],[-92.267985135,20.274026812],[-92.31662886,20.349960179],[-92.365272584,20.425893546],[-92.413916308,20.501826913],[-92.462560032,20.57776028],[-92.511203756,20.653693647],[-92.55984748,20.729627013],[-92.608491204,20.80556038],[-92.657134929,20.881493747],[-92.694154421,20.952614131],[-92.731173914,21.023734514],[-92.789080149,21.075122379],[-92.846986385,21.126510243],[-92.90489262,21.177898108],[-92.962798855,21.229285972],[-93.027224247,21.2922534],[-93.09164964,21.355220827],[-93.156075032,21.418188254],[-93.220500424,21.481155681],[-93.284925816,21.544123109],[-93.349351208,21.607090536],[-93.4137766,21.670057963],[-93.478201992,21.733025391],[-93.542627384,21.795992818],[-93.607052776,21.858960245],[-93.659646619,21.903394752],[-93.712240462,21.947829259],[-93.764834305,21.992263766],[-93.78588172,21.911763012],[-93.806929136,21.831262257],[-93.827976551,21.750761502],[-93.845922036,21.655870568],[-93.863867522,21.560979635],[-93.881813007,21.466088701],[-93.899758493,21.371197767],[-93.917703978,21.276306833],[-93.935649464,21.181415899],[-93.953594949,21.086524965],[-93.966692765,20.989731823],[-93.979790581,20.892938682],[-93.992888397,20.79614554],[-94.005986213,20.699352399],[-94.019084029,20.602559257],[-94.032181845,20.505766116],[-94.045279661,20.408972975],[-94.058377477,20.312179833],[-94.071475293,20.215386692],[-94.084573109,20.11859355],[-94.091167262,20.040801312],[-94.097761414,19.963009074],[-94.104355567,19.885216836],[-94.101585859,19.806729989],[-94.098816151,19.728243142],[-94.096046443,19.649756296],[-94.093276735,19.571269449],[-94.085323738,19.476769516],[-94.077370741,19.382269584],[-94.069417744,19.287769651],[-94.061464747,19.193269718],[-94.053511749,19.098769785],[-94.045558752,19.004269853],[-94.037605755,18.90976992],[-94.029652758,18.815269987],[-94.021699761,18.720770055],[-94.013746764,18.626270122],[-94.005793766,18.531770189],[-93.997840769,18.437270256],[-93.989887772,18.342770324],[-93.981934775,18.248270391],[-93.973981778,18.153770458],[-93.962801194,18.057494157],[-93.95162061,17.961217857],[-93.934717979,17.889079372],[-93.917815348,17.816940886]]]}}
