{"type":"Feature","properties":{"id":"quirigua-426","family":"tikal","name":"Quiriguá, vassal of Copán"},"geometry":{"type":"Polygon","coordinates":[[[-88.925792404,15.333609757],[-88.930254752,15.340346405],[-88.93561347,15.346516065],[-88.941840266,15.352045873],[-88.948889555,15.356868338],[-88.956697615,15.360925529],[-88.965183504,15.364172988],[-88.974251766,15.366582824],[-88.983796692,15.368145583],[-88.993707714,15.368870566],[-89.003875331,15.368784503],[-89.0141969,15.367928638],[-89.024581589,15.366354519],[-89.034953892,15.364118927],[-89.045255248,15.361278507],[-89.055443529,15.357884721],[-89.065490419,15.353979721],[-89.075376947,15.34959364],[-89.085087696,15.34474366],[-89.09460436,15.339434998],[-89.103899437,15.33366375],[-89.112930859,15.32742128],[-89.121638258,15.320699694],[-89.129941426,15.313497757],[-89.137741253,15.305826574],[-89.144923194,15.29771436],[-89.151362988,15.289209687],[-89.156934118,15.280382805],[-89.16151628,15.271324792],[-89.165004006,15.262144553],[-89.167314546,15.252963926],[-89.168394195,15.243911361],[-89.168222381,15.235114798],[-89.166813103,15.226694463],[-89.164213546,15.218756319],[-89.160500047,15.21138683],[-89.155771816,15.20464956],[-89.150143106,15.198583916],[-89.143734635,15.193206128],[-89.136665154,15.188512291],[-89.129044025,15.184483092],[-89.120965528,15.181089659],[-89.112505421,15.178299858],[-89.103720013,15.176084318],[-89.094647715,15.174421547],[-89.085312774,15.173301558],[-89.075730648,15.172727678],[-89.065914305,15.172716365],[-89.055880665,15.173295126],[-89.045656394,15.174498829],[-89.035282373,15.176364881],[-89.024816337,15.178927851],[-89.014333407,15.182214185],[-89.003924505,15.186237593],[-88.993692882,15.190995636],[-88.983749209,15.196467835],[-88.974205846,15.202615476],[-88.965170969,15.209383052],[-88.956743223,15.216701096],[-88.949007502,15.224490023],[-88.942032273,15.232664464],[-88.935868662,15.241137563],[-88.930551286,15.249824733],[-88.926100596,15.258646459],[-88.922526314,15.267529873],[-88.9198314,15.276409025],[-88.918015951,15.285223933],[-88.917080458,15.293918663],[-88.917027928,15.302438846],[-88.917864581,15.310729082],[-88.919598993,15.318730711],[-88.922239821,15.326380388],[-88.925792404,15.333609757]]]}}
