{"type":"Feature","properties":{"id":"revolt-1546","family":"eastern","name":"Cupul, Cochuah, Tazes, Chikinchel, Uaymil and Chetumal, in revolt"},"geometry":{"type":"Polygon","coordinates":[[[-88.997897276,17.832779193],[-88.981120008,17.77562423],[-88.96434274,17.718469267],[-88.942335632,17.663232775],[-88.920328524,17.607996284],[-88.860959858,17.603448718],[-88.801591192,17.598901151],[-88.750922955,17.603547077],[-88.700254717,17.608193003],[-88.614343633,17.633020781],[-88.528432549,17.657848559],[-88.442521465,17.682676337],[-88.356610381,17.707504114],[-88.270699297,17.732331892],[-88.218084977,17.736368856],[-88.165470657,17.74040582],[-88.112872437,17.734537263],[-88.060274217,17.728668706],[-87.989023428,17.707982517],[-87.917772639,17.687296329],[-87.832921037,17.65227017],[-87.748069436,17.617244012],[-87.663217834,17.582217854],[-87.579496197,17.545486522],[-87.495774559,17.508755191],[-87.412052921,17.472023859],[-87.328331284,17.435292528],[-87.244609646,17.398561196],[-87.160888009,17.361829865],[-87.077166371,17.325098533],[-86.993444733,17.288367202],[-86.909723096,17.25163587],[-86.826001458,17.214904538],[-86.762428504,17.183738614],[-86.69885555,17.152572689],[-86.628866273,17.10700137],[-86.555743199,17.081363583],[-86.470495466,17.09150654],[-86.385247733,17.101649496],[-86.3,17.111792453],[-86.3,17.208506289],[-86.3,17.305220126],[-86.3,17.401933962],[-86.3,17.498647799],[-86.3,17.595361635],[-86.3,17.692075472],[-86.3,17.788789308],[-86.3,17.885503145],[-86.3,17.982216981],[-86.3,18.078930818],[-86.3,18.175644654],[-86.3,18.272358491],[-86.3,18.369072327],[-86.3,18.465786164],[-86.3,18.5625],[-86.3,18.652],[-86.3,18.7415],[-86.3,18.831],[-86.3,18.9205],[-86.3,19.01],[-86.355500695,19.063920248],[-86.411001391,19.117840497],[-86.466502086,19.171760745],[-86.522002782,19.225680993],[-86.5834184,19.290109543],[-86.644834017,19.354538094],[-86.706249635,19.418966644],[-86.767665253,19.483395194],[-86.82908087,19.547823745],[-86.890496488,19.612252295],[-86.951912106,19.676680845],[-87.013327724,19.741109395],[-87.076860771,19.762560481],[-87.140393817,19.784011567],[-87.203926864,19.805462653],[-87.284826036,19.838785003],[-87.365725208,19.872107354],[-87.44662438,19.905429704],[-87.510917929,19.939490741],[-87.575211477,19.973551779],[-87.644693822,20.018492018],[-87.714176166,20.063432257],[-87.78365851,20.108372495],[-87.810157625,20.168490089],[-87.83665674,20.228607684],[-87.873801002,20.285731774],[-87.910945264,20.342855865],[-87.948089526,20.399979956],[-87.894536133,20.476241783],[-87.84098274,20.55250361],[-87.787429347,20.628765437],[-87.735366711,20.62861441],[-87.683304074,20.628463384],[-87.59730048,20.643002442],[-87.555612033,20.66715738],[-87.521754127,20.728235848],[-87.521239733,20.81099779],[-87.546688366,20.900389098],[-87.58817611,20.987230356],[-87.624175837,21.04853911],[-87.660175564,21.109847864],[-87.696175291,21.171156619],[-87.650789641,21.234167016],[-87.605403992,21.297177414],[-87.560018343,21.360187812],[-87.535414748,21.41860449],[-87.52659904,21.468022829],[-87.517783333,21.517441167],[-87.520629882,21.592343563],[-87.52347643,21.667245959],[-87.526322978,21.742148355],[-87.535787092,21.837465205],[-87.545251205,21.932782054],[-87.554715319,22.028098904],[-87.564179432,22.123415753],[-87.573643546,22.218732602],[-87.583107659,22.314049452],[-87.592571773,22.409366301],[-87.602035886,22.504683151],[-87.6115,22.6],[-87.704708333,22.6],[-87.797916667,22.6],[-87.891125,22.6],[-87.984333333,22.6],[-88.077541667,22.6],[-88.17075,22.6],[-88.263958333,22.6],[-88.357166667,22.6],[-88.450375,22.6],[-88.543583333,22.6],[-88.636791667,22.6],[-88.73,22.6],[-88.821333333,22.6],[-88.912666667,22.6],[-88.900416996,22.508630862],[-88.888167325,22.417261723],[-88.875917654,22.325892585],[-88.863667983,22.234523447],[-88.851418312,22.143154308],[-88.839168641,22.05178517],[-88.82691897,21.960416032],[-88.814669299,21.869046894],[-88.802419628,21.777677755],[-88.790169957,21.686308617],[-88.777920286,21.594939479],[-88.765670615,21.50357034],[-88.748177007,21.411554302],[-88.730683398,21.319538264],[-88.71318979,21.227522227],[-88.695696181,21.135506189],[-88.695945671,21.078511669],[-88.708328454,21.022169409],[-88.748388414,20.936598515],[-88.776458816,20.891553614],[-88.804529219,20.846508714],[-88.774709294,20.777333368],[-88.744889369,20.708158023],[-88.715069444,20.638982677],[-88.685249519,20.569807332],[-88.663480309,20.490535227],[-88.641711099,20.411263122],[-88.619941889,20.331991018],[-88.673601688,20.27915304],[-88.727261487,20.226315063],[-88.780921286,20.173477085],[-88.83537632,20.131350504],[-88.889831353,20.089223923],[-88.944286387,20.047097342],[-88.962273089,19.949029194],[-88.980259792,19.850961046],[-88.931807369,19.802649058],[-88.883354945,19.754337069],[-88.839345143,19.697765964],[-88.79533534,19.641194858],[-88.757158543,19.575283349],[-88.718981746,19.50937184],[-88.681047437,19.432911193],[-88.643113127,19.356450546],[-88.605178817,19.279989899],[-88.567244508,19.203529252],[-88.625613155,19.133615585],[-88.683981803,19.063701919],[-88.74235045,18.993788252],[-88.769717291,18.94611388],[-88.797084133,18.898439508],[-88.816074274,18.847365247],[-88.835064416,18.796290985],[-88.849263657,18.72556211],[-88.863462898,18.654833235],[-88.866124767,18.600994369],[-88.868786636,18.547155503],[-88.85974186,18.464576821],[-88.850697083,18.381998139],[-88.841652307,18.299419457],[-88.832607531,18.216840775],[-88.835582328,18.147787007],[-88.838557125,18.078733239],[-88.858098532,18.015913737],[-88.889168374,17.958070162],[-88.943532825,17.895424677],[-88.997897276,17.832779193]]]}}
