{"type":"Feature","properties":{"id":"seibal-770","family":"kingdom","name":"Seibal"},"geometry":{"type":"Polygon","coordinates":[[[-89.96814869,16.5117],[-89.968119313,16.518766976],[-89.968861903,16.52582922],[-89.970382945,16.532816915],[-89.972673325,16.539660069],[-89.975709137,16.54629179],[-89.979453721,16.552651032],[-89.983860603,16.558684514],[-89.988876922,16.564347604],[-89.994446887,16.569604128],[-90.000514798,16.574425208],[-90.007027265,16.578787349],[-90.013934354,16.582670113],[-90.021189573,16.586053755],[-90.028748753,16.588917234],[-90.036568052,16.5912369],[-90.044601433,16.592986144],[-90.05279805,16.594136095],[-90.0611,16.594657342],[-90.069440865,16.594522515],[-90.077745366,16.593709403],[-90.085930306,16.59220423],[-90.093906841,16.590004663],[-90.101583885,16.587122117],[-90.108872354,16.583583026],[-90.115689778,16.579428839],[-90.12196478,16.574714662],[-90.127640872,16.569506619],[-90.132679101,16.563878171],[-90.137059201,16.557905774],[-90.140779026,16.551664324],[-90.143852309,16.545222913],[-90.146304905,16.538641362],[-90.14816994,16.531967948],[-90.149482357,16.52523859],[-90.150273496,16.518477611],[-90.150566306,16.5117],[-90.150371773,16.504914919],[-90.149686984,16.498130065],[-90.148495102,16.491356361],[-90.146767299,16.484612432],[-90.144466461,16.477928294],[-90.141552313,16.471347821],[-90.137987399,16.464929605],[-90.133743282,16.458746086],[-90.128806279,16.452880947],[-90.123182103,16.447425017],[-90.116898872,16.442471055],[-90.110008147,16.438107946],[-90.102583869,16.434414897],[-90.094719265,16.43145621],[-90.086522062,16.429277192],[-90.078108479,16.427901589],[-90.069596628,16.427330805],[-90.0611,16.427544952],[-90.052721683,16.428505599],[-90.044549887,16.430159892],[-90.036655179,16.432445581],[-90.029089644,16.435296418],[-90.021887954,16.438647339],[-90.015070148,16.442438915],[-90.008645694,16.446620614],[-90.002618315,16.451152609],[-89.996990966,16.456006012],[-89.991770363,16.461161594],[-89.986970523,16.466607242],[-89.982614939,16.472334529],[-89.978737141,16.478334853],[-89.975379639,16.484595653],[-89.972591409,16.491097166],[-89.970424257,16.497810105],[-89.968928528,16.504694528],[-89.96814869,16.5117]]]}}
