{"type":"Feature","properties":{"id":"sotuta-1546","family":"cocom","name":"Sotuta, in revolt from November 1546"},"geometry":{"type":"Polygon","coordinates":[[[-88.944286387,20.047097342],[-88.889831353,20.089223923],[-88.83537632,20.131350504],[-88.780921286,20.173477085],[-88.727261487,20.226315063],[-88.673601688,20.27915304],[-88.619941889,20.331991018],[-88.641711099,20.411263122],[-88.663480309,20.490535227],[-88.685249519,20.569807332],[-88.715069444,20.638982677],[-88.744889369,20.708158023],[-88.774709294,20.777333368],[-88.804529219,20.846508714],[-88.856443323,20.83977945],[-88.908357427,20.833050187],[-88.978315704,20.817904247],[-89.048273981,20.802758307],[-89.084451961,20.735686506],[-89.12062994,20.668614706],[-89.162854893,20.622996517],[-89.205079846,20.577378329],[-89.196147429,20.503268429],[-89.187215013,20.42915853],[-89.156256149,20.34633956],[-89.104915524,20.264963875],[-89.051372478,20.192341697],[-88.997829433,20.119719519],[-88.944286387,20.047097342]]]}}
