{"type":"Feature","properties":{"id":"spain-1562","family":"spain","name":"Spanish Yucatán"},"geometry":{"type":"Polygon","coordinates":[[[-93.943006993,22.6],[-93.917553752,22.513180538],[-93.892100511,22.426361076],[-93.866647269,22.339541614],[-93.841194028,22.252722152],[-93.815740787,22.16590269],[-93.790287546,22.079083228],[-93.764834305,21.992263766],[-93.712240462,21.947829259],[-93.659646619,21.903394752],[-93.607052776,21.858960245],[-93.542627384,21.795992818],[-93.478201992,21.733025391],[-93.4137766,21.670057963],[-93.349351208,21.607090536],[-93.284925816,21.544123109],[-93.220500424,21.481155681],[-93.156075032,21.418188254],[-93.09164964,21.355220827],[-93.027224247,21.2922534],[-92.962798855,21.229285972],[-92.90489262,21.177898108],[-92.846986385,21.126510243],[-92.789080149,21.075122379],[-92.731173914,21.023734514],[-92.694154421,20.952614131],[-92.657134929,20.881493747],[-92.608491204,20.80556038],[-92.55984748,20.729627013],[-92.511203756,20.653693647],[-92.462560032,20.57776028],[-92.413916308,20.501826913],[-92.365272584,20.425893546],[-92.31662886,20.349960179],[-92.267985135,20.274026812],[-92.251923762,20.181320034],[-92.235862389,20.088613255],[-92.219801015,19.995906477],[-92.197011364,19.904100597],[-92.174221713,19.812294717],[-92.151432061,19.720488836],[-92.12864241,19.628682956],[-92.105852758,19.536877076],[-92.048738153,19.465284996],[-91.991623549,19.393692916],[-91.934508944,19.322100836],[-91.87739434,19.250508756],[-91.820279735,19.178916676],[-91.76316513,19.107324596],[-91.706050526,19.035732515],[-91.648935921,18.964140435],[-91.591821316,18.892548355],[-91.534706712,18.820956275],[-91.4966004,18.780080143],[-91.458494089,18.739204011],[-91.405281187,18.696071517],[-91.349176797,18.666680411],[-91.258844413,18.652172941],[-91.195079866,18.659692597],[-91.129361275,18.6758789],[-91.063642684,18.692065202],[-90.997924093,18.708251505],[-90.932416502,18.710872679],[-90.866908911,18.713493854],[-90.815515801,18.742921953],[-90.764122692,18.772350052],[-90.694084776,18.797724678],[-90.622574129,18.811252507],[-90.548916059,18.812983433],[-90.48311061,18.851101126],[-90.431173057,18.871835125],[-90.379235504,18.892569123],[-90.291550072,18.915940321],[-90.203864639,18.93931152],[-90.116179207,18.962682718],[-90.028493775,18.986053916],[-90.035667033,19.059480262],[-90.042840292,19.132906607],[-90.050013551,19.206332953],[-90.067310163,19.27126068],[-90.084606775,19.336188408],[-90.101903386,19.401116136],[-90.089646007,19.469062839],[-90.077388627,19.537009543],[-90.07375599,19.619837937],[-90.070123353,19.702666331],[-90.066490716,19.785494725],[-90.062858079,19.86832312],[-90.059225442,19.951151514],[-89.983937529,19.992754926],[-89.908649617,20.034358339],[-89.914721901,20.123547527],[-89.920794185,20.212736716],[-89.915286131,20.279916931],[-89.909778076,20.347097146],[-89.893618043,20.409323869],[-89.87745801,20.471550592],[-89.844551741,20.557045622],[-89.811645471,20.642540651],[-89.717608346,20.626194788],[-89.633714455,20.601139718],[-89.549820564,20.576084649],[-89.498253043,20.571190253],[-89.423472484,20.588790603],[-89.351078118,20.63186313],[-89.278078982,20.604620729],[-89.205079846,20.577378329],[-89.196147429,20.503268429],[-89.187215013,20.42915853],[-89.156256149,20.34633956],[-89.104915524,20.264963875],[-89.051372478,20.192341697],[-88.997829433,20.119719519],[-88.944286387,20.047097342],[-88.962273089,19.949029194],[-88.980259792,19.850961046],[-88.931807369,19.802649058],[-88.883354945,19.754337069],[-88.839345143,19.697765964],[-88.79533534,19.641194858],[-88.757158543,19.575283349],[-88.718981746,19.50937184],[-88.681047437,19.432911193],[-88.643113127,19.356450546],[-88.605178817,19.279989899],[-88.567244508,19.203529252],[-88.625613155,19.133615585],[-88.683981803,19.063701919],[-88.74235045,18.993788252],[-88.769717291,18.94611388],[-88.797084133,18.898439508],[-88.816074274,18.847365247],[-88.835064416,18.796290985],[-88.849263657,18.72556211],[-88.863462898,18.654833235],[-88.866124767,18.600994369],[-88.868786636,18.547155503],[-88.85974186,18.464576821],[-88.850697083,18.381998139],[-88.841652307,18.299419457],[-88.832607531,18.216840775],[-88.835582328,18.147787007],[-88.838557125,18.078733239],[-88.858098532,18.015913737],[-88.889168374,17.958070162],[-88.943532825,17.895424677],[-88.997897276,17.832779193],[-88.981120008,17.77562423],[-88.96434274,17.718469267],[-88.942335632,17.663232775],[-88.920328524,17.607996284],[-88.860959858,17.603448718],[-88.801591192,17.598901151],[-88.750922955,17.603547077],[-88.700254717,17.608193003],[-88.614343633,17.633020781],[-88.528432549,17.657848559],[-88.442521465,17.682676337],[-88.356610381,17.707504114],[-88.270699297,17.732331892],[-88.218084977,17.736368856],[-88.165470657,17.74040582],[-88.112872437,17.734537263],[-88.060274217,17.728668706],[-87.989023428,17.707982517],[-87.917772639,17.687296329],[-87.832921037,17.65227017],[-87.748069436,17.617244012],[-87.663217834,17.582217854],[-87.579496197,17.545486522],[-87.495774559,17.508755191],[-87.412052921,17.472023859],[-87.328331284,17.435292528],[-87.244609646,17.398561196],[-87.160888009,17.361829865],[-87.077166371,17.325098533],[-86.993444733,17.288367202],[-86.909723096,17.25163587],[-86.826001458,17.214904538],[-86.762428504,17.183738614],[-86.69885555,17.152572689],[-86.628866273,17.10700137],[-86.555743199,17.081363583],[-86.470495466,17.09150654],[-86.385247733,17.101649496],[-86.3,17.111792453],[-86.3,17.208506289],[-86.3,17.305220126],[-86.3,17.401933962],[-86.3,17.498647799],[-86.3,17.595361635],[-86.3,17.692075472],[-86.3,17.788789308],[-86.3,17.885503145],[-86.3,17.982216981],[-86.3,18.078930818],[-86.3,18.175644654],[-86.3,18.272358491],[-86.3,18.369072327],[-86.3,18.465786164],[-86.3,18.5625],[-86.3,18.652],[-86.3,18.7415],[-86.3,18.831],[-86.3,18.9205],[-86.3,19.01],[-86.3,19.109386792],[-86.3,19.208773585],[-86.3,19.308160377],[-86.3,19.40754717],[-86.3,19.506933962],[-86.3,19.606320755],[-86.3,19.705707547],[-86.3,19.80509434],[-86.3,19.904481132],[-86.3,20.003867925],[-86.3,20.103254717],[-86.3,20.202641509],[-86.3,20.302028302],[-86.3,20.401415094],[-86.3,20.500801887],[-86.3,20.600188679],[-86.3,20.699575472],[-86.3,20.798962264],[-86.3,20.898349057],[-86.3,20.997735849],[-86.3,21.091986681],[-86.3,21.186237514],[-86.3,21.280488346],[-86.3,21.374739179],[-86.3,21.468990011],[-86.3,21.563240844],[-86.3,21.657491676],[-86.3,21.751742508],[-86.3,21.845993341],[-86.3,21.940244173],[-86.3,22.034495006],[-86.3,22.128745838],[-86.3,22.22299667],[-86.3,22.317247503],[-86.3,22.411498335],[-86.3,22.505749168],[-86.3,22.6],[-86.393678571,22.6],[-86.487357143,22.6],[-86.581035714,22.6],[-86.674714286,22.6],[-86.768392857,22.6],[-86.862071429,22.6],[-86.95575,22.6],[-87.049428571,22.6],[-87.143107143,22.6],[-87.236785714,22.6],[-87.330464286,22.6],[-87.424142857,22.6],[-87.517821429,22.6],[-87.6115,22.6],[-87.704708333,22.6],[-87.797916667,22.6],[-87.891125,22.6],[-87.984333333,22.6],[-88.077541667,22.6],[-88.17075,22.6],[-88.263958333,22.6],[-88.357166667,22.6],[-88.450375,22.6],[-88.543583333,22.6],[-88.636791667,22.6],[-88.73,22.6],[-88.821333333,22.6],[-88.912666667,22.6],[-89.011692308,22.6],[-89.110717949,22.6],[-89.20974359,22.6],[-89.308769231,22.6],[-89.407794872,22.6],[-89.506820513,22.6],[-89.605846154,22.6],[-89.704871795,22.6],[-89.803897436,22.6],[-89.902923077,22.6],[-90.001948718,22.6],[-90.100974359,22.6],[-90.2,22.6],[-90.298500184,22.6],[-90.397000368,22.6],[-90.495500552,22.6],[-90.594000736,22.6],[-90.69250092,22.6],[-90.791001104,22.6],[-90.889501288,22.6],[-90.988001472,22.6],[-91.086501656,22.6],[-91.18500184,22.6],[-91.283502024,22.6],[-91.382002208,22.6],[-91.480502392,22.6],[-91.579002576,22.6],[-91.67750276,22.6],[-91.776002944,22.6],[-91.874503128,22.6],[-91.973003312,22.6],[-92.071503497,22.6],[-92.170003681,22.6],[-92.268503865,22.6],[-92.367004049,22.6],[-92.465504233,22.6],[-92.564004417,22.6],[-92.662504601,22.6],[-92.761004785,22.6],[-92.859504969,22.6],[-92.958005153,22.6],[-93.056505337,22.6],[-93.155005521,22.6],[-93.253505705,22.6],[-93.352005889,22.6],[-93.450506073,22.6],[-93.549006257,22.6],[-93.647506441,22.6],[-93.746006625,22.6],[-93.844506809,22.6],[-93.943006993,22.6]]]}}
