{"type":"Feature","properties":{"id":"spain-1546","family":"spain","name":"Spanish Yucatán, 1546"},"geometry":{"type":"Polygon","coordinates":[[[-93.943006993,22.6],[-93.917553752,22.513180538],[-93.892100511,22.426361076],[-93.866647269,22.339541614],[-93.841194028,22.252722152],[-93.815740787,22.16590269],[-93.790287546,22.079083228],[-93.764834305,21.992263766],[-93.712240462,21.947829259],[-93.659646619,21.903394752],[-93.607052776,21.858960245],[-93.542627384,21.795992818],[-93.478201992,21.733025391],[-93.4137766,21.670057963],[-93.349351208,21.607090536],[-93.284925816,21.544123109],[-93.220500424,21.481155681],[-93.156075032,21.418188254],[-93.09164964,21.355220827],[-93.027224247,21.2922534],[-92.962798855,21.229285972],[-92.90489262,21.177898108],[-92.846986385,21.126510243],[-92.789080149,21.075122379],[-92.731173914,21.023734514],[-92.694154421,20.952614131],[-92.657134929,20.881493747],[-92.608491204,20.80556038],[-92.55984748,20.729627013],[-92.511203756,20.653693647],[-92.462560032,20.57776028],[-92.413916308,20.501826913],[-92.365272584,20.425893546],[-92.31662886,20.349960179],[-92.267985135,20.274026812],[-92.251923762,20.181320034],[-92.235862389,20.088613255],[-92.219801015,19.995906477],[-92.197011364,19.904100597],[-92.174221713,19.812294717],[-92.151432061,19.720488836],[-92.12864241,19.628682956],[-92.105852758,19.536877076],[-92.048738153,19.465284996],[-91.991623549,19.393692916],[-91.934508944,19.322100836],[-91.87739434,19.250508756],[-91.820279735,19.178916676],[-91.76316513,19.107324596],[-91.706050526,19.035732515],[-91.648935921,18.964140435],[-91.591821316,18.892548355],[-91.534706712,18.820956275],[-91.4966004,18.780080143],[-91.458494089,18.739204011],[-91.405281187,18.696071517],[-91.349176797,18.666680411],[-91.258844413,18.652172941],[-91.195079866,18.659692597],[-91.129361275,18.6758789],[-91.063642684,18.692065202],[-90.997924093,18.708251505],[-90.932416502,18.710872679],[-90.866908911,18.713493854],[-90.815515801,18.742921953],[-90.764122692,18.772350052],[-90.694084776,18.797724678],[-90.622574129,18.811252507],[-90.548916059,18.812983433],[-90.48311061,18.851101126],[-90.431173057,18.871835125],[-90.379235504,18.892569123],[-90.291550072,18.915940321],[-90.203864639,18.93931152],[-90.116179207,18.962682718],[-90.028493775,18.986053916],[-90.035667033,19.059480262],[-90.042840292,19.132906607],[-90.050013551,19.206332953],[-90.067310163,19.27126068],[-90.084606775,19.336188408],[-90.101903386,19.401116136],[-90.089646007,19.469062839],[-90.077388627,19.537009543],[-90.07375599,19.619837937],[-90.070123353,19.702666331],[-90.066490716,19.785494725],[-90.062858079,19.86832312],[-90.059225442,19.951151514],[-89.983937529,19.992754926],[-89.908649617,20.034358339],[-89.914721901,20.123547527],[-89.920794185,20.212736716],[-89.915286131,20.279916931],[-89.909778076,20.347097146],[-89.893618043,20.409323869],[-89.87745801,20.471550592],[-89.844551741,20.557045622],[-89.811645471,20.642540651],[-89.717608346,20.626194788],[-89.633714455,20.601139718],[-89.549820564,20.576084649],[-89.498253043,20.571190253],[-89.423472484,20.588790603],[-89.351078118,20.63186313],[-89.278078982,20.604620729],[-89.205079846,20.577378329],[-89.162854893,20.622996517],[-89.12062994,20.668614706],[-89.084451961,20.735686506],[-89.048273981,20.802758307],[-88.978315704,20.817904247],[-88.908357427,20.833050187],[-88.856443323,20.83977945],[-88.804529219,20.846508714],[-88.776458816,20.891553614],[-88.748388414,20.936598515],[-88.708328454,21.022169409],[-88.695945671,21.078511669],[-88.695696181,21.135506189],[-88.71318979,21.227522227],[-88.730683398,21.319538264],[-88.748177007,21.411554302],[-88.765670615,21.50357034],[-88.777920286,21.594939479],[-88.790169957,21.686308617],[-88.802419628,21.777677755],[-88.814669299,21.869046894],[-88.82691897,21.960416032],[-88.839168641,22.05178517],[-88.851418312,22.143154308],[-88.863667983,22.234523447],[-88.875917654,22.325892585],[-88.888167325,22.417261723],[-88.900416996,22.508630862],[-88.912666667,22.6],[-89.011692308,22.6],[-89.110717949,22.6],[-89.20974359,22.6],[-89.308769231,22.6],[-89.407794872,22.6],[-89.506820513,22.6],[-89.605846154,22.6],[-89.704871795,22.6],[-89.803897436,22.6],[-89.902923077,22.6],[-90.001948718,22.6],[-90.100974359,22.6],[-90.2,22.6],[-90.298500184,22.6],[-90.397000368,22.6],[-90.495500552,22.6],[-90.594000736,22.6],[-90.69250092,22.6],[-90.791001104,22.6],[-90.889501288,22.6],[-90.988001472,22.6],[-91.086501656,22.6],[-91.18500184,22.6],[-91.283502024,22.6],[-91.382002208,22.6],[-91.480502392,22.6],[-91.579002576,22.6],[-91.67750276,22.6],[-91.776002944,22.6],[-91.874503128,22.6],[-91.973003312,22.6],[-92.071503497,22.6],[-92.170003681,22.6],[-92.268503865,22.6],[-92.367004049,22.6],[-92.465504233,22.6],[-92.564004417,22.6],[-92.662504601,22.6],[-92.761004785,22.6],[-92.859504969,22.6],[-92.958005153,22.6],[-93.056505337,22.6],[-93.155005521,22.6],[-93.253505705,22.6],[-93.352005889,22.6],[-93.450506073,22.6],[-93.549006257,22.6],[-93.647506441,22.6],[-93.746006625,22.6],[-93.844506809,22.6],[-93.943006993,22.6]]]}}
