{"type":"Feature","properties":{"id":"spain-1524","family":"spain","name":"New Spain, with the K'iche' lands taken in 1524"},"geometry":{"type":"Polygon","coordinates":[[[-99.6,12.9],[-99.50126615,12.9],[-99.4025323,12.9],[-99.30379845,12.9],[-99.205064599,12.9],[-99.106330749,12.9],[-99.007596899,12.9],[-98.908863049,12.9],[-98.810129199,12.9],[-98.711395349,12.9],[-98.612661499,12.9],[-98.513927649,12.9],[-98.415193798,12.9],[-98.316459948,12.9],[-98.217726098,12.9],[-98.118992248,12.9],[-98.020258398,12.9],[-97.921524548,12.9],[-97.822790698,12.9],[-97.724056848,12.9],[-97.625322997,12.9],[-97.526589147,12.9],[-97.427855297,12.9],[-97.329121447,12.9],[-97.230387597,12.9],[-97.131653747,12.9],[-97.032919897,12.9],[-96.934186047,12.9],[-96.835452196,12.9],[-96.736718346,12.9],[-96.637984496,12.9],[-96.539250646,12.9],[-96.440516796,12.9],[-96.341782946,12.9],[-96.243049096,12.9],[-96.144315245,12.9],[-96.045581395,12.9],[-95.946847545,12.9],[-95.848113695,12.9],[-95.749379845,12.9],[-95.650645995,12.9],[-95.551912145,12.9],[-95.453178295,12.9],[-95.354444444,12.9],[-95.256235605,12.9],[-95.158026766,12.9],[-95.059817927,12.9],[-94.961609088,12.9],[-94.863400249,12.9],[-94.76519141,12.9],[-94.666982571,12.9],[-94.568773732,12.9],[-94.470564893,12.9],[-94.372356054,12.9],[-94.274147214,12.9],[-94.175938375,12.9],[-94.077729536,12.9],[-93.979520697,12.9],[-93.881311858,12.9],[-93.783103019,12.9],[-93.68489418,12.9],[-93.586685341,12.9],[-93.488476502,12.9],[-93.390267663,12.9],[-93.292058824,12.9],[-93.195938914,12.9],[-93.099819005,12.9],[-93.003699095,12.9],[-92.907579186,12.9],[-92.811459276,12.9],[-92.715339367,12.9],[-92.619219457,12.9],[-92.523099548,12.9],[-92.426979638,12.9],[-92.330859729,12.9],[-92.234739819,12.9],[-92.13861991,12.9],[-92.0425,12.9],[-92.014971447,12.99038307],[-91.987442894,13.08076614],[-91.959914342,13.171149209],[-91.932385789,13.261532279],[-91.904857236,13.351915349],[-91.877328683,13.442298419],[-91.849800131,13.532681489],[-91.822271578,13.623064558],[-91.794743025,13.713447628],[-91.760903419,13.804996863],[-91.727063813,13.896546097],[-91.69441523,13.975631514],[-91.661766647,14.054716931],[-91.629118064,14.133802348],[-91.59646948,14.212887764],[-91.563820897,14.291973181],[-91.53725531,14.368927305],[-91.510689724,14.445881429],[-91.484124137,14.522835554],[-91.469005826,14.584273113],[-91.453887514,14.645710672],[-91.402013182,14.700234442],[-91.350138851,14.754758212],[-91.296649843,14.75737175],[-91.243160835,14.759985289],[-91.166481054,14.815261991],[-91.097556133,14.841000533],[-91.045041379,14.848844069],[-90.992526625,14.856687605],[-90.918614644,14.855613159],[-90.844702664,14.854538712],[-90.783141991,14.910212076],[-90.721581318,14.965885439],[-90.660020645,15.021558802],[-90.682140316,15.085158322],[-90.704259988,15.148757841],[-90.726379659,15.212357361],[-90.716359361,15.257595593],[-90.771900947,15.290278032],[-90.827442534,15.322960472],[-90.889010946,15.346629782],[-90.950579358,15.370299092],[-91.047189436,15.383354044],[-91.113193887,15.377008118],[-91.179198338,15.370662193],[-91.193257337,15.293175843],[-91.207316336,15.215689494],[-91.289779778,15.19296498],[-91.37224322,15.170240466],[-91.454706661,15.147515952],[-91.505096104,15.11908875],[-91.567231997,15.057887241],[-91.60058133,15.047839052],[-91.670974822,15.08592324],[-91.741368314,15.124007429],[-91.811761806,15.162091618],[-91.899735323,15.199886783],[-91.962213936,15.211899274],[-92.024692549,15.223911766],[-92.086751507,15.223561661],[-92.148810464,15.223211555],[-92.205494794,15.2974519],[-92.262179124,15.371692245],[-92.327396497,15.370885893],[-92.392613871,15.370079541],[-92.45767362,15.383657482],[-92.522733369,15.397235424],[-92.586189388,15.423837262],[-92.649645407,15.450439099],[-92.724724846,15.487181298],[-92.799804286,15.523923496],[-92.874883725,15.560665695],[-92.949963165,15.597407894],[-93.025042604,15.634150092],[-93.035546359,15.724918254],[-93.046050115,15.815686416],[-93.05655387,15.906454578],[-93.067057626,15.99722274],[-93.077561381,16.087990903],[-93.103492954,16.170837153],[-93.134486905,16.21722868],[-93.202616419,16.276119666],[-93.259438535,16.313271467],[-93.31626065,16.350423268],[-93.373082766,16.387575069],[-93.439729094,16.437611654],[-93.506375421,16.487648239],[-93.573021748,16.537684824],[-93.639668076,16.587721409],[-93.706314403,16.637757994],[-93.766900084,16.67637747],[-93.827485766,16.714996946],[-93.873715868,16.738495386],[-93.91994597,16.761993826],[-93.949340745,16.856103259],[-93.978735519,16.950212693],[-93.985762359,17.001467101],[-93.9927892,17.05272151],[-93.986769662,17.103002719],[-93.980750124,17.153283927],[-93.961898677,17.204020858],[-93.943047229,17.254757788],[-93.962174915,17.326260989],[-93.981302602,17.39776419],[-93.987155174,17.451365605],[-93.993007746,17.504967021],[-93.992173198,17.575186055],[-93.983404189,17.626763689],[-93.974635181,17.678341322],[-93.946225265,17.747641104],[-93.917815348,17.816940886],[-93.934717979,17.889079372],[-93.95162061,17.961217857],[-93.962801194,18.057494157],[-93.973981778,18.153770458],[-93.981934775,18.248270391],[-93.989887772,18.342770324],[-93.997840769,18.437270256],[-94.005793766,18.531770189],[-94.013746764,18.626270122],[-94.021699761,18.720770055],[-94.029652758,18.815269987],[-94.037605755,18.90976992],[-94.045558752,19.004269853],[-94.053511749,19.098769785],[-94.061464747,19.193269718],[-94.069417744,19.287769651],[-94.077370741,19.382269584],[-94.085323738,19.476769516],[-94.093276735,19.571269449],[-94.096046443,19.649756296],[-94.098816151,19.728243142],[-94.101585859,19.806729989],[-94.104355567,19.885216836],[-94.097761414,19.963009074],[-94.091167262,20.040801312],[-94.084573109,20.11859355],[-94.071475293,20.215386692],[-94.058377477,20.312179833],[-94.045279661,20.408972975],[-94.032181845,20.505766116],[-94.019084029,20.602559257],[-94.005986213,20.699352399],[-93.992888397,20.79614554],[-93.979790581,20.892938682],[-93.966692765,20.989731823],[-93.953594949,21.086524965],[-93.935649464,21.181415899],[-93.917703978,21.276306833],[-93.899758493,21.371197767],[-93.881813007,21.466088701],[-93.863867522,21.560979635],[-93.845922036,21.655870568],[-93.827976551,21.750761502],[-93.806929136,21.831262257],[-93.78588172,21.911763012],[-93.764834305,21.992263766],[-93.790287546,22.079083228],[-93.815740787,22.16590269],[-93.841194028,22.252722152],[-93.866647269,22.339541614],[-93.892100511,22.426361076],[-93.917553752,22.513180538],[-93.943006993,22.6],[-94.035839161,22.6],[-94.128671329,22.6],[-94.221503497,22.6],[-94.314335664,22.6],[-94.407167832,22.6],[-94.5,22.6],[-94.6,22.6],[-94.7,22.6],[-94.8,22.6],[-94.9,22.6],[-95,22.6],[-95.1,22.6],[-95.2,22.6],[-95.3,22.6],[-95.4,22.6],[-95.5,22.6],[-95.6,22.6],[-95.7,22.6],[-95.8,22.6],[-95.9,22.6],[-96,22.6],[-96.1,22.6],[-96.2,22.6],[-96.3,22.6],[-96.4,22.6],[-96.5,22.6],[-96.6,22.6],[-96.7,22.6],[-96.8,22.6],[-96.9,22.6],[-97,22.6],[-97.1,22.6],[-97.2,22.6],[-97.3,22.6],[-97.4,22.6],[-97.5,22.6],[-97.6,22.6],[-97.7,22.6],[-97.8,22.6],[-97.9,22.6],[-98,22.6],[-98.1,22.6],[-98.2,22.6],[-98.3,22.6],[-98.4,22.6],[-98.5,22.6],[-98.6,22.6],[-98.7,22.6],[-98.8,22.6],[-98.9,22.6],[-99,22.6],[-99.1,22.6],[-99.2,22.6],[-99.3,22.6],[-99.4,22.6],[-99.5,22.6],[-99.6,22.6],[-99.6,22.5],[-99.6,22.4],[-99.6,22.3],[-99.6,22.2],[-99.6,22.1],[-99.6,22],[-99.6,21.9],[-99.6,21.8],[-99.6,21.7],[-99.6,21.6],[-99.6,21.5],[-99.6,21.4],[-99.6,21.3],[-99.6,21.2],[-99.6,21.1],[-99.6,21],[-99.6,20.9],[-99.6,20.8],[-99.6,20.7],[-99.6,20.6],[-99.6,20.5],[-99.6,20.4],[-99.6,20.3],[-99.6,20.2],[-99.6,20.1],[-99.6,20],[-99.6,19.9],[-99.6,19.8],[-99.6,19.7],[-99.6,19.6],[-99.6,19.5],[-99.6,19.4],[-99.6,19.3],[-99.6,19.2],[-99.6,19.1],[-99.6,19],[-99.6,18.9],[-99.6,18.8],[-99.6,18.7],[-99.6,18.6],[-99.6,18.5],[-99.6,18.4],[-99.6,18.3],[-99.6,18.2],[-99.6,18.1],[-99.6,18],[-99.6,17.9],[-99.6,17.8],[-99.6,17.7],[-99.6,17.6],[-99.6,17.5],[-99.6,17.4],[-99.6,17.3],[-99.6,17.2],[-99.6,17.1],[-99.6,17],[-99.6,16.9],[-99.6,16.8],[-99.6,16.7],[-99.6,16.6],[-99.6,16.5],[-99.6,16.4],[-99.6,16.3],[-99.6,16.2],[-99.6,16.1],[-99.6,16],[-99.6,15.9],[-99.6,15.8],[-99.6,15.7],[-99.6,15.6],[-99.6,15.5],[-99.6,15.4],[-99.6,15.3],[-99.6,15.2],[-99.6,15.1],[-99.6,15],[-99.6,14.9],[-99.6,14.8],[-99.6,14.7],[-99.6,14.6],[-99.6,14.5],[-99.6,14.4],[-99.6,14.3],[-99.6,14.2],[-99.6,14.1],[-99.6,14],[-99.6,13.9],[-99.6,13.8],[-99.6,13.7],[-99.6,13.6],[-99.6,13.5],[-99.6,13.4],[-99.6,13.3],[-99.6,13.2],[-99.6,13.1],[-99.6,13],[-99.6,12.9]]]}}
