{"type":"Feature","properties":{"id":"spain-1531","family":"spain","name":"Campeche and Champotón, Montejo’s base, 1531 – 1535"},"geometry":{"type":"Polygon","coordinates":[[[-92.731173914,21.023734514],[-92.694154421,20.952614131],[-92.657134929,20.881493747],[-92.608491204,20.80556038],[-92.55984748,20.729627013],[-92.511203756,20.653693647],[-92.462560032,20.57776028],[-92.413916308,20.501826913],[-92.365272584,20.425893546],[-92.31662886,20.349960179],[-92.267985135,20.274026812],[-92.251923762,20.181320034],[-92.235862389,20.088613255],[-92.219801015,19.995906477],[-92.197011364,19.904100597],[-92.174221713,19.812294717],[-92.151432061,19.720488836],[-92.12864241,19.628682956],[-92.105852758,19.536877076],[-92.048738153,19.465284996],[-91.991623549,19.393692916],[-91.934508944,19.322100836],[-91.87739434,19.250508756],[-91.820279735,19.178916676],[-91.76316513,19.107324596],[-91.706050526,19.035732515],[-91.648935921,18.964140435],[-91.591821316,18.892548355],[-91.534706712,18.820956275],[-91.4966004,18.780080143],[-91.458494089,18.739204011],[-91.405281187,18.696071517],[-91.349176797,18.666680411],[-91.258844413,18.652172941],[-91.195079866,18.659692597],[-91.129361275,18.6758789],[-91.063642684,18.692065202],[-90.997924093,18.708251505],[-90.932416502,18.710872679],[-90.866908911,18.713493854],[-90.815515801,18.742921953],[-90.764122692,18.772350052],[-90.694084776,18.797724678],[-90.622574129,18.811252507],[-90.548916059,18.812983433],[-90.48311061,18.851101126],[-90.431173057,18.871835125],[-90.379235504,18.892569123],[-90.291550072,18.915940321],[-90.203864639,18.93931152],[-90.116179207,18.962682718],[-90.028493775,18.986053916],[-90.035667033,19.059480262],[-90.042840292,19.132906607],[-90.050013551,19.206332953],[-90.067310163,19.27126068],[-90.084606775,19.336188408],[-90.101903386,19.401116136],[-90.089646007,19.469062839],[-90.077388627,19.537009543],[-90.07375599,19.619837937],[-90.070123353,19.702666331],[-90.066490716,19.785494725],[-90.062858079,19.86832312],[-90.059225442,19.951151514],[-90.131066747,20.015109015],[-90.202908052,20.079066516],[-90.274749357,20.143024018],[-90.346590662,20.206981519],[-90.419054668,20.259372232],[-90.491518673,20.311762945],[-90.566522873,20.351042436],[-90.641527073,20.390321926],[-90.716531273,20.429601417],[-90.791535473,20.468880907],[-90.866539673,20.508160397],[-90.945949833,20.545311043],[-91.025359993,20.582461688],[-91.104770153,20.619612334],[-91.184180313,20.656762979],[-91.258005065,20.682852995],[-91.331829817,20.70894301],[-91.427501494,20.734292507],[-91.52317317,20.759642003],[-91.616096304,20.779956812],[-91.709019438,20.80027162],[-91.801942572,20.820586429],[-91.894865706,20.840901237],[-91.987788841,20.861216046],[-92.080711975,20.881530855],[-92.173635109,20.901845663],[-92.266558243,20.922160472],[-92.359481377,20.94247528],[-92.452404511,20.962790089],[-92.545327645,20.983104897],[-92.63825078,21.003419706],[-92.731173914,21.023734514]]]}}
