{"type":"Feature","properties":{"id":"teotihuacan-378","family":"nahua","name":"Teotihuacan and its valley"},"geometry":{"type":"Polygon","coordinates":[[[-98.641440994,19.743922422],[-98.646880658,19.756322466],[-98.653857951,19.768072403],[-98.662242693,19.779096184],[-98.671892837,19.789342681],[-98.682664834,19.798784578],[-98.694423585,19.807414721],[-98.707050774,19.815240289],[-98.720450574,19.822275418],[-98.734551982,19.82853314],[-98.749307424,19.834017602],[-98.764687749,19.838717526],[-98.780674119,19.842601794],[-98.797247734,19.845617754],[-98.814378595,19.847692614],[-98.832014672,19.8487379],[-98.850072833,19.848656596],[-98.868432721,19.847352294],[-98.886934477,19.844739398],[-98.905380762,19.840753301],[-98.923543079,19.835359433],[-98.9411719,19.828560153],[-98.958009654,19.820398711],[-98.973805319,19.810959779],[-98.988329138,19.800366456],[-99.001385966,19.78877398],[-99.012825865,19.776360793],[-99.022550879,19.763317855],[-99.0305173,19.749837281],[-99.036733258,19.736101485],[-99.041251923,19.722273892],[-99.044161126,19.708492143],[-99.045570563,19.694864397],[-99.045597962,19.681469009],[-99.044355752,19.668357468],[-99.041939611,19.655560129],[-99.038420092,19.643093977],[-99.033838124,19.630971425],[-99.028204763,19.619209095],[-99.021505052,19.607835529],[-99.013705423,19.596896933],[-99.004763669,19.586460309],[-98.994640269,19.576613652],[-98.983309704,19.567463215],[-98.970770484,19.559128217],[-98.957052754,19.551733622],[-98.942222702,19.545401849],[-98.926383354,19.540244359],[-98.909671795,19.536354061],[-98.892253278,19.533799341],[-98.874313,19.532620316],[-98.856046595,19.532827626],[-98.837650494,19.534403758],[-98.819313239,19.537306601],[-98.801208714,19.54147468],[-98.783491914,19.546833326],[-98.766297566,19.553300966],[-98.749741485,19.560794728],[-98.733924229,19.569234712],[-98.718936287,19.578546437],[-98.704863861,19.588661289],[-98.691794239,19.599515036],[-98.679819825,19.61104478],[-98.669040109,19.623184906],[-98.659561114,19.635862751],[-98.651492279,19.648994733],[-98.644941033,19.662483658],[-98.640005719,19.676217726],[-98.636767734,19.69007157],[-98.635283918,19.703909347],[-98.635580239,19.71758966],[-98.63764768,19.730971768],[-98.641440994,19.743922422]]]}}
