{"type":"Feature","properties":{"id":"tikal-300","family":"tikal","name":"Kingdom of Tikal (Mutul)"},"geometry":{"type":"Polygon","coordinates":[[[-89.384460214,17.15],[-89.387217556,17.162269729],[-89.39148379,17.174265583],[-89.397114043,17.185945509],[-89.403982062,17.197287699],[-89.41199039,17.208284367],[-89.421076517,17.218933879],[-89.431214273,17.229232161],[-89.442410274,17.239164383],[-89.454695763,17.248697907],[-89.46811475,17.257777374],[-89.482709749,17.266322572],[-89.498506719,17.274229417],[-89.515500895,17.281374043],[-89.533645157,17.287619661],[-89.552842253,17.292825499],[-89.572941835,17.296856945],[-89.593742687,17.299595845],[-89.615,17.300949884],[-89.636436963,17.300860108],[-89.657759487,17.299305791],[-89.678672547,17.296306192],[-89.698896462,17.291919057],[-89.718181461,17.286236057],[-89.7363191,17.27937571],[-89.75314946,17.271474565],[-89.76856356,17.262677598],[-89.782500918,17.253128839],[-89.794942789,17.242963168],[-89.80590202,17.232300078],[-89.815410843,17.221239937],[-89.823508103,17.209862993],[-89.830227434,17.198231019],[-89.835587724,17.18639123],[-89.8395869,17.174381821],[-89.842199638,17.162238336],[-89.843379107,17.15],[-89.843062372,17.137715192],[-89.841178663,17.125445373],[-89.837659381,17.113267001],[-89.832448558,17.101271242],[-89.825512454,17.089561555],[-89.816847146,17.078249501],[-89.806483235,17.067449354],[-89.794487192,17.057272205],[-89.780959306,17.047820318],[-89.766028616,17.039182423],[-89.749845597,17.031430517],[-89.732573621,17.0246185],[-89.71438035,17.018782755],[-89.695430183,17.013944492],[-89.675878712,17.010113456],[-89.655869835,17.007292418],[-89.635535797,17.005481742],[-89.615,17.004683356],[-89.594382033,17.004903478],[-89.573804042,17.006153673],[-89.553397352,17.008450002],[-89.533308177,17.011810304],[-89.51370135,17.01624992],[-89.49476124,17.021776374],[-89.476689366,17.028383716],[-89.459698647,17.036047293],[-89.444004693,17.044719696],[-89.429814922,17.054328527],[-89.417316653,17.064776413],[-89.406665495,17.075943443],[-89.397975393,17.087691906],[-89.391311571,17.099872929],[-89.386687309,17.112334352],[-89.384065096,17.124929021],[-89.383362205,17.137522599],[-89.384460214,17.15]]]}}
