{"type":"Feature","properties":{"id":"tikal-378","family":"tikal","name":"Tikal and Uaxactun, taken by Siyaj K'ak' in 378"},"geometry":{"type":"Polygon","coordinates":[[[-89.41731826,17.29],[-89.417772728,17.312973548],[-89.419948769,17.3358153],[-89.423802294,17.358313237],[-89.429265476,17.380274],[-89.436253845,17.401527007],[-89.444673758,17.421925179],[-89.454429249,17.44134244],[-89.465427349,17.459668561],[-89.477581195,17.476802323],[-89.490810583,17.492644174],[-89.505039983,17.507089652],[-89.520194391,17.520024736],[-89.536193706,17.531324038],[-89.552946567,17.540852362],[-89.570344649,17.548469689],[-89.588258424,17.554039196],[-89.606535201,17.557437426],[-89.625,17.558565451],[-89.643459427,17.557359623],[-89.661708364,17.553800521],[-89.679538871,17.547918845],[-89.696750393,17.539797336],[-89.713160168,17.529568243],[-89.728612617,17.517406386],[-89.742986601,17.503518393],[-89.756199614,17.488129167],[-89.768208328,17.471467],[-89.779005292,17.453748964],[-89.788612078,17.435168212],[-89.797069537,17.415884642],[-89.804426242,17.396020023],[-89.810726394,17.375658188],[-89.815998597,17.354850304],[-89.820246819,17.333624667],[-89.823444665,17.311999894],[-89.825533703,17.29],[-89.826426179,17.26766957],[-89.82601192,17.245087217],[-89.824168803,17.222375642],[-89.820775698,17.19970701],[-89.815726549,17.177302811],[-89.808944078,17.155428043],[-89.800391641,17.134380126],[-89.790081931,17.114473596],[-89.778081582,17.096022067],[-89.764511146,17.079319296],[-89.749540423,17.064621263],[-89.733379628,17.052131098],[-89.716267307,17.041988355],[-89.69845627,17.034263691],[-89.680198994,17.028959378],[-89.661733968,17.026015484],[-89.643274353,17.025320925],[-89.625,17.026728106],[-89.607053504,17.030069478],[-89.589540488,17.035174216],[-89.572533849,17.04188322],[-89.556081239,17.050060927],[-89.540214732,17.05960278],[-89.524961401,17.07043778],[-89.51035348,17.082526095],[-89.496436858,17.095852263],[-89.483276933,17.110415053],[-89.470961142,17.126215347],[-89.459597974,17.143243619],[-89.449312627,17.161468579],[-89.440239938,17.18082831],[-89.432515474,17.201224919],[-89.426265906,17.222523241],[-89.42159982,17.2445536],[-89.418600029,17.267118168],[-89.41731826,17.29]]]}}
