{"type":"Feature","properties":{"id":"tonina-650","family":"kingdom","name":"Toniná"},"geometry":{"type":"Polygon","coordinates":[[[-91.867326489,16.9012],[-91.869324552,16.911453107],[-91.872364411,16.921416893],[-91.876332024,16.931034349],[-91.881118122,16.940271329],[-91.886626486,16.949112596],[-91.892780065,16.957556043],[-91.89952435,16.965605796],[-91.906827719,16.97326501],[-91.914678817,16.980529183],[-91.923081354,16.987380778],[-91.932046991,16.99378573],[-91.94158718,16.999692246],[-91.951704907,17.005032007],[-91.962387312,17.009723627],[-91.973599991,17.013677953],[-91.985283614,17.016804613],[-91.997353187,17.01901908],[-92.0097,17.020249474],[-92.022195966,17.020442371],[-92.03469983,17.019567051],[-92.047064495,17.017617752],[-92.05914464,17.0146138],[-92.070803785,17.01059768],[-92.081920059,17.00563138],[-92.092390135,16.999791499],[-92.102131002,16.993163751],[-92.111079553,16.985837519],[-92.119190235,16.977901078],[-92.126431207,16.969438003],[-92.132779677,16.960525072],[-92.13821711,16.951231791],[-92.142725024,16.941621439],[-92.146281988,16.931753322],[-92.148862214,16.921685787],[-92.150435965,16.911479439],[-92.150971691,16.9012],[-92.150439594,16.890920296],[-92.148816104,16.880721001],[-92.146088635,16.870689931],[-92.142259913,16.860919892],[-92.13735124,16.851505293],[-92.131404182,16.842537924],[-92.124480354,16.834102414],[-92.116659248,16.826271952],[-92.108034279,16.819104852],[-92.098707496,16.812642448],[-92.088783559,16.806908623],[-92.07836373,16.801911129],[-92.067540611,16.797644571],[-92.056394321,16.794094752],[-92.044990625,16.791243868],[-92.033381275,16.789075929],[-92.021606592,16.787581709],[-92.0097,16.786762592],[-91.997693963,16.786632762],[-91.985626611,16.787219379],[-91.973548183,16.788560625],[-91.96152644,16.790701745],[-91.949650263,16.793689443],[-91.938030851,16.797565245],[-91.926800202,16.80235852],[-91.91610685,16.808079975],[-91.906109171,16.81471638],[-91.896966841,16.82222716],[-91.888831287,16.83054332],[-91.881836076,16.839568895],[-91.876088257,16.849184865],[-91.871661568,16.85925517],[-91.868592238,16.869634265],[-91.866877856,16.880175442],[-91.866479436,16.890739084],[-91.867326489,16.9012]]]}}
