{"type":"Feature","properties":{"id":"tzutujil-1450","family":"highland","name":"Tz'utujil kingdom of Atitlan"},"geometry":{"type":"Polygon","coordinates":[[[-92.0425,12.9],[-91.9575,12.9],[-91.904515792,12.975904233],[-91.851531584,13.051808466],[-91.798547376,13.127712699],[-91.745563168,13.203616933],[-91.69257896,13.279521166],[-91.639594752,13.355425399],[-91.586610544,13.431329632],[-91.533626337,13.507233865],[-91.480642129,13.583138098],[-91.427657921,13.659042332],[-91.374673713,13.734946565],[-91.322071412,13.807742581],[-91.269469112,13.880538598],[-91.216866811,13.953334615],[-91.164264511,14.026130631],[-91.111662211,14.098926648],[-91.074178708,14.160244676],[-91.036695205,14.221562704],[-91.009501365,14.280925877],[-90.982307525,14.34028905],[-91.020678995,14.382074262],[-91.059050466,14.423859474],[-91.099321631,14.488918689],[-91.115198217,14.561945707],[-91.131074803,14.634972725],[-91.146791699,14.670029956],[-91.188523249,14.716896812],[-91.243160835,14.759985289],[-91.296649843,14.75737175],[-91.350138851,14.754758212],[-91.402013182,14.700234442],[-91.453887514,14.645710672],[-91.469005826,14.584273113],[-91.484124137,14.522835554],[-91.510689724,14.445881429],[-91.53725531,14.368927305],[-91.563820897,14.291973181],[-91.59646948,14.212887764],[-91.629118064,14.133802348],[-91.661766647,14.054716931],[-91.69441523,13.975631514],[-91.727063813,13.896546097],[-91.760903419,13.804996863],[-91.794743025,13.713447628],[-91.822271578,13.623064558],[-91.849800131,13.532681489],[-91.877328683,13.442298419],[-91.904857236,13.351915349],[-91.932385789,13.261532279],[-91.959914342,13.171149209],[-91.987442894,13.08076614],[-92.014971447,12.99038307],[-92.0425,12.9]]]}}
