{"type":"Feature","properties":{"id":"uaxactun-300","family":"kingdom","name":"Uaxactun"},"geometry":{"type":"Polygon","coordinates":[[[-89.526390509,17.445],[-89.526672884,17.452447755],[-89.52801287,17.459824729],[-89.530386958,17.467027983],[-89.533743891,17.473961666],[-89.538008356,17.480542118],[-89.543086535,17.486701814],[-89.548872933,17.492391764],[-89.555257784,17.497582142],[-89.562134262,17.502261116],[-89.569404782,17.506432061],[-89.576985767,17.510109478],[-89.584810439,17.513314118],[-89.592829441,17.516067862],[-89.601009309,17.518388933],[-89.60932907,17.52028797],[-89.617775454,17.521765387],[-89.62633732,17.522810269],[-89.635,17.523400913],[-89.643740236,17.5235069],[-89.652522305,17.523092426],[-89.661295765,17.522120492],[-89.669995059,17.520557452],[-89.678541004,17.518377402],[-89.686843935,17.515565923],[-89.694808132,17.512122774],[-89.702336985,17.508063283],[-89.709338302,17.503418322],[-89.715729158,17.498232933],[-89.721439765,17.492563828],[-89.72641598,17.486476102],[-89.730620244,17.480039576],[-89.734030949,17.473325217],[-89.736640416,17.466402048],[-89.738451856,17.459334861],[-89.739475767,17.452182966],[-89.739726297,17.445],[-89.739218092,17.43783475],[-89.737964039,17.430732733],[-89.735974215,17.423738232],[-89.73325614,17.416896397],[-89.729816282,17.410255033],[-89.725662561,17.40386573],[-89.720807469,17.397784096],[-89.715271318,17.392068968],[-89.709085125,17.386780636],[-89.702292649,17.381978239],[-89.69495122,17.377716638],[-89.687131158,17.374043132],[-89.678913741,17.370994444],[-89.670387896,17.368594377],[-89.661645951,17.366852478],[-89.652778918,17.365763919],[-89.643871875,17.365310689],[-89.635,17.365463999],[-89.626225759,17.366187664],[-89.617597632,17.367442105],[-89.609150562,17.369188499],[-89.600908125,17.371392604],[-89.592886192,17.374027778],[-89.585097662,17.377076828],[-89.577557711,17.380532416],[-89.570288902,17.384395946],[-89.563325505,17.388675015],[-89.55671644,17.393379698],[-89.550526402,17.398518063],[-89.544834924,17.404091442],[-89.539733358,17.41009],[-89.535320012,17.416489142],[-89.53169387,17.423247209],[-89.528947527,17.430304783],[-89.527160049,17.437585738],[-89.526390509,17.445]]]}}
