{"type":"Feature","properties":{"id":"uxmal-900","family":"kingdom","name":"Uxmal and the Puuc cities"},"geometry":{"type":"Polygon","coordinates":[[[-89.504205968,20.147134518],[-89.494701973,20.158093781],[-89.48643556,20.170061706],[-89.479579603,20.183024626],[-89.474313938,20.196937951],[-89.4708119,20.211720118],[-89.46922596,20.227249937],[-89.469673951,20.243367776],[-89.472227381,20.259880601],[-89.476903094,20.276570492],[-89.48365924,20.293205813],[-89.492396028,20.30955395],[-89.502961244,20.325394335],[-89.515160012,20.340530415],[-89.528767793,20.354799356],[-89.543545306,20.368078514],[-89.559253835,20.380288032],[-89.575669367,20.391389386],[-89.592594151,20.401380104],[-89.609864575,20.410285339],[-89.627354666,20.418147268],[-89.64497504,20.425013561],[-89.662667592,20.430926202],[-89.680396733,20.43591192],[-89.698138316,20.439975259],[-89.715867624,20.443095008],[-89.733547897,20.445224336],[-89.751120737,20.446294522],[-89.768499502,20.446221799],[-89.78556643,20.444916463],[-89.802173779,20.442293188],[-89.818148795,20.438281368],[-89.833301884,20.432834319],[-89.847437019,20.425936379],[-89.86036317,20.417607174],[-89.871905465,20.407902695],[-89.881914865,20.396913186],[-89.890275352,20.384758238],[-89.896907959,20.371579767],[-89.901771362,20.357533783],[-89.904859197,20.342781955],[-89.906194621,20.327483947],[-89.905822997,20.311791357],[-89.903803725,20.295843829],[-89.90020235,20.279767626],[-89.895083959,20.263676574],[-89.888508683,20.24767501],[-89.880529803,20.23186207],[-89.871194596,20.2163365],[-89.860547637,20.201201119],[-89.848635994,20.186566111],[-89.835515409,20.172550512],[-89.821256499,20.159281487],[-89.805949921,20.146891352],[-89.789709642,20.135512561],[-89.772673646,20.125271245],[-89.755001794,20.11628004],[-89.736870905,20.108631154],[-89.718467521,20.102390547],[-89.69997915,20.097594083],[-89.681585011,20.094246202],[-89.663447402,20.09232144],[-89.645704798,20.091768724],[-89.628467583,20.092518043],[-89.61181703,20.094488776],[-89.595807761,20.097598736],[-89.580473471,20.101772853],[-89.565835308,20.106950444],[-89.551911925,20.113090146],[-89.538729983,20.120171841],[-89.526333795,20.128195254],[-89.51479282,20.137175281],[-89.504205968,20.147134518]]]}}
