{"type":"Feature","properties":{"id":"xiu-1517","family":"xiu","name":"Ah Canul, Chakan, Ceh Pech, Ah Kin Chel and Hocaba"},"geometry":{"type":"Polygon","coordinates":[[[-93.943006993,22.6],[-93.917553752,22.513180538],[-93.892100511,22.426361076],[-93.866647269,22.339541614],[-93.841194028,22.252722152],[-93.815740787,22.16590269],[-93.790287546,22.079083228],[-93.764834305,21.992263766],[-93.712240462,21.947829259],[-93.659646619,21.903394752],[-93.607052776,21.858960245],[-93.542627384,21.795992818],[-93.478201992,21.733025391],[-93.4137766,21.670057963],[-93.349351208,21.607090536],[-93.284925816,21.544123109],[-93.220500424,21.481155681],[-93.156075032,21.418188254],[-93.09164964,21.355220827],[-93.027224247,21.2922534],[-92.962798855,21.229285972],[-92.90489262,21.177898108],[-92.846986385,21.126510243],[-92.789080149,21.075122379],[-92.731173914,21.023734514],[-92.63825078,21.003419706],[-92.545327645,20.983104897],[-92.452404511,20.962790089],[-92.359481377,20.94247528],[-92.266558243,20.922160472],[-92.173635109,20.901845663],[-92.080711975,20.881530855],[-91.987788841,20.861216046],[-91.894865706,20.840901237],[-91.801942572,20.820586429],[-91.709019438,20.80027162],[-91.616096304,20.779956812],[-91.52317317,20.759642003],[-91.427501494,20.734292507],[-91.331829817,20.70894301],[-91.258005065,20.682852995],[-91.184180313,20.656762979],[-91.104770153,20.619612334],[-91.025359993,20.582461688],[-90.945949833,20.545311043],[-90.866539673,20.508160397],[-90.791535473,20.468880907],[-90.716531273,20.429601417],[-90.641527073,20.390321926],[-90.566522873,20.351042436],[-90.491518673,20.311762945],[-90.419054668,20.259372232],[-90.346590662,20.206981519],[-90.274749357,20.143024018],[-90.202908052,20.079066516],[-90.131066747,20.015109015],[-90.059225442,19.951151514],[-89.983937529,19.992754926],[-89.908649617,20.034358339],[-89.914721901,20.123547527],[-89.920794185,20.212736716],[-89.915286131,20.279916931],[-89.909778076,20.347097146],[-89.893618043,20.409323869],[-89.87745801,20.471550592],[-89.844551741,20.557045622],[-89.811645471,20.642540651],[-89.717608346,20.626194788],[-89.633714455,20.601139718],[-89.549820564,20.576084649],[-89.498253043,20.571190253],[-89.423472484,20.588790603],[-89.351078118,20.63186313],[-89.278078982,20.604620729],[-89.205079846,20.577378329],[-89.162854893,20.622996517],[-89.12062994,20.668614706],[-89.084451961,20.735686506],[-89.048273981,20.802758307],[-88.978315704,20.817904247],[-88.908357427,20.833050187],[-88.856443323,20.83977945],[-88.804529219,20.846508714],[-88.776458816,20.891553614],[-88.748388414,20.936598515],[-88.708328454,21.022169409],[-88.695945671,21.078511669],[-88.695696181,21.135506189],[-88.71318979,21.227522227],[-88.730683398,21.319538264],[-88.748177007,21.411554302],[-88.765670615,21.50357034],[-88.777920286,21.594939479],[-88.790169957,21.686308617],[-88.802419628,21.777677755],[-88.814669299,21.869046894],[-88.82691897,21.960416032],[-88.839168641,22.05178517],[-88.851418312,22.143154308],[-88.863667983,22.234523447],[-88.875917654,22.325892585],[-88.888167325,22.417261723],[-88.900416996,22.508630862],[-88.912666667,22.6],[-89.011692308,22.6],[-89.110717949,22.6],[-89.20974359,22.6],[-89.308769231,22.6],[-89.407794872,22.6],[-89.506820513,22.6],[-89.605846154,22.6],[-89.704871795,22.6],[-89.803897436,22.6],[-89.902923077,22.6],[-90.001948718,22.6],[-90.100974359,22.6],[-90.2,22.6],[-90.298500184,22.6],[-90.397000368,22.6],[-90.495500552,22.6],[-90.594000736,22.6],[-90.69250092,22.6],[-90.791001104,22.6],[-90.889501288,22.6],[-90.988001472,22.6],[-91.086501656,22.6],[-91.18500184,22.6],[-91.283502024,22.6],[-91.382002208,22.6],[-91.480502392,22.6],[-91.579002576,22.6],[-91.67750276,22.6],[-91.776002944,22.6],[-91.874503128,22.6],[-91.973003312,22.6],[-92.071503497,22.6],[-92.170003681,22.6],[-92.268503865,22.6],[-92.367004049,22.6],[-92.465504233,22.6],[-92.564004417,22.6],[-92.662504601,22.6],[-92.761004785,22.6],[-92.859504969,22.6],[-92.958005153,22.6],[-93.056505337,22.6],[-93.155005521,22.6],[-93.253505705,22.6],[-93.352005889,22.6],[-93.450506073,22.6],[-93.549006257,22.6],[-93.647506441,22.6],[-93.746006625,22.6],[-93.844506809,22.6],[-93.943006993,22.6]]]}}
