{"type":"Feature","properties":{"id":"xoconochco-1500","family":"nahua","name":"Xoconochco, Aztec province from 1486"},"geometry":{"type":"Polygon","coordinates":[[[-95.354444444,12.9],[-95.256235605,12.9],[-95.158026766,12.9],[-95.059817927,12.9],[-94.961609088,12.9],[-94.863400249,12.9],[-94.76519141,12.9],[-94.666982571,12.9],[-94.568773732,12.9],[-94.470564893,12.9],[-94.372356054,12.9],[-94.274147214,12.9],[-94.175938375,12.9],[-94.077729536,12.9],[-93.979520697,12.9],[-93.881311858,12.9],[-93.783103019,12.9],[-93.68489418,12.9],[-93.586685341,12.9],[-93.488476502,12.9],[-93.390267663,12.9],[-93.292058824,12.9],[-93.236967855,12.978077275],[-93.181876887,13.056154551],[-93.126785918,13.134231826],[-93.07169495,13.212309102],[-93.016603981,13.290386377],[-92.961513013,13.368463652],[-92.906422044,13.446540928],[-92.851331076,13.524618203],[-92.796240107,13.602695479],[-92.741149139,13.680772754],[-92.686058171,13.758850029],[-92.630967202,13.836927305],[-92.575876234,13.91500458],[-92.520785265,13.993081856],[-92.465694297,14.071159131],[-92.410603328,14.149236406],[-92.35551236,14.227313682],[-92.300421391,14.305390957],[-92.245330423,14.383468232],[-92.205025246,14.446108135],[-92.16472007,14.508748038],[-92.124414894,14.571387941],[-92.090103426,14.657365193],[-92.084274826,14.710736247],[-92.091651678,14.762544737],[-92.113429208,14.832081435],[-92.135206738,14.901618134],[-92.153541191,14.996821125],[-92.15910555,15.095344517],[-92.153958007,15.159278036],[-92.148810464,15.223211555],[-92.205494794,15.2974519],[-92.262179124,15.371692245],[-92.327396497,15.370885893],[-92.392613871,15.370079541],[-92.45767362,15.383657482],[-92.522733369,15.397235424],[-92.586189388,15.423837262],[-92.649645407,15.450439099],[-92.724724846,15.487181298],[-92.799804286,15.523923496],[-92.874883725,15.560665695],[-92.949963165,15.597407894],[-93.025042604,15.634150092],[-93.102748365,15.581109391],[-93.180454127,15.52806869],[-93.258159888,15.475027989],[-93.335865649,15.421987288],[-93.41357141,15.368946588],[-93.491277172,15.315905887],[-93.568982933,15.262865186],[-93.646688694,15.209824485],[-93.724394455,15.156783784],[-93.797674629,15.103771171],[-93.870954803,15.050758557],[-93.944234977,14.997745944],[-94.00376496,14.948867759],[-94.063294942,14.899989574],[-94.122824924,14.851111389],[-94.1965435,14.786890866],[-94.270262075,14.722670344],[-94.343980651,14.658449822],[-94.417699226,14.5942293],[-94.491417801,14.530008778],[-94.565136377,14.465788256],[-94.638854952,14.401567734],[-94.712573528,14.337347211],[-94.75269046,14.247513011],[-94.792807392,14.15767881],[-94.832924325,14.067844609],[-94.873041257,13.978010409],[-94.913158189,13.888176208],[-94.953275121,13.798342007],[-94.993392054,13.708507806],[-95.033508986,13.618673606],[-95.073625918,13.528839405],[-95.113742851,13.439005204],[-95.153859783,13.349171004],[-95.193976715,13.259336803],[-95.234093648,13.169502602],[-95.27421058,13.079668401],[-95.314327512,12.989834201],[-95.354444444,12.9]]]}}
