{"type":"Feature","properties":{"id":"yaxchilan-700","family":"kingdom","name":"Yaxchilan (Pa' Chan)"},"geometry":{"type":"Polygon","coordinates":[[[-90.819812429,16.93],[-90.82074986,16.939335339],[-90.822694521,16.94853161],[-90.82559311,16.95751973],[-90.829382877,16.966242831],[-90.833997261,16.974656848],[-90.839371511,16.982729497],[-90.845447592,16.990437724],[-90.85217773,16.997763924],[-90.859526102,17.004691397],[-90.867468411,17.011199612],[-90.875989331,17.017259923],[-90.88507808,17.022832332],[-90.894722634,17.027863798],[-90.904903262,17.032288436],[-90.915586195,17.036029697],[-90.926718248,17.039004435],[-90.938223128,17.041128496],[-90.95,17.042323287],[-90.961924618,17.04252266],[-90.973853076,17.041679353],[-90.98562788,17.039770289],[-90.997085833,17.036800102],[-91.008066937,17.032802493],[-91.018423436,17.027839176],[-91.028028063,17.021996503],[-91.036780618,17.015380066],[-91.044612197,17.0081078],[-91.051486613,17.000302305],[-91.057398878,16.992083159],[-91.062370907,16.983559996],[-91.066444937,16.974827078],[-91.069675372,16.965959855],[-91.072119963,16.957013844],[-91.073831278,16.948025877],[-91.074849379,16.939017485],[-91.07519651,16.93],[-91.074874319,16.920980713],[-91.073863902,16.911969374],[-91.072128615,16.902984242],[-91.069619281,16.894056999],[-91.066281198,16.885235955],[-91.062062138,16.876587174],[-91.05692042,16.86819342],[-91.050832196,16.860151026],[-91.043797146,16.852565071],[-91.035842012,16.845543392],[-91.027021632,16.839190097],[-91.01741745,16.833599291],[-91.007133732,16.828849666],[-90.996291985,16.825000505],[-90.985024267,16.822089456],[-90.973466146,16.820132239],[-90.961750093,16.819124188],[-90.95,16.81904337],[-90.938327332,16.819854788],[-90.926829219,16.82151513],[-90.915588513,16.823977446],[-90.904675606,16.827195194],[-90.894151578,16.831125196],[-90.884072095,16.835729202],[-90.874491393,16.840973981],[-90.865465712,16.84683001],[-90.857055616,16.853269076],[-90.849326836,16.860261191],[-90.842349441,16.867771354],[-90.836195444,16.875756675],[-90.8309351,16.884164331],[-90.826632407,16.892930713],[-90.823340395,16.901981953],[-90.821096861,16.911235822],[-90.819921143,16.920604806],[-90.819812429,16.93]]]}}
