{"type":"Feature","properties":{"id":"yucatan-1618","family":"spain","name":"Spanish Yucatán and Tabasco"},"geometry":{"type":"Polygon","coordinates":[[[-94.104355567,19.885216836],[-94.101585859,19.806729989],[-94.098816151,19.728243142],[-94.096046443,19.649756296],[-94.093276735,19.571269449],[-94.085323738,19.476769516],[-94.077370741,19.382269584],[-94.069417744,19.287769651],[-94.061464747,19.193269718],[-94.053511749,19.098769785],[-94.045558752,19.004269853],[-94.037605755,18.90976992],[-94.029652758,18.815269987],[-94.021699761,18.720770055],[-94.013746764,18.626270122],[-94.005793766,18.531770189],[-93.997840769,18.437270256],[-93.989887772,18.342770324],[-93.981934775,18.248270391],[-93.973981778,18.153770458],[-93.962801194,18.057494157],[-93.95162061,17.961217857],[-93.934717979,17.889079372],[-93.917815348,17.816940886],[-93.832017253,17.82645688],[-93.746219158,17.835972874],[-93.660421062,17.845488868],[-93.574622967,17.855004862],[-93.488824872,17.864520856],[-93.417324214,17.866581165],[-93.345823555,17.868641475],[-93.281641884,17.855909949],[-93.217460212,17.843178422],[-93.147669193,17.813842661],[-93.077878174,17.7845069],[-93.008087154,17.755171139],[-92.942921567,17.740281284],[-92.874636753,17.736594228],[-92.821638842,17.744458957],[-92.76864093,17.752323686],[-92.675438482,17.781739717],[-92.582236033,17.811155748],[-92.489033585,17.84057178],[-92.392075868,17.852402329],[-92.321469338,17.897017152],[-92.250862807,17.941631975],[-92.183574875,17.917460041],[-92.116286943,17.893288106],[-92.052863135,17.883365233],[-91.989439327,17.87344236],[-91.900074721,17.884593056],[-91.829576574,17.903513379],[-91.759078428,17.922433703],[-91.688580281,17.941354026],[-91.623482999,17.943795397],[-91.557104337,17.93521148],[-91.49102151,17.911192341],[-91.424938683,17.887173202],[-91.353982096,17.843329271],[-91.28302551,17.799485341],[-91.212068923,17.755641411],[-91.141112337,17.71179748],[-91.079087187,17.682145511],[-91.017062036,17.652493542],[-90.974151573,17.720804123],[-90.93124111,17.789114705],[-90.885525547,17.843385483],[-90.839809983,17.897656262],[-90.782841391,17.944054384],[-90.725872799,17.990452506],[-90.66643919,18.025270899],[-90.60700558,18.060089291],[-90.54757197,18.094907684],[-90.54259999,18.157074425],[-90.53762801,18.219241166],[-90.599511565,18.259818875],[-90.66139512,18.300396585],[-90.723278675,18.340974294],[-90.773356376,18.385900055],[-90.813381069,18.437660779],[-90.841378986,18.496211157],[-90.85795069,18.559624399],[-90.862429801,18.636559126],[-90.866908911,18.713493854],[-90.815515801,18.742921953],[-90.764122692,18.772350052],[-90.694084776,18.797724678],[-90.622574129,18.811252507],[-90.548916059,18.812983433],[-90.48311061,18.851101126],[-90.431173057,18.871835125],[-90.379235504,18.892569123],[-90.291550072,18.915940321],[-90.203864639,18.93931152],[-90.116179207,18.962682718],[-90.028493775,18.986053916],[-90.035667033,19.059480262],[-90.042840292,19.132906607],[-90.050013551,19.206332953],[-90.067310163,19.27126068],[-90.084606775,19.336188408],[-90.101903386,19.401116136],[-90.089646007,19.469062839],[-90.077388627,19.537009543],[-90.07375599,19.619837937],[-90.070123353,19.702666331],[-90.066490716,19.785494725],[-90.062858079,19.86832312],[-90.059225442,19.951151514],[-89.983937529,19.992754926],[-89.908649617,20.034358339],[-89.832785089,19.980760281],[-89.756920562,19.927162224],[-89.701854465,19.873267582],[-89.646788368,19.81937294],[-89.591722271,19.765478298],[-89.536656174,19.711583656],[-89.461044424,19.673051818],[-89.406333749,19.666979723],[-89.319006479,19.685665375],[-89.234319807,19.726989293],[-89.149633135,19.768313211],[-89.064946464,19.809637128],[-88.980259792,19.850961046],[-88.931807369,19.802649058],[-88.883354945,19.754337069],[-88.839345143,19.697765964],[-88.79533534,19.641194858],[-88.757158543,19.575283349],[-88.718981746,19.50937184],[-88.681047437,19.432911193],[-88.643113127,19.356450546],[-88.605178817,19.279989899],[-88.567244508,19.203529252],[-88.625613155,19.133615585],[-88.683981803,19.063701919],[-88.74235045,18.993788252],[-88.769717291,18.94611388],[-88.797084133,18.898439508],[-88.816074274,18.847365247],[-88.835064416,18.796290985],[-88.849263657,18.72556211],[-88.863462898,18.654833235],[-88.866124767,18.600994369],[-88.868786636,18.547155503],[-88.85974186,18.464576821],[-88.850697083,18.381998139],[-88.841652307,18.299419457],[-88.832607531,18.216840775],[-88.835582328,18.147787007],[-88.838557125,18.078733239],[-88.858098532,18.015913737],[-88.889168374,17.958070162],[-88.943532825,17.895424677],[-88.997897276,17.832779193],[-88.981120008,17.77562423],[-88.96434274,17.718469267],[-88.942335632,17.663232775],[-88.920328524,17.607996284],[-88.860959858,17.603448718],[-88.801591192,17.598901151],[-88.750922955,17.603547077],[-88.700254717,17.608193003],[-88.614343633,17.633020781],[-88.528432549,17.657848559],[-88.442521465,17.682676337],[-88.356610381,17.707504114],[-88.270699297,17.732331892],[-88.218084977,17.736368856],[-88.165470657,17.74040582],[-88.112872437,17.734537263],[-88.060274217,17.728668706],[-87.989023428,17.707982517],[-87.917772639,17.687296329],[-87.832921037,17.65227017],[-87.748069436,17.617244012],[-87.663217834,17.582217854],[-87.579496197,17.545486522],[-87.495774559,17.508755191],[-87.412052921,17.472023859],[-87.328331284,17.435292528],[-87.244609646,17.398561196],[-87.160888009,17.361829865],[-87.077166371,17.325098533],[-86.993444733,17.288367202],[-86.909723096,17.25163587],[-86.826001458,17.214904538],[-86.762428504,17.183738614],[-86.69885555,17.152572689],[-86.628866273,17.10700137],[-86.555743199,17.081363583],[-86.470495466,17.09150654],[-86.385247733,17.101649496],[-86.3,17.111792453],[-86.3,17.208506289],[-86.3,17.305220126],[-86.3,17.401933962],[-86.3,17.498647799],[-86.3,17.595361635],[-86.3,17.692075472],[-86.3,17.788789308],[-86.3,17.885503145],[-86.3,17.982216981],[-86.3,18.078930818],[-86.3,18.175644654],[-86.3,18.272358491],[-86.3,18.369072327],[-86.3,18.465786164],[-86.3,18.5625],[-86.3,18.652],[-86.3,18.7415],[-86.3,18.831],[-86.3,18.9205],[-86.3,19.01],[-86.3,19.109386792],[-86.3,19.208773585],[-86.3,19.308160377],[-86.3,19.40754717],[-86.3,19.506933962],[-86.3,19.606320755],[-86.3,19.705707547],[-86.3,19.80509434],[-86.3,19.904481132],[-86.3,20.003867925],[-86.3,20.103254717],[-86.3,20.202641509],[-86.3,20.302028302],[-86.3,20.401415094],[-86.3,20.500801887],[-86.3,20.600188679],[-86.3,20.699575472],[-86.3,20.798962264],[-86.3,20.898349057],[-86.3,20.997735849],[-86.3,21.091986681],[-86.3,21.186237514],[-86.3,21.280488346],[-86.3,21.374739179],[-86.3,21.468990011],[-86.3,21.563240844],[-86.3,21.657491676],[-86.3,21.751742508],[-86.3,21.845993341],[-86.3,21.940244173],[-86.3,22.034495006],[-86.3,22.128745838],[-86.3,22.22299667],[-86.3,22.317247503],[-86.3,22.411498335],[-86.3,22.505749168],[-86.3,22.6],[-86.393678571,22.6],[-86.487357143,22.6],[-86.581035714,22.6],[-86.674714286,22.6],[-86.768392857,22.6],[-86.862071429,22.6],[-86.95575,22.6],[-87.049428571,22.6],[-87.143107143,22.6],[-87.236785714,22.6],[-87.330464286,22.6],[-87.424142857,22.6],[-87.517821429,22.6],[-87.6115,22.6],[-87.704708333,22.6],[-87.797916667,22.6],[-87.891125,22.6],[-87.984333333,22.6],[-88.077541667,22.6],[-88.17075,22.6],[-88.263958333,22.6],[-88.357166667,22.6],[-88.450375,22.6],[-88.543583333,22.6],[-88.636791667,22.6],[-88.73,22.6],[-88.821333333,22.6],[-88.912666667,22.6],[-89.011692308,22.6],[-89.110717949,22.6],[-89.20974359,22.6],[-89.308769231,22.6],[-89.407794872,22.6],[-89.506820513,22.6],[-89.605846154,22.6],[-89.704871795,22.6],[-89.803897436,22.6],[-89.902923077,22.6],[-90.001948718,22.6],[-90.100974359,22.6],[-90.2,22.6],[-90.298500184,22.6],[-90.397000368,22.6],[-90.495500552,22.6],[-90.594000736,22.6],[-90.69250092,22.6],[-90.791001104,22.6],[-90.889501288,22.6],[-90.988001472,22.6],[-91.086501656,22.6],[-91.18500184,22.6],[-91.283502024,22.6],[-91.382002208,22.6],[-91.480502392,22.6],[-91.579002576,22.6],[-91.67750276,22.6],[-91.776002944,22.6],[-91.874503128,22.6],[-91.973003312,22.6],[-92.071503497,22.6],[-92.170003681,22.6],[-92.268503865,22.6],[-92.367004049,22.6],[-92.465504233,22.6],[-92.564004417,22.6],[-92.662504601,22.6],[-92.761004785,22.6],[-92.859504969,22.6],[-92.958005153,22.6],[-93.056505337,22.6],[-93.155005521,22.6],[-93.253505705,22.6],[-93.352005889,22.6],[-93.450506073,22.6],[-93.549006257,22.6],[-93.647506441,22.6],[-93.746006625,22.6],[-93.844506809,22.6],[-93.943006993,22.6],[-93.917553752,22.513180538],[-93.892100511,22.426361076],[-93.866647269,22.339541614],[-93.841194028,22.252722152],[-93.815740787,22.16590269],[-93.790287546,22.079083228],[-93.764834305,21.992263766],[-93.78588172,21.911763012],[-93.806929136,21.831262257],[-93.827976551,21.750761502],[-93.845922036,21.655870568],[-93.863867522,21.560979635],[-93.881813007,21.466088701],[-93.899758493,21.371197767],[-93.917703978,21.276306833],[-93.935649464,21.181415899],[-93.953594949,21.086524965],[-93.966692765,20.989731823],[-93.979790581,20.892938682],[-93.992888397,20.79614554],[-94.005986213,20.699352399],[-94.019084029,20.602559257],[-94.032181845,20.505766116],[-94.045279661,20.408972975],[-94.058377477,20.312179833],[-94.071475293,20.215386692],[-94.084573109,20.11859355],[-94.091167262,20.040801312],[-94.097761414,19.963009074],[-94.104355567,19.885216836]]]}}
