{"type":"Feature","properties":{"name":"Oleg takes Smolensk, Lyubech and Kiev, 882, by the Primary Chronicle","style":"solid","arrows":true},"geometry":{"type":"LineString","coordinates":[[31.28,58.52],[31.3,58.3],[31.35,58],[31.45,57.6],[31.6,57.15],[31,56.7],[30.53,56.34],[30.75,55.9],[31,55.55],[31.4,55.1],[31.88,54.8],[32.05,54.78],[31.4,54.65],[30.42,54.51],[30.29,54.21],[30.33,53.9],[30.24,53.52],[30.05,53.09],[30,52.85],[30.39,52.36],[30.8,51.95],[30.66,51.7],[30.55,51.2],[30.49,50.58],[30.52,50.45]]}}
