{"type":"Feature","properties":{"name":"The Rus' fleet sails by the Black Sea, the Don and the Volga to the Caspian Sea, c. 913","style":"solid","arrows":true},"geometry":{"type":"LineString","coordinates":[[31.55,46.58],[31.2,46.42],[32,45.9],[32.5,45.3],[33.5,44.4],[34.5,44.55],[35.4,44.95],[36.2,45.05],[36.55,45.3],[37,45.8],[38,46.4],[38.8,46.9],[39.3,47.12],[39.7,47.22],[40.3,47.45],[41.2,47.6],[42.3,47.7],[43,48.2],[43.53,48.69],[44.52,48.71],[45.3,48.2],[46.2,47.6],[47,47],[47.6,46.6],[48.04,46.35],[48.5,45.95],[48.9,45.65],[49.3,44.5],[50.4,42.5],[51.3,40.5],[52.2,38.6],[53.2,37.5],[54,37]]}}
