{"type":"Feature","properties":{"name":"Alvarado’s march from Xetulul up the Samalá to Xelajú, 9 – 12 February 1524","style":"solid","arrows":true},"geometry":{"type":"LineString","coordinates":[[-91.52,14.588],[-91.55,14.61],[-91.578,14.635],[-91.59,14.647],[-91.57,14.6505],[-91.552,14.668],[-91.538,14.676],[-91.53,14.69],[-91.529,14.708],[-91.522,14.721],[-91.516,14.734],[-91.507,14.747],[-91.5,14.762],[-91.4935,14.776],[-91.4885,14.7845],[-91.478,14.788],[-91.467,14.795],[-91.457,14.799],[-91.451,14.809],[-91.447,14.822],[-91.452,14.835],[-91.475,14.842],[-91.5,14.84],[-91.518,14.835]]}}
