{"type":"Feature","properties":{"name":"Harald’s journey from Stiklestad by Sweden to the Rus’ and on to Constantinople, 1030–1034","style":"solid","arrows":true},"geometry":{"type":"LineString","coordinates":[[11.56,63.797],[12.6,63.5],[13.8,63.2],[15.2,62.4],[16.5,61.2],[17.4,60.2],[17.72,59.62],[18.6,59.45],[19.8,59.75],[21.5,59.8],[23.5,59.75],[25.5,59.85],[27.5,60.05],[29.3,60],[30.25,59.93],[31,59.95],[31.6,60.1],[32.3,60.12],[32.31,59.996],[31.75,59.2],[31.27,58.52],[31.3,57.8],[31.4,56.6],[31.85,55.4],[31.88,54.78],[30.9,53.7],[30.6,52.4],[30.52,50.45],[32,49.2],[34.4,48.4],[35.1,47.85],[33.6,46.9],[31.9,46.6],[30.8,46.25],[30.2,45.4],[29.75,44.6],[29.1,43.4],[28.75,42.2],[29.07,41.22],[28.98,41.01]]}}
