{"type":"Feature","properties":{"name":"Harald’s return from Constantinople by Kiev and Novgorod to Sigtuna, 1042–1046","style":"solid","arrows":true,"offset":6},"geometry":{"type":"LineString","coordinates":[[28.98,41.01],[29.07,41.22],[28.75,42.2],[29.1,43.4],[29.75,44.6],[30.2,45.4],[30.8,46.25],[31.9,46.6],[33.6,46.9],[35.1,47.85],[34.4,48.4],[32,49.2],[30.52,50.45],[30.6,52.4],[30.9,53.7],[31.88,54.78],[31.85,55.4],[31.4,56.6],[31.3,57.8],[31.27,58.52],[31.75,59.2],[32.31,59.996],[32.3,60.12],[31.6,60.1],[31,59.95],[30.25,59.93],[29.3,60],[27.5,60.05],[25.5,59.85],[23.5,59.75],[21.5,59.8],[19.8,59.75],[18.6,59.45],[17.72,59.62]]}}
