{
 "type": "Feature",
 "properties": {
  "id": "action-army-1909",
  "name": "Action Army, Selanik to Yeşilköy, April 1909",
  "style": "solid"
 },
 "geometry": {
  "type": "LineString",
  "coordinates": [
   [
    22.94,
    40.64
   ],
   [
    22.87,
    40.99
   ],
   [
    22.73,
    41.18
   ],
   [
    23.08,
    41.2
   ],
   [
    23.55,
    41.09
   ],
   [
    24.15,
    41.15
   ],
   [
    24.88,
    41.14
   ],
   [
    25.4,
    41.12
   ],
   [
    25.87,
    40.85
   ],
   [
    26.17,
    40.9
   ],
   [
    26.61,
    41.37
   ],
   [
    26.69,
    41.27
   ],
   [
    27.36,
    41.4
   ],
   [
    27.8,
    41.16
   ],
   [
    28.46,
    41.14
   ],
   [
    28.82,
    40.97
   ]
  ]
 }
}
