{"type":"Feature","properties":{"name":"Hernández de Córdoba’s voyage from Cuba to Campeche, February – March 1517","style":"solid","arrows":true},"geometry":{"type":"LineString","coordinates":[[-81.95,23.21],[-82.45,23.18],[-82.95,23.1],[-83.4,22.98],[-83.8,22.85],[-84.15,22.72],[-84.45,22.52],[-84.72,22.22],[-85.05,21.95],[-85.8,21.78],[-86.5,21.72],[-87.05,21.72],[-87.6,21.66],[-88.2,21.7],[-88.8,21.62],[-89.4,21.48],[-89.95,21.36],[-90.32,21.2],[-90.52,20.98],[-90.6,20.7],[-90.62,20.4],[-90.64,20.1],[-90.62,19.88]]}}
