{"type":"Feature","properties":{"id":"usumacinta-route","name":"Canoe route down the Pasión and the Usumacinta","style":"dashed","arrows":false},"geometry":{"type":"LineString","coordinates":[[-90.04,16.013],[-90.03,16.08],[-90.015,16.16],[-90.02,16.25],[-90.035,16.33],[-90.05,16.42],[-90.06,16.5],[-90.1,16.53],[-90.19,16.526],[-90.26,16.51],[-90.33,16.5],[-90.4,16.49],[-90.47,16.475],[-90.544,16.481],[-90.634,16.484],[-90.613,16.508],[-90.649,16.53],[-90.635,16.592],[-90.668,16.587],[-90.655,16.617],[-90.669,16.653],[-90.736,16.747],[-90.801,16.787],[-90.798,16.806],[-90.92,16.836],[-90.97,16.875],[-90.956,16.899],[-90.987,16.901],[-90.994,16.875],[-91.056,16.908],[-91.127,17.025],[-91.172,17.028],[-91.23,17.114],[-91.26,17.124],[-91.28,17.18],[-91.366,17.19],[-91.374,17.214],[-91.443,17.238],[-91.429,17.313],[-91.391,17.319],[-91.387,17.333],[-91.424,17.386],[-91.492,17.401],[-91.493,17.457],[-91.508,17.477],[-91.429,17.491],[-91.479,17.532],[-91.511,17.586],[-91.398,17.573],[-91.36,17.597],[-91.397,17.65],[-91.374,17.7],[-91.384,17.716],[-91.45,17.696],[-91.429,17.752],[-91.437,17.77],[-91.484,17.769],[-91.484,17.8],[-91.513,17.807],[-91.557,17.753],[-91.572,17.772],[-91.568,17.809],[-91.597,17.834],[-91.62,17.827],[-91.628,17.778],[-91.648,17.786],[-91.662,17.772],[-91.625,17.757],[-91.621,17.741],[-91.669,17.745],[-91.703,17.72],[-91.737,17.772],[-91.776,17.774],[-91.785,17.847],[-91.819,17.885],[-91.86,17.875],[-91.915,17.888],[-91.943,17.854],[-91.954,17.902],[-92.01,17.977],[-91.97,17.997],[-91.978,18.04],[-92.059,18.095],[-92.186,18.111],[-92.194,18.125],[-92.173,18.188],[-92.21,18.163],[-92.206,18.241],[-92.263,18.259],[-92.314,18.245],[-92.339,18.285],[-92.484,18.313],[-92.504,18.358],[-92.521,18.363],[-92.546,18.341],[-92.564,18.392],[-92.668,18.406],[-92.64,18.6]]}}
