{"type":"Feature","properties":{"name":"Juan de Grijalva’s voyage from Cuba to the Pánuco River, 1518","style":"solid","arrows":true},"geometry":{"type":"LineString","coordinates":[[-81.52,23.11],[-81.55,23.18],[-81.7,23.23],[-82,23.24],[-82.45,23.19],[-82.95,23.11],[-83.4,22.99],[-83.8,22.86],[-84.15,22.73],[-84.45,22.53],[-84.72,22.23],[-85.05,21.96],[-85.9,21.2],[-86.5,20.7],[-86.68,20.42],[-86.9,20.2],[-87.25,20.12],[-87.36,19.92],[-87.4,19.75],[-87.45,19.66],[-87.3,19.7],[-87.15,20],[-86.85,20.15],[-86.6,20.4],[-86.58,20.75],[-86.62,21.1],[-86.7,21.45],[-86.95,21.76],[-87.6,21.73],[-88.2,21.76],[-88.8,21.68],[-89.4,21.54],[-89.95,21.42],[-90.37,21.25],[-90.58,21],[-90.66,20.7],[-90.68,20.4],[-90.7,20.1],[-90.68,19.9],[-90.82,19.7],[-90.86,19.5],[-90.83,19.37],[-90.95,19.25],[-91.15,19.1],[-91.45,18.95],[-91.75,18.8],[-92.1,18.75],[-92.45,18.7],[-92.69,18.66],[-93.1,18.55],[-93.6,18.48],[-94.1,18.3],[-94.5,18.25],[-94.85,18.6],[-95.25,18.8],[-95.75,18.88],[-96,19.15],[-96.12,19.26],[-96.32,19.6],[-96.45,19.9],[-96.75,20.3],[-97.05,20.65],[-97.15,21],[-97.22,21.35],[-97.25,21.6],[-97.55,21.95],[-97.72,22.2]]}}
