{"type":"Feature","properties":{"name":"The Byzantine fleet sails into the Danube and up to Dorostolon, April 971","style":"solid","arrows":true},"geometry":{"type":"LineString","coordinates":[[28.98,41.03],[29.03,41.07],[29.07,41.17],[29.12,41.24],[28.6,41.65],[28.35,42.3],[28.65,42.9],[28.95,43.6],[29.3,44.3],[29.75,44.92],[29.6,44.88],[29.3,45],[29.08,45.08],[28.8,45.18],[28.46,45.27],[28.2,45.36],[28.05,45.43],[27.97,45.27],[27.95,45],[27.95,44.69],[28.03,44.34],[27.85,44.24],[27.6,44.18],[27.42,44.15],[27.29,44.13]]}}
