{"type":"Feature","properties":{"name":"Dirhams from Baghdad by the Caspian and the Volga to Gotland and Birka, 9th–10th centuries","style":"dashed","arrows":true,"offset":4},"geometry":{"type":"LineString","coordinates":[[44.366,33.315],[46.0,34.0],[48.5,34.8],[50.0,35.3],[51.43,35.59],[53.0,36.3],[54.43,36.84],[53.6,37.6],[52.6,39.0],[51.2,41.0],[50.0,42.8],[49.2,44.4],[48.3,45.4],[47.9,46.1],[47.4,46.8],[46.6,47.5],[45.6,48.2],[44.6,48.8],[45.4,50.1],[46.0,51.53],[47.38,52.04],[48.47,53.15],[50.1,53.2],[49.4,53.55],[48.4,54.3],[48.83,54.94],[49.04,54.98],[49.0,55.4],[49.12,55.85],[48.5,55.92],[47.25,56.2],[45.6,56.17],[44.0,56.4],[43.47,56.72],[43.1,57.37],[42.15,57.51],[40.93,57.84],[39.87,57.7],[39.4,57.9],[38.83,58.12],[38.33,57.6],[37.85,57.31],[37.0,57.15],[35.9,56.93],[34.96,57.11],[34.57,57.66],[34.2,58.07],[33.92,58.46],[32.8,58.65],[31.7,58.5],[31.27,58.59],[31.68,59.19],[32.0,59.52],[32.34,59.97],[32.3,60.11],[31.6,60.17],[31.05,60.02],[30.7,59.95],[30.2,60.01],[29.0,60.05],[27.5,60.07],[25.5,59.92],[23.6,59.69],[22.0,59.45],[20.5,58.7],[19.6,58.1],[19.0,57.72],[18.78,57.722],[19.0,58.4],[18.95,58.85],[18.75,59.28],[18.07,59.31],[17.8,59.3],[17.545,59.336]]}}
