{"type":"Feature","properties":{"name":"Stephens and Catherwood’s journey from Belize to Copán, Palenque and Uxmal, 1839 – 1840","style":"solid","arrows":true},"geometry":{"type":"LineString","coordinates":[[-88.19,17.5],[-88.1,17.3],[-88.12,16.9],[-88.3,16.45],[-88.62,16.05],[-88.74,15.86],[-88.82,15.77],[-89.0,15.66],[-89.1,15.45],[-89.36,15.12],[-89.3,14.95],[-89.142,14.838],[-89.35,14.56],[-89.9,14.6],[-90.51,14.63],[-90.73,14.56],[-90.996,14.736],[-91.172,15.023],[-91.36,14.91],[-91.492,15.336],[-91.85,15.75],[-92.13,16.25],[-92.01,16.9],[-91.982,17.484],[-91.98,17.8],[-91.95,18.2],[-91.88,18.5],[-91.88,18.68],[-91.75,18.83],[-91.35,18.99],[-91.0,19.17],[-90.85,19.42],[-90.72,19.88],[-90.62,20.35],[-90.55,20.85],[-90.42,21.2],[-90.1,21.24],[-90.03,21.18],[-89.62,20.97],[-89.771,20.359]]}}
