{"type":"Feature","properties":{"family":"islam","name":"Abbasid Caliphate, 882 – 943"},"geometry":{"type":"Polygon","coordinates":[[[33.8873732,31.325134],[33.889626,31.2684468],[33.9058112,31.213461],[34.17505,30.5823735],[34.2178888,30.364893],[34.2339185,30.3141683],[34.2611288,30.267135],[34.2984647,30.2255909],[34.3260961,30.2003849],[34.4368398,29.9342375],[34.5858713,29.4236139],[34.6066677,29.3735087],[34.6338746,29.3345409],[34.4783822,28.7211423],[34.4712554,28.6704868],[34.4751939,28.6196168],[34.4881029,28.550752],[34.3937221,28.3154554],[34.3548383,28.2803937],[34.3194793,28.2420337],[34.2926687,28.1986859],[34.2752975,28.1518115],[34.2679363,28.1029881],[34.2708175,28.053856],[34.2838299,28.0060636],[34.306524,27.9612117],[34.3462192,27.8988308],[34.3804332,27.8556425],[34.4235825,27.8192307],[34.4739999,27.7909962],[34.5297434,27.7720246],[34.58867,27.7630456],[34.6485168,27.7644053],[34.7069853,27.7760528],[34.7618284,27.7975423],[34.7736077,27.8048633],[34.8181292,27.8032178],[34.828292,27.8045743],[34.8615436,27.8032188],[34.92229,27.8116207],[34.9483873,27.8176467],[34.9492877,27.8166937],[35.0822722,27.7014804],[35.287213,27.3352411],[35.3312731,27.2769297],[35.5034965,27.1030548],[35.5063872,27.0857345],[35.5231232,27.0412345],[35.5483168,27.0000503],[35.6594976,26.8507938],[35.6994839,26.8076217],[35.7486755,26.7728333],[35.8049322,26.7479376],[35.8658125,26.7340141],[35.9286784,26.7316671],[49.6460161,26.7308703],[49.7038576,26.7326007],[49.7602472,26.7441697],[49.8131192,26.7651536],[49.8605342,26.7947834],[49.900749,26.8319731],[49.9322801,26.8753584],[49.9539581,26.9233459],[49.9649721,26.9741708],[49.9649009,27.0259616],[49.9537307,27.0768079],[49.9318584,27.1248314],[49.9183471,27.1432982],[49.9372671,27.1628742],[49.9661582,27.2081073],[49.984756,27.2574617],[49.9923532,27.3091004],[49.9886502,27.3610983],[49.9737685,27.4115139],[49.9482486,27.4584619],[49.9130321,27.5001838],[49.8694281,27.5351146],[49.8190655,27.5619424],[49.7638317,27.5796584],[49.5761925,27.621999],[49.5423956,27.6267223],[49.4926566,27.6934222],[49.4530699,27.7361857],[49.4044624,27.7708961],[49.3488797,27.7960857],[49.2886679,27.8106884],[49.2263735,27.8140856],[49.181944,27.8124457],[49.1818802,27.8124938],[49.18375,27.8487105],[49.1763566,27.8969258],[49.1592884,27.9431941],[49.1330892,27.9860062],[49.0986033,28.0239638],[49.0966874,28.0257207],[49.0890766,28.072586],[49.0679205,28.1243114],[49.0353092,28.1711834],[48.9925877,28.2112464],[48.9415288,28.2428267],[48.9238404,28.2495565],[48.9215454,28.2662059],[48.8995736,28.3213315],[48.8646313,28.3710043],[48.8385639,28.4003766],[48.8388467,28.4326142],[48.82693,28.4859611],[48.8030855,28.5361331],[48.7981033,28.5425684],[48.7899697,28.5755142],[48.7672204,28.6224172],[48.7348189,28.6647263],[48.6939154,28.7009239],[48.629078,28.7483083],[48.584967,28.7751601],[48.5361951,28.7948592],[48.4842568,28.8068006],[48.4307463,28.8106172],[47.836463,28.8057955],[47.7270706,29.0834267],[47.7036952,29.1286114],[47.6712369,29.1692904],[47.6307866,29.2040832],[47.5837105,29.2318072],[47.5316045,29.2515193],[47.4762393,29.2625483],[47.1140108,29.3040008],[47.1344338,29.3328115],[47.3808419,29.802958],[47.4311533,29.8241318],[47.6117654,29.8270245],[47.8231111,29.7474422],[47.8784022,29.7317044],[47.9360842,29.7251759],[47.9941484,29.7280836],[48.0505733,29.7403262],[48.0817811,29.7528268],[48.1216809,29.7635324],[48.4587362,29.6757527],[48.5192215,29.6654441],[48.5808433,29.6657001],[48.6411903,29.6765104],[48.6979,29.6974516],[48.7245787,29.7133289],[48.7508766,29.7185062],[48.8060631,29.7397673],[48.8554867,29.7698918],[48.8607303,29.7746433],[48.8977291,29.7727832],[48.956532,29.7746528],[49.013873,29.7860934],[49.0677094,29.8066973],[49.1161208,29.8357304],[49.157376,29.8721577],[49.1751254,29.8953022],[49.186715,29.8922747],[49.247378,29.887172],[49.2633841,29.8871872],[49.2945428,29.8485421],[49.3381533,29.8121323],[49.3890245,29.7837158],[49.445237,29.7643611],[49.504675,29.7547951],[49.5651044,29.7553769],[49.6242552,29.7660839],[49.6799045,29.7865137],[49.8442866,29.8638039],[49.8658055,29.8157273],[49.8993342,29.7703369],[50.1395922,29.5061203],[50.1181274,29.4967475],[50.0701473,29.4641539],[50.0304699,29.4239882],[50.0006278,29.3778131],[49.9817657,29.3274224],[49.9745982,29.2747709],[49.9793841,29.221898],[49.9959193,29.170848],[50.0235475,29.1235917],[50.0668478,29.0645801],[50.1059136,29.021606],[50.1540682,28.9864069],[50.2093212,28.9604306],[50.2693963,28.9447439],[50.3318236,28.9399905],[50.3940392,28.946365],[50.424722,28.9552674],[50.4633803,28.9252496],[50.5035827,28.9049294],[50.5076719,28.878607],[50.5256896,28.8174147],[50.559422,28.7615426],[50.6243461,28.6789321],[50.6617659,28.6397652],[50.7068843,28.6074673],[50.758085,28.5831898],[50.7596876,28.5825937],[50.7763879,28.4919855],[50.7918672,28.4406196],[50.8184679,28.3928942],[50.9675522,28.1804572],[50.9667891,28.1750597],[50.9655562,28.1187503],[50.9776062,28.0634153],[51.0023922,28.0114677],[51.1324076,27.8023514],[51.1657871,27.7590692],[51.2079392,27.7222822],[51.2572734,27.6933698],[51.3119351,27.6734148],[51.3258859,27.6709491],[51.3450897,27.6591786],[51.3904001,27.6402258],[51.5772223,27.5779282],[51.6321368,27.5645966],[51.6888522,27.5605497],[51.9088473,27.5629381],[52.0188467,27.4865492],[52.0676123,27.4588239],[52.1213635,27.4397749],[52.2848454,27.3971565],[52.2846781,27.3933235],[52.2926149,27.3446452],[52.3071649,27.2906381],[52.3259609,27.2419038],[52.3547989,27.1972006],[52.3926176,27.1581536],[52.4380333,27.1261806],[52.8659727,26.8785628],[52.9327361,26.8494115],[53.2672754,26.7458102],[53.3180072,26.7342929],[53.3701582,26.7307559],[55.7015861,26.7311386],[55.7424229,26.7332288],[55.977989,26.7594363],[56.0334215,26.7703558],[56.0855223,26.7903553],[56.1324492,26.8187276],[56.2226634,26.8851127],[56.2576536,26.8487761],[56.3074826,26.8146491],[56.3640555,26.7903682],[56.4249418,26.7769729],[56.4875307,26.7750353],[56.549141,26.7846368],[56.6071332,26.8053648],[56.6451888,26.8280802],[56.6886998,26.7936471],[56.7420411,26.7661889],[56.8004252,26.7488782],[56.8614419,26.7424272],[57.4862051,26.7317125],[57.4475013,26.7343],[57.389739,26.7488019],[57.3363159,26.7732355],[57.2893385,26.8066393],[57.2506643,26.8476978],[57.2218287,26.8947923],[57.2039839,26.9460636],[57.2008761,26.9731385],[57.2008756,26.9731424],[57.4989588,26.9731488],[57.4947389,26.9734309],[57.4889508,26.9748844],[57.4836003,26.977333],[57.4788993,26.9806798],[57.4750341,26.9847922],[57.4721579,26.9895072],[57.4703847,26.9946382],[57.4697851,26.9999818],[57.4697851,27],[57.5,27],[57.5,28],[57.4230769,28.2307692],[57.3461538,28.4615385],[57.2692308,28.6923077],[57.1153846,29.1538462],[57.0384615,29.3846154],[56.9615385,29.6153846],[56.8846154,29.8461538],[56.7307692,30.3076923],[56.6538462,30.5384615],[56.5769231,30.7692308],[56.5,31],[56.3928571,31.2142857],[56.2857143,31.4285714],[56.1785714,31.6428571],[56.0714286,31.8571429],[55.9642857,32.0714286],[55.8571429,32.2857143],[55.6428571,32.7142857],[55.5357143,32.9285714],[55.4285714,33.1428571],[55.3214286,33.3571429],[55.2142857,33.5714286],[55.1071429,33.7857143],[55,34],[54.8,34.4285714],[54.7,34.6428571],[54.6,34.8571429],[54.5,35.0714286],[54.3,35.5],[54.34,35.72],[54.38,35.94],[54.42,36.16],[54.46,36.38],[54.5,36.6],[53.5,36.3],[52.5,36.1],[52.3,36.12],[52.1,36.14],[51.9,36.16],[51.7,36.18],[51.5,36.2],[49.5,36.6],[48.9,37.4],[48.75,37.6],[48.6,37.8],[48.5,36.7],[48.0714286,36.5571429],[47.8571429,36.4857143],[47.6428571,36.4142857],[47.4285714,36.3428571],[47.2142857,36.2714286],[47,36.2],[46.8,36.16],[46.6,36.12],[46.4,36.08],[46,36],[45.6,36.2],[45.4,36.3],[45.2,36.4],[44.5,37.2],[44,38.3],[43.8,38.24],[43.6,38.18],[43,38],[42.75,38.05],[42.6,38.08],[42.4,38.12],[42.2,38.16],[42,38.2],[41.6,38.36],[41.5,38.4],[41.4,38.44],[41.2,38.52],[41,38.6],[40.8769231,38.8769231],[40.6,39.5],[40.6,39.575],[40.6,39.575],[40.6,40.2],[40.375,40.1],[40.15,40],[39.925,39.9],[39.7,39.8],[39.475,39.7],[39.25,39.6],[39.025,39.5],[38.8,39.4],[38.62,39.3],[38.44,39.2],[38.26,39.1],[37.9,38.9],[37.2,38.6],[36.3,38.3],[36.125,38.225],[35.95,38.15],[35.6,38],[35,37.5],[34.8333333,37.3666667],[34.6666667,37.2333333],[34.5,37.1],[34.35,36.9],[34.2,36.7],[34.2280362,36.5317829],[34.2084672,36.5100599],[34.2084672,36.5100599],[34.2280362,36.5317829],[34.2280362,36.5317829],[34.2566091,36.5635009],[34.2566112,36.5635032],[34.2566149,36.5635073],[34.2612989,36.5353252],[34.2615381,36.5302143],[34.2605725,36.5251599],[34.258437,36.5203439],[34.2553326,36.5161087],[34.3024391,36.5683807],[34.5724756,36.7443505],[34.6440706,36.7682083],[34.6440706,36.7682083],[34.6440747,36.7682097],[34.5486537,36.6417411],[34.5608035,36.5667657],[34.5630303,36.5161747],[34.5534613,36.4661506],[34.532456,36.4184528],[34.5007722,36.3747558],[34.4615477,36.3384515],[34.6972761,36.5082986],[34.7219676,36.4931193],[34.7782079,36.4703719],[34.8387179,36.4564005],[34.8870586,36.4527727],[35.1712811,36.3127729],[35.2301494,36.289661],[35.2934483,36.276153],[35.3587775,36.2727623],[35.4236615,36.2796189],[35.4580983,36.2889831],[35.4680559,36.2466892],[35.4908026,36.1999962],[35.5821113,36.053785],[35.5417897,36.02221],[35.5038253,35.9770437],[35.4780091,35.9266052],[35.4653853,35.8729824],[35.4664485,35.8183905],[35.4793669,35.7714793],[35.434715,35.7062465],[35.4100804,35.6606953],[35.3962623,35.612238],[35.3937149,35.5625371],[35.4025047,35.5132949],[35.4223113,35.4661949],[35.4524409,35.4228447],[35.491852,35.3847218],[35.6098596,35.2897017],[35.6153436,35.2621879],[35.5880134,35.2235478],[35.5685602,35.1801284],[35.5585456,35.1346299],[35.5376885,34.9488725],[35.5373707,34.9028107],[35.5466732,34.8573748],[35.6032612,34.6767845],[35.6027433,34.676515],[35.5566981,34.6406346],[35.5199994,34.5981372],[35.4940159,34.5506268],[35.4925052,34.5452726],[35.4466962,34.511851],[35.402989,34.4729459],[35.3694531,34.427751],[35.3473771,34.3780274],[35.3375981,34.3257094],[35.3255867,34.1426439],[35.3184002,34.1402274],[35.2661851,34.1120639],[35.2214702,34.0761967],[35.1858932,34.0339493],[35.1607489,33.9868779],[35.1469432,33.9367132],[35.144962,33.8852965],[35.1482636,33.842648],[35.0748367,33.6719736],[35.0618269,33.6627932],[35.0239876,33.6312377],[34.992968,33.5949341],[34.9696127,33.5548826],[34.8873767,33.3774144],[34.8697668,33.3227197],[34.8670191,33.2775776],[34.8309325,33.2283349],[34.8033245,33.1805974],[34.7875067,33.1292815],[34.7706481,33.0379403],[34.7598111,33.0326719],[34.7127707,32.9980478],[34.6746861,32.9564623],[34.646995,32.9095022],[34.6307337,32.8589559],[34.5284355,32.3443808],[34.4190952,32.0560175],[34.219446,31.7353602],[33.9623457,31.4803914],[33.9245403,31.4335306],[33.8991787,31.380994],[33.8873732,31.325134]],[[34.198542,31.3135339],[34.2079214,31.3224441],[34.4829448,31.5837063],[34.2079214,31.3224441],[34.2021891,31.3062025],[34.2489425,31.2122193],[34.2021891,31.3062025],[34.198542,31.3135339]]]}}
