{"type":"Feature","properties":{"family":"islam","name":"Abbasid Caliphate, 789 – 842"},"geometry":{"type":"Polygon","coordinates":[[[4.5,32],[4.5555556,31.7777778],[4.6111111,31.5555556],[4.6111111,31.5555556],[4.6666667,31.3333333],[4.7222222,31.1111111],[4.7777778,30.8888889],[4.8333333,30.6666667],[4.8888889,30.4444444],[4.8888889,30.4444444],[4.9444444,30.2222222],[5,30],[5.245614,29.9824561],[5.4912281,29.9649123],[5.7368421,29.9473684],[5.9824561,29.9298246],[6.2280702,29.9122807],[6.4736842,29.8947368],[6.7192982,29.877193],[6.9649123,29.8596491],[7.2105263,29.8421053],[7.4561404,29.8245614],[7.7017544,29.8070175],[8.1929825,29.7719298],[8.4385965,29.754386],[8.6842105,29.7368421],[9.1754386,29.7017544],[9.4210526,29.6842105],[9.6666667,29.6666667],[9.9122807,29.6491228],[10.1578947,29.6315789],[10.4035088,29.6140351],[10.6491228,29.5964912],[10.8947368,29.5789474],[11.3859649,29.5438596],[11.877193,29.5087719],[12.122807,29.4912281],[12.6140351,29.4561404],[13.1052632,29.4210526],[13.3508772,29.4035088],[13.5964912,29.3859649],[13.8421053,29.3684211],[14.0877193,29.3508772],[14.3333333,29.3333333],[14.5789474,29.3157895],[14.8245614,29.2982456],[15.3157895,29.2631579],[15.5614035,29.245614],[15.8070175,29.2280702],[16.0526316,29.2105263],[16.2982456,29.1929825],[16.5438596,29.1754386],[16.7894737,29.1578947],[17.0350877,29.1403509],[17.2807018,29.122807],[17.5263158,29.1052632],[18.0175439,29.0701754],[18.2631579,29.0526316],[18.5087719,29.0350877],[18.754386,29.0175439],[19,29],[24.9824498,29],[24.9824498,28.7334018],[24.9824498,28.7316648],[25.0335049,28.7348515],[25.0927972,28.7492719],[25.1477041,28.7737135],[25.1960368,28.8072054],[25.2358622,28.8484151],[25.2655804,28.8957007],[25.2839887,28.9471752],[25.2903327,29.0007807],[25.2909081,29.1816759],[25.2873543,29.2231024],[25.2765195,29.26353],[25.1679286,29.5608569],[25.122114,29.9210828],[25.1048362,29.9844021],[25.0316546,30.1555512],[25.1744397,30.3597073],[25.2077266,30.4256833],[25.2913158,30.6788046],[25.3022222,30.730391],[25.3012837,30.782783],[25.288516,30.8339931],[25.192088,31.0925889],[25.1750132,31.262153],[25.3935522,31.4833157],[25.4298156,31.5284685],[25.454665,31.5788957],[25.4670595,31.6325264],[25.4664665,31.6871541],[25.452887,31.7405269],[25.4268598,31.7904407],[25.3400661,31.9192184],[25.3352521,31.9707078],[25.3246887,32.0213163],[25.3029203,32.0692761],[25.2707273,32.1128304],[25.2292768,32.1503818],[25.1800809,32.1805513],[25.1249422,32.2022302],[24.8397885,32.2868706],[24.778371,32.2993877],[24.7152,32.3014071],[24.6527784,32.2928499],[24.512147,32.2611334],[24.238617,32.2702796],[24.2237613,32.2852954],[24.1767134,32.3176297],[24.1231933,32.3418189],[23.9643974,32.3976822],[23.8938939,32.4146977],[23.4692519,32.4728949],[23.4696928,32.4760641],[23.4638339,32.5310435],[23.4447095,32.5838271],[23.426307,32.6119927],[23.4269866,32.6327133],[23.4231487,32.6822159],[23.4085151,32.7302609],[23.3835688,32.7752069],[23.3491489,32.8155158],[23.3391992,32.8235012],[23.3392265,32.8234966],[25.491117,32.4648279],[25.4963976,32.4641674],[33.9931373,31.564547],[33.9993484,31.5640715],[34.0055736,31.5643795],[34.0506891,31.569393],[34.0515489,31.5694885],[34.455401,31.6143666],[34.0515489,31.5694885],[34.0507117,31.5693955],[33.96261,31.4820508],[33.9246816,31.434983],[33.8992475,31.3821469],[33.8874293,31.3259195],[33.8897324,31.2688259],[33.9060276,31.2134251],[34.1752415,30.5825658],[34.2180386,30.3654129],[34.2342525,30.3141561],[34.2617538,30.2666319],[34.2994635,30.2246765],[34.3266207,30.1999107],[34.4370764,29.9345787],[34.5861311,29.4240861],[34.6070162,29.3737518],[34.6336447,29.3354793],[34.4785018,28.7228499],[34.4713822,28.6719179],[34.4753644,28.620719],[34.4881527,28.5524969],[34.3938898,28.3175459],[34.3548304,28.2823358],[34.3194333,28.2438842],[34.2926274,28.2003569],[34.2753087,28.1532286],[34.2680492,28.1040933],[34.2710792,28.0546107],[34.2842816,28.0064493],[34.3071976,27.9612308],[34.3469123,27.8988406],[34.3812354,27.8554482],[34.4244328,27.8188197],[34.4748394,27.790359],[34.530519,27.771156],[34.5893377,27.7619453],[34.649044,27.763079],[34.7073537,27.7745138],[34.7620344,27.7958122],[34.7749705,27.8038348],[34.8180626,27.8019868],[34.8296876,27.8034793],[34.8629354,27.8020621],[34.923734,27.8104388],[34.950162,27.8165488],[34.9505971,27.8160887],[35.0831168,27.7013171],[35.2878465,27.3356167],[35.3324146,27.2766613],[35.5039097,27.1035631],[35.5067003,27.0869139],[35.5236542,27.04191],[35.5491548,27.0002435],[35.6603875,26.8509708],[35.700772,26.8073633],[35.7503885,26.7722305],[35.8070569,26.7471092],[35.8682943,26.7330974],[35.9314226,26.730807],[49.6482967,26.7330828],[49.7058622,26.7346771],[49.761908,26.7459754],[49.8143937,26.7665651],[49.8614066,26.7956956],[49.9012299,26.832305],[49.9324044,26.8750585],[49.9537822,26.9223959],[49.964569,26.9725876],[49.9643549,27.0237974],[49.9531316,27.0741488],[49.9312945,27.1217935],[49.9167842,27.1415887],[49.9384899,27.1641506],[49.9668334,27.2089555],[49.9848853,27.2578388],[49.991961,27.3089862],[49.9877812,27.3604966],[49.9724846,27.4104523],[49.946625,27.4569901],[49.9111531,27.4983714],[49.8673833,27.5330474],[49.8169454,27.5597181],[49.7617241,27.5773817],[49.5741033,27.6197644],[49.5414221,27.6243695],[49.4923717,27.6901782],[49.4524721,27.7332835],[49.4034139,27.7683171],[49.3472969,27.79377],[49.2865316,27.8085439],[49.2237337,27.8119998],[49.1814951,27.8104513],[49.1833013,27.8468897],[49.1758301,27.8947144],[49.1587307,27.9406705],[49.1325456,27.983264],[49.0981153,28.0211077],[49.0965794,28.0225165],[49.0882089,28.071591],[49.0667377,28.1229312],[49.0338781,28.1694846],[48.9909818,28.2093115],[48.939825,28.2407499],[48.9234672,28.2469593],[48.9211092,28.2638595],[48.8991686,28.3186391],[48.8643178,28.3681111],[48.8381692,28.3975836],[48.8384247,28.4307261],[48.826372,28.4839515],[48.8023243,28.5340615],[48.7978056,28.5398532],[48.7896293,28.5729111],[48.7668422,28.6197614],[48.7343612,28.6620887],[48.6933448,28.6983657],[48.6285303,28.7457572],[48.5840417,28.7728577],[48.5348402,28.7927572],[48.4824585,28.804833],[48.4285309,28.8087066],[47.8358552,28.8040471],[47.7268936,29.080781],[47.7034363,29.1261222],[47.6707887,29.1669871],[47.6300609,29.2019706],[47.582645,29.2298679],[47.5301683,29.2497166],[47.4744362,29.260831],[47.1130001,29.3022862],[47.1346186,29.332794],[47.3815388,29.8041121],[47.4331126,29.825827],[47.6132362,29.8287513],[47.8241426,29.7493945],[47.8850371,29.7325676],[47.9485314,29.7268054],[48.0119602,29.7323477],[48.0726621,29.7489599],[48.0849884,29.7549648],[48.1235448,29.7653187],[48.4600941,29.6777573],[48.5204406,29.6674317],[48.5818676,29.6675469],[48.6419819,29.6780965],[48.6984414,29.6986679],[48.7266107,29.7152572],[48.7526055,29.7203594],[48.807329,29.7413368],[48.8562967,29.7710306],[48.8625326,29.7766549],[48.8996285,29.7747972],[48.9581726,29.7766221],[49.0152028,29.787885],[49.0687017,29.808186],[49.1167742,29.8368058],[49.1577138,29.8727305],[49.1767344,29.8974073],[49.1884533,29.894359],[49.2494118,29.8892582],[49.2640398,29.8892759],[49.2949699,29.8510489],[49.3388438,29.8145449],[49.3900303,29.7860318],[49.4465755,29.7665922],[49.5063272,29.7569628],[49.5670147,29.7575072],[49.6263339,29.7682029],[49.6820324,29.7886421],[49.8449806,29.8653189],[49.8659744,29.8185537],[49.8993694,29.7733958],[50.142473,29.5061552],[50.1175427,29.4954219],[50.0698477,29.4633869],[50.0304215,29.4238479],[50.0007802,29.3783352],[49.9820561,29.328608],[49.9749553,29.2765859],[49.9797329,29.2242742],[49.9961858,29.1736857],[50.0236636,29.1267633],[50.0669864,29.0677472],[50.1060065,29.0248147],[50.1541298,28.9895428],[50.2093612,28.9633844],[50.2694193,28.9474146],[50.3318295,28.9422884],[50.3940236,28.9482142],[50.42625,28.9572936],[50.4651446,28.9274197],[50.5038595,28.9080326],[50.5080284,28.8812233],[50.5259582,28.8204811],[50.5595709,28.7648872],[50.6245278,28.6822722],[50.6622346,28.6428525],[50.7077594,28.6103134],[50.7594407,28.5858349],[50.7599952,28.5856288],[50.7767659,28.4947771],[50.7921503,28.4438418],[50.8186109,28.3964125],[50.9681268,28.1834213],[50.9671846,28.1767498],[50.9660094,28.1212095],[50.9779886,28.06653],[51.0025823,28.0150767],[51.1326703,27.8059368],[51.1661324,27.7625852],[51.2084351,27.7256574],[51.2579659,27.6965505],[51.3128444,27.6763634],[51.3273539,27.6737445],[51.3463303,27.6621267],[51.3921657,27.6429718],[51.5790177,27.5807141],[51.6345355,27.5672443],[51.6918044,27.5631646],[51.9106448,27.5655923],[52.019652,27.4899375],[52.0690421,27.4618811],[52.1234855,27.442603],[52.2853865,27.4004379],[52.2930205,27.3482561],[52.3075814,27.294237],[52.3264151,27.2455541],[52.3553917,27.2008163],[52.3934311,27.1616688],[52.4391241,27.1295489],[52.867185,26.8820019],[52.9348635,26.852476],[53.2694504,26.7489474],[53.3208672,26.7372875],[53.3736507,26.7337298],[55.7049853,26.7345957],[55.7462629,26.7367061],[55.9818053,26.762956],[56.0369103,26.7737833],[56.0885628,26.7935537],[56.13494,26.8215686],[56.2249451,26.8878284],[56.2531406,26.8578756],[56.296571,26.8259336],[56.345801,26.8015218],[56.3991274,26.7854801],[56.4547096,26.7783588],[56.510632,26.7804006],[56.5649688,26.7915331],[56.6158487,26.811371],[56.6486595,26.8313901],[56.6756127,26.8077634],[56.7243698,26.7788308],[56.778344,26.758602],[56.8355187,26.7478285],[56.9432552,26.7368652],[56.9872321,26.7352115],[62.9990926,26.7379689],[63.0578342,26.7414965],[63.1143503,26.7549792],[63.1664743,26.7778978],[63.2122061,26.8093718],[63.2497868,26.8481931],[63.2777662,26.8928712],[63.2950574,26.9416894],[63.3009809,26.9927698],[63.3016729,27.2235661],[63.2960099,27.2750657],[63.2788531,27.3248698],[63.2508509,27.3710434],[63.2130763,27.4117888],[63.1669877,27.445516],[63.1166282,27.4698184],[63.1170534,27.4719979],[63.1149749,27.5246135],[63.0418442,27.9954169],[63.0648296,28.2178923],[63.0641995,28.2700603],[63.0515723,28.3213353],[63.0274287,28.3696857],[62.9927086,28.4131921],[62.9487759,28.4501236],[62.8973669,28.4790074],[62.840522,28.498689],[62.7805041,28.5083794],[62.7197076,28.507688],[62.6848804,28.5042735],[62.5802801,28.5984378],[62.5404416,28.6286896],[62.4952773,28.6527418],[62.4461266,28.6698763],[62.0648532,28.7707092],[61.8227108,29.0135948],[61.792753,29.0649104],[61.7940587,29.0880003],[61.7862708,29.1363334],[61.7682046,29.1827921],[61.7404646,29.2257806],[61.6434213,29.348116],[61.6439502,29.3614557],[61.640502,29.4105785],[61.6263865,29.458474],[61.6020811,29.5034656],[61.5684223,29.5439752],[61.2499926,29.859729],[62.0460942,30.6778431],[62.0795548,30.7192997],[62.1028758,30.7654877],[62.1151855,30.8147102],[62.1373303,30.9817158],[62.1388391,31.0243827],[62.1320584,31.066804],[62.0574912,31.3538941],[62.0373032,31.4054505],[62.0049298,31.4526409],[61.9438895,31.5236796],[61.9028485,31.5627708],[61.8535129,31.5945514],[61.7977806,31.6177892],[61.7378033,31.6315809],[61.1180327,31.7194296],[61.0940716,32.0055073],[61.1427687,32.1899378],[61.1500179,32.2527931],[61.1388991,32.315455],[60.893468,33.0593924],[61.0803359,33.2497514],[61.1167096,33.2958797],[61.1220488,33.3074326],[61.1474622,33.3238299],[61.1882792,33.363107],[61.2188409,33.4082043],[61.2379567,33.4573873],[61.244871,33.508762],[61.2392952,33.5603467],[61.2214216,33.6101473],[61.1919199,33.6562347],[61.1519147,33.6968197],[61.1029444,33.7303229],[61.0469031,33.7554375],[60.9859679,33.7711813],[60.8477739,33.7949844],[60.8525832,33.8168909],[60.8523055,33.8644484],[60.830244,34.0525581],[60.911003,34.0564357],[60.9741582,34.0645334],[61.0340484,34.0824543],[61.0883754,34.1095088],[61.1350503,34.144657],[61.1722721,34.1865481],[61.1985966,34.2335712],[61.2129924,34.2839159],[61.2148831,34.3356408],[61.2041721,34.3867477],[61.1812504,34.435258],[61.1721374,34.446972],[61.2040129,34.4739491],[61.235676,34.5126185],[61.2583754,34.5552089],[61.2713931,34.6003987],[61.2720012,34.6038917],[61.3076978,34.6349647],[61.3420456,34.6705655],[61.3682825,34.710394],[61.3856275,34.7532818],[61.4694229,35.0416346],[61.4780423,35.1021751],[61.4692113,35.1610629],[61.4846741,35.1870419],[61.544708,35.1722037],[61.6172621,35.16751],[61.8964684,35.1736386],[61.9427403,35.1436149],[61.9687762,35.0703876],[61.9926277,35.0220013],[62.0278742,34.9782227],[62.0731276,34.9407498],[62.1266187,34.9110328],[62.1862672,34.8902186],[62.2497617,34.8791084],[62.3146479,34.8781273],[62.378421,34.8873095],[62.43862,34.9062976],[62.4929195,34.9343559],[62.538812,34.9700836],[62.563361,34.9645615],[62.6244653,34.9601992],[62.6854371,34.9649144],[62.7441804,34.9785421],[62.7986751,35.0006114],[63.1769572,35.1899044],[63.2296039,35.2224318],[63.2728687,35.2627569],[63.3049715,35.3092316],[63.3245807,35.3599549],[63.3308699,35.4128486],[63.3521308,39.9974317],[63.3511818,40.0057344],[63.3461958,40.0493562],[63.3265494,40.0993496],[63.2939402,40.1454304],[63.2496363,40.1857674],[63.1953796,40.2187533],[63.133318,40.24307],[63.0659208,40.2577428],[63.0352742,40.2596848],[63.0352471,40.2155928],[63.0351149,40.0006452],[63.0351149,40.0006452],[63.0351149,40.0006253],[63.0352142,39.9997901],[63.0351149,40.0006253],[63.0351149,40.0006253],[63.0345965,40.004984],[63.0326096,40.0099809],[63.029332,40.014583],[63.024893,40.0186081],[63.0194682,40.0218969],[63.0132723,40.0243191],[63.0065507,40.0257788],[63,40.0261908],[63,40],[62.7619048,39.952381],[62.5238095,39.9047619],[62.2857143,39.8571429],[62.047619,39.8095238],[61.8095238,39.7619048],[61.5714286,39.7142857],[61.3333333,39.6666667],[61.0952381,39.6190476],[60.8571429,39.5714286],[60.6190476,39.5238095],[60.3809524,39.4761905],[60.1428571,39.4285714],[59.9047619,39.3809524],[59.6666667,39.3333333],[59.4285714,39.2857143],[59.1904762,39.2380952],[58.952381,39.1904762],[58.7142857,39.1428571],[58.4761905,39.0952381],[58.2380952,39.047619],[58,39],[57.7727273,38.9545455],[57.5454545,38.9090909],[57.3181818,38.8636364],[57.0909091,38.8181818],[56.8636364,38.7727273],[56.6363636,38.7272727],[56.4090909,38.6818182],[56.1818182,38.6363636],[55.9545455,38.5909091],[55.7272727,38.5454545],[55.5,38.5],[53.8309851,38.5],[53.8259383,38.5254475],[53.8260778,38.526233],[53.824251,38.5260854],[53.8179613,38.5246106],[53.8121446,38.5222426],[53.8070121,38.5190673],[53.8027501,38.5152],[53.7995133,38.5107812],[53.7974189,38.5059713],[53.7965427,38.5009448],[53.796839,38.4969323],[53.7920054,38.5212431],[53.7919207,38.529118],[53.8134605,38.650702],[53.8155671,38.6569538],[53.8711267,38.7661277],[53.8291166,38.7661338],[53.763558,38.7608574],[53.7004674,38.7460804],[53.6421573,38.7223426],[53.5907604,38.6905122],[53.54815,38.6517534],[53.5158709,38.607483],[53.4950832,38.5593168],[53.4889456,38.5232502],[53.4865223,38.5090106],[53.4904748,38.4583944],[53.5208168,38.3089862],[53.4701898,38.0763598],[53.4659105,38.0183882],[53.4852417,37.7312552],[53.490477,37.6967914],[53.6176194,37.1600521],[51.9121432,36.8562336],[51.220799,36.9872632],[50.6944403,37.2433236],[50.5846921,37.336703],[50.5152514,37.4832912],[50.4847121,37.5318738],[50.4422692,37.5745828],[50.3896602,37.6096487],[50.3290531,37.6356155],[50.0656136,37.7220762],[50.0107905,37.735845],[49.9537599,37.7421537],[49.5344086,37.7596331],[49.3552038,37.834034],[49.3348048,37.8544494],[49.207417,38.3495504],[49.1879982,38.7109413],[49.2199407,38.7192724],[49.2808928,38.7467877],[49.4066668,38.8175118],[49.456751,38.8517178],[49.4975035,38.8926694],[49.5274065,38.9388563],[49.5453356,38.9885731],[49.5592948,39.0493245],[49.5838879,39.0581306],[49.6377498,39.0880661],[49.6833383,39.1252918],[49.7189939,39.1684619],[49.7434089,39.2160138],[49.7556763,39.2662237],[49.7553667,39.3111799],[49.7572648,39.3248447],[49.7575692,39.3872994],[49.7507657,39.4408693],[49.7300758,39.4922601],[49.6963106,39.5393838],[49.6936423,39.5423486],[49.7094013,39.556249],[49.7443561,39.603849],[49.7660493,39.6558237],[49.7735558,39.7100256],[49.7741874,39.8415402],[49.7898486,39.8583938],[49.8181689,39.906801],[49.833486,39.9584505],[49.835087,40.0085962],[49.9498415,40.0438771],[49.9843341,40.0573728],[50.0184565,40.0577688],[50.1102686,40.0648213],[50.1576408,40.0332572],[50.2121551,40.0034189],[50.2731742,39.9820192],[50.3384788,39.9698326],[50.4057003,39.9672988],[50.4724035,39.9745073],[50.5361725,39.991195],[50.5946953,40.0167553],[50.6204408,40.033627],[50.6311856,40.0331785],[50.6989596,40.0403768],[50.7637215,40.0573356],[50.8230531,40.0834199],[50.8747337,40.1176543],[50.9168207,40.1587579],[50.9477225,40.2051916],[50.9662585,40.2552141],[50.9717061,40.3069462],[50.9638313,40.3584407],[50.9623449,40.363644],[50.9394091,40.4163931],[50.9203717,40.4483821],[50.8872018,40.4923028],[50.8435466,40.5306501],[50.7909702,40.562034],[50.7313684,40.5853144],[50.6742771,40.5980061],[50.6741706,40.5982057],[50.6381478,40.6403764],[50.5921794,40.6766615],[50.5378889,40.7057664],[50.4772048,40.7266504],[50.4447079,40.7351319],[50.3778152,40.7472411],[50.3754206,40.7473162],[50.2449724,40.8097794],[50.1744133,40.8357017],[50.0978533,40.8492684],[50.0190743,40.8498057],[49.887698,40.8396334],[49.887264,40.8429793],[49.8660438,40.8944769],[49.8314056,40.9416534],[49.7847411,40.9825758],[49.5510573,41.1489714],[49.3798373,41.5067538],[49.3562113,41.5456865],[49.3244794,41.5812674],[48.8645973,42.0128574],[48.8240226,42.0448033],[48.7768273,42.0713596],[48.6852787,42.1144463],[48.6612992,42.1633317],[48.6577961,42.1686711],[48.6582023,42.1676286],[48.6769069,42.1196285],[48.6831075,42.0680862],[48.675933,42.0166369],[48.6556799,41.9671737],[48.6231215,41.9215119],[48.5794752,41.8813237],[48.5761114,41.8792184],[48.5760419,41.8791749],[48.4161063,41.9542173],[48.3541659,42.079391],[48.3539053,42.0797855],[48.3539895,42.0796154],[48.3541661,42.0792584],[48.3559113,42.0743367],[48.3563803,42.0692612],[48.3555567,42.0642127],[48.3534701,42.0593711],[48.3501951,42.0549088],[48.3458486,42.0509846],[48.3405853,42.0477381],[48.3345927,42.0452848],[48.3325798,42.0447984],[48.3200897,42.070015],[48.2,42.05],[48.0666667,41.8666667],[47.9333333,41.6833333],[47.8,41.5],[47.6333333,41.4333333],[47.4666667,41.3666667],[47.3,41.3],[47.1,41.4333333],[46.9,41.5666667],[46.7,41.7],[46.5333333,41.7833333],[46.2,41.95],[46.0333333,42.0333333],[45.7,42.2],[45.5333333,42.3333333],[45.3666667,42.4666667],[45.2,42.6],[45,42.65],[44.8,42.7],[44.6,42.75],[44.5104588,42.75],[43.9,42.75],[43.8,42.6],[43.7,42.45],[43.6,42.3],[43.5,42.1],[43.4,41.9],[43,41.5],[42.8333333,41.4666667],[42.6666667,41.4333333],[42.6,41.42],[42.5,41.4],[41.6,41.2],[41.5,41.0333333],[41.3,40.7],[40.6,40.2],[40.375,40.1],[40.15,40],[39.925,39.9],[39.7,39.8],[39.475,39.7],[39.25,39.6],[39.025,39.5],[38.8,39.4],[38.62,39.3],[38.44,39.2],[38.26,39.1],[37.9,38.9],[37.2,38.6],[36.3,38.3],[36.125,38.225],[35.95,38.15],[35.6,38],[35,37.5],[34.8333333,37.3666667],[34.6666667,37.2333333],[34.5,37.1],[34.35,36.9],[34.2,36.7],[34.2280362,36.5317829],[34.2566091,36.5635009],[34.2612975,36.5352929],[34.2615366,36.5301936],[34.2605738,36.5251515],[34.2584439,36.5203475],[34.2552612,36.5160055],[34.2552446,36.5159828],[34.3023682,36.5682758],[34.5723695,36.7442306],[34.6440068,36.7681043],[34.5485996,36.6416492],[34.5607885,36.5664394],[34.5630141,36.5159654],[34.5534735,36.4660642],[34.5325241,36.4184866],[34.5009197,36.3748986],[34.459782,36.3368239],[34.4587499,36.3360315],[34.4556616,36.3336605],[34.6966268,36.5073753],[34.7219946,36.4917872],[34.7779997,36.4691437],[34.8382428,36.455246],[34.8867828,36.4516147],[35.171355,36.3115286],[35.2300749,36.2885052],[35.293201,36.2750786],[35.3583522,36.2717547],[35.4230736,36.2786585],[35.458085,36.2882132],[35.4680362,36.2458282],[35.4908736,36.1989015],[35.5815298,36.0537309],[35.541943,36.0226385],[35.5038759,35.9772163],[35.4779936,35.9264965],[35.4653475,35.8725858],[35.4664348,35.8177192],[35.479193,35.7713963],[35.4349635,35.7067818],[35.4101903,35.660978],[35.396276,35.6122453],[35.3936804,35.5622632],[35.4024719,35.5127516],[35.4223282,35.4654108],[35.4525497,35.4218637],[35.4920865,35.3836008],[35.6099299,35.28874],[35.6152106,35.2622531],[35.5881971,35.2240612],[35.5686281,35.1803873],[35.5585456,35.1346151],[35.5376817,34.9488065],[35.5373648,34.9025117],[35.5467008,34.856854],[35.6029372,34.6773006],[35.5569301,34.6414089],[35.5201242,34.5987195],[35.4940631,34.5509777],[35.4926873,34.546092],[35.4471549,34.5128803],[35.4032941,34.4738321],[35.3696264,34.428437],[35.3474508,34.37847],[35.337612,34.325882],[35.3256232,34.1435856],[35.3184658,34.1411734],[35.266233,34.112922],[35.2215013,34.0769299],[35.1859109,34.0345255],[35.1607591,33.9872718],[35.1469534,33.9369076],[35.1449805,33.8852831],[35.148247,33.8430752],[35.0750833,33.6730626],[35.0622382,33.6640013],[35.0243331,33.6323931],[34.9932406,33.596002],[34.9698084,33.5558311],[34.8875324,33.3783216],[34.8698136,33.3232457],[34.8670991,33.2784764],[34.8312088,33.2295061],[34.8034843,33.1815611],[34.787581,33.1299881],[34.7707974,33.0391545],[34.760023,33.0339152],[34.7129874,32.9992614],[34.6748861,32.9576083],[34.6471568,32.910543],[34.6308368,32.8598557],[34.5285303,32.3453921],[34.4192987,32.0573894],[34.2197338,31.7369653],[34.1330535,31.6510298],[34.1338721,31.6511207],[34.4445963,31.6856333],[34.1338721,31.6511207],[34.1330528,31.6510297],[34.0006608,31.6363248],[25.5062714,32.5356418],[22.9409319,32.9631452],[22.9182577,32.9669237],[22.5077352,33.0353356],[22.9182577,32.9669237],[22.9362402,32.963927],[22.6482084,33.0376462],[22.5119353,33.1095618],[22.4629302,33.1306806],[22.4102838,33.1444765],[22.3620331,33.1498249],[22.3612711,33.1504933],[22.3136745,33.179253],[22.26055,33.2002822],[22.2036822,33.2128744],[22.144984,33.2166067],[22.0864313,33.2113547],[21.8729522,33.1753061],[21.6742554,33.2014682],[21.6064776,33.2042874],[21.5394706,33.1951878],[21.4762301,33.1745785],[21.4195784,33.1433827],[21.2909454,33.054862],[21.030082,33.0401509],[20.9564862,33.0286213],[20.8880662,33.0031906],[20.1598353,32.639053],[20.0876826,32.5893279],[19.8359056,32.3558162],[19.7885812,32.2981723],[19.655968,32.0800755],[19.6356085,32.0381209],[19.6239151,31.9939081],[19.6212084,31.9486995],[19.6370101,31.5503602],[19.6460859,31.4948749],[19.6685627,31.4422543],[19.8223568,31.1727937],[19.7989547,31.0287592],[19.6666757,30.8501531],[19.4269248,30.6396166],[19.2437683,30.5580513],[19.1057294,30.5422591],[18.828789,30.6488907],[18.4190587,30.9684287],[18.3710104,30.9989868],[18.3169198,31.0211309],[18.0944718,31.0903373],[18.0865194,31.0982466],[18.0471547,31.1310044],[18.0015848,31.1573522],[17.9512211,31.176472],[17.0451661,31.437062],[16.9844445,31.4487069],[16.1340573,31.5348148],[15.9624719,31.603956],[15.7685742,31.8006419],[15.6800647,32.0074688],[15.688403,32.1483592],[15.6847183,32.2040319],[15.6672661,32.2577739],[15.6367883,32.3072283],[15.4498647,32.5440961],[15.4111129,32.5839455],[15.3638261,32.6167878],[15.3097694,32.6413928],[15.250967,32.656839],[14.6144615,32.7669636],[14.3911272,32.9207948],[14.3460116,32.9466569],[14.2961701,32.9657131],[14.243074,32.9774013],[13.6663082,33.0595921],[13.3899039,33.1623137],[13.3345973,33.1779252],[13.2767127,33.184966],[13.2181804,33.1832032],[13.1609516,33.1726977],[12.7882108,33.0735382],[12.4515939,33.0937705],[12.012374,33.3113707],[11.9701906,33.328772],[11.8149597,33.3812333],[11.7541963,33.3961279],[11.6909759,33.4009055],[11.6838645,33.4002857],[11.52803,33.482487],[11.4946478,33.4964229],[11.488658,33.5008712],[11.4358146,33.5270059],[11.4344882,33.527526],[11.4345728,33.528837],[11.4302895,33.5880148],[11.4100367,33.6448482],[11.3748011,33.6964858],[11.3639806,33.7088268],[11.3670485,33.7142116],[11.3821849,33.7642244],[11.3852473,33.815631],[11.376098,33.8664957],[11.355061,33.9148994],[11.3229125,33.9590127],[11.2808541,33.9971664],[11.1511143,34.0936509],[11.0984498,34.1253816],[11.0389424,34.1477978],[10.9750315,34.1599816],[10.9093405,34.1614354],[10.714334,34.1494971],[10.6548322,34.1412411],[10.5981793,34.124192],[10.5463288,34.0989414],[10.5010632,34.0663628],[10.4639323,34.0275808],[10.4461308,33.999566],[10.3697574,34.0712625],[10.3543954,34.1252445],[10.3567632,34.1283239],[10.7392015,34.3001207],[10.7890439,34.3274873],[10.8319494,34.3617596],[10.8652911,34.4004269],[10.9094514,34.3830092],[10.9679442,34.3653078],[11.0295609,34.3569535],[11.0920669,34.3582517],[11.1531948,34.3691581],[11.2107245,34.3892796],[11.2625619,34.417888],[11.2761055,34.4270006],[11.4393062,34.49039],[11.4973356,34.5191765],[11.5468816,34.5570065],[11.5858094,34.602264],[11.6124301,34.6530112],[11.6255755,34.7070702],[11.6249405,34.7450272],[11.6263708,34.7485616],[11.6342477,34.7982951],[11.6304081,34.8483023],[11.6149681,34.8967963],[11.588461,34.9420408],[11.5518207,34.9824139],[11.5063505,35.0164662],[11.4536766,35.0429743],[11.4187231,35.0570278],[11.4226078,35.061212],[11.4549021,35.10377],[11.4767867,35.1504062],[11.4874726,35.1994821],[11.4865624,35.2492698],[11.4740668,35.2980126],[11.4504075,35.3439878],[11.4164049,35.3855679],[11.3981213,35.4038773],[11.4109856,35.4542987],[11.4176812,35.5103193],[11.4094575,35.5661779],[11.3866549,35.6193558],[11.3702609,35.6410411],[11.3667171,35.6836932],[11.3483873,35.7360995],[11.3169886,35.7843785],[11.2738303,35.8264849],[11.2207287,35.8606327],[11.1599307,35.8853726],[11.1202548,35.8975816],[11.1051104,35.9216518],[11.0656325,35.9622076],[11.0170084,35.9959089],[10.9610683,36.0214822],[10.8999253,36.0379611],[10.877672,36.0403156],[10.8242595,36.1387177],[10.8362369,36.1800979],[10.9157607,36.2037704],[10.9706187,36.2247528],[11.0198176,36.2532485],[11.0617303,36.2883218],[11.0949641,36.328819],[11.2851186,36.6134144],[11.335198,36.6438511],[11.3833281,36.6795127],[11.4217407,36.7218894],[11.4489444,36.7693576],[11.463871,36.8200944],[11.4659207,36.8721471],[11.454988,36.9235081],[11.3766109,37.1500949],[11.353204,37.1983048],[11.3182866,37.2420452],[11.2731702,37.2796521],[11.2195621,37.3096933],[11.1595003,37.3310243],[11.0952747,37.3428329],[11.0293379,37.3446708],[10.9642082,37.3364705],[10.8161775,37.3059157],[10.7528043,37.287311],[10.6954637,37.2592137],[10.6464493,37.2227553],[10.6094967,37.1891267],[10.6086212,37.2117922],[10.5942571,37.2613984],[10.5679966,37.3079384],[10.530793,37.349688],[10.4840115,37.3850987],[10.4293801,37.4128558],[10.216392,37.499196],[10.1407128,37.5213028],[10.0816805,37.5268458],[10.0416183,37.5512855],[9.9839126,37.5742914],[9.921623,37.5883371],[9.8060127,37.605238],[9.7306997,37.6095631],[9.6560309,37.6008401],[9.1216841,37.4887945],[9.0527849,37.4676594],[8.9914529,37.4353965],[8.6638716,37.2180918],[8.4694515,37.1764747],[8.3341311,37.210077],[8.2614267,37.2214116],[8.1872813,37.2200989],[8.1152841,37.2062071],[8.0349646,37.1831378],[8.0324962,37.1853728],[7.9792382,37.2175795],[7.918789,37.2408849],[7.8535662,37.2543576],[7.7861831,37.2574607],[7.6771775,37.2539307],[7.5542913,37.3104947],[7.4956197,37.3318277],[7.4327617,37.3440618],[7.3680344,37.3467488],[7.1657353,37.3398772],[7.1014834,37.3328017],[7.0401475,37.3163318],[6.9839872,37.2910784],[6.9350646,37.2579754],[6.8951678,37.2182434],[6.8895435,37.2096635],[6.8610421,37.2148585],[6.810329,37.2195543],[6.8081998,37.2220882],[6.7654291,37.2568917],[6.7151588,37.2850243],[6.6590807,37.3055374],[6.5326674,37.3410731],[6.4737295,37.3530618],[6.4129505,37.356645],[6.3523121,37.3517087],[6.2937901,37.3384166],[6.2392877,37.3172043],[6.0951111,37.247718],[6.0442172,37.2176215],[6.0015266,37.1806435],[5.9685518,37.138109],[5.9669758,37.135559],[5.668066,37.089537],[5.5918934,37.070176],[5.523717,37.0374173],[5.3712312,36.9428324],[5.3857565,36.9281485],[5.4026497,36.902189],[5.4599283,36.8764657],[5.5123801,36.8396681],[5.554175,36.7949914],[5.5606898,36.7837552],[5.5606901,36.7837548],[5.5608194,36.7835317],[5.5236303,36.7282608],[5.4502424,36.6895253],[5.3089592,36.6699403],[5.2848067,36.6782459],[5.2849924,36.6781626],[5.2902352,36.6744912],[5.2944212,36.6700314],[5.2973708,36.6649746],[5.2989577,36.6595379],[5.2991142,36.6539545],[5.2982051,36.6449017],[5.2982043,36.644902],[5.2881241,36.6483692],[5.2873908,36.6486214],[5.2656113,36.6561128],[5.2,36],[4.8,35],[4.5,34],[4.5,32]],[[44.5104588,42.75],[44.696247,42.7148077],[44.7115201,42.6936574],[44.7115201,42.6936574],[44.7115338,42.6936385],[44.7115338,42.6936385],[44.7718477,42.6101159],[44.7115338,42.6936385],[44.7115338,42.6936385],[44.7115201,42.6936574],[44.7115201,42.6936574],[44.696247,42.7148077],[44.5104588,42.75]],[[34.198542,31.3135339],[34.2079214,31.3224441],[34.4829448,31.5837063],[34.2079214,31.3224441],[34.2021891,31.3062025],[34.2489425,31.2122193],[34.2021891,31.3062025],[34.198542,31.3135339]],[[46.0870969,41.9961477],[46.100261,41.9853423],[46.100261,41.9853423],[46.0870969,41.9961477]],[[50.5976255,40.3372909],[50.6075061,40.3372909],[50.6167941,40.3053431],[50.6183062,40.3001422],[50.6167941,40.3053431],[50.5976255,40.3372909]]]}}
