{"type":"Feature","properties":{"family":"other","name":"Kingdom of Abkhazia, 789 – 864"},"geometry":{"type":"Polygon","coordinates":[[[39.8413441,43.1411726],[39.8475736,43.1387481],[39.9464747,43.1091217],[40.0042671,43.0226029],[40.0423768,42.9773532],[40.091814,42.9384249],[40.1506582,42.9073152],[40.2166376,42.8852191],[40.2872158,42.8729841],[40.3553698,42.8711941],[40.4026152,42.8520513],[40.4671285,42.831497],[40.5357671,42.8202794],[40.6551625,42.8093064],[40.6884648,42.7823981],[40.750552,42.74949],[40.779216,42.740162],[40.8186456,42.6797444],[40.8554471,42.6349793],[40.9032449,42.5962604],[40.9602392,42.565031],[41.0242973,42.542453],[41.1566849,42.5068005],[41.4026683,41.889337],[41.3953545,41.8528978],[41.2306549,41.6745278],[41.2253788,41.6674011],[41.2697415,41.7053043],[41.3249271,41.7371689],[41.3873853,41.7605306],[41.4547598,41.7745072],[41.5245029,41.7785713],[41.5939749,41.772571],[41.6605472,41.7567351],[41.6907692,41.7443461],[41.4979762,41.536681],[41.4943245,41.5316685],[41.4939521,41.5307247],[41.4939432,41.530702],[41.4982684,41.5331928],[41.5045141,41.5355222],[41.5112459,41.5369116],[41.5182104,41.537309],[41.525146,41.5366993],[41.5317919,41.5351054],[41.5384211,41.5329666],[41.5323841,41.5264678],[41.5276077,41.521326],[41.5210152,41.5142292],[41.5276077,41.521326],[41.55,41.5],[41.6,41.2],[42.5,41.4],[42.6,41.42],[42.6666667,41.4333333],[42.8333333,41.4666667],[43,41.5],[43.4,41.9],[43.5,42.1],[43.6,42.3],[43.7,42.45],[43.8,42.6],[43.9,42.75],[43.6666667,42.8166667],[43.5290898,42.8559743],[43.5290898,42.8559743],[43.5290898,42.8559743],[43.6529773,42.8060604],[43.6735415,42.7977752],[43.7241457,42.7773869],[43.7273997,42.7760758],[43.7760526,42.7564737],[43.7760526,42.7564737],[43.7761234,42.7564452],[43.7761234,42.7564452],[43.799838,42.7468906],[43.7761234,42.7564452],[43.7761234,42.7564452],[43.7760526,42.7564737],[43.7760526,42.7564737],[43.6735415,42.7977752],[43.5290898,42.8559743],[43.5023784,42.8636062],[43.3938171,42.8869445],[43.390409,42.8876772],[43.3903337,42.8876934],[43.3882136,42.8881492],[43.3878462,42.8882282],[43.3882136,42.8881492],[43.3903337,42.8876934],[43.390409,42.8876772],[43.3938171,42.8869445],[43.5023784,42.8636062],[43.5023784,42.8636062],[43.5190352,42.8600253],[43.5023784,42.8636062],[43.5023784,42.8636062],[43.4333333,42.8833333],[43.2,42.95],[42.9666667,43.0333333],[42.7333333,43.1166667],[42.6585852,43.1433624],[42.6154262,43.136952],[42.6154262,43.136952],[42.6585852,43.1433624],[42.5,43.2],[41.6,43.3],[40.8,43.45],[40.6,43.4375],[40.4,43.425],[40,43.4],[39.9882843,43.3882843],[40.0324575,43.375011],[40.0324637,43.3750092],[40.2178022,43.3193183],[40.0324637,43.3750092],[40.0324575,43.375011],[39.9882843,43.3882843],[39.9873999,43.38855],[39.9882843,43.3882843],[40.0324575,43.375011],[40.0324637,43.3750092],[40.0190869,43.3741737],[40.0163641,43.3717001],[40.0115659,43.3680881],[40.0059314,43.3651848],[39.9996556,43.3630907],[39.9929558,43.3618783],[39.9860638,43.3615895],[39.9792179,43.3622343],[39.9735349,43.3635819],[39.9741626,43.363338],[40.1905864,43.2983267],[40.2952795,43.1406945],[40.0273329,43.1203596],[39.9608648,43.11946],[39.8952452,43.1272366],[39.8413441,43.1411726]],[[41.1054142,43.3648875],[41.1054142,43.3648875],[41.3806138,43.3345155],[41.1054142,43.3648875]]]}}
