{"type":"Feature","properties":{"family":"islam","name":"Aghlabid emirate, 855 – 864"},"geometry":{"type":"Polygon","coordinates":[[[4.5,32],[4.5555556,31.7777778],[4.6111111,31.5555556],[4.6111111,31.5555556],[4.6666667,31.3333333],[4.7222222,31.1111111],[4.7777778,30.8888889],[4.8333333,30.6666667],[4.8888889,30.4444444],[4.8888889,30.4444444],[4.9444444,30.2222222],[5,30],[5.245614,29.9824561],[5.4912281,29.9649123],[5.7368421,29.9473684],[5.9824561,29.9298246],[6.2280702,29.9122807],[6.4736842,29.8947368],[6.7192982,29.877193],[6.9649123,29.8596491],[7.2105263,29.8421053],[7.4561404,29.8245614],[7.7017544,29.8070175],[8.1929825,29.7719298],[8.4385965,29.754386],[8.6842105,29.7368421],[9.1754386,29.7017544],[9.4210526,29.6842105],[9.6666667,29.6666667],[9.9122807,29.6491228],[10.1578947,29.6315789],[10.4035088,29.6140351],[10.6491228,29.5964912],[10.8947368,29.5789474],[11.3859649,29.5438596],[11.877193,29.5087719],[12.122807,29.4912281],[12.6140351,29.4561404],[13.1052632,29.4210526],[13.3508772,29.4035088],[13.5964912,29.3859649],[13.8421053,29.3684211],[14.0877193,29.3508772],[14.3333333,29.3333333],[14.5789474,29.3157895],[14.8245614,29.2982456],[15.3157895,29.2631579],[15.5614035,29.245614],[15.8070175,29.2280702],[16.0526316,29.2105263],[16.2982456,29.1929825],[16.5438596,29.1754386],[16.7894737,29.1578947],[17.0350877,29.1403509],[17.2807018,29.122807],[17.5263158,29.1052632],[18.0175439,29.0701754],[18.2631579,29.0526316],[18.5087719,29.0350877],[18.754386,29.0175439],[19,29],[19.0454545,29.2272727],[19.0909091,29.4545455],[19.1363636,29.6818182],[19.1818182,29.9090909],[19.2272727,30.1363636],[19.2579192,30.2895959],[19.2256133,30.2859048],[19.2254928,30.285891],[19.0567906,30.266616],[19.2254928,30.285891],[19.2256133,30.2859048],[19.2579192,30.2895959],[19.2887452,30.2931179],[19.3375934,30.298699],[19.2887452,30.2931179],[19.2887393,30.2931172],[19.2885128,30.2949275],[19.2868091,30.2997606],[19.2840896,30.3042366],[19.2804499,30.308198],[19.2760179,30.3115055],[19.2709492,30.3140428],[19.2654222,30.3157207],[19.2596313,30.31648],[19.2537801,30.3162942],[19.2588939,30.3164566],[19.3282987,30.324391],[19.5323734,30.4151533],[19.5168352,30.439866],[19.4786255,30.4798404],[19.4322274,30.512793],[19.3793548,30.5375],[19.3219669,30.5530426],[19.2621952,30.558842],[19.0083914,30.5620556],[18.8361218,30.6429145],[18.4177407,30.9694766],[18.3783246,30.9955219],[18.3345971,31.0159124],[17.4904722,31.3343042],[17.446565,31.347466],[17.0242807,31.4440321],[16.9818155,31.451045],[16.1313674,31.5374746],[15.9604201,31.6064236],[15.7679278,31.8017856],[15.6803359,32.0065256],[15.6886076,32.146258],[15.6848395,32.203261],[15.6669574,32.25832],[15.6357393,32.308962],[15.4489526,32.5457555],[15.4097767,32.5861493],[15.3620713,32.6194216],[15.3076242,32.6443191],[15.2484824,32.6599031],[14.6119789,32.7702441],[14.389065,32.9239042],[14.3437386,32.9499486],[14.2937677,32.9691191],[14.2406209,32.9808511],[13.6636533,33.0632764],[13.3871939,33.1661298],[13.3323267,33.1816786],[13.275009,33.1887314],[13.2171084,33.1870582],[13.1605119,33.1767134],[12.7867488,33.0774555],[12.4486282,33.0979053],[12.0094966,33.3156583],[11.9670226,33.3332084],[11.8118488,33.3857052],[11.7508463,33.4006425],[11.6875111,33.4052877],[11.6809087,33.4046803],[11.525042,33.4869829],[11.4916883,33.5009237],[11.4858104,33.5052926],[11.4344396,33.5307308],[11.4303219,33.587862],[11.4094093,33.646666],[11.3730475,33.7000092],[11.3656707,33.7084236],[11.3670481,33.7108598],[11.3823754,33.7622295],[11.385355,33.8150989],[11.3758496,33.8674342],[11.3542032,33.9172183],[11.3212313,33.9625293],[11.2781922,34.0016148],[11.1485277,34.0980898],[11.0959017,34.1299023],[11.0366494,34.1523837],[10.9731559,34.1646274],[10.9079818,34.1661397],[10.7129685,34.1542785],[10.6536828,34.1460107],[10.5972606,34.128848],[10.5456354,34.1033795],[10.5005718,34.0704782],[10.4636048,34.0312712],[10.445457,34.0022518],[10.3689402,34.0741371],[10.3552368,34.1222769],[10.355586,34.1227314],[10.7382464,34.2948175],[10.7881498,34.3222936],[10.8311635,34.356828],[10.8653676,34.3967164],[10.9126088,34.3781027],[10.9705132,34.3605756],[11.0313598,34.3523095],[11.093002,34.3535961],[11.1532657,34.36439],[11.210024,34.3843106],[11.2612704,34.4126547],[11.2750034,34.4219044],[11.4385157,34.4854976],[11.4909043,34.5109516],[11.5367108,34.5439352],[11.574357,34.583318],[11.6025388,34.6277488],[11.6202723,34.6757006],[11.6269287,34.7255231],[11.625248,34.7435168],[11.6263181,34.7461823],[11.6342983,34.7971513],[11.6303681,34.848439],[11.6146486,34.8981835],[11.587691,34.9445757],[11.5504596,34.9859257],[11.5042985,35.0207247],[11.4508845,35.0477014],[11.4231886,35.0588471],[11.4542233,35.0998248],[11.4765919,35.1477514],[11.4874819,35.1982742],[11.4864789,35.2495693],[11.4735972,35.2997817],[11.4492824,35.3470923],[11.4143981,35.389784],[11.398889,35.4053151],[11.4107327,35.4517284],[11.4176604,35.5094159],[11.4092921,35.5669781],[11.3859828,35.621755],[11.3699521,35.643076],[11.3667102,35.6836437],[11.3482137,35.7374344],[11.3164412,35.7869744],[11.2727376,35.8301313],[11.2189699,35.8650445],[11.1574484,35.8902068],[11.1182223,35.9022861],[11.1047143,35.9240481],[11.0652497,35.9652493],[11.0166947,35.9995179],[10.960866,36.0255647],[10.899861,36.0424088],[10.8580445,36.0469989],[10.8387931,36.072644],[10.8226543,36.1714536],[10.9143902,36.198807],[10.969192,36.2198457],[11.0184092,36.2485157],[11.0604256,36.2838793],[11.093855,36.3247788],[11.2833078,36.608613],[11.3329803,36.6388298],[11.3819214,36.6752248],[11.4209843,36.7186484],[11.4486215,36.7673995],[11.4637267,36.8195651],[11.4656808,36.8730945],[11.4543802,36.9258792],[11.3760479,37.1523552],[11.3525736,37.2010572],[11.3340538,37.2245502],[11.0412082,37.0781509],[12.4239639,37.7694174],[12.4310526,37.773699],[12.4368242,37.778879],[12.504725,37.6659616],[12.5767258,37.652453],[12.6595266,37.564647],[12.9439294,37.5680242],[13,37.512795],[13.0159302,37.4971039],[13.1743317,37.4869724],[13.2787328,37.3941007],[13.4515345,37.2995404],[13.5703357,37.2742117],[13.7143371,37.1712085],[13.8943389,37.1002882],[14.1247412,37.1121083],[14.2795428,37.0445652],[14.3310751,37],[14.3310751,37],[14.3371782,36.9947221],[14.2970715,36.7898353],[14.2932945,36.7379451],[14.2933981,36.7373321],[14.2971397,36.7886047],[14.337388,36.9945406],[14.3947439,36.9449391],[14.4883449,36.7929672],[14.597548,36.7581874],[14.5975681,36.758181],[14.597548,36.7581874],[14.5963596,36.7522054],[14.5959621,36.7470176],[14.5959719,36.7469585],[14.596367,36.7520881],[14.597582,36.7581766],[14.6295961,36.7479805],[14.7799478,36.7000954],[14.6295961,36.7479805],[14.6333333,36.7666667],[14.6666667,36.9333333],[14.7,37.1],[14.9,37.5],[14.9333333,37.6666667],[14.9666667,37.8333333],[15,38],[15.4,38],[15.4,37.9727948],[15.2119521,37.7622105],[15.4,37.9727948],[15.499955,38.0847288],[15.5683557,38.2265693],[15.6475565,38.2670951],[15.5287553,38.3025553],[15.2911529,38.2063064],[15.2469572,38.2158739],[15.2469572,38.2158739],[15.2685777,38.2545925],[15.2681898,38.2547261],[15.2382061,38.2582399],[15.2371524,38.2654066],[15.233466,38.2587954],[15.2034757,38.2623099],[15.2030547,38.2622712],[15.2098215,38.2163912],[15.2163244,38.2280535],[15.2098215,38.2163912],[15.1759518,38.155649],[15.0895509,38.1286318],[15,38.1574576],[14.9059491,38.187732],[14.7331473,38.1573376],[14.7060323,38.1361407],[14.6359464,38.0813516],[14.5099451,38.0442029],[14.2723427,38.0154971],[14.0203402,38.0492687],[13.7899379,37.9732827],[13.6495365,38.0002999],[13.5559356,38.0492687],[13.5127351,38.1100575],[13.4261618,38.1052802],[13.4281085,38.1053876],[13.4310412,38.1131755],[13.4269871,38.114122],[13.4134369,38.104578],[13.3903339,38.1033031],[13.3723337,38.1725348],[13.3183332,38.219815],[13.2067321,38.175912],[13.102331,38.1894206],[13.0555306,38.1421404],[13.0570507,38.1296628],[12.8117963,38.0861235],[12.7315273,38.1927977],[12.7063271,38.1100575],[12.6631266,38.1168118],[12.6091261,38.0627773],[12.5366278,38.0372736],[12.4684823,38.0251759],[12.4652016,38.0230772],[12.4904825,37.9984356],[12.4651247,37.8229993],[12.4255243,37.7976707],[12.4437459,37.8093253],[12.4426431,37.8126058],[12.4387123,37.8189371],[12.4332928,37.8245406],[12.4265925,37.829201],[12.4188692,37.8327388],[12.4104197,37.835018],[12.4015693,37.8359509],[12.3926585,37.8355016],[12.3840302,37.8336873],[12.3760164,37.8305778],[10.9756727,37.1302929],[11.2760707,37.2805161],[11.2728507,37.2832419],[11.2195709,37.3136327],[11.159905,37.3352667],[11.0961009,37.3473274],[11.0305672,37.3493596],[10.9657795,37.3412866],[10.8177153,37.3107903],[10.754769,37.292302],[10.6976752,37.2642772],[10.6486835,37.227824],[10.6091459,37.1918864],[10.6082268,37.2134248],[10.593523,37.2641013],[10.5668565,37.3115878],[10.5292016,37.3541123],[10.4819496,37.3900851],[10.4268577,37.4181598],[10.2139587,37.5045331],[10.1393625,37.5263876],[10.0791633,37.5320773],[10.0406699,37.555911],[9.9827819,37.5792939],[9.9203258,37.5934957],[9.8047385,37.6104337],[9.7308994,37.6147058],[9.6576635,37.6061781],[9.1231929,37.4943434],[9.0550815,37.4734533],[8.9942285,37.4414542],[8.6660865,37.224018],[8.4686704,37.1818465],[8.3315362,37.2159537],[8.2602513,37.2271162],[8.18763,37.2258739],[8.1170485,37.2122853],[8.0333382,37.1882847],[8.0326538,37.1889218],[7.9792945,37.2220921],[7.9186923,37.2461286],[7.8532844,37.2600632],[7.785707,37.2633346],[7.6747194,37.2597794],[7.5508004,37.3168691],[7.4929226,37.3379796],[7.4310946,37.3500929],[7.3675156,37.3527784],[7.1652148,37.3459836],[7.1007052,37.3387676],[7.0391633,37.3218455],[6.9828799,37.2958485],[6.9339443,37.261745],[6.8941653,37.2208035],[6.8907027,37.2153137],[6.8590065,37.2211171],[6.8071427,37.2259334],[6.8058258,37.2275062],[6.7626008,37.2629042],[6.7119673,37.2914313],[6.6556283,37.3121249],[6.5292546,37.3476879],[6.4566958,37.3611465],[6.3822081,37.3616577],[6.3094202,37.3491975],[6.2418749,37.3243737],[6.0976206,37.2549328],[6.0465113,37.2246727],[6.0034916,37.1873031],[5.9700831,37.1441573],[5.9690523,37.1424916],[5.6683129,37.096319],[5.5935714,37.077323],[5.5264213,37.045056],[5.3675058,36.9465985],[5.3712312,36.9428324],[5.3857565,36.9281485],[5.4026497,36.902189],[5.4599283,36.8764657],[5.5123801,36.8396681],[5.554175,36.7949914],[5.5606898,36.7837552],[5.5630115,36.7872054],[5.5238473,36.7290057],[5.4503756,36.6902302],[5.3086911,36.6705953],[5.2794245,36.6806606],[5.2794633,36.6806432],[5.2848067,36.6782459],[5.2849924,36.6781626],[5.2902352,36.6744912],[5.2944212,36.6700314],[5.2973708,36.6649746],[5.2989577,36.6595379],[5.2991142,36.6539545],[5.2982051,36.6449017],[5.2982043,36.644902],[5.2881241,36.6483692],[5.2873908,36.6486214],[5.2656113,36.6561128],[5.2,36],[4.8,35],[4.5,34],[4.5,32]],[[13.0517949,38.087735],[13.059229,38.1117825],[13.062689,38.0833819],[13.0517949,38.087735]],[[15.2225324,38.239187],[15.2267264,38.2467086],[15.223724,38.2413241],[15.2225324,38.239187]]]}}
