{"type":"Feature","properties":{"family":"celts","name":"Northern Uí Néill and Airgialla, 985 – 1027"},"geometry":{"type":"Polygon","coordinates":[[[-9.1242033,54.7495251],[-9.1113569,54.6967925],[-9.0548466,54.5620252],[-9.0527534,54.5586422],[-9.0141249,54.5588855],[-8.9777158,54.5571307],[-8.9145398,54.5861867],[-8.8780093,54.599838],[-8.8766552,54.6017804],[-8.8257796,54.6464601],[-8.7935875,54.665193],[-8.796688,54.6986406],[-8.6977657,54.7418759],[-8.657015,54.7596866],[-8.6019217,54.6247082],[-8.4942849,54.632786],[-8.6019217,54.6247082],[-8.648384,54.6212214],[-8.6472767,54.6185159],[-8.6440506,54.6131813],[-8.638977,54.6083529],[-8.6322788,54.6042422],[-8.6242502,54.6010295],[-8.6152433,54.5988557],[-8.6056527,54.5978158],[-8.5958987,54.5979556],[-8.5181294,54.6038017],[-8.5015115,54.58822],[-8.4958071,54.583909],[-8.4934527,54.5827243],[-8.4965362,54.580613],[-8.5009105,54.5760735],[-8.5037003,54.5711318],[-8.5048026,54.5659717],[-8.504177,54.5607849],[-8.5018474,54.5557639],[-8.4979008,54.5510952],[-8.4924844,54.5469521],[-8.4857994,54.5434882],[-8.478094,54.540832],[-8.4696542,54.539082],[-8.4607929,54.538303],[-8.4518386,54.5385241],[-8.4431232,54.5397369],[-8.43497,54.5418965],[-8.4276812,54.5449228],[-8.3331824,54.5926832],[-8.3304463,54.5899795],[-8.3246093,54.5861275],[-8.3176215,54.5829844],[-8.3097348,54.5806634],[-8.3012336,54.5792483],[-8.2924244,54.5787899],[-8.2836244,54.5793049],[-8.2751509,54.5807747],[-8.2641534,54.5833633],[-8.3112297,54.5366361],[-8.315052,54.5317938],[-8.3171597,54.5266102],[-8.3174713,54.5212873],[-8.3159753,54.5160326],[-8.3127308,54.5110508],[-8.3096293,54.5081734],[-8.3023857,54.5098968],[-8.2932787,54.5114494],[-8.283818,54.5118946],[-8.2743991,54.5112139],[-8.2654156,54.5094358],[-8.2572428,54.5066344],[-8.2345279,54.4968967],[-8.2771809,54.4867397],[-8.2848166,54.4849214],[-8.2848166,54.4849214],[-8.3276788,54.4747146],[-8.3276788,54.4747146],[-8.2848166,54.4849214],[-8.25,54.47],[-8,54.33],[-7.875,54.24],[-7.75,54.15],[-7.55,53.98],[-7.6,53.85],[-7.4,53.88],[-7.25,53.9],[-7.1,53.92],[-6.7,53.9],[-6.5,53.87],[-6.3,53.84],[-6.3128924,53.8832612],[-6.2623145,53.8694226],[-6.2644064,53.8764677],[-6.2678081,53.8879237],[-6.2701497,53.8929176],[-6.2740687,53.8975556],[-6.2794209,53.9016665],[-6.2860091,53.9050985],[-6.2935903,53.9077248],[-6.3258847,53.9165676],[-6.3156458,53.9986745],[-6.3139852,53.9998677],[-6.3098458,54.004365],[-6.3091165,54.0057212],[-6.3521194,54.0148895],[-6.3642857,54.0557143],[-6.4285714,54.2714286],[-6.5571429,54.7028571],[-6.6214286,54.9185714],[-6.6650943,55.0650943],[-6.77,55.17],[-6.768968,55.1792883],[-6.8155187,55.1830528],[-6.8145206,55.1864603],[-6.8109905,55.1916292],[-6.8056818,55.1962764],[-6.7988187,55.2002052],[-6.7906914,55.2032492],[-6.7816438,55.2052794],[-6.7720592,55.20621],[-6.7630755,55.2060171],[-6.7629513,55.2060507],[-6.9097657,55.2179535],[-6.9048147,55.2203775],[-6.8990024,55.2246392],[-6.8947931,55.2294756],[-6.8923559,55.234693],[-6.891789,55.2400827],[-6.8931159,55.2454288],[-6.8962843,55.2505171],[-6.9011677,55.2551438],[-6.9075709,55.2591232],[-6.9152376,55.2622958],[-7.1409144,55.3365778],[-7.1337068,55.3427013],[-7.0650882,55.3810344],[-6.9841537,55.4106656],[-6.7890413,55.4666768],[-6.8376215,55.4887239],[-6.8979132,55.5292748],[-6.9094474,55.5411113],[-6.9094491,55.541113],[-7.1476346,55.6196523],[-7.2320804,55.6413251],[-7.3224173,55.6533155],[-7.4151783,55.6551629],[-7.5067972,55.6467962],[-7.5937547,55.6285369],[-7.6727208,55.6010862],[-7.7406883,55.5654961],[-7.787935,55.5287075],[-7.8068915,55.5254736],[-7.8098783,55.5256021],[-7.9022568,55.5192751],[-7.9906394,55.502842],[-8.0348678,55.4887033],[-8.0652151,55.4870721],[-8.1520459,55.4726118],[-8.2323901,55.4490461],[-8.2724146,55.4311072],[-8.2787649,55.4311038],[-8.3711342,55.4258748],[-8.4598935,55.4104958],[-8.5416005,55.3855642],[-8.6131014,55.3520473],[-8.6716577,55.3112427],[-8.7150517,55.2647254],[-8.7202248,55.2549327],[-8.7919564,55.2324495],[-8.8614168,55.1993914],[-8.918457,55.1593636],[-8.9578733,55.1254661],[-9.0012545,55.0786698],[-9.0277405,55.0279183],[-9.0363697,54.9751791],[-9.0269827,54.9230675],[-9.0548825,54.9020652],[-9.0954725,54.8542067],[-9.1188625,54.8026876],[-9.1242033,54.7495251]],[[-8.4582846,55.0025845],[-8.4539798,55],[-8.4539798,55],[-8.4582846,55.0025845]],[[-7.6806768,54.9536157],[-7.5902622,55],[-7.5902622,55],[-7.6806768,54.9536157]],[[-7.6202434,55],[-7.5618756,55.0447989],[-7.6202434,55],[-7.6202434,55]],[[-7.1879794,55.074526],[-7.123876,55.1321789],[-7.0153222,55.1756554],[-7.0210211,55.1442547],[-7.0918511,55.0711091],[-7.1879794,55.074526]],[[-7.1586716,55.1511793],[-7,55.2146227],[-7,55.2146227],[-7.1586716,55.1511793]],[[-7.0650707,55.0431103],[-7,55.1102566],[-6.9750698,55.1359821],[-7,55.1102566],[-7.0650707,55.0431103]]]}}
