{"type":"Feature","properties":{"family":"other","name":"Alania, 882 – 1014"},"geometry":{"type":"Polygon","coordinates":[[[38.6041377,44.1476],[38.6113223,44.0958772],[38.6321682,44.0460999],[38.6658716,44.0001095],[38.7111608,43.9596036],[38.7368378,43.9403245],[38.7371226,43.9401106],[38.7377453,43.9396431],[38.737836,43.939575],[39.7194857,43.2025199],[39.7708074,43.1698548],[39.8294241,43.1445753],[39.840046,43.1417434],[39.8400851,43.141733],[39.8400984,43.1417295],[39.8933633,43.1275288],[39.9604805,43.1192863],[40.0285286,43.120124],[40.2954221,43.1404848],[40.2954228,43.1404848],[40.2954231,43.1404848],[40.1905872,43.298333],[39.9741657,43.3633441],[39.9740431,43.3633917],[39.9805759,43.3618964],[39.987643,43.3613125],[39.9947335,43.361719],[40.0015875,43.363101],[40.0079533,43.3654078],[40.0135974,43.3685547],[40.0183125,43.3724263],[40.0201278,43.374241],[40.0324575,43.375011],[39.9882843,43.3882843],[39.9873999,43.38855],[39.9882843,43.3882843],[40,43.4],[40.4,43.425],[40.6,43.4375],[40.8,43.45],[41.6,43.3],[42.5,43.2],[42.6585852,43.1433624],[42.6154262,43.136952],[42.6154262,43.136952],[42.6585852,43.1433624],[42.6585852,43.1433624],[42.8314283,43.169035],[42.6585852,43.1433624],[42.7333333,43.1166667],[42.9666667,43.0333333],[43.2,42.95],[43.4333333,42.8833333],[43.5023784,42.8636062],[43.3938171,42.8869445],[43.390409,42.8876772],[43.3903337,42.8876934],[43.3882136,42.8881492],[43.3878462,42.8882282],[43.3870783,42.8883932],[43.3843422,42.8889814],[43.3462335,42.897174],[43.3843422,42.8889814],[43.3870783,42.8883932],[43.3878462,42.8882282],[43.3882136,42.8881492],[43.3903337,42.8876934],[43.390409,42.8876772],[43.3938171,42.8869445],[43.5023784,42.8636062],[43.5290898,42.8559743],[43.5190352,42.8600253],[43.5290898,42.8559743],[43.5290898,42.8559743],[43.5290898,42.8559743],[43.5290898,42.8559743],[43.6529773,42.8060604],[43.6735415,42.7977752],[43.7241457,42.7773869],[43.7273997,42.7760758],[43.7760526,42.7564737],[43.7760526,42.7564737],[43.7761234,42.7564452],[43.7761234,42.7564452],[43.7760526,42.7564737],[43.7760526,42.7564737],[43.7273997,42.7760758],[43.7241457,42.7773869],[43.6735415,42.7977752],[43.6529773,42.8060604],[43.5290898,42.8559743],[43.6666667,42.8166667],[43.9,42.75],[44.5104588,42.75],[44.6,42.75],[44.8,42.7],[45,42.65],[45.2,42.6],[45.3,42.775],[45.4,42.95],[45.5,43.125],[45.6,43.3],[45.45,43.475],[45.3,43.65],[45,44],[44.7857143,44.0714286],[44.5714286,44.1428571],[44.3571429,44.2142857],[44.1428571,44.2857143],[43.9285714,44.3571429],[43.7142857,44.4285714],[43.5,44.5],[43.2777778,44.5111111],[43.0555556,44.5222222],[42.8333333,44.5333333],[42.6111111,44.5444444],[42.3888889,44.5555556],[42.1666667,44.5666667],[41.9444444,44.5777778],[41.7222222,44.5888889],[41.5,44.6],[41.2571429,44.5714286],[41.0142857,44.5428571],[40.7714286,44.5142857],[40.5285714,44.4857143],[40.2857143,44.4571429],[40.0428571,44.4285714],[39.8,44.4],[39.5833333,44.3333333],[39.3666667,44.2666667],[39.15,44.2],[38.9801311,44.1477327],[38.9793898,44.1484098],[38.9456287,44.1581905],[38.9447779,44.1569239],[38.942923,44.1516227],[38.9425963,44.146162],[38.943811,44.140766],[38.9465166,44.1356563],[38.9506019,44.1310426],[38.9566915,44.1254828],[38.9567024,44.1254729],[38.9567137,44.1254626],[38.9567203,44.1254565],[39.0866841,44.0068001],[38.9567203,44.1254565],[38.9567137,44.1254626],[38.8427526,44.1589036],[38.8369414,44.1610444],[38.8317353,44.1638748],[38.8272915,44.1673093],[38.7353077,44.2519705],[38.6544503,44.2808227],[38.6544478,44.2808193],[38.6544478,44.2808193],[38.631443,44.2492033],[38.6109167,44.1993501],[38.6041377,44.1476]]]}}
