{"type":"Feature","properties":{"family":"celts","name":"Kingdom of Alba, 985 – 1027"},"geometry":{"type":"Polygon","coordinates":[[[-6.2862072,56.7191789],[-6.2851039,56.7141477],[-6.2823062,56.7093187],[-6.2779135,56.704862],[-6.2720811,56.7009348],[-6.2023247,56.662004],[-6.2023244,56.6620042],[-6.2023238,56.6620045],[-6.1854972,56.6713339],[-6.1778173,56.6748006],[-6.1690228,56.6773461],[-6.1627109,56.6783507],[-6.1627107,56.6783506],[-6.1627107,56.6783506],[-6.1614616,56.6776531],[-6.1287386,56.6772383],[-6.1287386,56.6772383],[-6.1287386,56.6772383],[-6.1287345,56.6772382],[-6.0460369,56.6667947],[-6.0374549,56.6652379],[-6.0295385,56.6628426],[-6.0225563,56.65969],[-6.016745,56.6558871],[-6.0123014,56.651563],[-6.0045149,56.6420003],[-5.8374584,56.6269958],[-6.0045149,56.6420003],[-6.0045149,56.6420003],[-6.0045159,56.6420004],[-6.0045159,56.6420004],[-6.0066601,56.642193],[-6.0027552,56.6398382],[-6.0027535,56.6398371],[-5.9387579,56.5612436],[-5.9387579,56.5612436],[-5.9387579,56.5612436],[-5.9129378,56.5456817],[-5.7140148,56.5136696],[-5.7140116,56.5136682],[-5.7140116,56.5136682],[-5.7140116,56.5136682],[-5.7140116,56.5136682],[-5.7140116,56.5136682],[-5.7140116,56.5136682],[-5.7140116,56.5136682],[-5.6754568,56.4969753],[-5.6698709,56.5002079],[-5.6698695,56.5002087],[-5.6692499,56.4998533],[-5.6687406,56.4995612],[-5.6630983,56.4963249],[-5.6359639,56.480761],[-5.6359632,56.4807606],[-5.6359632,56.4807606],[-5.6114724,56.4667131],[-5.6359632,56.4807606],[-5.6359632,56.4807606],[-5.6359639,56.480761],[-5.6630983,56.4963249],[-5.6687406,56.4995612],[-5.6692499,56.4998533],[-5.6698695,56.5002087],[-5.6692499,56.4998533],[-5.6687406,56.4995612],[-5.6630983,56.4963249],[-5.6359677,56.4807632],[-5.3648199,56.6385675],[-5.451843,56.5606302],[-5.4542814,56.5599176],[-5.4620019,56.556384],[-5.4682515,56.5520567],[-5.4727677,56.5471177],[-5.5159032,56.4846244],[-5.5184685,56.4793423],[-5.5190522,56.4738831],[-5.5176311,56.4684712],[-5.5142644,56.4633288],[-5.5090912,56.4586671],[-5.5023243,56.4546774],[-5.4993678,56.4535238],[-5.5051247,56.4478821],[-5.5040379,56.4479577],[-5.4946217,56.4476005],[-5.4855064,56.4462477],[-5.4770335,56.4439501],[-5.4695202,56.4407936],[-5.4632475,56.4368966],[-5.4617431,56.4354881],[-5.4617445,56.4354868],[-5.4617445,56.4354868],[-5.5219696,56.3765339],[-5.5316192,56.3670882],[-5.5343665,56.3643989],[-5.5359568,56.3628422],[-5.5366478,56.3626185],[-5.5464289,56.3608397],[-5.5566659,56.3602386],[-5.5854458,56.3602385],[-5.5947038,56.360729],[-5.5971805,56.3611332],[-5.600129,56.3596167],[-5.6054944,56.3555982],[-5.6094291,56.3511002],[-5.6097653,56.3504158],[-5.6005039,56.3520867],[-5.5915647,56.353195],[-5.5824089,56.3533554],[-5.5733611,56.3525622],[-5.5647423,56.3508436],[-5.5568579,56.3482604],[-5.5499873,56.3449042],[-5.5487974,56.3440541],[-5.5488001,56.3440537],[-5.5638556,56.3416262],[-5.5926559,56.2504431],[-5.5629837,56.2534254],[-5.5629815,56.2534256],[-5.5624854,56.2521751],[-5.562165,56.2473226],[-5.5634152,56.2425168],[-5.5886841,56.1834263],[-5.5918459,56.178341],[-5.596757,56.173706],[-5.6032217,56.1697054],[-5.6109826,56.1664982],[-5.6197313,56.1642117],[-5.6291202,56.1629368],[-5.6340873,56.1628274],[-5.6367328,56.1609347],[-5.6439843,56.1574528],[-5.64966,56.1556694],[-5.6535533,56.1482045],[-5.6552968,56.1429641],[-5.6551832,56.1386252],[-5.647293,56.1259088],[-5.6438667,56.1231648],[-5.6369709,56.1194746],[-5.6289097,56.1166118],[-5.6199972,56.1146879],[-5.6149234,56.1141977],[-5.617376,56.1126446],[-5.6219881,56.1083005],[-5.7514525,55.9545936],[-5.7545758,55.9496847],[-5.7559552,55.9445312],[-5.7555401,55.9393254],[-5.7533465,55.9342617],[-5.7494571,55.9295287],[-5.7440174,55.9253029],[-5.7427008,55.9246122],[-5.7447735,55.9196362],[-5.7450837,55.9143471],[-5.7435464,55.909126],[-5.7402213,55.9041737],[-5.7149967,55.8754769],[-5.7098799,55.8708814],[-5.7057772,55.8684571],[-5.71569,55.8599302],[-5.719872,55.8554701],[-5.7225027,55.8506511],[-5.7234909,55.8456417],[-5.7228027,55.8406167],[-5.7083463,55.7933422],[-5.7056389,55.7879336],[-5.7009991,55.7829577],[-5.6946286,55.7786303],[-5.6426335,55.7499581],[-5.7210093,55.6907602],[-5.7260231,55.6860208],[-5.7292212,55.6808054],[-5.7304704,55.6753323],[-5.7297192,55.6698306],[-5.7212246,55.643374],[-5.7669335,55.5743279],[-5.769335,55.5692073],[-5.7699208,55.5639202],[-5.7631326,55.4562297],[-5.7644881,55.4550951],[-5.7645115,55.455086],[-5.7645161,55.4550842],[-5.961196,55.3782057],[-6.0382119,55.5585182],[-5.961196,55.3782057],[-5.9227543,55.2882046],[-5.5551544,55.0751885],[-5.6097749,55.1068399],[-5.5703127,55.1530737],[-5.5094221,55.19749],[-5.4578814,55.2220752],[-5.4472075,55.2427664],[-5.4046436,55.289229],[-5.3470008,55.3301027],[-5.308802,55.3523126],[-5.2998434,55.3805828],[-5.2732859,55.4306493],[-5.1271369,55.4135122],[-5.117701,55.412947],[-5.1082551,55.4134571],[-5.0991753,55.4150224],[-5.090823,55.4175804],[-5.0512349,55.4327688],[-5.0441975,55.436066],[-5.0383984,55.4400652],[-5.0340514,55.4446193],[-5.0313171,55.4495607],[-5.0302969,55.4547074],[-5.0310289,55.4598697],[-5.0400833,55.4886585],[-5.0362212,55.4905236],[-5.0302501,55.4948805],[-5.0259662,55.4998342],[-5.023549,55.505178],[-5.0231004,55.5106885],[-5.0246398,55.5161354],[-5.0281038,55.5212909],[-5.0333482,55.5259393],[-5.040154,55.529886],[-5.0482368,55.5329659],[-5.0629548,55.537408],[-5.050677,55.5579232],[-5.0486521,55.5626954],[-5.0481885,55.5675961],[-5.0493022,55.5724632],[-5.0519568,55.5771354],[-5.056065,55.5814583],[-5.0614912,55.5852884],[-5.0925461,55.6035105],[-5.0985462,55.6561229],[-5.1004072,55.6620329],[-5.1045388,55.6675641],[-5.154902,55.7182389],[-5.1599403,55.7223533],[-5.1662406,55.7258729],[-5.1735867,55.7286768],[-5.1817259,55.7306686],[-5.2825868,55.7492554],[-5.292497,55.7504418],[-5.3026292,55.7504279],[-5.3103579,55.7494805],[-5.2851933,55.7636062],[-5.2791003,55.7677894],[-5.2746112,55.7725721],[-5.2719067,55.7777624],[-5.2710962,55.7831517],[-5.272213,55.7885235],[-5.2752131,55.7936619],[-5.298729,55.8234331],[-5.216989,55.8063881],[-5.2080891,55.805058],[-5.1989012,55.8047074],[-5.1897629,55.8053491],[-5.1810101,55.8069596],[-5.1806692,55.8070664],[-5.1586417,55.7747491],[-5.1554546,55.7709735],[-5.1512698,55.7675201],[-5.064848,55.7067581],[-5.0583117,55.7029789],[-5.0505962,55.6999888],[-5.0419963,55.6979023],[-5.0328409,55.6967988],[-5.0234796,55.6967207],[-5.0142699,55.6976709],[-5.0055637,55.6996131],[-4.9976936,55.7024731],[-4.9909605,55.7061416],[-4.9856221,55.7104785],[-4.981883,55.715318],[-4.9798867,55.7204749],[-4.9797104,55.7257521],[-4.9829271,55.7485837],[-4.9725281,55.8034988],[-4.9723968,55.8084123],[-4.9738534,55.8132576],[-4.97685,55.8178739],[-4.9997308,55.8450922],[-4.993912,55.8440842],[-4.9846648,55.8435347],[-4.9754021,55.8439954],[-4.9664702,55.8454489],[-4.9582033,55.8478411],[-4.9509105,55.8510823],[-4.9448651,55.8550514],[-4.9402936,55.8595998],[-4.9283589,55.8746922],[-4.9283589,55.8746922],[-4.9350088,55.9171226],[-4.934913,55.9224076],[-4.9329799,55.9275808],[-4.9292828,55.9324433],[-4.9239632,55.9368085],[-4.917225,55.9405087],[-4.8666745,55.9632559],[-4.8740619,55.9650065],[-4.8817972,55.9679327],[-4.8883809,55.9716381],[-4.893566,55.975984],[-4.8971577,55.9808076],[-4.8990207,55.985928],[-4.8999737,55.991034],[-4.8942489,55.9904022],[-4.9066407,56.0775868],[-4.905678,56.0804858],[-4.9023618,56.0864729],[-4.8655081,56.1328914],[-4.8510485,56.1119797],[-4.7927744,56.1686707],[-4.7538475,56.2065401],[-4.7927744,56.1686707],[-4.75,56.22],[-4.55,56.25],[-4.3,56.15],[-4,56.1],[-3.7751965,56.0730236],[-3.8358384,56.106914],[-3.6702367,56.0511909],[-3.6674685,56.0509912],[-3.6630453,56.050672],[-3.6261887,56.0310815],[-3.6206713,56.0275846],[-3.6163145,56.0236091],[-3.6136965,56.0199075],[-3.6132481,56.0192736],[-3.6059404,56.005542],[-3.6567462,56.0112437],[-3.6594945,56.0115521],[-3.6666367,56.0123537],[-3.6594945,56.0115521],[-3.6,55.9],[-3.25,55.55],[-2.65,55.15],[-2.45,55],[-2.55,55.15],[-2.4,55.3],[-2.2,55.4],[-2.3,55.55],[-2.25,55.64],[-2.05,55.77],[-1.9881767,55.7823647],[-2.0144575,55.8057432],[-2.0144575,55.8057432],[-2.0144575,55.8057432],[-2.0144587,55.8057443],[-2.1366214,55.9144162],[-2.0144587,55.8057443],[-2.0144575,55.8057432],[-2.0144575,55.8057432],[-2.0144575,55.8057432],[-1.9881767,55.7823647],[-1.9625976,55.7596103],[-1.9625976,55.7596103],[-1.9625962,55.7596091],[-1.9625962,55.7596091],[-1.9625962,55.7596091],[-1.962596,55.759609],[-1.8234182,55.6358009],[-1.962596,55.759609],[-1.9625962,55.7596091],[-1.9625962,55.7596091],[-1.9558703,55.7624237],[-1.949501,55.7664093],[-1.9446571,55.771025],[-1.9415304,55.7760887],[-1.9402449,55.7814006],[-1.9408521,55.7867509],[-1.9433289,55.7919283],[-1.947578,55.7967283],[-1.9477048,55.7968411],[-1.9477133,55.7968488],[-2.0959379,55.9288294],[-1.9477133,55.7968488],[-1.9477048,55.7968411],[-1.9476818,55.7968245],[-1.9475721,55.7967269],[-1.9475193,55.7966799],[-1.947517,55.7966779],[-1.947517,55.7966779],[-1.804537,55.6694462],[-1.7985476,55.6708498],[-1.7896176,55.6723852],[-1.7896176,55.6723852],[-1.7803286,55.6729119],[-1.7710354,55.6724098],[-1.7620929,55.6708981],[-1.7538423,55.6684345],[-1.7465985,55.665113],[-1.7406376,55.6610604],[-1.708252,55.634033],[-1.7035877,55.6291027],[-1.7028193,55.6276107],[-1.6207206,55.6113749],[-1.5965435,55.6271795],[-1.5503887,55.6728685],[-1.5207381,55.7227378],[-1.5087766,55.7749041],[-1.5150295,55.8273894],[-1.5393319,55.8781956],[-1.580824,55.9253808],[-1.582115,55.9265402],[-1.5821905,55.9266081],[-1.7284073,56.0579279],[-1.7948511,56.1047791],[-1.8783024,56.1422722],[-1.9746464,56.1685383],[-2.1145858,56.1963113],[-2.0958988,56.2362552],[-2.0903268,56.2889744],[-2.103374,56.3412886],[-2.1346144,56.3911873],[-2.1550392,56.4104694],[-2.0956889,56.4523242],[-2.0473317,56.5113059],[-1.9841802,56.6215731],[-1.8099314,56.73755],[-1.7505708,56.787023],[-1.7122088,56.8423901],[-1.6967757,56.9010036],[-1.6961869,56.9107243],[-1.6180297,56.9859453],[-1.5751065,57.0401956],[-1.5548209,57.0982285],[-1.5577453,57.1486064],[-1.5327416,57.191791],[-1.3657936,57.3057258],[-1.3148232,57.3478638],[-1.279142,57.3943678],[-1.2600415,57.4436328],[-1.2582511,57.4939519],[-1.2739043,57.5435745],[-1.3441614,57.6839957],[-1.3733347,57.7270312],[-1.4157934,57.7668015],[-1.4703437,57.8021494],[-1.6359091,57.8921156],[-1.7180256,57.9280519],[-1.8125792,57.9540468],[-1.9153607,57.9689365],[-2.02177,57.9720532],[-3.0190965,57.9413562],[-3.1920937,57.9698384],[-3.2885171,57.922424],[-3.279165,57.9049133],[-3.271302,57.8518109],[-3.2831909,57.7989218],[-3.3142842,57.748302],[-3.3255691,57.7376217],[-3.3926424,57.7486802],[-3.4012276,57.7496575],[-3.4100002,57.749827],[-3.4186953,57.7491836],[-3.5015533,57.7390448],[-3.5100577,57.7375674],[-3.5179401,57.7353125],[-3.5249534,57.7323508],[-3.530878,57.7287753],[-3.5355283,57.724698],[-3.5656999,57.6920139],[-3.6043477,57.6954609],[-3.6141315,57.6958156],[-3.6238587,57.6951519],[-3.6331615,57.6934951],[-3.6416883,57.6909077],[-3.649117,57.6874877],[-3.6551671,57.6833641],[-3.6551794,57.6833511],[-3.8511351,57.6194724],[-4.0186348,57.6149549],[-3.9691262,57.6707109],[-3.9677076,57.6709436],[-3.959225,57.6733529],[-3.9517486,57.6765779],[-3.9455494,57.6805017],[-3.7632617,57.8204228],[-3.7632199,57.820463],[-3.76915,57.8166967],[-3.7763002,57.8135546],[-3.7844043,57.8111588],[-3.7931913,57.8095894],[-3.8023675,57.8088988],[-3.8116262,57.8091101],[-3.8206579,57.8102162],[-3.8349427,57.8127158],[-3.8048353,57.8358462],[-3.8048353,57.8358462],[-3.825312,57.8394296],[-3.8671961,57.824437],[-3.8711113,57.827885],[-3.8745436,57.8330345],[-3.8759575,57.8384467],[-3.875294,57.8438996],[-3.8725795,57.8491695],[-3.8679244,57.8540401],[-3.8615192,57.8583115],[-3.8536265,57.8618081],[-3.8065362,57.8786691],[-3.7977203,57.8811889],[-3.7977463,57.8811847],[-3.806506,57.8786818],[-3.9091816,57.8419446],[-3.94808,57.8621075],[-3.9563806,57.8655881],[-3.9571479,57.8657897],[-3.9381925,57.9012577],[-3.9381978,57.9012585],[-3.958356,57.8635348],[-3.961884,57.8587298],[-3.9670651,57.8543697],[-3.9737097,57.8506135],[-3.9815749,57.8475986],[-3.9903732,57.8454347],[-3.9997836,57.844201],[-4.0094627,57.8439425],[-4.0190575,57.8446684],[-4.1823102,57.8650831],[-4.0086401,57.8681001],[-4.007151,57.8708939],[-3.9870399,57.9086259],[-4.007151,57.8708939],[-4.2,57.895],[-4.4,57.92],[-4.8,57.97],[-5.15,57.92],[-5.2118122,57.9180981],[-5.2218522,57.9221346],[-5.2118122,57.9180981],[-5.1493751,57.892996],[-5.2088613,57.8911658],[-5.2178071,57.8913082],[-5.2265669,57.892283],[-5.2348689,57.8940601],[-5.2424553,57.8965842],[-5.2519302,57.9003922],[-5.2522624,57.9001639],[-5.2937198,57.9155779],[-5.3658537,57.9423975],[-5.2937198,57.9155779],[-5.3666667,57.9133333],[-5.3807164,57.912901],[-5.3207926,57.8877219],[-5.3484394,57.8868713],[-5.3485524,57.8868678],[-5.4162542,57.9086259],[-5.4245669,57.8969288],[-5.4261465,57.8975923],[-5.4329176,57.9010183],[-5.4383925,57.9050459],[-5.4423853,57.9095388],[-5.4447602,57.9143446],[-5.445436,57.9193004],[-5.4443889,57.9242382],[-5.441654,57.9289903],[-5.4376204,57.9330932],[-5.4460025,57.9304946],[-5.4534038,57.9270253],[-5.4594005,57.9228613],[-5.4637664,57.9181598],[-5.4836728,57.8901196],[-5.5025502,57.8989762],[-5.4991705,57.9115868],[-5.4991766,57.9115873],[-5.5012471,57.9038589],[-5.5036052,57.8987258],[-5.5077998,57.893935],[-5.5136694,57.8896703],[-5.5209886,57.886095],[-5.5294768,57.8833459],[-5.5388087,57.8815284],[-5.541591,57.8812971],[-5.5566556,57.888363],[-5.5515168,57.9076456],[-5.5494555,57.9153803],[-5.5515168,57.9076456],[-5.5833333,57.9066667],[-5.6424466,57.9048478],[-5.6142561,57.9288889],[-5.6424466,57.9048478],[-5.6538565,57.8951173],[-5.6356465,57.8780347],[-5.6394886,57.8779165],[-5.649546,57.8781348],[-5.6593245,57.879404],[-5.66844,57.881674],[-5.6765343,57.8848557],[-5.683289,57.8888242],[-5.6884381,57.8934233],[-5.6917786,57.8984724],[-5.6931782,57.9037727],[-5.692581,57.9091157],[-5.6900097,57.9142911],[-5.6855646,57.9190951],[-5.6573921,57.9431457],[-5.6512612,57.9473756],[-5.6513243,57.9473463],[-5.6573941,57.943152],[-5.6969695,57.909367],[-5.7016894,57.90416],[-5.7042127,57.8985384],[-5.7042824,57.8966367],[-5.7783194,57.8950566],[-5.7886957,57.8942557],[-5.7985402,57.8923382],[-5.8074322,57.8893859],[-5.8149919,57.8855253],[-5.8208966,57.880921],[-5.8568657,57.8454483],[-5.8600587,57.8414808],[-5.86044,57.8410071],[-5.8624681,57.8362977],[-5.8628854,57.8314714],[-5.85556,57.7419799],[-5.8539283,57.736257],[-5.850048,57.7308517],[-5.8440984,57.7260125],[-5.836354,57.721962],[-5.8271711,57.7188864],[-5.8210989,57.7173087],[-5.8276904,57.7142054],[-5.8338246,57.7098607],[-5.8382007,57.7049467],[-5.8406411,57.6996636],[-5.8549681,57.6456235],[-5.8553704,57.6401746],[-5.8537174,57.6347937],[-5.8500775,57.6297006],[-5.8446001,57.6251033],[-5.8107064,57.6021313],[-5.8180094,57.6042377],[-5.8273303,57.6057807],[-5.8370322,57.6063312],[-5.8467501,57.6058683],[-5.8561185,57.6044095],[-5.8647851,57.6020097],[-5.8724242,57.5987591],[-5.8787488,57.59478],[-5.8835217,57.5902219],[-5.8865642,57.585256],[-5.922454,57.4991247],[-5.9236556,57.4936502],[-5.9227614,57.4881588],[-5.9083086,57.4476386],[-5.9054524,57.4424765],[-5.9007486,57.4377225],[-5.894385,57.4335658],[-5.8866156,57.4301721],[-5.8777498,57.4276762],[-5.8616228,57.424188],[-5.8586575,57.3541658],[-5.8573755,57.3486805],[-5.8540486,57.3434515],[-5.8488172,57.338698],[-5.8419015,57.3346197],[-5.833592,57.3313873],[-5.8242373,57.3291366],[-5.8142297,57.3279617],[-5.8039886,57.327912],[-5.7467677,57.3307976],[-5.770188,57.312973],[-5.7750071,57.308422],[-5.7781004,57.3034604],[-5.7715805,57.3040429],[-5.7603187,57.3036611],[-5.7255789,57.3003062],[-5.7255796,57.3003058],[-5.7255796,57.3003058],[-5.7294573,57.297361],[-5.6059864,57.2808143],[-5.6059864,57.2808143],[-5.6059864,57.2808143],[-5.6059855,57.2808142],[-5.5782558,57.277098],[-5.6059855,57.2808142],[-5.6059864,57.2808143],[-5.6059864,57.2808143],[-5.6017862,57.2770819],[-5.5984998,57.2723392],[-5.5969114,57.267348],[-5.5970764,57.2622841],[-5.5989881,57.257326],[-5.5989881,57.257326],[-5.5999318,57.2556699],[-5.6430564,57.233195],[-5.6250563,57.2163093],[-5.6773055,57.1626997],[-5.680576,57.1618743],[-5.6904494,57.1593822],[-5.6976085,57.1575752],[-5.6904494,57.1593822],[-5.6884048,57.1598982],[-5.6904494,57.1593822],[-5.7152513,57.1531221],[-5.7300296,57.149392],[-5.7292922,57.147828],[-5.7276315,57.1460115],[-5.7318027,57.1454617],[-5.7412292,57.1429959],[-5.7422659,57.1425591],[-5.7530433,57.1173518],[-5.7555291,57.113138],[-5.7592492,57.1092015],[-5.7641031,57.1056478],[-5.840135,57.0584486],[-5.8392384,57.0538055],[-5.8362846,57.048683],[-5.8315254,57.04398],[-5.8251499,57.0398826],[-5.8201034,57.0377115],[-5.82957,57.0362279],[-5.8379452,57.0344533],[-5.8455932,57.0318848],[-5.8522625,57.0286068],[-5.8577338,57.0247272],[-5.8618275,57.0203738],[-5.9265367,56.9325439],[-5.9292844,56.9273486],[-5.930078,56.9219587],[-5.9296963,56.9202391],[-5.9384461,56.9188742],[-5.9471113,56.9164354],[-5.9547298,56.9131152],[-5.9610052,56.9090429],[-5.9656932,56.9043772],[-5.9686121,56.8992998],[-5.9696488,56.8940084],[-5.9687638,56.8887089],[-5.9659925,56.8836075],[-5.9614431,56.8789025],[-5.9552934,56.8747768],[-5.9477825,56.8713908],[-5.9392028,56.8688758],[-5.9298874,56.8673297],[-5.9201982,56.8668124],[-5.8311514,56.8668462],[-5.8313229,56.8665862],[-5.8321647,56.8634402],[-5.8710225,56.8544828],[-5.8797372,56.8518785],[-5.8873204,56.8483721],[-5.8934648,56.8441061],[-5.8979215,56.8392534],[-5.9005106,56.8340108],[-5.9011278,56.8285909],[-5.8997491,56.8232133],[-5.8964311,56.8180958],[-5.8913089,56.8134456],[-5.8872166,56.8110125],[-5.8879,56.8110121],[-5.8979719,56.8104369],[-5.9076159,56.808746],[-5.9164241,56.806011],[-5.924024,56.8023477],[-5.929541,56.7983156],[-5.9594899,56.8064931],[-5.9675581,56.8082279],[-5.9760572,56.8091611],[-5.984724,56.8092639],[-5.9932895,56.8085331],[-6.1914216,56.7814966],[-6.2006302,56.7796821],[-6.2090012,56.7769053],[-6.2162036,56.773276],[-6.2737967,56.7377987],[-6.2792605,56.733712],[-6.2832337,56.7291368],[-6.2855767,56.7242347],[-6.2862072,56.7191789]],[[-5.4068097,55.9596128],[-5.4026063,55.987658],[-5.3888815,55.9842815],[-5.3858549,55.9837211],[-5.387839,55.9357871],[-5.4068097,55.9596128]],[[-5.3964018,55.7010597],[-5.3553468,55.724188],[-5.395311,55.6922201],[-5.395312,55.6922279],[-5.3964012,55.7010545],[-5.3964018,55.7010597]],[[-4.3938439,57.9086259],[-4.3466367,57.885632],[-4.3621611,57.8875733],[-4.3938439,57.9086259]],[[-3.3266413,56.0020901],[-3.1620153,56.0323025],[-3.1527606,56.0346191],[-3.144575,56.0379645],[-3.144539,56.0379871],[-3.1445374,56.0379853],[-3.0894214,55.975131],[-3.3266413,56.0020901]]]}}
