{"type":"Feature","properties":{"family":"other","name":"Armenian kingdoms, 882 – 943"},"geometry":{"type":"Polygon","coordinates":[[[40.6,39.5],[40.8769231,38.8769231],[41,38.6],[41.2,38.52],[41.4,38.44],[41.5,38.4],[41.6,38.36],[42,38.2],[42.2,38.16],[42.4,38.12],[42.6,38.08],[42.75,38.05],[43,38],[43.6,38.18],[43.8,38.24],[44,38.3],[44.8,39],[45,39.1],[45.2,39.2],[45.4,39.3],[45.6,39.4],[45.8,39.5],[45.8666667,39.7333333],[45.9333333,39.9666667],[46,40.2],[45.875,40.4],[45.75,40.6],[45.5,41],[45.2666667,41.0333333],[45.0333333,41.0666667],[44.8,41.1],[43.5,41.1],[43.254386,41.0754386],[43.254386,41.0754386],[42.5,41],[42.26,40.94],[42.02,40.88],[41.78,40.82],[41.6,40.775],[41.54,40.76],[41.3,40.7],[40.6,40.2],[40.6,39.575],[40.6,39.575],[40.6,39.5]]]}}
