{"type":"Feature","properties":{"family":"other","name":"Kingdom of Asturias, 855 – 864"},"geometry":{"type":"Polygon","coordinates":[[[-9.6600554,42.9502566],[-9.6594496,42.8918467],[-9.6417047,42.8349006],[-9.6076959,42.7820813],[-9.5824017,42.7517572],[-9.5365885,42.7076741],[-9.4795327,42.6713772],[-9.4378044,42.6542918],[-9.4296467,42.64265],[-9.4364371,42.6090481],[-9.4319437,42.5534276],[-9.4120486,42.4996722],[-9.3776357,42.4500681],[-9.3198531,42.3843707],[-9.2776169,42.3448779],[-9.2574641,42.3319301],[-9.2544227,42.3273711],[-9.2274474,42.301639],[-9.2299052,42.2939473],[-9.2325485,42.2415484],[-9.2287239,42.2237108],[-9.2306697,42.2210541],[-9.2525017,42.1642762],[-9.25712,42.105342],[-9.2419048,41.8860059],[-9.2417445,41.8852094],[-9.2314535,41.8340837],[-9.2077233,41.7846517],[-9.1716388,41.7395748],[-9.1245827,41.7005502],[-9.0683411,41.6690442],[-9.0050354,41.6462389],[-8.9370436,41.6329891],[-8.8669132,41.6297912],[-8.8566938,41.6308145],[-8.8647045,41.6668556],[-8.8651626,41.6725078],[-8.8640281,41.6781054],[-8.8620476,41.6820225],[-8.9064601,41.7192053],[-8.9104816,41.7232821],[-8.9134117,41.7278466],[-8.915147,41.732738],[-8.9156261,41.7377841],[-8.9120891,41.8509183],[-8.9110731,41.8566594],[-8.9084314,41.8621049],[-8.9042858,41.8670032],[-8.9004049,41.8706492],[-8.9035399,41.8723389],[-8.908429,41.8762842],[-8.9121726,41.8808705],[-8.9146225,41.8859164],[-8.9156812,41.891222],[-8.916115,41.897979],[-8.9161308,41.8980612],[-8.916115,41.897979],[-8.9151628,41.8930228],[-8.9129404,41.8882096],[-8.909543,41.8837929],[-8.9050918,41.87993],[-8.8997453,41.8767582],[-8.8936938,41.8743904],[-8.8871526,41.8729109],[-8.8803544,41.8723721],[-8.873541,41.8727934],[-8.8578089,41.8748909],[-8.8520815,41.8760202],[-8.8466773,41.8778291],[-8.8462941,41.8780185],[-8.8201526,41.9025416],[-8.8142236,41.9081035],[-8.8142236,41.9081035],[-8.8142236,41.9081035],[-8.8201526,41.9025416],[-8.8462941,41.8780185],[-8.8758888,41.8502561],[-8.8462941,41.8780185],[-8.8201526,41.9025416],[-8.8170101,41.9054896],[-8.8142236,41.9081035],[-8.7,41.9233333],[-8.5,41.95],[-7.9,41.95],[-7.7,41.9666667],[-7.5,41.9833333],[-7.3,42],[-7.1,42.0333333],[-6.9,42.0666667],[-6.7,42.1],[-6.1,42.25],[-5.9333333,42.2833333],[-5.7666667,42.3166667],[-5.6,42.35],[-5.4,42.3833333],[-5.2,42.4166667],[-5,42.45],[-4.8,42.4666667],[-4.6,42.4833333],[-4.4,42.5],[-4.2,42.5333333],[-4,42.5666667],[-3.8,42.6],[-3.6333333,42.6333333],[-3.4666667,42.6666667],[-3.3,42.7],[-2.85,42.8],[-2.65,42.775],[-2.45,42.75],[-2.45,43.05],[-2.4185831,43.3327518],[-2.4523272,43.3437538],[-2.4523272,43.3437538],[-2.4681962,43.3489278],[-2.4681962,43.3489278],[-2.5024625,43.3601001],[-2.5850798,43.3870369],[-2.6202962,43.398519],[-2.6202962,43.398519],[-2.6622266,43.4121901],[-2.6202962,43.398519],[-2.6202962,43.398519],[-2.5850798,43.3870369],[-2.5024625,43.3601001],[-2.4681962,43.3489278],[-2.4681962,43.3489278],[-2.4523272,43.3437538],[-2.4523272,43.3437538],[-2.4185831,43.3327518],[-2.3826786,43.3210454],[-2.3816152,43.3305648],[-2.3817734,43.3360766],[-2.3834699,43.3414497],[-2.3866341,43.3464596],[-2.391134,43.3508968],[-2.3967819,43.3545757],[-2.4033416,43.3573426],[-2.4034886,43.3573906],[-2.4034185,43.3573734],[-2.3562424,43.341992],[-2.1344498,43.3152028],[-2.0997995,43.3266129],[-2.0997995,43.3266129],[-2.0496654,43.3431218],[-2.0997995,43.3266129],[-2.1061324,43.3424621],[-2.1123111,43.3959296],[-2.1038021,43.4492364],[-2.0965347,43.4654332],[-2.0965346,43.4654335],[-2.1023893,43.4742073],[-2.1468076,43.5166398],[-2.2019266,43.551888],[-2.2655914,43.5785627],[-2.5100112,43.6583319],[-2.5469119,43.6673336],[-2.5620536,43.6763642],[-2.6242484,43.7008698],[-2.6917704,43.7163972],[-2.7621582,43.7223794],[-2.8328417,43.7185976],[-3.0100012,43.6965571],[-3.0771926,43.6833552],[-3.1397811,43.6613227],[-3.1590528,43.6509355],[-3.1618283,43.6536307],[-3.2174704,43.6896187],[-3.2819702,43.7168382],[-3.4264316,43.7643139],[-3.4911522,43.7805231],[-3.5589071,43.7878885],[-3.6273893,43.786159],[-3.6942656,43.7753934],[-3.746551,43.7592654],[-3.762926,43.7626171],[-3.8436034,43.7660486],[-3.923401,43.7568142],[-3.9985364,43.7353514],[-4.0970725,43.6977325],[-4.4599004,43.6585803],[-5.2094619,43.798679],[-5.2094621,43.7986791],[-5.2662366,43.8047577],[-5.2748581,43.8082578],[-5.347271,43.8248975],[-5.4228726,43.8305793],[-5.4228726,43.8305793],[-5.5449472,43.8306507],[-5.6142994,43.8720133],[-5.6757747,43.9017538],[-5.74422,43.9221532],[-5.8169303,43.9324037],[-5.8910254,43.9320989],[-5.9635678,43.921251],[-6.031684,43.9002899],[-6.0926825,43.8700456],[-6.135132,43.838444],[-7.0089202,43.8271221],[-7.0128355,43.8267809],[-7.039155,43.8288638],[-7.0575412,43.8290169],[-7.0934601,43.8640491],[-7.1548408,43.9025214],[-7.2263725,43.930488],[-7.3997797,43.9813524],[-7.4249287,43.9865869],[-7.4617015,44.0107223],[-7.527028,44.0386344],[-7.5988825,44.0564682],[-7.6742848,44.0634831],[-7.7501019,44.059388],[-7.823183,44.0443532],[-7.8540647,44.0327307],[-7.8766787,44.0356391],[-7.9472827,44.0350317],[-8.0164582,44.0248857],[-8.0817253,44.0055651],[-8.2333557,43.9479228],[-8.293915,43.9190787],[-8.3455444,43.8823381],[-8.3863039,43.8390945],[-8.3863039,43.8390945],[-8.3875508,43.8369819],[-8.3875515,43.8369808],[-8.4535465,43.8178105],[-8.5229954,43.791139],[-8.5830968,43.7545351],[-8.631181,43.7096367],[-8.6651303,43.6584487],[-8.68347,43.6032512],[-8.6862212,43.5880622],[-8.6908119,43.5866766],[-8.6946569,43.5878617],[-8.7728541,43.6048859],[-8.8543125,43.6091098],[-8.9350679,43.6003284],[-9.0111914,43.5789695],[-9.159209,43.5230227],[-9.2202195,43.4940219],[-9.2721857,43.456919],[-9.2830106,43.4453498],[-9.3384857,43.4299694],[-9.4033577,43.3995114],[-9.4580779,43.3599383],[-9.5002793,43.3129783],[-9.5360746,43.2622209],[-9.550132,43.2365682],[-9.5847702,43.205906],[-9.6178218,43.1620547],[-9.6391551,43.1145027],[-9.6480613,43.064893],[-9.6442634,43.0149358],[-9.6424602,43.0095786],[-9.6434456,43.007391],[-9.6600554,42.9502566]],[[-8.8799262,41.8993432],[-8.8641877,41.9014416],[-8.8284913,41.9223707],[-8.811025,41.9326112],[-8.7498875,41.9684565],[-8.811025,41.9326112],[-8.8284913,41.9223707],[-8.8794888,41.8924705],[-8.8799262,41.8993432]]]}}
