{"type":"Feature","properties":{"family":"other","name":"Kingdom of Asturias, 843 – 854"},"geometry":{"type":"Polygon","coordinates":[[[-9.6600554,42.950256],[-9.6594496,42.8918462],[-9.6417047,42.8349001],[-9.607696,42.7820809],[-9.5824018,42.7517567],[-9.5365886,42.7076737],[-9.4795329,42.6713769],[-9.4378046,42.6542916],[-9.4296466,42.6426494],[-9.436437,42.6090475],[-9.4319436,42.553427],[-9.4120485,42.4996716],[-9.3776357,42.4500677],[-9.3198531,42.3843702],[-9.2776169,42.3448775],[-9.2574642,42.3319298],[-9.2544228,42.3273709],[-9.2274472,42.3016385],[-9.229905,42.2939469],[-9.2325482,42.2415479],[-9.2287237,42.2237106],[-9.2306682,42.2210559],[-9.2525007,42.1642792],[-9.25712,42.1053462],[-9.2431589,41.904095],[-9.2430022,41.9033371],[-9.2319946,41.8501049],[-9.2064817,41.798895],[-9.1676946,41.7525567],[-9.1172404,41.7129782],[-9.05719,41.681769],[-8.9899934,41.6601965],[-8.9183812,41.6491359],[-8.8607487,41.6490568],[-8.8647047,41.6668553],[-8.8651628,41.6725075],[-8.8640282,41.6781052],[-8.8620478,41.6820223],[-8.9064604,41.7192052],[-8.9104818,41.7232819],[-8.9134119,41.7278464],[-8.9151472,41.7327377],[-8.9156263,41.7377837],[-8.9120893,41.850918],[-8.9110741,41.8566566],[-8.9084347,41.8621],[-8.9042924,41.8669969],[-8.9004065,41.8706497],[-8.9035493,41.8723448],[-8.9084362,41.8762909],[-8.9121776,41.8808776],[-8.9146252,41.8859235],[-8.9156819,41.8912289],[-8.917277,41.9160746],[-8.9172924,41.9161512],[-8.917277,41.9160746],[-8.9162211,41.910803],[-8.9137378,41.9057216],[-8.9099426,41.9011109],[-8.9049882,41.8971561],[-8.8990737,41.8940162],[-8.8924368,41.8918171],[-8.8853438,41.8906471],[-8.8780796,41.8905532],[-8.8709357,41.8915392],[-8.8201526,41.9025416],[-8.8170101,41.9054896],[-8.8142236,41.9081035],[-8.8142236,41.9081035],[-8.8142236,41.9081035],[-8.8142236,41.9081035],[-8.7851577,41.9353699],[-8.7812128,41.9390705],[-8.7,41.9566667],[-8.5,42],[-8.3333333,42.0333333],[-8.1666667,42.0666667],[-8,42.1],[-7.8,42.15],[-7.6,42.2],[-7.4,42.25],[-7.2,42.2833333],[-7,42.3166667],[-6.8,42.35],[-6.6,42.3666667],[-6.4,42.3833333],[-6.2,42.4],[-6,42.4333333],[-5.8,42.4666667],[-5.6,42.5],[-5.4,42.5333333],[-5.2,42.5666667],[-4.8,42.6333333],[-4.6,42.6666667],[-4.4,42.7],[-4.2,42.7166667],[-4,42.7333333],[-3.8,42.75],[-3.6333333,42.7666667],[-3.4666667,42.7833333],[-3.3,42.8],[-2.85,42.85],[-2.65,42.8],[-2.45,42.75],[-2.45,43.05],[-2.4185831,43.3327518],[-2.3826786,43.3210454],[-2.3826786,43.3210454],[-2.3816151,43.3305648],[-2.3817734,43.3360766],[-2.3834699,43.3414497],[-2.3866341,43.3464595],[-2.391134,43.3508967],[-2.3967819,43.3545757],[-2.4033416,43.3573426],[-2.4034889,43.3573906],[-2.6470625,43.4368139],[-2.4034889,43.3573906],[-2.4034886,43.3573906],[-2.4034185,43.3573734],[-2.3562424,43.341992],[-2.1344498,43.3152028],[-2.0997995,43.3266129],[-2.1061324,43.3424621],[-2.1123111,43.3959296],[-2.1038021,43.4492364],[-2.0965347,43.4654332],[-2.1023893,43.474207],[-2.1468077,43.5166396],[-2.2019269,43.5518879],[-2.2655919,43.5785627],[-2.5100117,43.6583319],[-2.5469122,43.6673335],[-2.5620538,43.676364],[-2.6242487,43.7008697],[-2.6917709,43.7163972],[-2.7621589,43.7223794],[-2.8328424,43.7185976],[-3.010002,43.6965571],[-3.0771933,43.6833552],[-3.1397818,43.6613228],[-3.1590532,43.6509357],[-3.1618283,43.6536306],[-3.2174706,43.6896186],[-3.2819705,43.7168381],[-3.4264319,43.7643139],[-3.4911525,43.780523],[-3.5589076,43.7878885],[-3.6273898,43.786159],[-3.6942662,43.7753935],[-3.7465516,43.7592654],[-3.7629264,43.7626171],[-3.8436038,43.7660486],[-3.9234015,43.7568142],[-3.9985369,43.7353514],[-4.0970731,43.6977325],[-4.4599007,43.6585804],[-5.2094621,43.7986791],[-5.2662365,43.8047577],[-5.274858,43.8082577],[-5.347271,43.8248974],[-5.4228726,43.8305793],[-5.5449471,43.8306507],[-5.6142991,43.8720133],[-5.6757744,43.9017538],[-5.7442198,43.9221532],[-5.8169303,43.9324037],[-5.8910254,43.9320989],[-5.8910255,43.9320989],[-5.9635679,43.921251],[-6.0316842,43.9002898],[-6.0926828,43.8700455],[-6.1351322,43.838444],[-7.0089201,43.8271221],[-7.0128353,43.8267809],[-7.0391546,43.8288638],[-7.0575408,43.8290169],[-7.0934597,43.8640492],[-7.1548403,43.9025214],[-7.2263719,43.930488],[-7.3997792,43.9813523],[-7.4249281,43.9865869],[-7.4617012,44.0107225],[-7.5270278,44.0386345],[-7.5988824,44.0564683],[-7.6742847,44.0634832],[-7.7501019,44.059388],[-7.8231831,44.0443531],[-7.8540643,44.0327308],[-7.8766783,44.0356391],[-7.9472824,44.0350317],[-8.016458,44.0248856],[-8.0817252,44.005565],[-8.2333556,43.9479227],[-8.293915,43.9190785],[-8.3455445,43.8823379],[-8.3863042,43.8390942],[-8.3875516,43.8369806],[-8.4535462,43.8178104],[-8.5229953,43.7911389],[-8.5830968,43.7545349],[-8.6311812,43.7096364],[-8.6651305,43.6584483],[-8.6834702,43.6032507],[-8.6862214,43.588062],[-8.6908112,43.5866767],[-8.6946563,43.5878617],[-8.7728534,43.6048859],[-8.8543119,43.6091098],[-8.9350674,43.6003284],[-9.011191,43.5789695],[-9.1592086,43.5230226],[-9.2202192,43.4940217],[-9.2721855,43.4569188],[-9.2830104,43.4453497],[-9.3384853,43.4299694],[-9.4033575,43.3995112],[-9.4580778,43.359938],[-9.5002793,43.3129779],[-9.5360746,43.2622204],[-9.550132,43.2365678],[-9.5847701,43.2059058],[-9.6178217,43.1620544],[-9.6391551,43.1145023],[-9.6480613,43.0648926],[-9.6442635,43.0149353],[-9.6424603,43.009578],[-9.6434456,43.0073905],[-9.6600554,42.950256]],[[-8.8938889,42.1187399],[-8.8840322,41.9638614],[-8.8822168,41.935335],[-8.8810775,41.9174332],[-8.811025,41.9326112],[-8.8284913,41.9223707],[-8.8641877,41.9014416],[-8.8794888,41.8924705],[-8.8799262,41.8993432],[-8.8805073,41.9084751],[-8.8807255,41.9119036],[-8.8822168,41.935335],[-8.8840322,41.9638614],[-8.8938889,42.1187399]]]}}
