{"type":"Feature","properties":{"family":"steppe","name":"Avar Khaganate, 789 – 803"},"geometry":{"type":"Polygon","coordinates":[[[14.4,48.4],[14.5,48.2],[14.6,47.8],[14.75,47.6],[14.9,47.4],[15.0333333,47.2666667],[15.1666667,47.1333333],[15.3,47],[15.3666667,46.8333333],[15.4333333,46.6666667],[15.5,46.5],[15.6,46.2],[15.8,46.1125],[16,46.025],[16.2,45.9375],[16.4,45.85],[16.6,45.77],[16.8,45.69],[17,45.61],[17.4,45.45],[17.62,45.38],[17.84,45.31],[18.5,45.1],[19.5,44.9],[20.5,44.85],[21.2,45.35],[21.8,46],[22.1,46.35],[22.25,46.525],[22.4,46.7],[22.425,46.9],[22.45,47.1],[22.5,47.5],[21.8,48.1],[21.56,48.13],[21.32,48.16],[21.08,48.19],[20.84,48.22],[20.6,48.25],[20.3666667,48.2333333],[20.1333333,48.2166667],[19.9,48.2],[19.6666667,48.1833333],[19.4333333,48.1666667],[19.2,48.15],[18.9833333,48.1666667],[18.7666667,48.1833333],[18.55,48.2],[18.3333333,48.2166667],[18.1166667,48.2333333],[17.9,48.25],[17.5,48.39],[17.3,48.46],[17.1,48.53],[16.9,48.6],[16.6857143,48.5928571],[16.4714286,48.5857143],[16.2571429,48.5785714],[16.0428571,48.5714286],[15.8285714,48.5642857],[15.6142857,48.5571429],[15.4,48.55],[15.175,48.475],[14.95,48.4],[14.5,48.25],[14.4,48.4]]]}}
