{"type":"Feature","properties":{"family":"islam","name":"Azerbaijan and Arran, 882 – 1014"},"geometry":{"type":"Polygon","coordinates":[[[44,38.3],[44.5,37.2],[45.2,36.4],[45.4,36.3],[45.6,36.2],[46,36],[46.4,36.08],[46.6,36.12],[46.8,36.16],[47,36.2],[47.2142857,36.2714286],[47.4285714,36.3428571],[47.6428571,36.4142857],[47.8571429,36.4857143],[48.0714286,36.5571429],[48.5,36.7],[48.6,37.8],[48.7,38],[48.8,38.2],[48.8666666,38.3333331],[48.8650887,38.3160639],[48.8733814,38.2729241],[48.8986475,38.3234095],[48.9001992,38.327336],[48.9009702,38.3313906],[48.89966,38.3171247],[48.9776386,37.9104928],[48.9986195,37.8622255],[49.1860831,38.2337095],[49.2058077,38.2888818],[49.2102558,38.3460804],[49.2095469,38.358257],[49.1891334,38.7089097],[49.2197183,38.7168362],[49.2806113,38.7442768],[49.4064198,38.8149819],[49.4565543,38.8492403],[49.4973768,38.8903308],[49.5273671,38.9367402],[49.545397,38.9867562],[49.5592357,39.0468555],[49.5855007,39.0563745],[49.6391544,39.0865633],[49.6844995,39.1240878],[49.7198859,39.167594],[49.7440157,39.2155095],[49.755992,39.2660996],[49.755354,39.3175286],[49.7551092,39.3184599],[49.7546117,39.3049548],[49.7387531,39.2523102],[49.7096919,39.2031656],[49.6686156,39.1594848],[49.617183,39.1230096],[49.5574561,39.0951921],[49.4918177,39.0771384],[49.4228786,39.0695657],[49.3533761,39.0727746],[49.2860695,39.0866379],[49.2474083,39.1014788],[49.2474133,39.1015159],[49.2699306,39.2710618],[49.297095,39.3143558],[49.3022657,39.315811],[49.3880141,39.26697],[49.3937671,39.2643085],[49.4000717,39.2625485],[49.406695,39.2617551],[49.4133921,39.2619576],[49.4199156,39.2631485],[49.4260244,39.2652839],[49.4314927,39.2682847],[49.4361183,39.2720401],[49.4397299,39.2764113],[49.442194,39.2812365],[49.4434191,39.2863375],[49.4433596,39.2915254],[49.4420175,39.2966085],[49.4394421,39.3013985],[49.4355037,39.3071031],[49.4371944,39.3086048],[49.4406842,39.3134093],[49.4428394,39.3186619],[49.4435698,39.3241435],[49.4435773,39.3391304],[49.4435749,39.339149],[49.4435748,39.3391236],[49.4429152,39.333912],[49.4409667,39.3288973],[49.4378028,39.3242682],[49.433543,39.3201991],[49.4283478,39.3168432],[49.4224129,39.3143267],[49.4159617,39.3127444],[49.4092369,39.3121559],[49.4024918,39.3125833],[49.39598,39.3140104],[49.3899468,39.3163837],[49.3892484,39.3168071],[49.3892421,39.3168163],[49.3654937,39.3511618],[49.4086941,39.3241445],[49.4086941,39.3391316],[49.2333333,39.4666667],[49.05,39.6],[48.8666667,39.7333333],[48.6833333,39.8666667],[48.5,40],[48.15,40.2],[47.975,40.3],[47.8,40.4],[47.575,40.5],[47.35,40.6],[47.125,40.7],[46.9,40.8],[46.7666667,40.9333333],[46.6333333,41.0666667],[46.5,41.2],[46.3,41.16],[46.1,41.12],[45.9,41.08],[45.5,41],[45.75,40.6],[45.875,40.4],[46,40.2],[45.9333333,39.9666667],[45.8666667,39.7333333],[45.8,39.5],[45.6,39.4],[45.4,39.3],[45.2,39.2],[45,39.1],[44.8,39],[44,38.3]]]}}
