{"type":"Feature","properties":{"family":"other","name":"Baltic peoples, 789 – 1066"},"geometry":{"type":"Polygon","coordinates":[[[18.6180593,54.5272038],[18.6202984,54.4633059],[18.7390766,54.4061743],[18.9757182,54.3766589],[18.9756735,54.3766619],[18.9756657,54.3766624],[18.9756626,54.3766626],[18.9671994,54.3772206],[18.9627542,54.3770051],[18.9627542,54.3770051],[18.958181,54.3767833],[18.9494808,54.3753327],[18.9414313,54.3729242],[18.9345657,54.3697541],[18.9345657,54.3697541],[18.9345255,54.3697355],[18.9343403,54.36965],[18.9343403,54.36965],[18.9284784,54.3656351],[18.9284784,54.3656351],[18.9284784,54.3656351],[18.9283719,54.365524],[18.9283719,54.365524],[18.9240695,54.3610331],[18.9212813,54.3560198],[18.921262,54.3559244],[18.921262,54.3559244],[18.9212558,54.3558938],[18.9664981,54.3502529],[19,54.3],[19.3,53.95],[19.4666667,53.85],[19.6333333,53.75],[19.8,53.65],[20.0333333,53.5833333],[20.2666667,53.5166667],[20.5,53.45],[20.7,53.43],[20.9,53.41],[21.1,53.39],[21.3,53.37],[21.5,53.35],[22.5,53.25],[22.7166667,53.225],[22.9333333,53.2],[23.15,53.175],[23.3666667,53.15],[23.5833333,53.125],[23.8,53.1],[25,53.3],[25.2,53.3666667],[25.4,53.4333333],[25.8,53.5666667],[26,53.6333333],[26.2,53.7],[26.36,53.84],[26.52,53.98],[26.68,54.12],[27,54.4],[27.5,55.3],[27.625,55.475],[27.75,55.65],[28,56],[28,56.8],[27.7737371,57.1393943],[27.7761019,57.1403329],[27.8155615,57.1559937],[27.8155615,57.1559937],[27.8228782,57.1588976],[27.8155615,57.1559937],[27.8155615,57.1559937],[27.7761019,57.1403329],[27.7737371,57.1393943],[27.7737371,57.1393943],[27.746297,57.1285038],[27.7320278,57.1228406],[27.7320255,57.1228396],[27.7320278,57.1228406],[27.7737371,57.1393943],[27.7737371,57.1393943],[27.7737371,57.1393943],[27.7761019,57.1403329],[27.8155615,57.1559937],[27.8155615,57.1559937],[27.7761019,57.1403329],[27.7737371,57.1393943],[27.7737371,57.1393943],[27.7761019,57.1403329],[27.8155615,57.1559937],[27.8155615,57.1559937],[27.8228782,57.1588976],[27.8155615,57.1559937],[27.8155615,57.1559937],[27.801786,57.1505265],[27.7761019,57.1403329],[27.7737371,57.1393943],[27.5247637,57.5128544],[27.5132579,57.4502525],[27.5132579,57.4502525],[27.5132553,57.4502381],[27.5132553,57.4502381],[27.5096751,57.4307586],[27.5132553,57.4502381],[27.5132553,57.4502381],[27.5132579,57.4502525],[27.5132579,57.4502525],[27.5247637,57.5128544],[27.5,57.55],[27.2,57.55],[26.9666667,57.5666667],[26.7333333,57.5833333],[26.5,57.6],[26.2666667,57.6833333],[26.0333333,57.7666667],[25.8,57.85],[25,57.9],[24.7666667,57.8933333],[24.5333333,57.8866667],[24.3130374,57.8803725],[24.3056431,57.8681001],[24.3130374,57.8803725],[24.3296013,57.9078635],[24.3296013,57.9078635],[24.3100663,57.9073053],[24.3000409,57.9064512],[24.2905364,57.9045533],[24.2819338,57.9016875],[24.2745776,57.8979687],[24.2687619,57.893546],[24.2652028,57.8891885],[24.2651737,57.8891528],[24.3507615,58.0315312],[24.3536297,58.0352844],[24.35753,58.0387701],[24.4134105,58.0810472],[24.4162189,58.153499],[24.4162174,58.153499],[24.4162129,58.1534988],[24.2831315,58.1496981],[24.1784844,58.1405654],[24.0797582,58.1201473],[24.0555481,58.1117179],[24.0555423,58.1117159],[24.0555405,58.1117152],[24.0555405,58.1117152],[24.0538555,58.1046456],[24.0515707,58.099387],[24.0473441,58.0944702],[24.0413461,58.0900926],[24.0338182,58.08643],[24.0250631,58.0836294],[24.0154324,58.0818032],[24.0053126,58.0810246],[23.9951097,58.0813249],[23.978831,58.0826725],[23.9788309,58.0826725],[23.9788276,58.0826707],[23.9169016,58.0494986],[23.8598251,58.0023623],[23.8224674,57.9499869],[23.8063625,57.8946462],[23.8027394,57.8554541],[23.8027375,57.8554339],[23.8027369,57.8554274],[23.8027348,57.855404],[23.7936714,57.7573645],[23.7973332,57.7091062],[23.8170089,57.6619684],[23.8740226,57.5661725],[23.8911194,57.364635],[23.718551,57.2694239],[23.6894298,57.2781997],[23.6127545,57.438462],[23.5779985,57.4891102],[23.525068,57.5350035],[23.502285,57.5479685],[23.5022716,57.5479762],[23.5022672,57.5479787],[23.5022513,57.5479878],[23.4560433,57.5742833],[23.1035115,57.7369122],[23.1043834,57.7481392],[23.0979867,57.8034913],[23.0704401,57.8569733],[23.0228247,57.9063126],[22.9570955,57.9494038],[22.8760093,57.9844012],[22.7830118,58.009801],[22.6820887,58.0245092],[22.577588,58.0278912],[22.4740221,58.0198012],[22.3758603,58.0005885],[22.3758603,58.0005885],[22.1935141,57.9524388],[22.1935001,57.9524351],[22.1934956,57.9524339],[22.0836586,57.8961547],[22.0746292,57.8924541],[22.0642796,57.88991],[22.0531314,57.8886505],[22.0207553,57.8869635],[22.0114807,57.8869303],[22.0023578,57.8877924],[21.9936913,57.889521],[21.985771,57.8920583],[21.985771,57.8920583],[21.9788617,57.8953196],[21.9783987,57.8956362],[21.9783968,57.8956357],[21.8381495,57.8586025],[21.6395871,57.8399099],[21.5371036,57.8238624],[21.5370892,57.8238602],[21.5370857,57.8238596],[21.5370762,57.8238582],[21.5341273,57.8233964],[21.4379829,57.7950816],[21.3557406,57.7563242],[21.2912859,57.7089789],[20.9875744,57.42258],[20.9439751,57.3675506],[20.9240431,57.3086875],[20.900996,57.1289967],[20.7016488,57.0204068],[20.6381923,56.9777016],[20.5920689,56.928858],[20.5651398,56.8759215],[20.5584459,56.8211005],[20.565052,56.7186503],[20.5184085,56.6148448],[20.505022,56.5661571],[20.5079361,56.5169394],[20.5146252,56.5000663],[20.4841048,56.2749313],[20.4850123,56.2287807],[20.5000407,56.1833894],[20.5738747,56.0329251],[20.5938221,55.7363804],[20.6034439,55.691755],[20.6049819,55.6888246],[20.6066635,55.5508611],[20.5072505,55.4141229],[20.2984766,55.2448298],[20.2294446,55.2185349],[19.9656024,55.2216222],[19.8765805,55.2177282],[19.790475,55.2043007],[19.710409,55.1818277],[19.639274,55.1511248],[19.5796217,55.1133038],[19.5335704,55.0697305],[19.5027309,55.0219737],[19.4675329,54.9458585],[19.4519484,54.8813856],[19.4636743,54.8166469],[19.4732135,54.792594],[19.2995672,54.6640014],[19.2270982,54.6393751],[19.166621,54.635289],[19.1664877,54.63528],[19.1664743,54.6352791],[19.1663287,54.6352693],[19.1663073,54.6352678],[19.1662748,54.6352656],[18.9119322,54.6180811],[18.8251291,54.607129],[18.8185438,54.6054861],[18.8191882,54.5973259],[18.8121814,54.6038989],[18.7435643,54.5867808],[18.6702469,54.5577904],[18.6180775,54.5272144],[18.6180597,54.527204],[18.6180593,54.5272038]]]}}
