{"type":"Feature","properties":{"family":"other","name":"Duchy of Benevento, 789 – 854"},"geometry":{"type":"Polygon","coordinates":[[[12.7060175,41.1369253],[12.7158779,41.1198945],[12.7490309,41.0748549],[12.7928893,41.0353681],[12.8458494,41.0028625],[12.9059871,40.9785122],[12.971127,40.9631956],[13.0389191,40.9574652],[13.1069212,40.9615275],[13.1726836,40.9752365],[13.2732205,41.0041509],[13.3955295,40.9618465],[13.4585057,40.9451731],[13.5244701,40.9375987],[13.5725168,40.9388895],[13.581277,40.9292335],[13.5810912,40.9290874],[13.5422049,40.8821615],[13.5168587,40.8302178],[13.5060917,40.7754533],[13.5027896,40.7197219],[13.5064745,40.6670719],[13.5235753,40.6159696],[13.5534113,40.5683609],[13.5948232,40.5260553],[13.6462203,40.4906571],[13.7056428,40.4635068],[13.7708358,40.445631],[13.8393334,40.4377053],[13.9085488,40.440029],[13.9758692,40.4525146],[14.0198718,40.4642183],[14.0319797,40.4423183],[14.0707544,40.3985919],[14.1199129,40.361428],[14.1775757,40.3322359],[14.2415499,40.3121212],[14.3094111,40.3018448],[14.3785929,40.3017954],[14.4464806,40.3119751],[14.5828382,40.3431013],[14.5639025,40.297885],[14.5561408,40.2451051],[14.562077,40.1921884],[14.5814496,40.1411834],[14.6134814,40.0940602],[14.6569131,40.052635],[14.7100549,40.0185013],[14.770853,39.9929703],[14.9314152,39.9403396],[14.9325952,39.9395121],[14.9415304,39.9188755],[14.9791197,39.8698332],[15.0292173,39.8279108],[15.0895923,39.794958],[15.1575724,39.7724263],[15.3046707,39.7371001],[15.3742659,39.7261082],[15.4453082,39.7260831],[15.4609239,39.7285419],[15.5256255,39.5056452],[15.5416352,39.46537],[15.565548,39.4275055],[15.6885167,39.265444],[15.6702923,39.3475009],[15.6653139,39.3990523],[15.6732458,39.4503932],[15.6938227,39.4996227],[15.7263075,39.5449138],[15.7695151,39.5845822],[15.8089588,39.6091257],[15.8342117,39.5548355],[15.8366158,39.5507591],[15.8398608,39.5470453],[15.965196,39.4262599],[15.9808251,39.3852568],[15.9795333,39.3905879],[15.9796607,39.3960223],[15.9812053,39.4013268],[15.9841041,39.4062845],[15.9882388,39.4106926],[15.9934407,39.4143709],[15.9994969,39.4171687],[16.0045397,39.4185332],[16.004547,39.4185139],[16.0143217,39.3928391],[16.0222513,39.372011],[16.0242478,39.3667669],[16.0327603,39.3444074],[16.0242478,39.3667669],[16.0222513,39.372011],[16.0143217,39.3928391],[16.1333333,39.3333333],[16.3,39.25],[16.8,39.25],[17.1345045,39.3336261],[17.1433891,39.3595913],[17.1433945,39.359607],[17.1439042,39.3595376],[17.1502222,39.3576509],[17.1559468,39.3548575],[17.1608617,39.3512629],[17.1647816,39.347003],[17.1675585,39.3422384],[17.1690881,39.3371491],[17.1693127,39.331927],[17.1682243,39.3267693],[17.1495062,39.2721497],[17.149515,39.2721337],[17.1820238,39.367006],[17.1780272,39.3682885],[17.1704458,39.37221],[17.1639988,39.3771992],[17.158934,39.3830646],[17.1554462,39.3895808],[17.1546763,39.3925784],[17.1595716,39.4068848],[17.1550723,39.4089709],[17.1554579,39.4104654],[17.1589547,39.4169793],[17.16403,39.4228408],[17.1704889,39.4278244],[17.1755012,39.4309579],[17.1755033,39.4309593],[16.9013219,39.5581111],[16.869342,39.5729417],[16.9013219,39.5581111],[17.1230037,39.455306],[16.9013219,39.5581111],[17.0273648,39.5896228],[17.0927958,39.6006924],[17.159774,39.6019477],[17.225819,39.593341],[17.2884856,39.5751899],[17.3454575,39.5481654],[17.3536657,39.5423404],[17.4212607,39.5845986],[17.4212762,39.5846082],[17.4145503,39.5914237],[17.3611225,39.6273211],[16.9825142,39.8323066],[16.9452813,39.8488841],[16.9673529,39.8883132],[16.9815619,39.9480416],[16.9779981,40.0086958],[16.9747004,40.0245685],[17.0877069,40.1574624],[17.2228775,40.0974684],[17.2873494,40.0750554],[17.356344,40.0629089],[17.615038,40.0373241],[17.615531,40.0677689],[17.5545477,40.1385407],[17.5227015,40.1845709],[17.503039,40.2344074],[17.4963195,40.2861934],[17.4972729,40.2937863],[17.8453649,40.2593477],[17.8462571,40.2593225],[17.8454451,40.2594029],[17.8383718,40.2606757],[17.8317893,40.2630223],[17.8259757,40.2663435],[17.8211767,40.2704992],[17.817595,40.2753138],[17.8153821,40.2805839],[17.814632,40.286087],[17.8146302,40.28959],[17.85,40.2860906],[17.85,40.3],[18.0375,40.325],[18.225,40.35],[18.3362637,40.3648352],[18.3582554,40.3438299],[18.3582554,40.3438299],[18.3362637,40.3648352],[18.31117,40.3888033],[18.311155,40.3888176],[18.3302364,40.3913621],[18.3377762,40.3917295],[18.3452471,40.3908729],[18.3523089,40.3888314],[18.3586401,40.3856978],[18.3639524,40.381615],[18.364134,40.3814414],[18.3639714,40.3816314],[18.2673048,40.4739991],[18.26343,40.4771428],[18.2589462,40.4797771],[18.0688853,40.5737316],[18.0614191,40.5955514],[18.2630745,40.6282429],[18.3353343,40.6340248],[18.4076359,40.6285152],[18.4769232,40.6119457],[18.5402708,40.5850154],[18.5830627,40.5567528],[18.5661132,40.5702298],[18.3539631,40.7072724],[18.3500724,40.7187877],[18.3288772,40.7641587],[18.2973391,40.8059476],[18.2564495,40.8428165],[18.2075055,40.8735824],[18.1520692,40.8972569],[17.6638621,41.0626452],[17.2820589,41.2930221],[17.2336531,41.3174755],[17.1805838,41.3356968],[16.7424048,41.4537269],[16.4236957,41.5853172],[16.4686832,41.6183716],[16.5084329,41.6618746],[16.5361591,41.7103123],[16.5507824,41.7618471],[16.5517151,41.8145194],[16.5388884,41.8663215],[16.4891256,41.9948011],[16.4602207,42.0475332],[16.4170033,42.0945703],[16.3613825,42.1338027],[16.2958375,42.1634673],[16.2233071,42.1822289],[16.1470551,42.1892419],[15.2522123,42.1973095],[15.0462173,42.273617],[15.0384889,42.2896243],[15.006139,42.3312606],[14.9642742,42.3679831],[14.9142162,42.3986191],[14.8575556,42.4221888],[14.7747069,42.4497266],[14.5086438,42.6544835],[14.5007268,42.6594839],[14.5090512,42.6530637],[14.5547755,42.6095807],[14.5875436,42.560197],[14.6060213,42.506975],[14.6094776,42.4521313],[14.5978096,42.3979439],[14.5715398,42.3466572],[14.531098,42.2864721],[14.5310815,42.2864849],[14.5310627,42.2864993],[14.2711977,42.4860795],[14.2707001,42.4863932],[14.2705821,42.4864676],[14.2703981,42.4865836],[14.2712329,42.4859422],[14.2758137,42.4816048],[14.2791096,42.4766749],[14.2809839,42.4713576],[14.2813592,42.4658736],[14.2802203,42.4604507],[14.2776149,42.455314],[14.2718351,42.4466512],[14.2718454,42.4466432],[14.2718454,42.4466432],[14.5137737,42.2608802],[14.5137829,42.2608731],[14.5138189,42.2608455],[14.5138222,42.2608429],[14.5138411,42.2608284],[14.5603456,42.2251203],[14.5138411,42.2608284],[14.5138222,42.2608429],[14.5138189,42.2608455],[14.5137829,42.2608731],[14.5137737,42.2608802],[14.2718454,42.4466432],[14.2718454,42.4466432],[14.2718351,42.4466512],[14.2718334,42.4466524],[14.2718316,42.4466538],[14.2718313,42.4466541],[14.2718277,42.4466568],[14.2718268,42.4466575],[14.2448925,42.4673388],[14,42.1],[13.4,41.6],[13.2666667,41.4833333],[13.1333333,41.3666667],[13.0210529,41.2684213],[13.0269665,41.2581188],[13.0352151,41.2437484],[13.0352163,41.2437464],[13.0352167,41.2437457],[13.0352168,41.2437455],[13.0352168,41.2437454],[13.0352168,41.2437454],[13.0352168,41.2437454],[13.035217,41.2437452],[13.0447304,41.2271711],[13.035217,41.2437452],[13.0352168,41.2437454],[13.0352168,41.2437454],[13.0352168,41.2437454],[13.0352168,41.2437455],[13.0352167,41.2437457],[13.0352163,41.2437464],[13.0352151,41.2437484],[13.0269665,41.2581188],[13.0210529,41.2684213],[13.015465,41.2781563],[13.0052307,41.2959862],[13.015465,41.2781563],[13.0210529,41.2684213],[13.0269665,41.2581188],[13.0352151,41.2437484],[13.0301529,41.2423329],[13.0229922,41.2415038],[13.0157521,41.2417779],[13.008729,41.243144],[13.0022106,41.245546],[12.9964639,41.2488856],[12.9917244,41.253026],[12.9881865,41.2577977],[12.9877225,41.2586055],[12.9877225,41.2586055],[12.9877732,41.2584886],[12.9878247,41.2583698],[12.9881029,41.2577282],[13.0117971,41.2164849],[13.0150993,41.2119728],[13.019481,41.2080147],[13.0247824,41.204755],[13.0308103,41.2023122],[13.0373452,41.2007754],[13.0441489,41.2002005],[13.0509739,41.2006085],[13.0575715,41.2019844],[13.2846584,41.2671776],[13.4369314,41.2145931],[13.4369359,41.2145916],[13.4369889,41.2145733],[13.2909538,41.0909717],[13.2391413,41.0543442],[13.1787655,41.0261848],[13.1122044,41.0075984],[13.0420703,40.9993137],[12.9711111,41.0016556],[12.902106,41.0145332],[12.8377611,41.0374427],[12.7806066,41.0694867],[12.7329001,41.1094076],[12.7060175,41.1369253]]]}}
