{"type":"Feature","properties":{"family":"anglo","name":"Bernicia, the lords of Bamburgh, 902 – 954"},"geometry":{"type":"Polygon","coordinates":[[[-3.6666367,56.0123537],[-3.6594945,56.0115521],[-3.6567462,56.0112437],[-3.6059404,56.005542],[-3.6021804,56.00512],[-3.6021804,56.00512],[-3.0798308,55.9464992],[-3.6021804,56.00512],[-3.6021804,56.00512],[-3.6059404,56.005542],[-3.6567462,56.0112437],[-3.6594945,56.0115521],[-3.6,55.9],[-3.25,55.55],[-2.65,55.15],[-2.45,55],[-2.3,54.75],[-2.17,54.5],[-2.1,54.6],[-1.85,54.55],[-1.6,54.52],[-1.35,54.55],[-1.165393,54.6146124],[-1.200612,54.620966],[-1.1773091,54.6417332],[-1.1733259,54.6433413],[-1.1246268,54.6589497],[-1.1163404,54.6610246],[-1.1075176,54.6621365],[-1.0984896,54.6622436],[-1.0895955,54.6613419],[-1.0811839,54.6594686],[-1.118341,54.670363],[-1.1270167,54.6723032],[-1.1288534,54.6724847],[-1.1378109,54.6835303],[-1.1375405,54.6836992],[-1.1317189,54.6881969],[-1.1276337,54.6932938],[-1.1254625,54.6987692],[-1.1253002,54.7043858],[-1.1271547,54.7099001],[-1.1309462,54.715073],[-1.1365112,54.71968],[-1.1436084,54.7235212],[-1.2344093,54.7631967],[-1.2823227,54.8843099],[-1.2745631,54.8861028],[-1.1797774,54.901385],[-1.0815025,54.9048775],[-0.9841506,54.8964237],[-0.8920899,54.876403],[-0.7709801,54.8408447],[-0.7717553,54.8417747],[-0.8239019,54.8824339],[-0.8553052,54.89915],[-0.9038174,55.024778],[-0.9343263,55.077265],[-1.0597547,55.2355052],[-1.1603356,55.6253218],[-1.1828691,55.6764041],[-1.222642,55.7240349],[-1.2781867,55.7663853],[-1.3474103,55.8018235],[-1.4276711,55.8289797],[-1.4917985,55.8460771],[-1.7287958,56.0584438],[-1.7951801,56.1050806],[-1.8784471,56.142403],[-1.9745161,56.1685629],[-2.1145433,56.1962484],[-2.1145521,56.1962294],[-2.1197214,56.1851786],[-2.1609761,56.1376319],[-2.2179528,56.0954488],[-2.2884485,56.0602254],[-2.4153401,56.0080513],[-2.4153404,56.0080512],[-2.4801725,56.032934],[-2.4885926,56.035507],[-2.4977579,56.0370982],[-2.5073059,56.0376446],[-2.5168586,56.0371246],[-2.5255132,56.0361606],[-2.5294428,56.0399401],[-2.53566,56.043888],[-2.6004649,56.0776767],[-2.6074594,56.0807002],[-2.6153251,56.0829613],[-2.6237981,56.0843841],[-2.6325943,56.0849208],[-2.8235293,56.0866105],[-2.8235355,56.0866102],[-2.8327748,56.0861884],[-2.8417052,56.0847883],[-2.849991,56.0824618],[-2.8573271,56.0792948],[-2.8634431,56.0754039],[-2.9690202,55.9933411],[-3.0820954,55.9742987],[-3.0894112,55.9751194],[-3.3279522,56.0018778],[-3.3279625,56.0018766],[-3.3381077,56.0006902],[-3.3489266,56.0008019],[-3.3489266,56.0008019],[-3.6109152,56.0197068],[-3.6109152,56.0197068],[-3.6136965,56.0199075],[-3.6163145,56.0236091],[-3.6136965,56.0199075],[-3.6132481,56.0192736],[-3.6059404,56.005542],[-3.6567462,56.0112437],[-3.6594945,56.0115521],[-3.6666367,56.0123537]]]}}
