{"type":"Feature","properties":{"family":"anglo","name":"Bernicia, the lords of Bamburgh, 874 – 901"},"geometry":{"type":"Polygon","coordinates":[[[-5.640776,54.9912757],[-5.6248682,54.8613182],[-5.6092055,54.8085609],[-5.5758386,54.7586162],[-5.5261336,54.7134358],[-5.4173811,54.6330915],[-5.4131465,54.6087011],[-5.388483,54.5603218],[-5.3487883,54.5154389],[-5.2954845,54.4756077],[-5.2304497,54.4422045],[-5.1559503,54.4163801],[-5.0591983,54.389523],[-4.9749928,54.3716553],[-4.8864993,54.3635018],[-4.7969684,54.365362],[-4.7096866,54.3771677],[-4.6278628,54.3984856],[-4.5545164,54.428532],[-4.5528636,54.4295351],[-4.4771103,54.4158499],[-4.3862672,54.4102835],[-4.3587718,54.411746],[-4.3587074,54.4117581],[-4.3506435,54.413271],[-4.3510784,54.4121637],[-4.3510818,54.412155],[-4.2953012,54.415122],[-4.207676,54.4301812],[-4.1267358,54.4548875],[-4.0908833,54.4717348],[-4.0841413,54.4460933],[-4.0513987,54.3946909],[-4.0015807,54.3481838],[-3.8640084,54.2443743],[-3.8553862,54.2127924],[-3.8280046,54.1671458],[-3.7872092,54.1250829],[-3.6859926,54.0392858],[-3.6819611,54.0364999],[-3.6527143,53.9918553],[-3.6034809,53.9463794],[-3.539976,53.9075406],[-3.5154256,53.8952172],[-3.5118966,53.9444991],[-3.4917805,53.9944148],[-3.4558916,54.0411804],[-3.4054871,54.0830916],[-3.3593671,54.1090584],[-3.3580531,54.1129563],[-3.3526303,54.1208057],[-3.3563434,54.1280394],[-3.3646808,54.1824282],[-3.3627667,54.1922701],[-3.3446954,54.1768434],[-3.3387833,54.1727311],[-3.3315972,54.1693861],[-3.3234221,54.1669407],[-3.3145819,54.1654919],[-3.3054268,54.165097],[-3.2963195,54.1657718],[-3.2943428,54.1660373],[-3.2877432,54.1108292],[-3.2862124,54.1055677],[-3.2829456,54.1005857],[-3.278071,54.0960782],[-3.2717798,54.0922214],[-3.1745915,54.043277],[-3.1673228,54.0402742],[-3.1592065,54.0381488],[-3.1505458,54.0369803],[-3.1416643,54.0368122],[-3.1328936,54.0376508],[-3.1245612,54.0394649],[-3.1169785,54.0421867],[-3.1104289,54.0457144],[-3.1051574,54.0499163],[-3.1013615,54.0546354],[-3.0416474,54.1521337],[-3.0386929,54.1484699],[-3.0340567,54.1439329],[-3.028,54.1400125],[-3.0207554,54.1368589],[-3.012601,54.1345932],[-3.0038497,54.1333022],[-2.9462855,54.1282397],[-2.937174,54.1279714],[-2.9281508,54.1287605],[-2.9195697,54.1305761],[-2.911767,54.1333469],[-2.9050488,54.1369645],[-2.8739771,54.1573569],[-2.8742974,54.1577414],[-2.8761374,54.1567525],[-2.884102,54.1539523],[-2.8928633,54.152144],[-2.9020654,54.1514011],[-2.9113351,54.1517537],[-2.920296,54.1531875],[-2.9285846,54.1556442],[-2.9342902,54.1582934],[-2.9037283,54.1783622],[-2.85,54.25],[-2.6,54.45],[-2.35,54.62],[-2.1,54.6],[-1.85,54.55],[-1.6,54.52],[-1.35,54.55],[-1.165393,54.6146124],[-1.200612,54.620966],[-1.1773091,54.6417332],[-1.1773089,54.6417334],[-1.1733261,54.6433413],[-1.1246269,54.6589498],[-1.1163406,54.6610247],[-1.1075178,54.6621366],[-1.0984899,54.6622437],[-1.0895957,54.661342],[-1.0811981,54.6594717],[-1.11834,54.6703617],[-1.1270159,54.672302],[-1.1288524,54.6724835],[-1.1378111,54.6835306],[-1.1375393,54.6837004],[-1.131718,54.6881979],[-1.127633,54.6932945],[-1.125462,54.6987695],[-1.1252997,54.7043858],[-1.1271542,54.7098997],[-1.1309456,54.7150722],[-1.1365104,54.7196789],[-1.1436074,54.7235199],[-1.2344087,54.7631958],[-1.2823228,54.8843104],[-1.274566,54.8861032],[-1.1797807,54.9013854],[-1.081506,54.9048781],[-0.9841541,54.8964244],[-0.8920933,54.8764039],[-0.7709808,54.840845],[-0.7717484,54.8417658],[-0.8238925,54.8824223],[-0.8552999,54.8991406],[-0.9038136,55.0247734],[-0.9343233,55.0772614],[-1.0597555,55.2355055],[-1.1603382,55.6253237],[-1.1828692,55.6764035],[-1.2226389,55.724032],[-1.2781799,55.7663804],[-1.3473997,55.8018169],[-1.4276567,55.8289721],[-1.4917951,55.8460727],[-1.7287949,56.0584441],[-1.7951749,56.1050793],[-1.8784375,56.1424003],[-1.9745025,56.1685593],[-2.114544,56.1962481],[-2.1145443,56.1962473],[-2.1197222,56.1851781],[-2.1609768,56.1376314],[-2.2179535,56.0954484],[-2.2884491,56.0602251],[-2.4153401,56.0080513],[-2.4153401,56.0080513],[-2.4801719,56.032934],[-2.4885915,56.0355069],[-2.4977565,56.0370981],[-2.5073041,56.0376444],[-2.5168565,56.0371245],[-2.5255127,56.0361602],[-2.5294432,56.0399407],[-2.5356602,56.0438884],[-2.600465,56.0776771],[-2.607459,56.0807004],[-2.6153242,56.0829614],[-2.6237967,56.084384],[-2.6325924,56.0849208],[-2.8235273,56.0866106],[-2.8327728,56.0861884],[-2.8417032,56.0847883],[-2.8499892,56.0824618],[-2.8573254,56.0792946],[-2.8634415,56.0754037],[-2.9690186,55.9933412],[-3.0820946,55.9742988],[-3.1421784,55.9810387],[-3.3279507,56.0018779],[-3.3279535,56.0018776],[-3.3279535,56.0018776],[-3.3279535,56.0018776],[-3.3381077,56.0006902],[-3.3489266,56.0008019],[-3.6109152,56.0197068],[-3.6109876,56.0198277],[-3.6109152,56.0197068],[-3.6109152,56.0197068],[-3.6021804,56.00512],[-3.6059404,56.005542],[-3.6567462,56.0112437],[-3.62,55.95],[-3.65,55.75],[-3.85,55.6],[-4.2,55.62],[-4.6,55.68],[-4.9157285,55.7115729],[-4.9194492,55.7084098],[-4.8799088,55.6805905],[-4.8799088,55.6805905],[-4.8186482,55.6374895],[-4.8799088,55.6805905],[-4.9239825,55.6849974],[-4.933104,55.6864329],[-4.9415463,55.6888523],[-4.9489795,55.6921608],[-4.9551126,55.6962293],[-4.9597054,55.7008985],[-4.9625777,55.705986],[-4.9636163,55.7112924],[-4.9627798,55.7166103],[-4.9601003,55.7217312],[-4.9556821,55.7264545],[-4.9556614,55.7264721],[-4.9556637,55.7264705],[-4.9593825,55.7233062],[-4.9640199,55.7182827],[-4.9666926,55.7128245],[-4.9672836,55.7071723],[-4.9657678,55.7015749],[-4.9622129,55.6962789],[-4.9567759,55.6915175],[-4.8559513,55.6206277],[-4.8479115,55.6161623],[-4.838244,55.6128847],[-4.7312325,55.5856518],[-4.7193448,55.5657761],[-4.7272804,55.5575759],[-4.7309257,55.5527409],[-4.7328435,55.5475979],[-4.7329618,55.542342],[-4.7312768,55.5371729],[-4.7278531,55.5322866],[-4.7228211,55.5278686],[-4.6771593,55.4952187],[-4.7732199,55.4222845],[-4.8710783,55.3479854],[-4.876503,55.3426776],[-4.8796758,55.3368098],[-4.9128941,55.2351917],[-4.9909479,55.1901004],[-5.0745455,55.1853385],[-5.1590714,55.189469],[-5.1934406,55.1659136],[-5.2870247,55.1138244],[-5.3656206,55.0784071],[-5.4553808,55.0532137],[-5.5523185,55.0393581],[-5.6379871,55.0377223],[-5.6379877,55.0377223],[-5.640776,54.9912757]]]}}
