{"type":"Feature","properties":{"family":"other","name":"Duchy of Bohemia, 985 – 1066"},"geometry":{"type":"Polygon","coordinates":[[[12.1,50.3],[12.4,50.1],[12.5,49.8],[12.75,49.45],[13.1,49.2],[13.5,48.95],[13.85,48.75],[14.0333333,48.7],[14.2166667,48.65],[14.356,48.612],[14.4057416,48.6033493],[14.6,48.7166667],[14.8,48.8333333],[15,48.95],[15.2,48.9166667],[15.4,48.8833333],[15.6,48.85],[15.8,48.8166667],[16,48.7833333],[16.2,48.75],[16.95,48.6],[17.3166667,48.8],[17.5,48.9],[17.7,48.98],[17.8888889,49.0555556],[18.0333333,49.1333333],[18.4666667,49.3666667],[18.476087,49.3717391],[18.4333333,49.5],[18.3666667,49.7],[18.3,49.9],[18.0666667,49.9666667],[17.8333333,50.0333333],[17.6,50.1],[17.4,50.125],[17.2,50.15],[17,50.175],[16.8,50.2],[16.6,50.3],[16.4,50.4],[16.2,50.5],[16,50.6],[15.81,50.67],[15.62,50.74],[15.43,50.81],[15.05,50.95],[14.6,50.9],[14.3666667,50.85],[14.1333333,50.8],[13.9,50.75],[13.7,50.7],[13.5,50.65],[13.3,50.6],[13.1,50.5],[12.9,50.4],[12.7,50.375],[12.5,50.35],[12.3,50.325],[12.1,50.3]]]}}
