{"type":"Feature","properties":{"family":"celts","name":"Brittany, 927 – 1066"},"geometry":{"type":"Polygon","coordinates":[[[-5.5385354,48.4513768],[-5.5281785,48.3974803],[-5.5018021,48.3460487],[-5.4605166,48.2991577],[-5.4060214,48.2586945],[-5.3405322,48.2262836],[-5.2666904,48.2032237],[-5.2236789,48.1931415],[-5.143483,48.1802349],[-5.0837395,48.1788971],[-5.0784124,48.1747694],[-5.1095192,48.1303287],[-5.1284229,48.0779587],[-5.1313527,48.0241244],[-5.1182414,47.9709735],[-5.0896581,47.9206198],[-5.0467793,47.8750601],[-4.9913353,47.8360962],[-4.9255388,47.8052654],[-4.8519961,47.7837818],[-4.7671723,47.7654457],[-4.7580332,47.7330037],[-4.7298868,47.6852584],[-4.6888669,47.6419555],[-4.6364776,47.6046518],[-4.5746202,47.5746854],[-4.5055231,47.5531291],[-4.4316639,47.5407539],[-4.3556829,47.5380018],[-4.1694448,47.5430386],[-4.082311,47.5518498],[-4.0386997,47.5632222],[-3.968574,47.5430452],[-3.8868702,47.5321402],[-3.7404578,47.5229922],[-3.7404578,47.5229922],[-3.7168005,47.5052866],[-3.6536835,47.4735446],[-3.6397094,47.4690639],[-3.652015,47.4440893],[-3.6617581,47.3915167],[-3.6561325,47.3386698],[-3.6354004,47.2875845],[-3.5953732,47.2167942],[-3.5631435,47.1723601],[-3.5195643,47.1326651],[-3.4661151,47.0990353],[-3.4045949,47.0725922],[-3.3370619,47.0542159],[-3.2657664,47.0445174],[-3.1930782,47.0438188],[-3.1930782,47.0438188],[-3.0318937,47.0522186],[-3.0318936,47.0522186],[-2.9529858,47.0617876],[-2.8784722,47.081935],[-2.8204547,47.1078014],[-2.7902328,47.0879658],[-2.7249912,47.0593842],[-2.688641,47.0496035],[-2.6893538,47.0097755],[-2.6748936,46.9573166],[-2.6456263,46.9078208],[-2.6027301,46.8632147],[-2.4656894,46.7470732],[-2.4119691,46.7095342],[-2.4106678,46.7089228],[-2.410669,46.7089322],[-2.4134212,46.7294749],[-2.4133212,46.7350658],[-2.4115403,46.7405224],[-2.4081547,46.74561],[-2.4033096,46.7501097],[-2.397213,46.7538281],[-2.390127,46.756605],[-2.3823565,46.758321],[-2.3742359,46.7589023],[-2.3382175,46.7589024],[-2.3300899,46.7583203],[-2.3223131,46.7566015],[-2.3152222,46.75382],[-2.2468076,46.7200349],[-2.2408956,46.716441],[-2.2361513,46.7121097],[-2.2327659,46.7072161],[-2.2308754,46.7019575],[-2.2305559,46.6965461],[-2.2318197,46.6912001],[-2.2346153,46.686135],[-2.2388298,46.681555],[-2.2442929,46.6776446],[-2.2507843,46.6745614],[-2.2580424,46.6724295],[-2.2657749,46.6713347],[-2.2736704,46.6713212],[-2.3334968,46.6753302],[-2.3335169,46.6753316],[-2.2783265,46.6590415],[-2.2675248,46.6574496],[-2.2496382,46.6516432],[-2.1725076,46.6386873],[-2.0931733,46.6365864],[-2.0148268,46.6454249],[-1.9406218,46.6648472],[-1.9341219,46.6670482],[-1.940318,46.6739457],[-2.1449028,46.7996394],[-2.1498702,46.8032997],[-2.1537666,46.8075239],[-2.1564584,46.8121671],[-2.1578529,46.8170703],[-2.1685012,46.8899579],[-2.1609348,46.8890727],[-2.1609348,46.8890727],[-2.1529961,46.8892459],[-2.1492858,46.8898487],[-2.1468677,46.8876539],[-2.1412975,46.8842126],[-2.1348755,46.8815541],[-2.1278338,46.8797744],[-2.12734,46.8797186],[-2.12734,46.8797186],[-2.12734,46.8797188],[-2.12734,46.8797188],[-2.1294213,46.8940364],[-2.1177242,46.9058534],[-2,46.95],[-1.6,47.05],[-1.25,47.2],[-1,47.4],[-1.05,47.6],[-1.2,47.8],[-1.05,48.05],[-1.05,48.35],[-1.25,48.5],[-1.52,48.6],[-1.5265747,48.6328737],[-1.5670829,48.6303818],[-1.5670829,48.6303818],[-1.5670925,48.6303812],[-1.5673004,48.63474],[-1.5659177,48.6400774],[-1.5629495,48.6451248],[-1.5585148,48.6496787],[-1.5527922,48.6535556],[-1.5460121,48.6565992],[-1.5384479,48.6586866],[-1.5304177,48.6597319],[-1.7859112,48.6440299],[-1.8153103,48.6547593],[-1.804481,48.7091231],[-1.8042032,48.71424],[-1.8053956,48.7192994],[-1.8080158,48.7241189],[-1.8119697,48.7285248],[-1.8171151,48.7323584],[-1.8232668,48.7354813],[-1.830203,48.737781],[-1.8376736,48.7391745],[-1.8454091,48.7396116],[-1.8531306,48.7390764],[-1.9539823,48.7255609],[-1.9616969,48.7239864],[-1.9687916,48.7214422],[-1.9697507,48.7209137],[-1.9910911,48.7614819],[-2.0096164,48.8116076],[-2.0133363,48.8631402],[-2.0043903,48.9036879],[-2.0610122,48.9031787],[-2.2686948,48.9149389],[-2.3506406,48.9250572],[-2.427842,48.9457917],[-2.4461795,48.953863],[-2.4810786,48.9462324],[-2.5913963,48.9143158],[-2.617353,48.9394727],[-2.6739964,48.9762836],[-2.6754616,48.9769214],[-2.6936843,48.9943477],[-2.749615,49.030475],[-2.7731551,49.0407207],[-2.7918805,49.0566049],[-2.8518316,49.0909615],[-2.9208326,49.1170765],[-2.9962785,49.1339594],[-3.0753094,49.1409692],[-3.1549226,49.1378394],[-3.1584962,49.1372317],[-3.2043623,49.1422769],[-3.2876206,49.1402793],[-3.3685322,49.127317],[-3.4355838,49.106469],[-3.4947649,49.1121077],[-3.5717814,49.1099034],[-3.6467948,49.0982994],[-3.717142,49.077708],[-3.7803328,49.0488603],[-3.8341417,49.0127789],[-3.8481218,49.0014399],[-3.8904834,48.9960797],[-3.9411963,49.001893],[-4.0197237,49.0009059],[-4.096506,48.990091],[-4.2990332,48.9476591],[-4.3022973,48.9467326],[-4.3115085,48.9478264],[-4.3939204,48.9465954],[-4.474267,48.9345264],[-4.6948531,48.8853067],[-4.7652393,48.8644425],[-4.8283626,48.8352369],[-4.8427957,48.8254181],[-4.8796202,48.8157678],[-4.9463959,48.7873314],[-5.0034879,48.7509017],[-5.0087978,48.7467782],[-5.0385385,48.7492923],[-5.1211449,48.7451424],[-5.2007488,48.7300504],[-5.2838911,48.7079889],[-5.3567425,48.6826923],[-5.4203506,48.6482362],[-5.4721252,48.6060355],[-5.5099775,48.5578189],[-5.5324026,48.5055564],[-5.5385354,48.4513768]]]}}
