{"type":"Feature","properties":{"family":"celts","name":"Brittany, 843 – 854"},"geometry":{"type":"Polygon","coordinates":[[[-5.5385392,48.4513736],[-5.5281843,48.3974741],[-5.5018091,48.34604],[-5.4605242,48.299147],[-5.4060291,48.2586825],[-5.3405396,48.226271],[-5.2666971,48.2032112],[-5.2236856,48.1931293],[-5.1434898,48.1802235],[-5.0837434,48.1788864],[-5.0784182,48.1747603],[-5.1095179,48.1303294],[-5.1284227,48.0779569],[-5.1313532,48.0241202],[-5.1182421,47.970967],[-5.0896588,47.9206116],[-5.0467796,47.8750506],[-4.9913352,47.836086],[-4.9255382,47.805255],[-4.8519952,47.7837718],[-4.7671689,47.7654359],[-4.7580315,47.7329994],[-4.729885,47.685253],[-4.6888648,47.6419492],[-4.6364754,47.6046449],[-4.574618,47.5746782],[-4.5055212,47.5531221],[-4.4316625,47.5407472],[-4.3556821,47.5379955],[-4.1694453,47.5430334],[-4.0823125,47.551845],[-4.038698,47.5632186],[-3.9685677,47.5430409],[-3.8868647,47.5321366],[-3.7404514,47.5229897],[-3.7167936,47.5052841],[-3.6536762,47.4735425],[-3.6397075,47.4690635],[-3.6520113,47.4440914],[-3.6617533,47.3915188],[-3.6561267,47.3386718],[-3.6353939,47.2875865],[-3.5953656,47.2167959],[-3.5631346,47.1723611],[-3.519554,47.1326654],[-3.4661035,47.0990353],[-3.4045824,47.072592],[-3.3370489,47.0542158],[-3.2657533,47.0445176],[-3.1930656,47.0438195],[-3.0318821,47.0522201],[-2.9529763,47.0617892],[-2.8784652,47.0819365],[-2.8203743,47.107832],[-2.8202525,47.1078863],[-2.8201497,47.1079321],[-2.811365,47.1118482],[-2.7674193,47.1415327],[-2.760751,47.1376998],[-2.6892322,47.1113306],[-2.6113643,47.0953955],[-2.5303819,47.0905555],[-2.4496428,47.097011],[-2.3724953,47.1144944],[-2.3021451,47.1422801],[-2.2415271,47.1792139],[-2.2037537,47.2074259],[-2.2022539,47.2512776],[-2.2531731,47.2253739],[-2.2599214,47.2226021],[-2.2673431,47.2207898],[-2.2751458,47.2200084],[-2.2830224,47.2202886],[-2.2906628,47.2216195],[-2.2977662,47.2239485],[-2.3753511,47.2561452],[-2.4368122,47.2417265],[-2.4445513,47.24048],[-2.4525013,47.240304],[-2.4603443,47.2412056],[-2.4677663,47.2431488],[-2.5613351,47.2752176],[-2.567933,47.2780577],[-2.5735858,47.2817175],[-2.5780752,47.286056],[-2.5812276,47.2909058],[-2.5829211,47.2960796],[-2.5830898,47.3013779],[-2.5817268,47.3065959],[-2.5788842,47.3115323],[-2.5746716,47.3159963],[-2.5692514,47.3198153],[-2.5628328,47.3228418],[-2.5556638,47.3249588],[-2.5511776,47.3256196],[-2.569974,47.3459848],[-2.5699605,47.345973],[-2.5699605,47.345973],[-2.5699284,47.345945],[-2.5650064,47.3416581],[-2.5587816,47.3380747],[-2.5516095,47.3354271],[-2.5437917,47.3338264],[-2.5356567,47.3333401],[-2.5275465,47.3339886],[-2.5198018,47.3357445],[-2.5152507,47.3375444],[-2.5211926,47.3439893],[-2.5362451,47.3603162],[-2.4794672,47.4028996],[-2.5578256,47.3837238],[-2.4794672,47.4028996],[-2.3997466,47.4224087],[-2.3994896,47.4226014],[-2.3966058,47.4247635],[-2.4430533,47.43021],[-2.35,47.5],[-2.1,47.62],[-2.05,47.8],[-2.05,48.15],[-1.9876048,48.5243713],[-2.0538205,48.6501568],[-1.9876048,48.5243713],[-1.9818198,48.513382],[-1.9477931,48.5293421],[-1.949122,48.5332266],[-1.96825,48.5696823],[-1.9666902,48.5698528],[-1.9751108,48.5807142],[-1.9776652,48.584009],[-1.977138,48.587172],[-1.9530195,48.5758594],[-1.9756532,48.5960807],[-2.0286203,48.6434025],[-1.9756532,48.5960807],[-1.9600784,48.6895296],[-1.9458195,48.6991255],[-1.9239631,48.7020545],[-1.9275755,48.7058901],[-1.9328531,48.7096543],[-1.9391156,48.7126912],[-1.9461367,48.7148908],[-1.9536623,48.7161736],[-1.9614201,48.7164931],[-1.9691294,48.7158377],[-1.9765111,48.7142313],[-1.9832981,48.7117318],[-1.9889363,48.7086013],[-1.9890581,48.7085336],[-1.9890581,48.7085336],[-1.989245,48.7084298],[-1.9892856,48.7084026],[-1.9892699,48.7084158],[-1.9750113,48.7180152],[-1.9688153,48.7214327],[-1.9617202,48.7239789],[-1.9540034,48.7255544],[-1.8531525,48.7390703],[-1.845431,48.7396054],[-1.8376946,48.7391679],[-1.8302226,48.7377736],[-1.8232846,48.7354729],[-1.817131,48.7323488],[-1.8119835,48.728514],[-1.8080278,48.7241068],[-1.8054061,48.7192863],[-1.8042126,48.7142263],[-1.8044899,48.7091091],[-1.8153179,48.6547478],[-1.7859546,48.6440317],[-1.5542433,48.6584082],[-1.5540914,48.659278],[-1.552702,48.7053244],[-1.5839322,48.7284577],[-1.5887628,48.7328476],[-1.5921656,48.7377855],[-1.594003,48.7430721],[-1.6068969,48.8108367],[-1.6346068,48.8316195],[-1.6392201,48.8358347],[-1.6425217,48.8405534],[-1.6443888,48.8456006],[-1.6447519,48.8507892],[-1.643597,48.8559269],[-1.6422012,48.8585249],[-1.6422012,48.8585249],[-1.6422034,48.8585264],[-1.6868388,48.8904854],[-1.7495729,48.9209716],[-1.820018,48.9430638],[-1.8956004,48.9559523],[-1.9735499,48.9591639],[-2.0510053,48.9525807],[-2.1239414,48.9367019],[-2.1851297,48.9546517],[-2.2587233,48.9662087],[-2.3343121,48.9686604],[-2.4092917,48.9619224],[-2.4452035,48.9540705],[-2.4454651,48.9540133],[-2.4458639,48.9539261],[-2.4810796,48.9462265],[-2.5913856,48.9143139],[-2.6173414,48.9394703],[-2.673983,48.9762804],[-2.6754482,48.9769181],[-2.6936757,48.9943488],[-2.7496064,49.0304753],[-2.7731409,49.0407182],[-2.7918713,49.0566065],[-2.8518226,49.0909623],[-2.9208241,49.1170766],[-2.9962711,49.1339589],[-3.0753033,49.1409681],[-3.1549183,49.1378377],[-3.1584838,49.1372313],[-3.2043529,49.1422765],[-3.2876128,49.1402786],[-3.3685265,49.127316],[-3.4355718,49.1064703],[-3.494751,49.1121089],[-3.5717707,49.1099045],[-3.6467876,49.0983],[-3.7171385,49.0777076],[-3.7803328,49.0488585],[-3.8341447,49.0127753],[-3.8481181,49.0014419],[-3.8904664,48.9960833],[-3.9411808,49.0018969],[-4.0197085,49.00091],[-4.0964917,48.9900954],[-4.299021,48.9476641],[-4.3022811,48.9467388],[-4.3114905,48.9478324],[-4.3939028,48.9466018],[-4.4742506,48.9345332],[-4.6948391,48.885314],[-4.7652289,48.8644489],[-4.8283561,48.8352416],[-4.842786,48.825425],[-4.8796093,48.815775],[-4.9463883,48.7873371],[-5.0034836,48.7509055],[-5.0087847,48.7467889],[-5.038517,48.7493026],[-5.1211246,48.7451533],[-5.2007306,48.7300613],[-5.2838738,48.708],[-5.3567289,48.6827024],[-5.4203409,48.6482446],[-5.4721195,48.6060414],[-5.5099755,48.557822],[-5.5324038,48.5055563],[-5.5385392,48.4513736]],[[-2.5976319,47.3849265],[-2.5970425,47.3877114],[-2.5971235,47.3873049],[-2.5972651,47.386594],[-2.597622,47.3848026],[-2.5976319,47.3849265]],[[-2.5974214,47.382293],[-2.5973287,47.3813123],[-2.5971586,47.3795123],[-2.59721,47.3796483],[-2.5974214,47.382293]],[[-2.5965463,47.3900563],[-2.5965246,47.3901587],[-2.5950897,47.3929159],[-2.5940265,47.3950032],[-2.5958003,47.3915207],[-2.5965349,47.3900786],[-2.5965463,47.3900563]],[[-2.5961774,47.3769148],[-2.5951777,47.3743888],[-2.5952755,47.374527],[-2.5961774,47.3769148]],[[-2.5939686,47.39507],[-2.5939302,47.3951439],[-2.5917276,47.3976587],[-2.5918127,47.3975604],[-2.5939686,47.39507]],[[-2.5933632,47.3718234],[-2.5917654,47.3696379],[-2.5917579,47.3696278],[-2.5919031,47.3697591],[-2.5933632,47.3718234]],[[-2.5899851,47.3996482],[-2.589948,47.3996906],[-2.5872863,47.4016972],[-2.5899851,47.3996482]],[[-2.5848018,47.4035835],[-2.5847477,47.403611],[-2.5847307,47.4036239],[-2.5826328,47.4046872],[-2.5827749,47.4046149],[-2.5848018,47.4035835]],[[-2.5536037,47.4134456],[-2.4922763,47.4284802],[-2.4922504,47.4284439],[-2.4922273,47.4284113],[-2.4927649,47.4283177],[-2.4930074,47.4282755],[-2.5536037,47.4134456]],[[-2.0611872,48.6765985],[-2.0594915,48.676869],[-2.0568542,48.6769398],[-2.0544105,48.6771322],[-2.0575413,48.6768856],[-2.0607273,48.6766347],[-2.0611872,48.6765985]],[[-2.0529382,48.6770448],[-2.0514906,48.6770836],[-2.0486777,48.6767917],[-2.0494472,48.6768374],[-2.0525145,48.6770196],[-2.0529382,48.6770448]],[[-2.0447288,48.6763821],[-2.0435794,48.6762628],[-2.0407184,48.6755685],[-2.0414885,48.6757247],[-2.0443861,48.6763125],[-2.0447288,48.6763821]]]}}
