{"type":"Feature","properties":{"family":"celts","name":"Brittany, 855 – 866"},"geometry":{"type":"Polygon","coordinates":[[[-5.5385355,48.4513767],[-5.5281787,48.3974802],[-5.5018024,48.3460486],[-5.4605169,48.2991576],[-5.4060218,48.2586944],[-5.3405326,48.2262836],[-5.2666907,48.2032237],[-5.2236793,48.1931415],[-5.1434833,48.1802349],[-5.0837398,48.1788971],[-5.0784125,48.1747692],[-5.1095192,48.1303286],[-5.1284229,48.0779586],[-5.1313528,48.0241243],[-5.1182414,47.9709734],[-5.0896583,47.9206197],[-5.0467794,47.87506],[-4.9913355,47.8360961],[-4.925539,47.8052653],[-4.8519963,47.7837817],[-4.7671723,47.7654456],[-4.7580332,47.7330035],[-4.7298868,47.6852583],[-4.6888669,47.6419554],[-4.6364777,47.6046517],[-4.5746203,47.5746853],[-4.5055233,47.5531291],[-4.4316641,47.5407539],[-4.3556831,47.5380018],[-4.1694451,47.5430386],[-4.0823112,47.5518498],[-4.0386998,47.5632222],[-3.9685741,47.5430452],[-3.8868702,47.5321402],[-3.7404578,47.5229922],[-3.7168005,47.5052866],[-3.6536835,47.4735446],[-3.6397093,47.4690638],[-3.6520149,47.4440892],[-3.6617579,47.3915166],[-3.6561323,47.3386697],[-3.6354002,47.2875844],[-3.5953731,47.2167941],[-3.5631433,47.17236],[-3.5195641,47.132665],[-3.4661149,47.0990353],[-3.4045948,47.0725922],[-3.3370619,47.0542159],[-3.2657664,47.0445174],[-3.2657664,47.0445174],[-3.1930782,47.0438188],[-3.0318937,47.0522186],[-2.9529859,47.0617876],[-2.8784723,47.081935],[-2.8204546,47.1078015],[-2.7902325,47.0879658],[-2.7249909,47.0593841],[-2.6886408,47.0496035],[-2.6893536,47.0097754],[-2.6748933,46.9573165],[-2.6534386,46.9210332],[-2.6456259,46.9078207],[-2.6027298,46.8632147],[-2.465689,46.7470732],[-2.4119687,46.7095342],[-2.4106678,46.708923],[-2.4134212,46.7294747],[-2.4133212,46.7350658],[-2.4115404,46.7405226],[-2.4081548,46.7456103],[-2.4033096,46.7501102],[-2.3972129,46.7538287],[-2.3901269,46.7566057],[-2.3823564,46.7583218],[-2.3742358,46.758903],[-2.3382175,46.7589032],[-2.3300901,46.7583211],[-2.3223133,46.7566023],[-2.3152225,46.7538208],[-2.246808,46.7200358],[-2.2408959,46.7164417],[-2.2361515,46.7121104],[-2.232766,46.7072167],[-2.2308755,46.7019579],[-2.2305559,46.6965463],[-2.2318196,46.6912001],[-2.2346152,46.6861349],[-2.2388296,46.6815547],[-2.2442927,46.6776442],[-2.2507841,46.6745608],[-2.2580423,46.6724288],[-2.2657748,46.671334],[-2.2736703,46.6713205],[-2.3335133,46.6753306],[-2.2783263,46.6590415],[-2.2675245,46.6574496],[-2.249638,46.6516433],[-2.1725076,46.6386873],[-2.1725074,46.6386873],[-2.0931733,46.6365864],[-2.0931731,46.6365863],[-2.0148267,46.6454249],[-1.9406218,46.6648472],[-1.9341222,46.6670481],[-1.9403177,46.6739449],[-2.1449025,46.7996386],[-2.1498699,46.803299],[-2.1537665,46.8075233],[-2.1564583,46.8121667],[-2.1578529,46.81707],[-2.1685012,46.8899579],[-2.1609348,46.8890727],[-2.1529961,46.8892459],[-2.1492857,46.8898487],[-2.1468677,46.8876539],[-2.1468677,46.8876539],[-2.1412975,46.8842126],[-2.1348755,46.8815541],[-2.1278338,46.8797744],[-2.12734,46.8797186],[-2.12734,46.8797188],[-2.12734,46.8797188],[-2.1294213,46.8940364],[-2.1177242,46.9058534],[-2,46.95],[-1.6,47.05],[-1.25,47.2],[-1,47.4],[-1.05,47.6],[-1.2,47.8],[-1.05,48.05],[-1.05,48.35],[-1.25,48.5],[-1.52,48.6],[-1.5265747,48.6328737],[-1.4858965,48.6353759],[-1.3554136,48.6434025],[-1.4858965,48.6353759],[-1.5105694,48.6338582],[-1.4858965,48.6353759],[-1.4861017,48.6364058],[-1.4878537,48.6414266],[-1.491019,48.6461356],[-1.4954822,48.6503609],[-1.5010808,48.6539482],[-1.5076106,48.6567666],[-1.5148331,48.658713],[-1.5224845,48.6597163],[-1.5302401,48.6597399],[-1.4941874,48.6619786],[-1.5789716,48.7247816],[-1.579122,48.7248732],[-1.5789716,48.7247816],[-1.5732486,48.7212953],[-1.566433,48.7185392],[-1.5589353,48.7167102],[-1.5510418,48.7158782],[-1.5430536,48.7160747],[-1.5352755,48.7172923],[-1.5280045,48.7194847],[-1.5215181,48.722568],[-1.5213875,48.7226603],[-1.5485614,48.7428068],[-1.55,48.75],[-1.575,48.875],[-1.5773344,48.8866721],[-1.603816,48.8494089],[-1.5773344,48.8866721],[-1.5599845,48.9110857],[-1.5670932,48.9127975],[-1.5751096,48.9136108],[-1.583213,48.9133717],[-1.5910865,48.9120896],[-1.5984223,48.9098146],[-1.6049336,48.9066356],[-1.6103659,48.902677],[-1.6145073,48.8980934],[-1.6406974,48.8612022],[-1.5894338,48.9334326],[-1.5986965,48.9428365],[-1.6021948,48.9472232],[-1.6044144,48.9519555],[-1.6052801,48.956874],[-1.6047624,48.9618131],[-1.594948,49.001556],[-1.597185,49.0015651],[-1.6049075,49.0025813],[-1.6121943,49.0045444],[-1.6187783,49.0073825],[-1.624418,49.0109916],[-1.6289067,49.0152393],[-1.6320793,49.01997],[-1.6338192,49.0250102],[-1.6482785,49.0993022],[-1.648565,49.1039796],[-1.6476122,49.1086185],[-1.6454484,49.1130792],[-1.6421385,49.1172273],[-1.6138308,49.146225],[-1.6185711,49.1541816],[-1.6363934,49.1536562],[-1.7154766,49.1407763],[-1.7890846,49.1179279],[-1.8543111,49.0860159],[-1.9085948,49.0463021],[-1.9498217,49.0003537],[-1.9703498,48.9711695],[-2.027828,48.9634543],[-2.1052949,48.9476381],[-2.130446,48.9386158],[-2.18514,48.9546583],[-2.2587314,48.9662147],[-2.3343174,48.9686662],[-2.409294,48.961928],[-2.4458729,48.9539301],[-2.4810788,48.9462324],[-2.5913962,48.9143159],[-2.6173527,48.9394726],[-2.6739962,48.9762836],[-2.6754613,48.9769213],[-2.6936842,48.9943478],[-2.7496149,49.030475],[-2.7731548,49.0407206],[-2.7918803,49.0566049],[-2.8518315,49.0909615],[-2.9208325,49.1170765],[-2.9962785,49.1339594],[-3.0753094,49.1409692],[-3.1549227,49.1378394],[-3.1584962,49.1372317],[-3.2043623,49.1422769],[-3.2043623,49.1422769],[-3.2876207,49.1402793],[-3.3685324,49.1273169],[-3.4355838,49.106469],[-3.4947648,49.1121077],[-3.5717814,49.1099034],[-3.6467949,49.0982994],[-3.7171422,49.077708],[-3.7803331,49.0488603],[-3.834142,49.0127788],[-3.848122,49.0014399],[-3.8904832,48.9960797],[-3.9411962,49.001893],[-4.0197236,49.0009059],[-4.0965059,48.9900909],[-4.2990332,48.9476591],[-4.3022972,48.9467326],[-4.3115082,48.9478264],[-4.3939202,48.9465954],[-4.4742669,48.9345264],[-4.6948531,48.8853067],[-4.7652393,48.8644425],[-4.8283627,48.8352369],[-4.8427957,48.825418],[-4.8796202,48.8157678],[-4.9463959,48.7873313],[-5.0034881,48.7509015],[-5.0087977,48.7467782],[-5.0385382,48.7492923],[-5.1211447,48.7451424],[-5.2007486,48.7300503],[-5.2838909,48.7079888],[-5.3567424,48.6826922],[-5.4203505,48.6482361],[-5.4721252,48.6060354],[-5.5099775,48.5578188],[-5.5324027,48.5055563],[-5.5385355,48.4513767]],[[-1.6447652,48.8506025],[-1.6447526,48.8506606],[-1.6447612,48.850784],[-1.6444011,48.8455938],[-1.644665,48.849397],[-1.6447652,48.8506025]],[[-1.6447612,48.850784],[-1.6438482,48.8548338],[-1.6436309,48.8558362],[-1.6436158,48.8558645],[-1.6436334,48.8557864],[-1.6447612,48.850784]],[[-1.6443334,48.8454105],[-1.642536,48.8405452],[-1.6442247,48.8451163],[-1.6438411,48.844078],[-1.6443261,48.8453232],[-1.6443334,48.8454105]],[[-1.642536,48.8405452],[-1.6392356,48.8358256],[-1.6421325,48.8399681],[-1.6414434,48.8389828],[-1.6423311,48.8402011],[-1.6423759,48.8403163],[-1.642536,48.8405452]],[[-1.6392356,48.8358256],[-1.6375542,48.8342891],[-1.6388571,48.835433],[-1.638959,48.8355729],[-1.6384777,48.835133],[-1.6392356,48.8358256]]]}}
