{"type":"Feature","properties":{"family":"bulgaria","name":"First Bulgarian Empire, 985 – 1014"},"geometry":{"type":"Polygon","coordinates":[[[18.8760438,41.9347445],[18.8762542,41.8832341],[18.889604,41.8326925],[18.9155776,41.784958],[18.9532055,41.7417632],[19.0011032,41.7046727],[19.0575233,41.6750273],[19.0965741,41.661914],[19.0943509,41.6575631],[19.0824553,41.6072949],[19.0834478,41.5562532],[19.0842447,41.5533718],[19.0838242,41.5529512],[19.0533754,41.5052693],[19.0359619,41.4540569],[19.0322224,41.4012855],[19.0422674,41.3489815],[19.0715182,41.2595799],[19.0947929,41.2098975],[19.093317,41.2068521],[19.0837465,41.143812],[19.0842267,41.0564879],[19.0550366,41.0187222],[19.0315305,40.964199],[19.0238411,40.9071602],[19.0322751,40.8501854],[19.0322922,40.850127],[18.9811465,40.7644868],[18.9588806,40.7146688],[18.9498147,40.6625264],[18.9542625,40.6100447],[18.9720237,40.559217],[18.9797816,40.5471558],[18.9597606,40.5166128],[18.9415358,40.4659402],[18.9365819,40.4135456],[18.9450558,40.3614175],[18.9666059,40.3115296],[19.0003902,40.2657664],[19.1760956,40.0733246],[19.2194636,40.0341691],[19.2716907,40.0019937],[19.6432987,39.8119325],[19.6446015,39.8130724],[19.6496133,39.816111],[19.6552606,39.8184035],[19.6613564,39.8198738],[19.845024,39.8502824],[19.8524266,39.8508837],[19.8598278,39.8502768],[19.8668954,39.8484888],[19.9614737,39.8156289],[19.971006,39.8514526],[19.8905133,39.8826832],[19.8846402,39.8855508],[19.8796205,39.8892486],[19.8756512,39.8936316],[19.8728885,39.8985279],[19.8714408,39.9037453],[19.8713653,39.909079],[19.8726653,39.9143196],[19.87529,39.9192615],[19.8791367,39.9237104],[19.8997784,39.943087],[19.8654168,39.9884685],[19.8702538,39.9835203],[19.8766115,39.9794777],[19.9349618,39.9503066],[19.8631986,40.045167],[19.8957669,40.0021165],[20.3,39.8],[20.5333333,39.7333333],[20.7666667,39.6666667],[21,39.6],[21.1666667,39.5666667],[21.3333333,39.5333333],[21.5,39.5],[21.6,39.6],[21.6666667,39.6666667],[21.7333333,39.7333333],[21.8333333,39.8333333],[21.8666667,39.8666667],[22,40],[22.5,40.6],[22.6666667,40.7333333],[22.8333333,40.8666667],[23,41],[23.2,41.1333333],[23.36,41.24],[23.4,41.2666667],[23.6,41.4],[23.8,41.5333333],[24,41.6666667],[24.2,41.8],[24.2666667,42],[24.3333333,42.2],[24.4,42.4],[24.3666667,42.5666667],[24.3333333,42.7333333],[24.3,42.9],[24.35,43.1],[24.4,43.3],[24.425,43.525],[24.45,43.75],[24.025,43.775],[23.8125,43.7875],[23.6,43.8],[23.4,43.88],[23.2,43.96],[23,44.04],[22.8,44.12],[22.6,44.2],[22.4,44.3333333],[22.2,44.4666667],[22,44.6],[21.8,44.65],[21.6,44.7],[21.4,44.75],[21.175,44.7625],[20.95,44.775],[20.725,44.7875],[20.5,44.8],[19.8,44.3],[19.9,44.1],[20,43.9],[20.2,43.5],[20.3333333,43.1],[20.4,42.9],[20.2333333,42.7333333],[20.0666667,42.5666667],[19.9,42.4],[19.6,42],[19.2370207,41.9092552],[19.2645819,41.8970459],[19.273699,41.8930072],[19.2875202,41.8868846],[19.2960361,41.8831122],[19.3065697,41.8784459],[19.3091722,41.877293],[19.3403045,41.8635018],[19.3663937,41.8519447],[19.3403045,41.8635018],[19.3091722,41.877293],[19.3065697,41.8784459],[19.2960361,41.8831122],[19.2875202,41.8868846],[19.273699,41.8930072],[19.2645819,41.8970459],[19.2370207,41.9092552],[19.2211047,41.9163058],[19.2107511,41.9208922],[19.2060047,41.9229948],[19.2059961,41.9229987],[19.2059961,41.9229987],[19.2059935,41.9229998],[19.2059869,41.9230027],[19.2059813,41.9230052],[19.2049369,41.9218175],[19.2059813,41.9230052],[19.2049414,41.9218225],[19.2049417,41.9218231],[19.2059811,41.9230053],[19.205981,41.9230053],[19.2059809,41.9230054],[19.1719917,41.9380621],[19.1320708,42.0176421],[19.1320708,42.0176421],[19.0855909,42.110297],[19.0450347,42.1364532],[19.0448475,42.1365739],[19.0447742,42.1366211],[19.0447742,42.1366211],[19.0446268,42.1367162],[19.0444671,42.1368192],[19.0443498,42.1368949],[19.0002316,42.1137457],[18.9522403,42.0765178],[18.9147155,42.0331874],[18.889012,41.9853454],[18.8760438,41.9347445]],[[19.8631986,40.045167],[19.7695977,40.0637414],[19.7678028,40.0660986],[19.7744385,40.0627807],[19.8631986,40.045167]],[[19.2121766,41.8897054],[19.2124538,41.889484],[19.2129605,41.8890793],[19.2129601,41.8890796],[19.2129583,41.8890806],[19.2121766,41.8897054]],[[19.2129605,41.8890793],[19.2185106,41.8860625],[19.2906574,41.8541062],[19.2906406,41.8541121],[19.2185062,41.8860624],[19.2131746,41.8889629],[19.2129605,41.8890793]],[[19.4660812,40.227135],[19.4870106,40.2103915],[19.4779948,40.2140247],[19.4660812,40.227135]]]}}
