{"type":"Feature","properties":{"family":"bulgaria","name":"First Bulgarian Empire, 789 – 854"},"geometry":{"type":"Polygon","coordinates":[[[22.6,44.55],[22.65,44.2],[22.775,44.025],[22.9,43.85],[23.0333333,43.7],[23.1666667,43.55],[23.3,43.4],[23.4666667,43.2666667],[23.6333333,43.1333333],[23.8,43],[24,42.9166667],[24.2,42.8333333],[24.4,42.75],[24.6,42.6333333],[24.8,42.5166667],[25,42.4],[25.2,42.2666667],[25.4,42.1333333],[25.6,42],[25.7666667,42.0666667],[25.9333333,42.1333333],[26.1,42.2],[26.3,42.2666667],[26.5,42.3333333],[26.7,42.4],[26.9,42.45],[27.1,42.5],[27.3,42.55],[27.4833333,42.6166667],[27.6666667,42.6833333],[27.7272938,42.7053796],[27.7328773,42.7148077],[27.7515766,42.7142097],[27.85,42.75],[27.8903754,42.75],[27.8903754,42.75],[27.8897701,42.7769744],[27.8897701,42.7769744],[27.88977,42.776979],[27.8903913,42.776979],[27.8974825,42.7764702],[27.904306,42.7749656],[27.910605,42.7725217],[27.9161425,42.7692306],[27.92071,42.7652161],[27.9241358,42.7606294],[27.9262913,42.755643],[27.9270958,42.7504446],[27.9270979,42.75035],[27.9271073,42.7504334],[27.9212641,43.0179961],[27.9747205,43.0126216],[28.0406567,42.9962881],[28.1011733,42.9711457],[28.1540975,42.9381003],[28.1975378,42.8983412],[28.2299531,42.8532965],[28.2502058,42.8045812],[28.2576003,42.7539378],[28.2576162,42.7529784],[28.2577156,42.7537952],[28.2539047,42.9859418],[28.2844316,43.0483442],[28.3162289,43.0743713],[28.3481131,43.113774],[28.3585297,43.110404],[28.430082,43.0987787],[28.5033584,43.0976468],[28.5755128,43.1070522],[28.6437412,43.1266293],[28.7053865,43.1556169],[28.7580388,43.1928867],[28.7996277,43.2369859],[28.9298685,43.4088439],[28.9587209,43.4575215],[28.9739414,43.5093539],[28.9749086,43.5623461],[28.9565266,43.7180333],[29.0347314,43.9288013],[29.0457219,43.9722253],[29.0467334,44.0163585],[29.0268667,44.2337721],[29.1259539,44.312406],[29.1624085,44.3463175],[29.1909487,44.3839157],[29.249177,44.4774355],[29.2725184,44.4961221],[29.2762927,44.4997916],[29.3370188,44.5330657],[29.5995041,44.5520758],[29.6834529,44.5649989],[29.7612174,44.5910111],[29.8288355,44.6287902],[29.886427,44.6691826],[29.9352652,44.7110626],[29.9713531,44.7590404],[29.9932002,44.8111776],[30.074278,45.111466],[30.075602,45.1220349],[30.0813778,45.1291829],[30.1054931,45.1816126],[30.131219,45.2659539],[30.1392907,45.308912],[30.1374803,45.3522231],[30.1192113,45.468453],[30.1206619,45.4692151],[30.1704897,45.5078711],[30.17983,45.518745],[30.2124219,45.5383227],[30.2357101,45.5593756],[30.2375107,45.5595858],[30.3067113,45.5776321],[30.3697849,45.6045467],[30.4244338,45.6393531],[30.8142266,45.9376106],[30.8230862,45.9457951],[30.8593001,45.9792495],[30.8920772,46.0261185],[30.9113108,46.0764796],[30.9162489,46.1284608],[30.9066677,46.1801245],[30.8828857,46.2295399],[30.8457574,46.2748552],[30.796647,46.3143677],[30.7521576,46.3385552],[30.7441237,46.3316869],[30.7385573,46.3278045],[30.7319708,46.3247777],[30.7246345,46.3227308],[30.7227305,46.3224904],[30.7241374,46.3207761],[30.7265112,46.315916],[30.7275102,46.3108344],[30.7270988,46.3057154],[30.7252922,46.3007438],[30.722156,46.2960995],[30.5276633,46.0665134],[30.5276524,46.0665178],[30.5608183,46.1056692],[30.5639618,46.1103521],[30.5657607,46.1153639],[30.5661486,46.120521],[30.565111,46.1256343],[30.5626854,46.1305162],[30.5589606,46.1349877],[30.5540729,46.1388847],[30.5540729,46.1388847],[30.5482014,46.1420643],[30.5469772,46.1426],[30.5272696,46.1193195],[30,46.35],[29.8,46.38],[29.6,46.41],[29.4,46.44],[29,46.5],[28.78,46.49],[28.56,46.48],[28.34,46.47],[28.12,46.46],[27.9,46.45],[27.7,46.37],[27.5,46.29],[27.3,46.21],[27.1,46.13],[26.9,46.05],[26.7,45.9166667],[26.5,45.7833333],[26.3,45.65],[26.1,45.62],[25.9,45.59],[25.7,45.56],[25.3,45.5],[25.0833333,45.4833333],[24.8666667,45.4666667],[24.65,45.45],[24.4333333,45.4333333],[24.2166667,45.4166667],[24,45.4],[23,45.2],[22.8,44.875],[22.7,44.7125],[22.6,44.55]]]}}
