{"type":"Feature","properties":{"family":"bulgaria","name":"First Bulgarian Empire, 913 – 957"},"geometry":{"type":"Polygon","coordinates":[[[19.2,44.9],[19.2666667,44.7],[19.3333333,44.5],[19.4,44.3],[19.8,43.6],[20.3,43],[20.1666667,42.8333333],[20.0333333,42.6666667],[19.9,42.5],[19.8,42.3333333],[19.7,42.1666667],[19.6,42],[20,41.8],[20.1,41.6],[20.2,41.4],[20.2333333,41.2333333],[20.2666667,41.0666667],[20.3,40.9],[20.4666667,40.75],[20.6333333,40.6],[20.8,40.45],[20.9666667,40.35],[21.1333333,40.25],[21.3,40.15],[21.4666667,40.2],[21.6333333,40.25],[21.8,40.3],[21.9333333,40.4],[22.0666667,40.5],[22.2,40.6],[22.3333333,40.7166667],[22.4666667,40.8333333],[22.6,40.95],[23,41.15],[23.2,41.2],[23.36,41.24],[23.4,41.25],[23.6,41.3],[23.8333333,41.35],[24.0666667,41.4],[24.3,41.45],[24.5333333,41.5166667],[24.7666667,41.5833333],[25,41.65],[25.2,41.7666667],[25.4,41.8833333],[25.6,42],[25.7666667,42.0666667],[25.9333333,42.1333333],[26.1,42.2],[26.3,42.2666667],[26.5,42.3333333],[26.7,42.4],[26.9,42.45],[27.1,42.5],[27.3,42.55],[27.4833333,42.6166667],[27.6666667,42.6833333],[27.7272938,42.7053796],[27.7328773,42.7148077],[27.7515766,42.7142097],[27.85,42.75],[27.8903754,42.75],[27.8903754,42.75],[27.8897701,42.7769744],[27.8903628,42.7769744],[27.897458,42.7764653],[27.9042863,42.7749595],[27.9105902,42.7725138],[27.9161324,42.7692203],[27.920704,42.7652031],[27.9241331,42.7606136],[27.9262908,42.7556246],[27.927096,42.7504241],[27.9270983,42.7503209],[27.9271115,42.7504369],[27.9212683,43.0179234],[27.9212684,43.0179234],[27.9745074,43.0125669],[28.0404836,42.9962193],[28.1010428,42.9710576],[28.1540081,42.9379889],[28.1974849,42.8982042],[28.2299289,42.8531337],[28.2502003,42.8043947],[28.2576017,42.7537325],[28.257619,42.7526921],[28.257757,42.7538391],[28.2539323,42.9860113],[28.284477,43.048459],[28.3162722,43.0744853],[28.3481096,43.1138341],[28.3584425,43.110492],[28.4300169,43.098869],[28.5033185,43.0977426],[28.5754983,43.1071562],[28.6437498,43.1267433],[28.7054132,43.1557416],[28.758077,43.1930214],[28.7996694,43.2371285],[28.9298957,43.4089878],[28.9587364,43.4576484],[28.9739486,43.5094574],[28.9749121,43.5624214],[28.9565175,43.7181417],[29.034721,43.9289389],[29.0457067,43.9723498],[29.046714,44.0164663],[29.0268279,44.2339198],[29.1259186,44.3125645],[29.1623814,44.3464866],[29.1909246,44.3840934],[29.2491425,44.4776095],[29.2724731,44.4962896],[29.276242,44.4999537],[29.3368917,44.5331897],[29.599327,44.5522071],[29.683319,44.5651424],[29.7611256,44.5911742],[29.8287781,44.6289773],[29.8863662,44.6693717],[29.9352158,44.7112642],[29.9713081,44.7592498],[29.9931519,44.8113884],[30.0742088,45.1116683],[30.0810092,45.1658859],[30.0722175,45.219952],[30.0481495,45.2716599],[30.0097505,45.3188933],[29.9585626,45.3597142],[29.8934776,45.4020004],[29.8279645,45.4361757],[29.794541,45.4467942],[29.7945413,45.4467916],[29.7938382,45.4418166],[29.7918384,45.4370174],[29.7886109,45.4325588],[29.7681828,45.4098218],[29.793583,45.3277192],[29.7944558,45.3220822],[29.7936322,45.3164405],[29.7683773,45.2320195],[29.7661947,45.227102],[29.762725,45.2225657],[29.758095,45.2185758],[29.7524737,45.2152777],[29.7460661,45.2127917],[29.698399,45.1982607],[29.6983977,45.1982602],[29.724421,45.1813991],[29.6675693,45.2182347],[29.6675567,45.2182309],[29.6675477,45.2182282],[29.6675477,45.2182282],[29.667529,45.2182224],[29.667529,45.2182224],[29.667529,45.2182224],[29.6588966,45.2155906],[29.6228962,45.2105249],[29.6334359,45.203698],[29.475,45.2125],[29.25,45.225],[28.8,45.25],[28.6,45.2666667],[28.4,45.2833333],[28.2,45.3],[28,45.35],[27.8,45.4],[27.5666667,45.4666667],[27.3333333,45.5333333],[27.1,45.6],[26.9,45.6125],[26.7,45.625],[26.5,45.6375],[26.3,45.65],[26.1,45.62],[25.9,45.59],[25.7,45.56],[25.3,45.5],[25.0833333,45.4833333],[24.8666667,45.4666667],[24.65,45.45],[24.4333333,45.4333333],[24.2166667,45.4166667],[24,45.4],[23,45.2],[22.8,44.875],[22.7,44.7125],[22.6,44.55],[22.4,44.5666667],[22.2,44.5833333],[22,44.6],[21.8,44.65],[21.6,44.7],[21.4,44.75],[21.175,44.7625],[20.95,44.775],[20.725,44.7875],[20.5,44.8],[20.3,44.8666667],[20.1,44.9333333],[19.7,45.0666667],[19.5,45.1333333],[19.3,45.2],[19.2,44.9]]]}}
