{"type":"Feature","properties":{"family":"bulgaria","name":"First Bulgarian Empire, 965 – 971"},"geometry":{"type":"Polygon","coordinates":[[[19.2,44.9],[19.2666667,44.7],[19.3333333,44.5],[19.4,44.3],[19.8,43.6],[20.3,43],[20.1666667,42.8333333],[20.0333333,42.6666667],[19.9,42.5],[19.8,42.3333333],[19.7,42.1666667],[19.6,42],[20,41.8],[20.1,41.6],[20.2,41.4],[20.2333333,41.2333333],[20.2666667,41.0666667],[20.3,40.9],[20.4666667,40.75],[20.6333333,40.6],[20.8,40.45],[20.9666667,40.35],[21.1333333,40.25],[21.3,40.15],[21.4666667,40.2],[21.6333333,40.25],[21.8,40.3],[21.9333333,40.4],[22.0666667,40.5],[22.2,40.6],[22.3333333,40.7166667],[22.4666667,40.8333333],[22.6,40.95],[23,41.15],[23.2,41.2],[23.36,41.24],[23.4,41.25],[23.6,41.3],[23.8333333,41.35],[24.0666667,41.4],[24.3,41.45],[24.5333333,41.5166667],[24.7666667,41.5833333],[25,41.65],[25.2,41.7666667],[25.4,41.8833333],[25.6,42],[25.4,42.1333333],[25.2,42.2666667],[25,42.4],[24.6,42.6],[24.45,42.75],[24.3,42.9],[24.35,43.1],[24.4,43.3],[24.425,43.525],[24.45,43.75],[24.66,43.74],[24.87,43.73],[25.08,43.72],[25.5,43.7],[25.7142857,43.7714286],[25.9285714,43.8428571],[26.1428571,43.9142857],[26.1428571,43.9142857],[26.3571429,43.9857143],[26.3571429,43.9857143],[26.5714286,44.0571429],[26.7857143,44.1285714],[27,44.2],[27.1714286,44.3571429],[27.3428571,44.5142857],[27.5142857,44.6714286],[27.6857143,44.8285714],[27.8571429,44.9857143],[28.0285714,45.1428571],[28.2,45.3],[28,45.35],[27.8,45.4],[27.5666667,45.4666667],[27.3333333,45.5333333],[27.1,45.6],[26.9,45.6125],[26.7,45.625],[26.5,45.6375],[26.3,45.65],[26.1,45.62],[25.9,45.59],[25.7,45.56],[25.3,45.5],[25.0833333,45.4833333],[24.8666667,45.4666667],[24.65,45.45],[24.4333333,45.4333333],[24.2166667,45.4166667],[24,45.4],[23,45.2],[22.8,44.875],[22.7,44.7125],[22.6,44.55],[22.4,44.5666667],[22.2,44.5833333],[22,44.6],[21.8,44.65],[21.6,44.7],[21.4,44.75],[21.175,44.7625],[20.95,44.775],[20.725,44.7875],[20.5,44.8],[20.3,44.8666667],[20.1,44.9333333],[19.7,45.0666667],[19.5,45.1333333],[19.3,45.2],[19.2,44.9]]]}}
