{"type":"Feature","properties":{"family":"bulgaria","name":"First Bulgarian Empire, 855 – 912"},"geometry":{"type":"Polygon","coordinates":[[[20.2,41.4],[20.2333333,41.2333333],[20.2666667,41.0666667],[20.3,40.9],[20.4666667,40.75],[20.6333333,40.6],[20.8,40.45],[20.9666667,40.35],[21.1333333,40.25],[21.3,40.15],[21.4666667,40.2],[21.6333333,40.25],[21.8,40.3],[21.9333333,40.4],[22.0666667,40.5],[22.2,40.6],[22.3333333,40.7166667],[22.4666667,40.8333333],[22.6,40.95],[23,41.15],[23.2,41.2],[23.36,41.24],[23.4,41.25],[23.6,41.3],[23.8333333,41.35],[24.0666667,41.4],[24.3,41.45],[24.5333333,41.5166667],[24.7666667,41.5833333],[25,41.65],[25.2,41.7666667],[25.4,41.8833333],[25.6,42],[25.7666667,42.0666667],[25.9333333,42.1333333],[26.1,42.2],[26.3,42.2666667],[26.5,42.3333333],[26.7,42.4],[26.9,42.45],[27.1,42.5],[27.3,42.55],[27.4833333,42.6166667],[27.6666667,42.6833333],[27.7272938,42.7053796],[27.7328773,42.7148077],[27.7515766,42.7142097],[27.85,42.75],[27.8903754,42.75],[27.8903754,42.75],[27.8897701,42.7769744],[27.8897701,42.7769744],[27.88977,42.776979],[27.88977,42.776979],[27.88977,42.7769796],[27.890382,42.7769796],[27.8974745,42.7764707],[27.9042995,42.7749655],[27.9106001,42.7725209],[27.9161391,42.7692287],[27.9207079,42.7652131],[27.9241348,42.7606251],[27.926291,42.7556375],[27.9270957,42.750438],[27.9270983,42.750321],[27.9271115,42.750437],[27.9212684,43.0179234],[27.9212668,43.0179931],[27.974657,43.0126228],[28.0406047,42.9962829],[28.1011337,42.9711321],[28.1540698,42.9380767],[28.1975209,42.8983065],[28.2299446,42.8532505],[28.2502029,42.8045244],[28.2575995,42.7538717],[28.2576191,42.7526924],[28.2577572,42.7538401],[28.253933,42.9860042],[28.28447,43.0484358],[28.3162631,43.0744606],[28.3481028,43.1138119],[28.3584525,43.1104642],[28.4300227,43.0988413],[28.5033197,43.0977149],[28.5754953,43.1071282],[28.6437431,43.126715],[28.7054041,43.155713],[28.7580668,43.1929929],[28.7996598,43.2371005],[28.9298882,43.4089609],[28.9587331,43.4576292],[28.9739478,43.5094471],[28.9749116,43.5624206],[28.9565184,43.7181303],[29.0347185,43.9289184],[29.0457056,43.9723355],[29.0467134,44.0164585],[29.02683,44.2338922],[29.1259089,44.3125271],[29.1623723,44.3464499],[29.1909169,44.3840581],[29.2491335,44.4775711],[29.2724621,44.4962493],[29.2762304,44.499913],[29.336891,44.5331544],[29.5993408,44.552171],[29.6833216,44.5651042],[29.7611185,44.5911328],[29.8287643,44.6289319],[29.8863532,44.6693264],[29.9352056,44.7112215],[29.971301,44.7592116],[29.9931477,44.8113564],[30.0742059,45.1116392],[30.0755578,45.1224188],[30.0757036,45.1235815],[30.0810072,45.1658708],[30.0722124,45.2199514],[30.0481377,45.2716732],[30.0097289,45.3189188],[29.958529,45.3597492],[29.893443,45.4020354],[29.8279268,45.4362121],[29.7945414,45.4468187],[29.7945466,45.446777],[29.7938445,45.4417982],[29.7918446,45.436996],[29.7886162,45.4325353],[29.7681892,45.4097994],[29.7935872,45.3277052],[29.7944613,45.3220621],[29.7936371,45.3164153],[29.7683828,45.2319949],[29.7662015,45.227079],[29.7627344,45.2225446],[29.7581079,45.2185567],[29.7524909,45.2152606],[29.7460878,45.2127762],[29.6984226,45.1982454],[29.698399,45.1982607],[29.6675706,45.2182351],[29.6675693,45.2182347],[29.6675567,45.2182309],[29.6675477,45.2182282],[29.6675477,45.2182282],[29.667529,45.2182224],[29.667529,45.2182224],[29.667529,45.2182224],[29.6588966,45.2155906],[29.6228962,45.2105249],[29.6334359,45.203698],[29.475,45.2125],[29.25,45.225],[28.8,45.25],[28.6,45.2666667],[28.4,45.2833333],[28.2,45.3],[28,45.35],[27.8,45.4],[27.5666667,45.4666667],[27.3333333,45.5333333],[27.1,45.6],[26.9,45.6125],[26.7,45.625],[26.5,45.6375],[26.3,45.65],[26.1,45.62],[25.9,45.59],[25.7,45.56],[25.3,45.5],[25.0833333,45.4833333],[24.8666667,45.4666667],[24.65,45.45],[24.4333333,45.4333333],[24.2166667,45.4166667],[24,45.4],[23,45.2],[22.8,44.875],[22.7,44.7125],[22.6,44.55],[22.4,44.5666667],[22.2,44.5833333],[22,44.6],[21.8,44.65],[21.6,44.7],[21.4,44.75],[21.175,44.7625],[20.95,44.775],[20.725,44.7875],[20.5,44.8],[20.6333333,44.6666667],[20.7666667,44.5333333],[20.9,44.4],[21.025,44.25],[21.15,44.1],[21.275,43.95],[21.4,43.8],[21.3333333,43.6],[21.2,43.2],[21.1,43],[21,42.8],[20.9,42.6],[20.7666667,42.4],[20.5,42],[20.2,41.4]]]}}
