{"type":"Feature","properties":{"family":"franks","name":"Kingdom of Burgundy, 927 – 1035"},"geometry":{"type":"Polygon","coordinates":[[[4.5918459,43.3598442],[4.6237676,43.3573941],[4.6605576,43.3545704],[4.6605722,43.3545693],[4.6594206,43.3499507],[4.6566882,43.3449597],[4.6526501,43.3404623],[4.6474667,43.3366367],[4.6413439,43.3336347],[4.6345243,43.3315752],[4.6272785,43.3305399],[4.6199767,43.3305695],[4.6198934,43.3305699],[4.619816,43.3305758],[4.619903,43.330563],[4.7859096,43.3178212],[4.7938329,43.3178264],[4.8015745,43.3190561],[4.8087811,43.3214541],[4.815124,43.3249112],[4.8206036,43.3286244],[4.8266825,43.3235484],[4.8316914,43.3200796],[4.8374983,43.3173478],[4.8439012,43.3154481],[4.8506776,43.3144465],[4.857592,43.3143778],[4.8644041,43.3152443],[4.8708771,43.317016],[4.8767863,43.3196312],[4.9235794,43.3449506],[4.9290025,43.3485387],[4.9333504,43.3528321],[4.9364532,43.3576632],[4.9381894,43.3628435],[4.9384909,43.3681707],[4.9373455,43.3734367],[4.9347976,43.3784358],[4.9309465,43.3829726],[4.9259423,43.3868699],[4.9199806,43.3899753],[4.9132942,43.3921674],[4.9061693,43.3933562],[4.9061706,43.3953319],[4.9763346,43.398572],[4.9737516,43.3953375],[4.9707931,43.3906508],[4.9691156,43.3856409],[4.9687801,43.3804907],[4.9697986,43.3753884],[4.9721333,43.3705203],[4.9921492,43.3388627],[4.9882583,43.3079241],[4.9688403,43.2588789],[4.9371215,43.2133755],[4.8942575,43.1730341],[4.8417916,43.1392878],[4.7815988,43.1133334],[4.7158191,43.0960902],[4.6492533,43.0884518],[4.6470531,43.0881993],[4.6476055,43.0881873],[4.7188614,43.0915304],[4.7475798,43.0830089],[4.8150875,43.0730312],[4.883954,43.0723452],[4.9283206,43.0779918],[4.9976952,43.0677657],[5.0411556,43.0677673],[5.0567355,43.0500495],[5.1047154,43.0131332],[5.1612748,42.9834432],[5.2244088,42.9620262],[5.2918881,42.9496365],[5.4971685,42.9264765],[5.5914719,42.8558255],[5.6510033,42.8196367],[5.7194727,42.7933388],[5.7938795,42.7780806],[5.8709732,42.774528],[5.9473902,42.7828361],[5.9475313,42.7828747],[6.0028419,42.7579918],[6.0677453,42.7399815],[6.0686235,42.7398051],[6.1180634,42.7298703],[6.1803174,42.7214826],[6.2436025,42.7210417],[6.3060622,42.7285607],[6.3658634,42.7438189],[6.396083,42.7537322],[6.4018334,42.7556185],[6.4630093,42.7810706],[6.5165201,42.8145874],[6.5604109,42.8549539],[6.5654585,42.8620304],[6.5806171,42.8679867],[6.6382821,42.9033],[6.6473339,42.9116595],[6.7446095,42.9280534],[6.8187611,42.9467583],[6.8858866,42.9764916],[6.9429658,43.0159211],[6.9874145,43.063277],[7.0172018,43.1164293],[7.0433256,43.1821686],[7.0903261,43.1993146],[7.1479783,43.2319888],[7.1957702,43.2722572],[7.2051925,43.2843635],[7.2171899,43.2856879],[7.2843206,43.3031193],[7.3456753,43.3295491],[7.3990014,43.3640109],[7.4423308,43.4052426],[7.4740516,43.4517315],[7.4810467,43.4702435],[7.6298962,43.5211992],[7.6299495,43.5212174],[7.7072283,43.5476723],[7.7730425,43.5764307],[7.8293736,43.6143414],[7.8738239,43.6598043],[7.9044845,43.7108965],[7.9200187,43.7654519],[7.9197243,43.8211516],[7.9191322,43.8251009],[7.7088494,43.7653575],[7.7018493,43.763905],[7.6945922,43.7634603],[7.5478051,43.7647359],[7.5547149,43.765145],[7.5614837,43.7664982],[7.5677825,43.7687423],[7.5733887,43.771798],[7.5781041,43.7755575],[7.5817622,43.779888],[7.5842333,43.7846365],[7.5854299,43.7896351],[7.5853883,43.7913841],[7.5741714,43.7914816],[7.5656763,43.7915554],[7.5481707,43.7917074],[7.5,44.1],[7.3333333,44.1666667],[7.1666667,44.2333333],[7,44.3],[7,44.7],[6.9,45],[7.1,45.3],[7,45.6],[6.86,45.83],[7.015,45.85],[7.17,45.87],[7.3333333,45.9066667],[7.4966667,45.9433333],[7.66,45.98],[7.87,45.94],[7.985,46.095],[8.1,46.25],[8.275,46.35],[8.45,46.45],[8.275,46.5],[8.1,46.55],[7.925,46.6],[7.75,46.65],[7.55,46.85],[7.45,47.1],[7.5,47.35],[7.59,47.56],[7.3933333,47.59],[7.1966667,47.62],[7,47.65],[6.8333333,47.7333333],[6.6666667,47.8166667],[6.5,47.9],[6.3,47.8833333],[6.1,47.8666667],[5.9,47.85],[5.675,47.775],[5.45,47.7],[5.6,47.45],[5.4,47.2],[5.10625,46.9552083],[5.05,46.8333333],[4.95,46.6166667],[4.85,46.4],[4.83,46],[4.83,45.75],[4.82,45.5],[4.85,45.2],[4.83,44.9],[4.79,44.725],[4.75,44.55],[4.68,44.2],[4.69,44.075],[4.7,43.95],[4.62,43.7],[4.6,43.5],[4.6237676,43.3573941],[4.6605576,43.3545704],[4.6605722,43.3545693],[4.6605724,43.3545692],[4.7898479,43.344647],[4.6605724,43.3545692],[4.6605722,43.3545693],[4.6605576,43.3545704],[4.6237676,43.3573941],[4.5918459,43.3598442]],[[7.5853883,43.7913841],[7.5741714,43.7914816],[7.5656763,43.7915554],[7.5481707,43.7917074],[7.5481707,43.7917074],[7.5613964,43.7915925],[7.5656763,43.7915554],[7.5741714,43.7914816],[7.5853883,43.7913841]]]}}
