{"type":"Feature","properties":{"family":"byzantium","name":"Byzantine Empire, 965 – 970"},"geometry":{"type":"Polygon","coordinates":[[[14.8588705,42.0713266],[14.8590258,42.0712692],[15.1753363,41.9543097],[15.3930652,41.9385915],[15.4470537,41.934694],[15.4460659,41.9346306],[15.1689853,41.9546151],[15.1621147,41.9546185],[15.1553686,41.9536631],[15.1489894,41.9517831],[15.1432059,41.9490461],[15.1382259,41.9455504],[15.1342279,41.9414214],[15.1331857,41.9397475],[15.1331945,41.9397443],[15.1651517,41.9279307],[15.16558,41.9278998],[15.4459545,41.9076677],[15.16558,41.9278998],[15.1333333,41.7666667],[15.1,41.6],[15.2,41.4],[15.3,41.2],[15.6,40.9],[15.8,40.5],[15.6121111,40.07725],[15.5769837,40.07725],[15.5769822,40.07725],[15.5769047,40.075779],[15.5778982,40.0707552],[15.5801165,40.0659642],[15.5834802,40.0615775],[15.5878685,40.057752],[15.5931243,40.0546247],[15.5990595,40.0523075],[15.6054616,40.0508832],[15.6057504,40.0508624],[15.6062198,40.0502718],[15.6061684,40.0502718],[15.548993,40.050275],[15.4328922,39.9740404],[15.4270406,39.9709196],[15.4204888,39.9687661],[15.4135054,39.9676682],[15.4135054,39.9676682],[15.4063765,39.9676708],[15.3993941,39.9687738],[15.2767826,39.9982289],[15.2884025,39.9711942],[15.31901,39.9283085],[15.444639,39.7845607],[15.4608844,39.7286118],[15.5254988,39.5060809],[15.5413834,39.4660876],[15.5651381,39.4284747],[15.6976051,39.2539902],[15.7394014,39.0367592],[15.7560804,38.985344],[15.7854613,38.9374721],[15.7914723,38.9297471],[15.734475,38.9146983],[15.6708533,38.8920847],[15.6144182,38.8600171],[15.5674761,38.8198144],[15.5319334,38.7731266],[15.5092203,38.7218656],[15.5002355,38.6681258],[15.5053135,38.6140978],[15.5207729,38.5714736],[15.5814916,38.5691551],[15.6512109,38.5547111],[15.7703615,38.519126],[15.8318764,38.4949326],[15.8318764,38.4949326],[15.8613353,38.4767967],[15.7853412,38.3193189],[15.6812191,38.272419],[15.6812231,38.2723894],[15.6819179,38.2672659],[15.681274,38.2619019],[15.6792855,38.2567452],[15.6760321,38.2520015],[15.6716436,38.2478597],[15.6662951,38.2444851],[15.6001791,38.2106636],[15.6001767,38.2106623],[15.6001759,38.2106619],[15.6123248,38.1467227],[15.5902861,38.1008964],[15.5884182,38.0951622],[15.5881978,38.0892496],[15.5896351,38.0834457],[15.5926602,38.078032],[15.6194816,38.0415766],[15.6061575,38.0207265],[15.6036578,38.0155372],[15.6025693,38.0100584],[15.6029381,38.0045237],[15.6047481,37.9991691],[15.607922,37.9942227],[15.6123243,37.9898953],[15.7095224,37.9122416],[15.7147761,37.9088059],[15.7207981,37.9062624],[15.7273471,37.904713],[15.7341608,37.9042197],[15.7574035,37.9043391],[15.5709078,37.6965309],[15.5708138,37.6964261],[15.6027001,37.6829641],[15.6679922,37.6675103],[15.7359039,37.6625825],[16.0622968,37.6641992],[16.1292437,37.6696526],[16.1935824,37.6853317],[16.2528259,37.7106329],[16.3046777,37.7445799],[16.347119,37.7858604],[16.3784867,37.8328753],[16.4682306,38.0067961],[16.5422601,38.0786947],[16.7568038,38.1946174],[16.8113398,38.2310629],[16.8550957,38.2755441],[16.886155,38.3261366],[16.9031416,38.3806466],[16.905284,38.4367047],[16.8872542,38.6236262],[16.9521219,38.6560227],[16.9853149,38.6465064],[17.0513385,38.6331367],[17.1194594,38.6300938],[17.1870474,38.6374967],[17.2514912,38.655061],[17.3102966,38.6821091],[17.3611801,38.717596],[17.4021565,38.7601479],[17.5033468,38.8899244],[17.5321132,38.9361702],[17.5490496,38.9858004],[17.5535144,39.0370103],[17.5453176,39.0879337],[17.5247318,39.1367109],[17.4924859,39.1815568],[17.4651387,39.2066891],[17.4632248,39.2411811],[17.4968461,39.3379987],[17.5081195,39.3915646],[17.5051972,39.4457759],[17.4881657,39.4984215],[17.4576906,39.5473496],[17.414994,39.590556],[17.3618083,39.6262677],[16.9830939,39.8312175],[16.9446919,39.8482983],[16.9674627,39.8889685],[16.9815777,39.9482388],[16.9780504,40.0084182],[16.9746017,40.0250224],[17.0879249,40.1582327],[17.2223059,40.0985538],[17.2869335,40.0760744],[17.3561324,40.0638835],[17.6150529,40.0384573],[17.6149631,40.0329355],[17.6291161,39.9782703],[17.6576854,39.9270011],[17.7625009,39.782081],[17.8001017,39.7399361],[17.8473738,39.7039796],[17.9026146,39.6754974],[18.1683203,39.5644099],[18.2253049,39.5452958],[18.2857735,39.5342063],[18.3478368,39.5314885],[18.4095574,39.5372283],[18.4690076,39.5512474],[18.5228539,39.568065],[18.5789133,39.5902467],[18.6289302,39.6197734],[18.6712871,39.6556964],[18.7046065,39.6968594],[18.7277962,39.7419349],[18.7400859,39.7894665],[18.7557915,39.9029984],[18.7671861,39.9203678],[18.767187,39.9203676],[18.767237,39.9203551],[19.2805507,39.7920334],[19.2805551,39.7920323],[19.2748037,39.7551521],[19.2793554,39.7047133],[19.296101,39.6558176],[19.3244267,39.610185],[19.363317,39.5694175],[19.5171399,39.4359559],[19.5455196,39.3691353],[19.5734023,39.3203459],[19.6131571,39.2767469],[19.6632145,39.2400382],[19.7216124,39.2116491],[19.7904108,39.1851],[19.7904493,39.1821074],[19.8029414,39.1332318],[19.8268317,39.0869751],[19.8612843,39.044915],[19.9051093,39.0084832],[19.9568048,38.9789182],[20.0214589,38.9486199],[20.0831493,38.9257672],[20.1493957,38.9127179],[20.2176505,38.9099747],[20.285291,38.9176439],[20.3080367,38.923929],[20.2843972,38.8907447],[20.2643644,38.8441969],[20.2076231,38.6566272],[20.198571,38.60226],[20.2005896,38.5812571],[20.1712219,38.564772],[20.1233714,38.5239656],[20.0872474,38.4763857],[20.064356,38.4240501],[20.0111727,38.2432452],[20.002677,38.1931454],[20.0062642,38.1426942],[20.0217831,38.0936671],[20.0486656,38.047786],[20.0859492,38.0066592],[20.1323136,37.9717259],[20.1861274,37.944207],[20.2455058,37.9250634],[20.2674002,37.9215504],[20.2947129,37.903041],[20.2858819,37.8816118],[20.2778716,37.8308538],[20.2821745,37.7798306],[20.2986103,37.7303805],[20.3265643,37.6842815],[20.3650134,37.6431882],[20.5594879,37.4713892],[20.6085023,37.4356791],[20.6653356,37.4082201],[20.7278162,37.3900588],[20.7935632,37.3818871],[20.8600749,37.3840166],[20.9248209,37.3963674],[20.9853354,37.4184703],[21.0077397,37.4313503],[21.0582237,37.434814],[21.0834982,37.4404941],[21.1028811,37.4258443],[21.1561019,37.3985184],[21.214782,37.3794996],[21.2768909,37.3694454],[21.2997272,37.3691823],[21.3185586,37.3438691],[21.2900194,37.3118874],[21.2548481,37.2619209],[21.233771,37.2071901],[21.2277091,37.1501712],[21.2369014,37.0934376],[21.2697509,36.983789],[21.2979244,36.923068],[21.3433905,36.8694798],[21.3701428,36.8449006],[21.3701007,36.8431691],[21.3629586,36.8056428],[21.3595864,36.7549826],[21.3625537,36.7021941],[21.3783151,36.6509013],[21.4062408,36.6030722],[21.4452399,36.5605385],[21.493805,36.5249262],[21.5357752,36.5045436],[21.5414661,36.5001672],[21.5963415,36.471974],[21.6250704,36.4601905],[21.6890155,36.4402682],[21.7566711,36.4311971],[21.8252305,36.4333542],[21.8918505,36.446651],[21.9292052,36.4610675],[21.9404142,36.4617319],[22.0049473,36.4762646],[22.0221169,36.4833191],[22.0289118,36.4474444],[22.0496603,36.3999882],[22.0809921,36.3564696],[22.1218034,36.3183982],[22.1706681,36.2870929],[22.1884206,36.2777503],[22.1931827,36.2680804],[22.2278863,36.224483],[22.2722712,36.1870466],[22.3246945,36.1571466],[22.3832255,36.13588],[22.4457149,36.1240267],[22.5098727,36.1220213],[22.5733493,36.1299381],[22.5871217,36.1339386],[22.6048651,36.0934072],[22.6340486,36.0519443],[22.6717987,36.0152922],[22.754589,35.9479219],[22.8018236,35.9159596],[22.855503,35.8915761],[22.9138008,35.8755988],[22.9747383,35.86857],[23.0362497,35.8707283],[23.0972428,35.8774532],[23.1633957,35.8903928],[23.2249734,35.9139239],[23.2794198,35.9470726],[23.3244664,35.9884654],[23.3439567,36.0161301],[23.3438879,36.0162677],[23.3437947,36.0164538],[23.1586108,36.386435],[23.3437947,36.0164538],[23.3438879,36.0162677],[23.3439944,36.0160549],[23.4307755,35.8426738],[23.4308284,35.8425682],[23.3797589,35.8114419],[23.3365381,35.7723514],[23.3034956,35.7272121],[23.2820119,35.6900092],[23.2560974,35.6243091],[23.192451,35.3421608],[23.1870262,35.2926597],[23.1928184,35.2432036],[23.2096103,35.1954707],[23.236814,35.1510777],[23.2734933,35.1115256],[23.3183968,35.0781495],[23.3700016,35.0520749],[23.5352056,34.9847381],[23.5878856,34.9676677],[23.6433594,34.9582446],[23.6999952,34.9567461],[23.7561275,34.9632166],[23.8085506,34.9730681],[23.94269,34.9354634],[23.9956601,34.9245018],[24.0501194,34.9208688],[24.3065029,34.9209593],[24.3878285,34.8785705],[24.4190988,34.8662511],[24.4193461,34.8649076],[24.4425879,34.8133242],[24.478061,34.7666964],[24.5242767,34.726955],[24.5793099,34.6957431],[24.6408792,34.6743496],[24.7064407,34.6636573],[24.77329,34.6641075],[25.9567379,34.7654118],[26.0654327,34.7421098],[26.1211,34.7342681],[26.1775833,34.7343756],[26.2332233,34.7424291],[26.2863847,34.7581925],[26.3797609,34.7935364],[26.4330686,34.8188871],[26.4797239,34.8519516],[26.5180877,34.8915755],[26.5468049,34.9363733],[26.6265232,35.0948908],[26.6454763,35.1466474],[26.6469492,35.1598802],[26.6673892,35.1465917],[26.7236711,35.1226739],[26.7844889,35.1079968],[26.8476095,35.1030988],[26.9107181,35.1081596],[27.0686067,35.1333962],[27.0851222,35.1374928],[27.0975638,35.1352379],[27.1660542,35.1346725],[27.2332288,35.145669],[27.2962133,35.1677575],[27.3523075,35.199993],[27.4494506,35.2690382],[27.4952249,35.3088117],[27.5303095,35.355284],[27.5532557,35.4065633],[27.5631027,35.4605577],[27.5594206,35.5150603],[27.5423324,35.5678384],[27.5052198,35.6481985],[27.5273963,35.7138007],[27.5312288,35.7103067],[27.5811113,35.6732101],[27.6391668,35.6450747],[27.7029997,35.6270576],[27.7699833,35.6198992],[27.8373653,35.6238937],[27.9023775,35.6388771],[27.9623461,35.6642339],[28.0147988,35.6989215],[28.123546,35.787023],[28.127731,35.7870724],[28.1932823,35.798772],[28.2546343,35.8208892],[28.3093041,35.8525308],[28.3550715,35.8924176],[28.3900681,35.9389349],[28.412854,35.9901961],[28.4224781,36.0441184],[28.4211309,36.0626433],[28.438905,36.0832205],[28.4648293,36.1187007],[28.4837884,36.1569555],[28.5601315,36.3526179],[28.5737633,36.4052577],[28.5739185,36.4257741],[28.6200188,36.3900426],[28.6774208,36.3608083],[28.7409271,36.3414695],[28.7707645,36.337621],[28.7786579,36.3083203],[28.80543,36.2590795],[28.8437334,36.2150866],[28.8920377,36.1780779],[29.1437683,36.0198067],[29.1952934,35.9930357],[29.2519664,35.9743175],[29.3118903,35.9642774],[29.373063,35.9632506],[29.3736086,35.9633232],[29.4043096,35.9584591],[29.4150757,35.953564],[29.4471558,35.9244434],[29.4990446,35.8926722],[29.5575236,35.8696533],[29.6203771,35.8562565],[29.685229,35.8529878],[29.7496299,35.8599704],[29.8111471,35.8769404],[30.0752512,35.973535],[30.1142205,35.971061],[30.1763257,35.9765668],[30.2072005,35.9842015],[30.2550272,35.9612452],[30.315451,35.9437771],[30.3788654,35.9359795],[30.4429414,35.9381385],[30.5053267,35.9501747],[30.5637292,35.9716459],[30.6159989,36.0017633],[30.6447788,36.021971],[30.705803,36.0786144],[30.799644,36.194893],[30.8284155,36.2388334],[30.8467316,36.2862904],[30.8539526,36.3356574],[30.8502805,36.3796483],[30.8575513,36.3894174],[30.8836267,36.4328043],[30.8997131,36.4792369],[30.9052794,36.5272363],[30.9055585,36.5904694],[31.2270848,36.5495755],[31.6486244,36.3564258],[31.729807,36.3296097],[31.8234648,36.3096349],[32.0999943,36.0158812],[32.1389795,35.9810176],[32.1848095,35.9521372],[32.2360969,35.9301095],[32.6741697,35.7786646],[32.73874,35.7622322],[32.8060412,35.756711],[32.8733119,35.7623267],[32.9377918,35.7788484],[32.9968324,35.8055977],[33.0006311,35.8077556],[33.0006328,35.8077525],[33.0877331,35.6489416],[33.0877977,35.6488238],[33.2336844,35.3828271],[33.0878544,35.6487204],[32.9738926,35.6642471],[32.9069,35.6676246],[32.8404694,35.6599392],[32.7773462,35.6415081],[32.7201354,35.6130926],[32.6711912,35.5758655],[32.6325188,35.5313619],[32.6056916,35.4814139],[32.5979474,35.4517126],[32.5961804,35.4515654],[32.5748366,35.446316],[32.5397172,35.4481338],[32.472352,35.440213],[32.4084479,35.4211828],[32.3507333,35.3918563],[32.3075564,35.3580963],[32.2813589,35.3605184],[32.2185899,35.3564913],[32.1579296,35.3427884],[32.1016004,35.319912],[32.0516616,35.2887002],[32.0099327,35.2502954],[31.9779262,35.2061016],[31.9567932,35.1577321],[31.9472832,35.1069492],[31.9497194,35.0555998],[31.9639905,35.0055476],[32.1019956,34.6681887],[32.1288091,34.6191595],[32.1668499,34.5754575],[32.2145986,34.5388078],[32.2701603,34.5106548],[32.5215972,34.4096716],[32.5791447,34.3917612],[32.6397019,34.3830383],[32.7011429,34.3838082],[32.7613121,34.3940435],[32.7841822,34.3998243],[32.8407345,34.3751967],[32.9026501,34.3600436],[32.9669298,34.3552118],[33.0310843,34.3608878],[33.0926292,34.3768513],[33.1491783,34.4024836],[33.1950259,34.4284134],[33.2747845,34.4315036],[33.3328508,34.4380647],[33.3885582,34.4530608],[33.7332534,34.5742656],[33.7976103,34.6042214],[33.852178,34.6453036],[33.8938779,34.6950773],[34.1006271,34.6963952],[34.1644836,34.7019009],[34.2258008,34.7175109],[34.2822448,34.7426312],[34.3316623,34.7763055],[34.3721612,34.8172509],[34.4021822,34.8639055],[34.4205591,34.9144868],[34.4265661,34.9670588],[34.4199483,35.0196054],[34.4009351,35.0701072],[34.3702352,35.1166196],[34.3277897,35.1680709],[34.3699942,35.2165067],[34.7515899,35.415819],[34.7980332,35.4449436],[34.837449,35.4802897],[34.8685961,35.5207531],[34.8904872,35.5650685],[34.9086656,35.6139808],[34.9210434,35.6638654],[34.9216541,35.714771],[34.9104528,35.7648812],[34.8878175,35.8124048],[34.8545381,35.8556392],[34.8117916,35.8930329],[34.761101,35.9232413],[34.7042818,35.9451767],[34.6433763,35.958048],[34.5805783,35.9613904],[34.5181526,35.9550828],[34.4583504,35.9393519],[33.5628547,35.6199507],[33.4287512,35.6022749],[33.1925847,35.6344514],[33.1925267,35.6345573],[33.1924601,35.6346791],[33.0948947,35.8129011],[33.0948621,35.8129606],[33.0948251,35.8130283],[33.0948232,35.8130319],[33.1504002,35.8174528],[33.2109265,35.8319597],[33.2669947,35.8554582],[33.281976,35.8650226],[33.5397184,35.8582378],[33.5993732,35.8609359],[33.6497453,35.8707139],[33.6608256,35.8691123],[33.724362,35.8698495],[33.7865602,35.880328],[33.8451729,35.9001687],[33.8980793,35.9286546],[33.9207636,35.9467472],[33.9713076,35.9444542],[34.0348861,35.9515209],[34.0956113,35.968298],[34.151247,35.9941679],[34.1997394,36.0281779],[34.2392911,36.0690745],[34.2613349,36.1040902],[34.2621045,36.1044217],[34.3125952,36.137794],[34.3541023,36.1784591],[34.3850329,36.2248713],[34.4041897,36.2752634],[34.4079344,36.3049067],[34.4970055,36.3807192],[34.7121599,36.4984238],[34.7223316,36.4921739],[34.7784435,36.4694922],[34.8387903,36.4555734],[34.8872897,36.4519486],[35.1717555,36.3119609],[35.2305233,36.288915],[35.293684,36.275463],[35.3588524,36.2721114],[35.4235701,36.278986],[35.4592031,36.2886973],[35.466318,36.2520441],[35.4910673,36.1995824],[35.5819502,36.0541021],[35.5418306,36.022594],[35.5039142,35.9773297],[35.4781516,35.9267769],[35.4655861,35.8730306],[35.4667097,35.8183138],[35.4795115,35.7719058],[35.4350659,35.7069551],[35.4103682,35.6612388],[35.3965283,35.612584],[35.3940031,35.5626689],[35.4028577,35.5132117],[35.4227666,35.4659115],[35.4530275,35.42239],[35.4925877,35.3841367],[35.590759,35.305163],[35.5925467,35.2879382],[35.5948105,35.2817752],[35.6121511,35.2345663],[35.6447361,35.1855892],[35.6888925,35.1430896],[35.742728,35.1088709],[35.8039486,35.0843828],[35.859711,35.0727906],[35.8597099,35.0727977],[35.8542747,35.1058549],[35.854026,35.1108742],[35.8549204,35.1158443],[35.8569271,35.1205928],[35.8599767,35.1249548],[35.9250568,35.2005855],[35.8852811,35.2780103],[35.8852811,35.2780103],[35.8832865,35.283416],[35.8827153,35.2890424],[35.8840434,35.3377324],[35.8840833,35.3380174],[35.8860027,35.4084478],[35.8840833,35.3380174],[35.8840776,35.3378079],[35.8846327,35.3322579],[35.8865749,35.3269165],[35.8898211,35.3220117],[35.8942323,35.3177531],[35.8996201,35.3143224],[35.9057543,35.3118661],[35.9123731,35.310489],[35.9163656,35.310349],[35.9171073,35.337135],[35.975,35.35],[36.2,35.4],[36.3333333,35.5666667],[36.4666667,35.7333333],[36.6,35.9],[36.7,36.0666667],[36.8,36.2333333],[36.9,36.4],[37.4,36.9],[37.6,37],[37.8,37.1],[38,37.2],[38.2,37.3],[38.8,37.6],[38.975,37.725],[39.15,37.85],[39.5,38.1],[40.5,38.5],[40.8769231,38.8769231],[41.2,39.2],[41.35,39.4],[41.5,39.6],[41.8,40],[41.7333333,40.2333333],[41.6666667,40.4666667],[41.6,40.7],[41.6,40.775],[41.6,41.2],[41.55,41.5],[41.5174404,41.5105031],[41.3914139,41.3791431],[41.5174404,41.5105031],[41.5210152,41.5142292],[41.5276077,41.521326],[41.5323841,41.5264678],[41.5384211,41.5329666],[41.5384377,41.5329844],[41.5384431,41.5329903],[41.5317842,41.5351387],[41.5251423,41.5367313],[41.5182112,41.5373399],[41.5112511,41.5369414],[41.5045233,41.535551],[41.4982806,41.5332207],[41.4939536,41.5307274],[41.4927573,41.530038],[41.4939536,41.5307274],[41.4943242,41.5316664],[41.4979758,41.5366783],[41.6909722,41.744563],[41.6605724,41.7570352],[41.5940293,41.772877],[41.5245871,41.7788789],[41.4548711,41.7748127],[41.3875181,41.7608303],[41.325073,41.7374591],[41.2698895,41.7055809],[41.2257039,41.6678205],[41.2240393,41.666398],[41.1469702,41.5858026],[40.8493221,41.4655127],[40.7988612,41.4662328],[40.7308773,41.4573431],[40.666435,41.4389029],[40.6079266,41.4115964],[40.4441503,41.3173985],[40.4344753,41.3174332],[40.3680104,41.3081771],[40.3050616,41.289736],[40.1422537,41.228016],[40.1372411,41.2300262],[40.0741521,41.2449711],[40.008445,41.2509438],[39.9423821,41.2477376],[39.8822385,41.2362281],[39.7831828,41.2556947],[39.6335733,41.3334829],[39.5765471,41.3576005],[39.5145707,41.3735357],[39.4497254,41.3807517],[39.3841931,41.3790043],[39.3201799,41.3683513],[39.2598397,41.3491503],[39.2429608,41.3423507],[39.2314321,41.3447396],[39.1681099,41.3491331],[39.1047371,41.3450709],[39.0433229,41.3326806],[38.6307908,41.2182353],[38.3436699,41.1906123],[38.1154942,41.2243608],[38.0879089,41.2656241],[38.047149,41.305597],[37.9971126,41.3391574],[37.9395522,41.3651203],[37.8764942,41.3825673],[37.7825582,41.4012277],[37.70989,41.4097814],[37.6364012,41.4070458],[37.565204,41.3931354],[37.4993108,41.3686378],[37.4952505,41.3662485],[37.4860826,41.3704732],[37.4319499,41.3908979],[37.3739671,41.4041915],[37.3138006,41.4099708],[37.3076175,41.4101692],[37.2914871,41.4355289],[37.2462992,41.4797931],[37.1898233,41.5161213],[37.1244828,41.5429426],[36.8970014,41.6141545],[36.8466404,41.6266821],[36.7943394,41.6335354],[36.6569867,41.6437262],[36.5803639,41.6432451],[36.5056086,41.630663],[36.4926527,41.6261717],[36.4897267,41.649838],[36.4702686,41.6994561],[36.438407,41.7453703],[36.3487088,41.848596],[36.2933394,41.8979948],[36.2236912,41.9361727],[36.1551325,41.9649866],[36.0893639,41.9864931],[36.0705244,41.9895589],[36.0470497,41.9960729],[35.9738907,42.0044349],[35.899949,42.0015599],[35.8283388,41.9875679],[35.5833151,41.9187903],[35.555001,41.9274807],[35.5727253,41.9697244],[35.5804118,42.0208681],[35.574859,42.0721524],[35.5562383,42.1217054],[35.5252018,42.1677139],[35.4828618,42.2084907],[35.4307539,42.2425372],[35.3707818,42.2685997],[35.3051479,42.2857168],[35.2362705,42.2932561],[35.2041222,42.2944643],[35.156739,42.3191055],[35.0953911,42.3447927],[35.0284417,42.3612372],[34.9584207,42.3678158],[34.8879787,42.3642788],[34.8576187,42.3582601],[34.8575855,42.3583151],[34.8575439,42.3583839],[34.8575114,42.3584379],[34.8574595,42.3585238],[34.8573883,42.3586417],[33.7923659,44.1221942],[33.7923622,44.1222003],[33.7923492,44.1222218],[33.7921384,44.1225708],[33.7920911,44.1226492],[33.7901547,44.1258556],[33.7901339,44.1258901],[33.7901138,44.1259234],[33.7900693,44.1259971],[33.817473,44.1216541],[33.8915863,44.1152617],[33.9660264,44.1194808],[34.0378882,44.1341457],[34.1043632,44.1586831],[34.1628461,44.1921331],[34.2110342,44.233186],[34.2470164,44.2802317],[34.2693498,44.3314217],[34.2771201,44.3847401],[34.2779275,44.512467],[34.12795,44.4062139],[34.1217589,44.4026563],[34.1146648,44.4001026],[33.9527237,44.3562197],[33.9439107,44.354659],[33.9348332,44.3546492],[33.7153324,44.3732154],[33.7153346,44.373229],[33.8954597,44.3579952],[33.9025322,44.3578697],[33.9095156,44.3586912],[33.9161642,44.3604306],[33.922244,44.3630268],[33.9275411,44.3663885],[33.9318689,44.3703973],[33.9350748,44.374912],[33.9370457,44.3797739],[33.9372881,44.3816069],[33.9000798,44.3847541],[33.9,44.3847608],[33.8754323,44.3868388],[33.8178337,44.3917106],[33.719839,44.3999992],[33.7197433,44.4000073],[33.7197372,44.4000078],[33.7197433,44.4000073],[33.719839,44.3999992],[33.8178337,44.3917106],[33.8754323,44.3868388],[33.9,44.3847608],[33.9,44.75],[33.5277046,44.75],[33.5229878,44.7625371],[33.5213092,44.7669985],[33.5203141,44.7696433],[33.5179572,44.7759079],[33.5179526,44.7759201],[33.5179516,44.7759227],[33.5126693,44.7747317],[33.5059354,44.7720518],[33.5001012,44.7684611],[33.4954077,44.7641081],[33.4920486,44.7591727],[33.4901624,44.7538586],[33.4898264,44.7483855],[33.4910543,44.7429793],[33.4910784,44.7429154],[33.4910254,44.7430169],[33.477835,44.7780158],[33.4766582,44.7828878],[33.4767534,44.7878311],[33.478118,44.7926796],[33.4807064,44.7972705],[33.4844318,44.8014493],[33.5716719,44.8817654],[33.5801055,44.9294128],[33.5398523,45.0195853],[33.5276732,45.0195863],[33.4571266,45.0148051],[33.3890509,45.0008327],[33.325827,44.9781575],[33.2696603,44.9475722],[33.222501,44.9101446],[33.1859758,44.8671794],[33.1651811,44.8275136],[33.1613323,44.820172],[33.1559059,44.7977145],[33.1296888,44.7851591],[33.0774348,44.7477674],[33.03645,44.7038715],[33.0082825,44.6551572],[32.99398,44.6034909],[32.994053,44.5508476],[33.0084614,44.4992347],[33.0366213,44.4506153],[33.0774325,44.406834],[33.1293243,44.3695483],[33.1903177,44.3401666],[33.3155707,44.291676],[33.3286681,44.2774087],[33.374305,44.2368327],[33.429947,44.203302],[33.4935173,44.1780592],[33.5626553,44.1620379],[33.6692124,44.1451506],[33.6692554,44.1450796],[33.6692745,44.145048],[33.6692937,44.1450164],[34.7667932,42.3321488],[34.7668985,42.3319749],[34.7669465,42.3318956],[34.7669587,42.3318754],[34.7670256,42.3317648],[34.85542,42.1857535],[34.7670984,42.3316446],[34.7564142,42.3277683],[34.7002627,42.2961747],[34.6534387,42.2571716],[34.6246412,42.2209743],[33.3471657,42.2881723],[33.2869469,42.2873127],[33.2277436,42.2791037],[33.1711909,42.2637717],[32.8173763,42.1415985],[32.5464963,42.1054621],[32.4597753,42.0851809],[32.1095066,41.9648599],[32.0360007,41.9309635],[31.9754498,41.8850603],[31.8991411,41.8111989],[31.2386522,41.555826],[31.1769545,41.5252635],[31.1249517,41.4858935],[31.0848346,41.4393887],[31.0582783,41.3877212],[31.0515515,41.3568557],[30.8829444,41.3518024],[30.3922165,41.4720618],[30.3297813,41.4827024],[30.2658065,41.4848533],[30.2023402,41.4784455],[30.1414138,41.4636839],[30.0849745,41.4410407],[30.0517186,41.4246693],[29.211276,41.5018734],[29.1624826,41.5026615],[29.029065,41.5231635],[28.4514342,41.7395802],[28.3976425,41.7822035],[28.3865606,41.7994448],[28.387517,41.8009651],[28.404514,41.851827],[28.4080063,41.9041785],[28.3978296,41.9560446],[28.3375528,42.1369034],[28.3056889,42.1985624],[28.2544979,42.252619],[28.1430399,42.3437897],[28.1396926,42.3826212],[28.1208215,42.4344156],[28.0884278,42.4823924],[28.1463919,42.5160502],[28.1944209,42.5580376],[28.2299756,42.6063131],[28.2515616,42.6588876],[28.2582522,42.7135901],[28.2576021,42.7526636],[28.2511386,42.6995244],[28.2298416,42.6473102],[28.1947536,42.5993016],[28.1473283,42.5574467],[28.0895086,42.5234404],[28.0236464,42.498657],[27.7541357,42.4194823],[27.7533966,42.4221643],[27.7506653,42.4269985],[27.7467201,42.431352],[27.7417096,42.4350604],[27.7358226,42.437984],[27.729281,42.4400124],[27.7223318,42.4410691],[27.6778167,42.4445528],[27.6614469,42.4697951],[27.6576697,42.4743808],[27.6527368,42.4783242],[27.6468433,42.4814692],[27.6402225,42.4836913],[27.6331365,42.4849023],[27.625866,42.4850545],[27.6186988,42.4841417],[27.523109,42.4645345],[27.523109,42.4645345],[27.4990941,42.4809187],[27.5585737,42.537801],[27.6461995,42.5309432],[27.6531328,42.5308847],[27.6531328,42.5308847],[27.6599564,42.5317909],[27.6599564,42.5317909],[27.6664259,42.5336293],[27.6723092,42.536334],[27.6773951,42.5398079],[27.6815013,42.5439266],[27.6815013,42.5439266],[27.6844802,42.5485422],[27.6862246,42.5534892],[27.6866718,42.5585901],[27.6858052,42.5636617],[27.6711165,42.6119963],[27.7533992,42.6356363],[27.760137,42.6381875],[27.7660186,42.6417035],[27.7707926,42.6460342],[27.7742551,42.6509948],[27.7762578,42.6563733],[27.7767148,42.6619401],[27.7756062,42.6674573],[27.7729789,42.672689],[27.7729789,42.672689],[27.768945,42.6774116],[27.7587519,42.6869805],[27.8896601,42.682789],[27.8971157,42.6831056],[27.9043296,42.6845255],[27.9110034,42.6869902],[27.9168605,42.6903974],[27.9216585,42.6946063],[27.9251984,42.6994424],[27.9273332,42.7047055],[27.9279742,42.7101775],[27.9270966,42.7503174],[27.9265051,42.7451095],[27.9244825,42.7399756],[27.9211222,42.7352352],[27.9165561,42.7310743],[27.9109635,42.727656],[27.9045639,42.7251143],[27.8976081,42.7235488],[27.8909799,42.7230655],[27.8908385,42.729368],[27.8903754,42.75],[27.8903754,42.75],[27.85,42.75],[27.7515766,42.7142097],[27.8912789,42.7097419],[27.7515766,42.7142097],[27.7328773,42.7148077],[27.7515766,42.7142097],[27.8276626,42.7117764],[27.7678812,42.6900368],[27.7621545,42.6883743],[27.7561305,42.6874387],[27.7545428,42.6873916],[27.7538366,42.6867427],[27.7489881,42.6836158],[27.7434702,42.681161],[27.7253625,42.6745771],[27.7400774,42.6607732],[27.7148771,42.6844133],[27.7272938,42.7053796],[27.6666667,42.6833333],[27.4833333,42.6166667],[27.3,42.55],[27.1,42.5],[26.9,42.45],[26.7,42.4],[26.5,42.3333333],[26.3,42.2666667],[26.1,42.2],[25.9333333,42.1333333],[25.7666667,42.0666667],[25.6,42],[25.4,41.8833333],[25.2,41.7666667],[25,41.65],[24.7666667,41.5833333],[24.5333333,41.5166667],[24.3,41.45],[24.0666667,41.4],[23.8333333,41.35],[23.6,41.3],[23.4,41.25],[23.36,41.24],[23.2,41.2],[23,41.15],[22.6,40.95],[22.4666667,40.8333333],[22.3333333,40.7166667],[22.2,40.6],[22.0666667,40.5],[21.9333333,40.4],[21.8,40.3],[21.6333333,40.25],[21.4666667,40.2],[21.3,40.15],[21.1333333,40.25],[20.9666667,40.35],[20.8,40.45],[20.6333333,40.6],[20.4666667,40.75],[20.3,40.9],[20.2666667,41.0666667],[20.2333333,41.2333333],[20.2,41.4],[20.1,41.6],[20,41.8],[19.6,42],[19.2370207,41.9092552],[19.2645819,41.8970459],[19.2960361,41.8831122],[19.3065697,41.8784459],[19.3091722,41.877293],[19.3403045,41.8635018],[19.3663937,41.8519447],[19.3403045,41.8635018],[19.3091722,41.877293],[19.3065697,41.8784459],[19.2960361,41.8831122],[19.2875202,41.8868846],[19.273699,41.8930072],[19.2645819,41.8970459],[19.2370207,41.9092552],[19.2211047,41.9163058],[19.2107511,41.9208922],[19.2060047,41.9229948],[19.2059961,41.9229987],[19.2059961,41.9229987],[19.2059935,41.9229998],[19.2059869,41.9230027],[19.2049217,41.9217917],[19.2049283,41.9217991],[19.2049415,41.9218231],[19.2059809,41.9230054],[19.1719917,41.9380621],[19.1320708,42.0176421],[19.1320708,42.0176421],[19.0855909,42.110297],[19.0450347,42.1364532],[19.0448475,42.1365739],[19.0447742,42.1366211],[19.0447742,42.1366211],[19.0446268,42.1367162],[18.9998116,42.1132116],[18.9519401,42.0760864],[18.9145326,42.0328828],[18.8889375,41.9851846],[18.8760637,41.9347368],[18.8763508,41.8833806],[18.8897572,41.8329859],[18.9157667,41.7853832],[18.9534106,41.7422984],[19.0013064,41.7052903],[19.0577095,41.6756958],[19.0968759,41.6625483],[19.0943535,41.657619],[19.0824871,41.6075297],[19.0834789,41.5566599],[19.0843804,41.5534041],[19.0837836,41.5528086],[19.0533823,41.5053059],[19.0359886,41.4542787],[19.0322393,41.4016869],[19.0422454,41.3495455],[19.0714822,41.260153],[19.094764,41.2104527],[19.0949321,41.2102392],[19.0932755,41.206822],[19.0837479,41.1440692],[19.0842254,41.0563917],[19.0549047,41.0184763],[19.0314872,40.9641933],[19.0238241,40.9074048],[19.0322201,40.8506685],[19.0323581,40.8501968],[18.9809768,40.7641723],[18.9588011,40.7145674],[18.9497764,40.6626509],[18.954214,40.6103911],[18.9719153,40.5597649],[18.97993,40.5473062],[18.9596911,40.5164971],[18.9414865,40.4660062],[18.9365254,40.4137944],[18.9449648,40.3618384],[18.9664561,40.312101],[19.0001621,40.2664569],[19.1877621,40.0609348],[19.2395938,40.0156539],[19.3032296,39.9802605],[19.386371,39.9440282],[19.3757689,39.9372214],[19.3340026,39.8980331],[19.3077729,39.8608875],[19.3077719,39.8608878],[19.3077248,39.8608995],[18.8098843,39.9853662],[18.8098351,39.9853785],[18.8098341,39.9853788],[18.8322228,40.0195072],[18.8581888,40.0720655],[18.8693122,40.127593],[18.865072,40.1836725],[18.8456162,40.2378564],[18.8117612,40.2877744],[18.535244,40.6059598],[18.4898254,40.6479431],[18.4341426,40.6821538],[18.346794,40.7254482],[18.3289588,40.7635768],[18.2974603,40.8052509],[18.2566118,40.8420281],[18.2077094,40.8727293],[18.1523142,40.8963691],[17.6641512,41.0616399],[17.2823112,41.2919312],[17.2338515,41.3163894],[17.1807095,41.3346224],[16.7426134,41.4525398],[16.4221831,41.5847982],[16.4692023,41.6193273],[16.5086953,41.662499],[16.5362396,41.7105485],[16.5507691,41.7616652],[16.5517037,41.8139185],[16.5389752,41.86533],[16.4891856,41.993839],[16.460264,42.046495],[16.4169672,42.0934762],[16.3612178,42.1326665],[16.2955132,42.1622981],[16.2228129,42.181033],[16.1464026,42.1880251],[15.2570314,42.1955153],[15.1671285,42.1962724],[15.0933397,42.190999],[15.0225868,42.1747727],[14.9578338,42.1482762],[14.9017841,42.1126213],[14.8588705,42.0713266]],[[19.2009045,41.9069604],[19.2009474,41.9103095],[19.2009678,41.9120761],[19.2009088,41.9069769],[19.2021464,41.9019597],[19.2046357,41.8972046],[19.2082873,41.8928823],[19.2129699,41.8891479],[19.2185154,41.8861353],[19.2914472,41.8538303],[19.2906408,41.8541122],[19.2185064,41.8860625],[19.2129585,41.8890807],[19.2082749,41.8928242],[19.2046241,41.8971584],[19.2021374,41.9019276],[19.2009045,41.9069604]],[[19.297709,41.8510566],[19.347856,41.8288441],[19.3550577,41.8263956],[19.3628008,41.825168],[19.3707154,41.8252201],[19.3784238,41.8265493],[19.4300665,41.8400084],[19.5526913,41.8016746],[19.5316087,41.7094651],[19.3988698,41.7756296],[19.3430979,41.8096914],[19.297709,41.8510566]],[[23.3445755,37.0192798],[23.3722059,37.0337075],[23.4308659,37.0373125],[23.5528463,37.0541272],[23.6139656,37.0672971],[23.6709773,37.0892957],[23.721896,37.1193593],[23.7330932,37.1290105],[23.7502063,37.1349086],[23.8051881,37.1652336],[23.8516734,37.2035532],[23.8878468,37.2483836],[23.9122846,37.2979857],[23.9240123,37.3504313],[23.9227441,37.3964827],[23.9629695,37.3867064],[23.9930497,37.3840698],[24.025518,37.3493038],[24.0320362,37.3446705],[24.028263,37.3249268],[24.0308114,37.2737213],[24.0454783,37.2238309],[24.071712,37.1770528],[24.0867827,37.1598838],[24.0826946,37.1174706],[24.0913379,37.0632334],[24.1134962,37.0115085],[24.1480704,36.9646384],[24.1195199,36.9460357],[24.078249,36.9064986],[24.0471585,36.8614124],[24.0273673,36.8124281],[23.9990011,36.7093512],[23.991172,36.6558925],[23.9967321,36.6022634],[24.0154321,36.5505978],[24.0465038,36.5029476],[24.088694,36.4612012],[24.1403168,36.4270105],[24.1993218,36.4017264],[24.2633744,36.3863471],[24.3299463,36.3814795],[24.396413,36.3873159],[24.6152895,36.4243185],[24.6475864,36.4323564],[24.662642,36.4215144],[24.7135741,36.3963006],[24.8141271,36.3559032],[24.874267,36.3372696],[24.9377169,36.3282349],[25.0021483,36.3291308],[25.0274637,36.3334694],[25.0370193,36.2878066],[25.0589996,36.2401244],[25.0916611,36.1966206],[25.1338305,36.1588351],[25.184005,36.1281033],[25.2404051,36.1055101],[25.3010375,36.0918522],[25.4050846,36.0767043],[25.4719628,36.0724589],[25.5385575,36.0790817],[25.602202,36.0963081],[25.6249361,36.1069259],[25.6473291,36.0994554],[25.70873,36.0892076],[25.7714221,36.0883949],[25.8790454,36.0951202],[25.9440062,36.1044151],[26.0054726,36.1238229],[26.0610622,36.152593],[26.1086137,36.1896114],[26.1462698,36.2334426],[26.1708111,36.2791494],[26.1873108,36.2704782],[26.2456999,36.2511829],[26.3075298,36.2410508],[26.3706197,36.2404392],[26.432746,36.2493698],[26.4917176,36.2675281],[26.5454511,36.294274],[26.5920431,36.3286634],[26.5985238,36.3356668],[26.6367644,36.3499604],[26.6910569,36.3822193],[26.7362767,36.4225667],[26.7672033,36.464765],[26.7790273,36.4580365],[26.8372683,36.4314568],[26.8419435,36.4302262],[26.8455987,36.4244912],[26.885882,36.3834017],[26.9352219,36.3493356],[26.991764,36.3235659],[27.0046796,36.3201089],[27.009527,36.3123431],[27.0473793,36.2724107],[27.1302128,36.1999811],[27.1804373,36.1640114],[27.1947785,36.1573099],[27.194875,36.1567112],[27.2157021,36.106783],[27.2224089,36.0973278],[27.1920062,36.0974923],[27.1289856,36.0878884],[27.0694232,36.0686828],[27.0044752,36.0415777],[26.9509874,36.0136841],[26.9050591,35.9780583],[26.8683637,35.936008],[26.8422292,35.8890738],[26.7529995,35.6760707],[26.7401416,35.6300635],[26.7048596,35.6163516],[26.6501957,35.5895374],[26.6028931,35.5546807],[26.5647062,35.5130828],[26.5583778,35.5023847],[26.5256757,35.5279139],[26.4706595,35.5563996],[26.4098164,35.5755221],[26.3455237,35.5845332],[26.2802974,35.5830802],[26.2166912,35.5712203],[26.1571932,35.5494181],[26.1041259,35.5185268],[26.0804085,35.501598],[26.0759346,35.5021229],[26.0273926,35.5004859],[26.0133989,35.5160997],[25.964622,35.5523588],[25.9079283,35.5799808],[25.8455863,35.5978569],[25.7800975,35.6052691],[25.7140934,35.6019197],[25.5337302,35.5777078],[25.5146478,35.587072],[25.4479983,35.6055921],[25.3780132,35.6121889],[25.261952,35.6129329],[25.2160216,35.6388455],[25.1574774,35.6596871],[25.0744279,35.6817097],[25.0253515,35.6914025],[24.9750187,35.6949066],[24.7004621,35.6965852],[24.6116034,35.6871602],[24.4997545,35.6623746],[24.4918382,35.6847907],[24.4636674,35.7300358],[24.4255172,35.7701723],[24.3787323,35.8037705],[24.3249715,35.829632],[24.2661487,35.8468334],[24.2043634,35.8547603],[24.1032104,35.8598373],[24.0412725,35.8582131],[24.0022888,35.8511666],[23.9758981,35.8774799],[23.9246029,35.9116132],[23.8659077,35.9367742],[23.8021667,35.9519516],[23.7359426,35.9565349],[23.6699009,35.9503402],[23.6066991,35.9336174],[23.5488766,35.9070401],[23.5085899,35.8786187],[23.5086644,35.8784695],[23.5087837,35.8782306],[23.6410536,35.613414],[23.5087837,35.8782306],[23.5086644,35.8784695],[23.5085375,35.8787237],[23.3956557,36.1047236],[23.3956258,36.1047835],[23.4089367,36.1291273],[23.428584,36.1763666],[23.4371493,36.2257047],[23.4359531,36.2467458],[23.4540114,36.2610087],[23.4916383,36.3057667],[23.5174813,36.3556548],[23.530482,36.408677],[23.5300917,36.4627074],[23.5162979,36.5155751],[23.4735,36.6237746],[23.4460072,36.6744138],[23.4302835,36.692203],[23.4371562,36.7061383],[23.4489945,36.7546094],[23.449605,36.803987],[23.4389452,36.8526141],[23.4173521,36.8988559],[23.3445755,37.0192798]],[[23.3460086,39.6907955],[23.7112844,39.662177],[23.7813411,39.6619702],[23.8500677,39.6724464],[23.9116738,39.6922075],[23.9206125,39.690049],[23.9893244,39.6843595],[24.0581572,39.689106],[24.1244665,39.7041069],[24.1857013,39.728786],[24.2394994,39.7621946],[24.2837761,39.8030462],[24.3168048,39.849765],[24.3209277,39.8599937],[24.351788,39.8613576],[24.4159809,39.8736997],[24.509283,39.8989293],[24.5688037,39.9199363],[24.6222518,39.9490184],[24.6677806,39.9851759],[24.6824552,40.0022855],[24.6816551,39.9750531],[24.6968518,39.8180717],[24.7083322,39.7668368],[24.7282113,39.7266499],[24.6960527,39.6997316],[24.6608378,39.6555676],[24.6372852,39.6070328],[24.6262422,39.5559253],[24.6280892,39.5041348],[24.6392285,39.4349411],[24.6536338,39.3848741],[24.6800185,39.3378147],[24.7174102,39.2954569],[24.764447,39.2593229],[24.8194283,39.2307091],[24.8803763,39.2106409],[24.9451057,39.1998369],[25.0113002,39.1986838],[25.0765926,39.2072232],[25.1386469,39.2251503],[25.1952386,39.2518236],[25.2443329,39.286288],[25.2841564,39.3273074],[25.3455732,39.4048276],[25.3745636,39.4505355],[25.3919457,39.4996314],[25.3941312,39.5212468],[25.397859,39.5213487],[25.4672711,39.5344267],[25.5318288,39.5580717],[25.5888594,39.5913073],[25.635992,39.6327595],[25.6712547,39.6807114],[25.6783632,39.6977458],[25.6874267,39.6847211],[25.7303985,39.6442614],[25.7692104,39.619498],[25.744278,39.56598],[25.7298503,39.5224565],[25.7041978,39.5100983],[25.6521361,39.471484],[25.6115217,39.4254254],[25.5290975,39.3070112],[25.5023728,39.2570797],[25.4890705,39.2040267],[25.4896948,39.1499862],[25.504189,39.0971271],[25.5319424,39.0475661],[25.57182,39.0032834],[25.6222105,38.9660453],[25.6810932,38.9373343],[25.8775936,38.8613546],[25.7786351,38.8450806],[25.7657946,38.8419871],[25.7085675,38.8641819],[25.6396365,38.878194],[25.5684673,38.8808927],[25.4981022,38.8721631],[25.4330821,38.8586016],[25.3708513,38.8404443],[25.3142563,38.8133413],[25.2653918,38.7782998],[25.2260576,38.7366202],[25.1976925,38.6898463],[25.1813224,38.6397075],[25.1775254,38.5880535],[25.1864141,38.5367862],[25.2076354,38.4877887],[25.2403872,38.4428573],[25.2834511,38.403636],[25.3662282,38.3413297],[25.4184759,38.3089381],[25.4776663,38.2850278],[25.5319426,38.2726855],[25.5387457,38.2213066],[25.5533936,38.1656289],[25.5732477,38.1153956],[25.6050859,38.0691443],[25.6476823,38.0286252],[25.6994118,37.9953687],[25.8180015,37.933085],[25.8818338,37.9066746],[25.9512373,37.8913691],[25.9618398,37.890852],[25.9367226,37.8844234],[25.8777862,37.8582684],[25.8265688,37.8234447],[25.7850786,37.7813268],[25.6937974,37.6665905],[25.6902994,37.6696658],[25.6365938,37.7013422],[25.5760507,37.72406],[25.5502898,37.7291651],[25.5428496,37.7400861],[25.5023983,37.7794094],[25.4533052,37.8120313],[25.3973093,37.8367896],[25.3098595,37.8672416],[25.3031473,37.8824051],[25.2959063,37.8922026],[25.2954749,37.9112014],[25.2869437,37.9664036],[25.2642057,38.0190442],[25.2282016,38.0668766],[25.1804469,38.1078554],[25.1229695,38.1402252],[25.0582243,38.1625973],[25.0511677,38.1637627],[25.0272905,38.1878356],[24.9721431,38.2241801],[24.9088106,38.2505256],[24.881872,38.2966182],[24.8397242,38.3412961],[24.7867339,38.3782207],[24.7251572,38.4058102],[24.6576276,38.4228812],[24.5870418,38.4287011],[24.551626,38.4287305],[24.5669608,38.4652654],[24.5709977,38.4935017],[24.6079841,38.4939569],[24.674781,38.5052997],[24.7374428,38.5266944],[24.8452072,38.573813],[24.9003068,38.6036675],[24.9470325,38.6412604],[24.9836199,38.6851846],[25.0086769,38.7337928],[25.0212373,38.7852585],[25.0208005,38.8376437],[25.0073545,38.8889713],[24.9813806,38.9373001],[24.9438388,38.9807984],[24.7604218,39.1534602],[24.7100015,39.1919637],[24.6505146,39.2217331],[24.584437,39.2415249],[24.5145283,39.2505117],[24.4437133,39.2483179],[24.4055076,39.2409432],[24.4206221,39.2870314],[24.4309859,39.3411228],[24.4270235,39.3957176],[24.408865,39.4485688],[24.3772284,39.4974966],[24.3333949,39.5404785],[24.2791596,39.5757346],[24.2167587,39.6018024],[24.1487769,39.6175996],[24.0780378,39.62247],[24.0074831,39.6162116],[23.9400463,39.5990852],[23.8785269,39.5718034],[23.8388705,39.5497813],[23.7863221,39.5138552],[23.7584498,39.4852078],[23.7533128,39.4826311],[23.7287904,39.4642166],[23.7182081,39.4680721],[23.6539164,39.4807669],[23.5876612,39.4838208],[23.534701,39.4784332],[23.5216996,39.4798052],[23.4054753,39.6340021],[23.3579877,39.6829965],[23.3460086,39.6907955]],[[24.0749548,38.9323671],[24.1012051,38.9462331],[24.0955372,38.9321201],[24.0953087,38.9302667],[24.0749548,38.9323671]],[[24.6841038,40.3036188],[24.7088253,40.3051654],[24.7775996,40.3204801],[24.9139864,40.3625329],[24.9736708,40.3861123],[25.0264722,40.4178343],[25.0704933,40.4565657],[25.0901361,40.4824662],[25.0897585,40.4608536],[25.1017889,40.4100564],[25.1262831,40.3619271],[25.1623231,40.3182207],[25.2085768,40.2805276],[25.2144896,40.2765473],[25.191424,40.2766049],[24.9998776,40.2630328],[24.9328271,40.2531523],[24.8695519,40.2335863],[24.8124341,40.2050733],[24.7636166,40.1686878],[24.7433637,40.1462483],[24.7441351,40.1729142],[24.7333562,40.2224778],[24.7106944,40.2696522],[24.6841038,40.3036188]],[[25.1369445,40.6176112],[25.1406402,40.6756357],[25.1427215,40.6753049],[25.1967294,40.6750612],[25.168553,40.6535055],[25.1369445,40.6176112]],[[26.1289884,37.2693871],[26.188769,37.2824337],[26.188743,37.2814501],[26.199749,37.2305849],[26.2226975,37.1823203],[26.2567294,37.1384164],[26.2855751,37.1080904],[26.3314755,37.0686619],[26.3862294,37.0372679],[26.4476664,37.0151475],[26.5133598,37.0031727],[26.521624,37.0030083],[26.553786,36.976699],[26.5762852,36.9615808],[26.5746231,36.9490012],[26.5805791,36.8965009],[26.599168,36.8459314],[26.603471,36.8393428],[26.6011051,36.8337624],[26.5477783,36.8622401],[26.4885398,36.8874031],[26.4242129,36.9026459],[26.408759,36.9037391],[26.4081504,36.9247993],[26.3947939,36.9744552],[26.3699995,37.0212209],[26.3346294,37.0634309],[26.2899289,37.0995795],[26.2214665,37.1453001],[26.1723015,37.1723195],[26.1668351,37.1931782],[26.1453719,37.246527],[26.1289884,37.2693871]],[[26.1980871,37.9344771],[26.222668,37.9468767],[26.2518634,37.9652775],[26.2716583,37.9559165],[26.2918067,37.9501938],[26.2900501,37.9500349],[26.1980871,37.9344771]],[[28.1187859,40.7367536],[28.1744358,40.7660399],[28.2051422,40.7905621],[28.4283033,40.7335832],[28.4713833,40.7260741],[28.4772081,40.7235165],[28.5214511,40.711945],[28.5061987,40.7010097],[28.4756144,40.6688213],[28.3717381,40.6740504],[28.3046533,40.672566],[28.2773229,40.6699785],[28.2627948,40.6812493],[28.2039018,40.7115352],[28.1381942,40.7322955],[28.1187859,40.7367536]],[[32.8245263,36.0042911],[32.8766182,36.0338697],[32.8766182,36.0338697],[32.8245263,36.0042911]]]}}
