{"type":"Feature","properties":{"family":"byzantium","name":"Byzantine Empire, 941 – 957"},"geometry":{"type":"Polygon","coordinates":[[[18.8760422,41.9346928],[18.8763294,41.8834143],[18.8897281,41.8330954],[18.9157226,41.7855628],[18.9533455,41.7425384],[19.0012162,41.7055777],[19.0575923,41.6760154],[19.0970257,41.662782],[19.0948058,41.6584516],[19.094361,41.657584],[19.08248,41.6075742],[19.0834473,41.5567832],[19.0844173,41.5532768],[19.0837961,41.5526577],[19.0533893,41.5052198],[19.0359854,41.4542621],[19.0322213,41.401741],[19.0422085,41.3496683],[19.0714441,41.2602796],[19.0946889,41.210663],[19.0949977,41.2102708],[19.0932449,41.206655],[19.083737,41.1440316],[19.084217,41.0561955],[19.0548646,41.0182542],[19.0314742,40.9640685],[19.0238159,40.9073867],[19.0321935,40.8507579],[19.0323909,40.8500837],[18.980912,40.7638925],[18.958779,40.7143872],[18.9497713,40.6625819],[18.9541987,40.6104369],[18.9718635,40.5599204],[18.980021,40.5472408],[18.9597213,40.5163891],[18.9415039,40.4659765],[18.9365197,40.4138454],[18.9449266,40.3619682],[18.9663773,40.312303],[19.000037,40.2667205],[19.1876267,40.0612043],[19.2394174,40.01596],[19.303021,39.9805874],[19.3868519,39.9440543],[19.3757683,39.9369429],[19.3340204,39.8978076],[19.3026193,39.8533925],[19.2826562,39.805272],[19.274812,39.7551482],[19.2793368,39.7047901],[19.2960447,39.6559711],[19.324324,39.6104066],[19.3631618,39.5696948],[19.5170624,39.4361632],[19.5454866,39.3692355],[19.5733297,39.32052],[19.6130377,39.2769835],[19.6630441,39.2403218],[19.7213909,39.2119614],[19.7904158,39.1853238],[19.790458,39.1820514],[19.8029324,39.1332683],[19.8267879,39.0870989],[19.8611912,39.0451152],[19.9049561,39.0087444],[19.956585,38.979221],[20.0212365,38.9489221],[20.0829032,38.9260748],[20.149136,38.9130191],[20.2173879,38.9102581],[20.285036,38.917899],[20.308532,38.9243759],[20.2843731,38.8904659],[20.2643592,38.8439618],[20.2076244,38.6563985],[20.1985861,38.6020949],[20.2006224,38.5809641],[20.171244,38.5644813],[20.1233754,38.5236809],[20.0872436,38.4761134],[20.0643563,38.4237977],[20.0111791,38.2429989],[20.0026968,38.1929724],[20.0062847,38.1426011],[20.0217917,38.0936557],[20.0486507,38.0478536],[20.0859013,38.0067985],[20.1322256,37.9719258],[20.1859954,37.9444532],[20.2453296,37.925339],[20.2671547,37.9218386],[20.2948434,37.9030831],[20.2859053,37.8814059],[20.2778971,37.8307347],[20.2821827,37.779803],[20.2985827,37.7304431],[20.3264849,37.684427],[20.3648694,37.6434038],[20.5593334,37.471608],[20.6083374,37.4359097],[20.6651752,37.4084622],[20.7276728,37.3903126],[20.7934462,37.3821533],[20.8599902,37.3842962],[20.9247704,37.3966607],[20.9853168,37.4187771],[21.0076687,37.4316258],[21.0579456,37.4350611],[21.0832928,37.4407457],[21.1028295,37.4259939],[21.1560325,37.398709],[21.2146964,37.3797227],[21.276792,37.3696915],[21.2995599,37.3694337],[21.3186916,37.3437162],[21.290003,37.3115659],[21.2548609,37.2616473],[21.2337989,37.2069816],[21.2277367,37.1500394],[21.2369127,37.0933883],[21.2697605,36.9837442],[21.2978792,36.9231404],[21.3432617,36.869652],[21.370179,36.844921],[21.3701309,36.8429399],[21.3629889,36.8054361],[21.3596174,36.7547779],[21.3625874,36.702038],[21.3783504,36.6507999],[21.4062767,36.6030294],[21.4452757,36.5605559],[21.4938398,36.5250033],[21.5355267,36.5048],[21.5412912,36.5003678],[21.5960913,36.4722152],[21.6248191,36.4604314],[21.6887542,36.4405118],[21.7564131,36.431439],[21.8249878,36.4335905],[21.8916325,36.4468783],[21.9290818,36.4613166],[21.940347,36.4619878],[22.0048986,36.4765386],[22.0220669,36.4835945],[22.0289241,36.4473819],[22.0496359,36.4000089],[22.0809151,36.3565664],[22.1216617,36.318559],[22.1704541,36.2873012],[22.1883395,36.2778884],[22.1931734,36.2680748],[22.2278612,36.2245237],[22.272232,36.1871325],[22.3246437,36.1572749],[22.3831658,36.1360465],[22.4456494,36.124226],[22.5098045,36.1222472],[22.5732814,36.1301834],[22.587001,36.1341711],[22.6048426,36.0934132],[22.633974,36.0520242],[22.6716595,36.0154348],[22.7544453,35.9480654],[22.80165,35.9161255],[22.8553064,35.8917594],[22.913589,35.8757943],[22.9745194,35.8687722],[23.0360316,35.8709318],[23.0970251,35.8776548],[23.1632273,35.8906008],[23.2248553,35.9141447],[23.2793472,35.947311],[23.3244291,35.9887234],[23.3582091,36.0366607],[23.4089244,36.1294064],[23.4285537,36.1765914],[23.4371164,36.225865],[23.4359193,36.2469937],[23.4538759,36.261161],[23.4915371,36.3059026],[23.5174123,36.3557717],[23.5304412,36.408772],[23.5300736,36.4627774],[23.516296,36.5156166],[23.4734955,36.6238204],[23.4460497,36.6743695],[23.4302012,36.6922995],[23.4371129,36.7063014],[23.4489598,36.7547266],[23.4495864,36.8040539],[23.4389496,36.852629],[23.4173856,36.8988196],[23.3444694,37.0194746],[23.372133,37.0339023],[23.4307171,37.0375047],[23.5526986,37.0543155],[23.6138485,37.0674883],[23.6708915,37.0894914],[23.7218392,37.1195603],[23.733049,37.1292183],[23.7501016,37.1350937],[23.8050908,37.1654048],[23.8515879,37.2037038],[23.887777,37.2485076],[23.9122337,37.2980783],[23.9239826,37.3504891],[23.9227309,37.3966158],[23.96279,37.3868793],[23.9928932,37.3842404],[24.0255328,37.3493222],[24.0320865,37.3446687],[24.0282824,37.3247579],[24.0308368,37.2735873],[24.0455073,37.2237365],[24.071742,37.177001],[24.0868184,37.159843],[24.082716,37.1173782],[24.0913445,37.0631875],[24.1134815,37.0115098],[24.1481812,36.9644786],[24.119549,36.9458221],[24.0782687,36.9062791],[24.0471741,36.8611921],[24.0273843,36.8122131],[23.9990211,36.7091399],[23.9911984,36.6557253],[23.9967557,36.602147],[24.0154441,36.5505357],[24.0464962,36.5029397],[24.0886607,36.4612442],[24.1402539,36.4270981],[24.1992278,36.4018498],[24.2632507,36.3864956],[24.329797,36.3816413],[24.3962445,36.3874789],[24.6151237,36.4244745],[24.6474008,36.4325051],[24.6625013,36.4216311],[24.7133847,36.3964413],[24.8139339,36.3560423],[24.8740541,36.3374133],[24.9374927,36.3283781],[25.0019217,36.3292685],[25.0274356,36.3336366],[25.0370025,36.2878103],[25.058947,36.2401613],[25.0915707,36.1966878],[25.1337024,36.1589281],[25.183841,36.1282161],[25.2402094,36.1056357],[25.3008161,36.0919832],[25.4048613,36.0768325],[25.4717587,36.0725846],[25.5383811,36.079209],[25.6020585,36.096441],[25.6247526,36.1070374],[25.6471808,36.0995588],[25.7085519,36.0893224],[25.7712203,36.0885114],[25.8788438,36.0952332],[25.9438056,36.1045233],[26.0052814,36.123922],[26.0608884,36.1526792],[26.1084644,36.1896815],[26.1461509,36.2334942],[26.1707339,36.2791991],[26.1872171,36.2705395],[26.2456046,36.2512582],[26.3074379,36.2411406],[26.3705356,36.2405438],[26.4326728,36.2494894],[26.4916569,36.2676622],[26.5454035,36.2944216],[26.5920073,36.3288229],[26.5984575,36.335793],[26.6365992,36.3500422],[26.6909102,36.3822906],[26.7361544,36.4226249],[26.7671076,36.4648101],[26.7789063,36.4580955],[26.8371405,36.4315203],[26.8418646,36.4302774],[26.8455443,36.4245012],[26.885796,36.3834342],[26.9351045,36.3493867],[26.9916172,36.3236304],[27.0046043,36.3201545],[27.009483,36.3123352],[27.0473148,36.2724192],[27.1301434,36.1999905],[27.1803432,36.1640393],[27.1947661,36.157301],[27.1948648,36.1566875],[27.2156597,36.1067798],[27.222409,36.097259],[27.1921115,36.0974144],[27.1291045,36.0877991],[27.0695504,36.0685895],[27.0046047,36.0414828],[26.9510783,36.0135673],[26.9051172,35.9779153],[26.8683976,35.9358368],[26.8422498,35.8888754],[26.7530284,35.675879],[26.7401786,35.6299167],[26.7050124,35.6162486],[26.6503414,35.5894336],[26.6030255,35.5545812],[26.5648194,35.5129925],[26.5585085,35.5023369],[26.525704,35.5279284],[26.4707,35.5563783],[26.4098682,35.5754661],[26.3455855,35.584445],[26.2803675,35.582964],[26.2167672,35.5710815],[26.1572722,35.5492631],[26.1042047,35.518363],[26.0805768,35.5014966],[26.0761237,35.5020183],[26.0275518,35.5003727],[26.0134384,35.5161144],[25.9646965,35.5523287],[25.9080406,35.5799128],[25.8457362,35.5977602],[25.7802817,35.6051548],[25.7143056,35.6018],[25.5339546,35.5775837],[25.5148309,35.5869665],[25.4482138,35.6054704],[25.378253,35.6120604],[25.2621781,35.6128011],[25.2161929,35.6387382],[25.1577105,35.6595536],[25.0746586,35.6815743],[25.0255894,35.6912634],[24.9752583,35.6947654],[24.7007003,35.6964354],[24.6117884,35.6870007],[24.4998416,35.662189],[24.4918286,35.6848733],[24.4636868,35.7300563],[24.4255748,35.7701349],[24.3788347,35.8036828],[24.3251225,35.8295047],[24.2663484,35.8466796],[24.2046082,35.8545947],[24.1034542,35.8596686],[24.0415004,35.8580427],[24.0025257,35.8509991],[23.9791765,35.8747702],[23.9303981,35.908373],[23.8745087,35.9337369],[23.8135964,35.9499118],[23.7499425,35.956292],[23.685934,35.9526388],[23.6239712,35.93909],[23.5663748,35.9161543],[23.515297,35.8846918],[23.494308,35.8656019],[23.4741516,35.8604974],[23.4157733,35.8344324],[23.3649932,35.7994558],[23.3238508,35.7569817],[23.2939884,35.7087245],[23.2765858,35.6566281],[23.236054,35.4580318],[23.2316775,35.4078426],[23.2388247,35.3578896],[23.2572251,35.3099122],[23.2862196,35.2655777],[23.3247857,35.2264241],[23.3715746,35.1938077],[23.424959,35.168857],[24.019787,34.9458998],[24.0873636,34.927284],[24.1582676,34.9210278],[24.3063285,34.9210758],[24.3876169,34.878703],[24.450301,34.8539947],[24.4665158,34.8273055],[24.5054373,34.7858946],[24.5533503,34.751448],[24.6084495,34.7252566],[24.7105715,34.68698],[24.7670432,34.6707109],[24.8261804,34.6631459],[24.8860269,34.6645355],[25.9581979,34.7651522],[26.0651696,34.7422151],[26.1208447,34.734372],[26.1773444,34.7344811],[26.2330076,34.7425395],[26.286197,34.7583106],[26.3795761,34.793652],[26.4329305,34.8190222],[26.4796286,34.8521121],[26.5180274,34.8917649],[26.5467686,34.9365924],[26.626494,35.0951143],[26.6454413,35.1468442],[26.6468936,35.1598713],[26.6672268,35.1466496],[26.7234806,35.122744],[26.7842771,35.1080751],[26.8473846,35.103181],[26.9104888,35.1082417],[27.0683791,35.1334733],[27.084899,35.1375704],[27.0974465,35.1353001],[27.1659313,35.1347539],[27.2331062,35.1457665],[27.2960967,35.1678673],[27.3522021,35.2001113],[27.4493505,35.2691555],[27.4951425,35.3089377],[27.5302456,35.3554157],[27.5532097,35.4066967],[27.5630728,35.4606884],[27.5594043,35.5151831],[27.5423264,35.5679478],[27.5051887,35.6483627],[27.5273117,35.7138042],[27.5311652,35.7102908],[27.5810281,35.6732111],[27.639068,35.6450927],[27.7028902,35.6270923],[27.7698683,35.6199497],[27.8372502,35.6239588],[27.9022674,35.6389552],[27.9622456,35.664323],[28.0147113,35.6990195],[28.1234005,35.7870663],[28.1275339,35.7871149],[28.1931048,35.7988169],[28.2544821,35.8209399],[28.3091804,35.8525902],[28.3549771,35.8924878],[28.3900014,35.9390167],[28.4128111,35.990289],[28.4224537,36.0442202],[28.421108,36.0627838],[28.4388594,36.0833342],[28.4647948,36.1188274],[28.483762,36.1570937],[28.5601123,36.3527626],[28.5737428,36.4053918],[28.5738983,36.4257217],[28.6199409,36.3900315],[28.6773131,36.3608123],[28.7407914,36.3414838],[28.7707459,36.337621],[28.7786611,36.3082258],[28.8054131,36.2590093],[28.8436903,36.2150401],[28.8919644,36.1780527],[29.143682,36.0197801],[29.1951886,35.9930179],[29.2518464,35.9743081],[29.3117593,35.9642757],[29.3729257,35.9632559],[29.3734323,35.9633234],[29.4041721,35.9584522],[29.4149999,35.9535271],[29.4471165,35.9243745],[29.498977,35.8926253],[29.5574267,35.8696247],[29.6202526,35.8562416],[29.6850808,35.8529812],[29.7494645,35.8599667],[29.8109729,35.8769345],[30.0750653,35.9735139],[30.1140806,35.9710399],[30.1761939,35.9765535],[30.2070313,35.984183],[30.2549704,35.9611799],[30.3153739,35.9437282],[30.3787702,35.9359451],[30.4428319,35.938116],[30.5052081,35.9501614],[30.5636077,35.9716392],[30.6158814,36.0017606],[30.6446628,36.0219681],[30.705739,36.0786558],[30.7995868,36.1949364],[30.8283742,36.2388966],[30.8467042,36.2863726],[30.8539361,36.3357567],[30.8502716,36.3797478],[30.8575023,36.3894627],[30.8835947,36.4328754],[30.8996928,36.4793334],[30.905265,36.5273564],[30.9055458,36.5904076],[31.2269843,36.5495126],[31.6485469,36.3563351],[31.7296833,36.3295305],[31.8234295,36.3095342],[32.0999873,36.015729],[32.1389478,35.9808816],[32.1847481,35.9520161],[32.2360031,35.9300008],[32.6740602,35.7785459],[32.7386029,35.7621195],[32.8058814,35.7566032],[32.8731365,35.7622227],[32.93761,35.7787474],[32.9966547,35.8054993],[33.0198544,35.8186764],[33.0628788,35.8151226],[33.119369,35.8182695],[33.1743863,35.8291233],[34.179378,36.0970527],[34.2431206,36.1198699],[34.2996349,36.1528708],[34.3464628,36.194626],[34.3815565,36.2433248],[34.4013609,36.2919293],[34.4595374,36.3365908],[34.4615477,36.3384515],[34.5007722,36.3747558],[34.532456,36.4184528],[34.5534613,36.4661506],[34.5630303,36.5161747],[34.5608035,36.5667657],[34.5486537,36.6417411],[34.6440706,36.7682083],[34.5724756,36.7443505],[34.3024391,36.5683807],[34.2553326,36.5161087],[34.2552085,36.5159394],[34.2553326,36.5161087],[34.2553326,36.5161087],[34.258437,36.5203439],[34.2605725,36.5251599],[34.2615381,36.5302143],[34.2612989,36.5353252],[34.2566149,36.5635073],[34.2566112,36.5635032],[34.2566091,36.5635009],[34.2280362,36.5317829],[34.2280362,36.5317829],[34.2084672,36.5100599],[34.2084672,36.5100599],[34.1697417,36.4670718],[34.2084672,36.5100599],[34.2084672,36.5100599],[34.2280362,36.5317829],[34.2,36.7],[34.35,36.9],[34.5,37.1],[34.6666667,37.2333333],[34.8333333,37.3666667],[35,37.5],[35.4,37.65],[35.6,37.725],[35.8,37.8],[36.0333333,37.8333333],[36.2666667,37.8666667],[36.5,37.9],[37.5,38.2],[38.5,38.3],[38.9,38.45],[39.1,38.525],[39.3,38.6],[39.475,38.75],[39.65,38.9],[39.825,39.05],[40,39.2],[40.4,39.45],[40.6,39.575],[40.8,39.7],[40.9,39.9],[41,40.1],[41.1,40.3],[41.2,40.5],[41.3,40.7],[41.5,41.0333333],[41.6,41.2],[41.55,41.5],[41.5174404,41.5105031],[41.3914139,41.3791431],[41.5174404,41.5105031],[41.5210152,41.5142292],[41.5276077,41.521326],[41.5323841,41.5264678],[41.5384211,41.5329666],[41.5384377,41.5329844],[41.5384431,41.5329903],[41.5384675,41.5330165],[41.5317634,41.5351794],[41.5251264,41.5367708],[41.5182014,41.5373784],[41.5112478,41.5369794],[41.5045262,41.5355888],[41.4982887,41.5332586],[41.4939697,41.5307686],[41.4943241,41.5316664],[41.4979757,41.5366784],[41.6911883,41.7447958],[41.660582,41.7573731],[41.5940668,41.7732403],[41.524654,41.779262],[41.4549655,41.7752092],[41.387635,41.761234],[41.3252044,41.7378628],[41.2700247,41.7059772],[41.2262499,41.6685601],[41.2241655,41.6667784],[41.1471256,41.5862091],[40.8493939,41.4658758],[40.7988307,41.4665948],[40.7309191,41.4577084],[40.6665406,41.4392786],[40.6080797,41.411988],[40.4442461,41.3177498],[40.434462,41.3177845],[40.3680729,41.3085348],[40.3051901,41.2901089],[40.1422157,41.2283189],[40.1370784,41.2303792],[40.0740458,41.2453126],[40.0084047,41.2512807],[39.9424104,41.2480774],[39.8821898,41.2365513],[39.7829987,41.256041],[39.6333701,41.333832],[39.5763772,41.3579351],[39.5144494,41.3738599],[39.4496626,41.3810709],[39.3841926,41.3793249],[39.3202393,41.3686797],[39.2599504,41.349492],[39.242952,41.3426436],[39.2313079,41.345056],[39.1680493,41.3494437],[39.1047426,41.3453835],[39.0433906,41.3330028],[38.6308277,41.2185354],[38.3436013,41.1908933],[38.1153483,41.224646],[38.087872,41.2657733],[38.0470864,41.305797],[37.9970207,41.3393969],[37.9394296,41.3653858],[37.8763421,41.3828439],[37.7824036,41.4015016],[37.709777,41.4100469],[37.636336,41.4073061],[37.565187,41.3933943],[37.4993364,41.3688984],[37.4951985,41.3664623],[37.4859006,41.3707464],[37.4317883,41.391162],[37.3738359,41.4044482],[37.313707,41.4102228],[37.3074909,41.410422],[37.2914158,41.435696],[37.2461934,41.4800031],[37.1896825,41.5163613],[37.1243097,41.543198],[36.8968198,41.6144043],[36.7942146,41.6337716],[36.6568602,41.6439581],[36.5802813,41.6434733],[36.5055721,41.6308913],[36.4926177,41.6263985],[36.4897177,41.6498503],[36.4702297,41.6995451],[36.4383213,41.7455272],[36.3486166,41.848755],[36.2932011,41.8981943],[36.223509,41.936396],[36.1549472,41.9652086],[36.089194,41.986709],[36.0703814,41.9897703],[36.0470487,41.996255],[35.9738815,42.0046395],[35.8999324,42.0017763],[35.8283165,41.9877852],[35.5832043,41.9189735],[35.5551211,41.9275921],[35.5727476,41.9696629],[35.5804169,42.0208468],[35.5748437,42.0721722],[35.5562004,42.1217651],[35.52514,42.1678104],[35.4827762,42.2086193],[35.4306458,42.2426916],[35.3706541,42.2687726],[35.3050046,42.2859003],[35.269342,42.2898097],[35.2123646,42.3221097],[35.1424326,42.3464948],[35.0670659,42.3593881],[34.991155,42.3661758],[34.9151265,42.3670324],[34.8573883,42.3586417],[33.7923659,44.1221942],[33.7923622,44.1222003],[33.7923492,44.1222218],[33.7921384,44.1225708],[33.7920911,44.1226492],[33.7901547,44.1258556],[33.7901339,44.1258901],[33.8177444,44.1215135],[33.8918309,44.1151193],[33.9662351,44.1193321],[34.0380555,44.1339871],[34.1044881,44.1585119],[34.1629314,44.1919484],[34.2110858,44.2329885],[34.2470432,44.2800243],[34.2693628,44.3312092],[34.2771313,44.3845292],[34.2779404,44.5124637],[34.1279579,44.4062064],[34.1217705,44.4026508],[34.1146802,44.4000985],[33.9527395,44.3562152],[33.9439287,44.3546549],[33.9348523,44.3546452],[33.7153512,44.3732109],[33.7153521,44.3732162],[33.8954882,44.3579809],[33.9025576,44.3578554],[33.9095371,44.3586764],[33.9161814,44.360415],[33.9222569,44.3630101],[33.9275499,44.3663705],[33.9318743,44.3703781],[33.9350777,44.3748918],[33.9370471,44.3797529],[33.9372922,44.3816066],[33.9372908,44.3816067],[33.9372904,44.3816067],[33.9372881,44.3816069],[33.9000798,44.3847541],[33.9,44.3847608],[33.8754323,44.3868388],[33.8178337,44.3917106],[33.719839,44.3999992],[33.7197433,44.4000073],[33.7197372,44.4000078],[33.7197433,44.4000073],[33.719839,44.3999992],[33.8178337,44.3917106],[33.8754323,44.3868388],[33.9,44.3847608],[33.9,44.75],[33.5277046,44.75],[33.5229878,44.7625371],[33.5213092,44.7669985],[33.5203141,44.7696433],[33.5179572,44.7759079],[33.5179526,44.7759201],[33.5179516,44.7759227],[33.5179511,44.775924],[33.517945,44.7759403],[33.512646,44.7747451],[33.5059164,44.7720656],[33.5000867,44.7684753],[33.4953975,44.7641227],[33.4920423,44.7591874],[33.4901592,44.7538732],[33.4898255,44.7483994],[33.4910546,44.7429918],[33.4910882,44.7429025],[33.4910882,44.7429025],[33.507245,44.700035],[33.4910882,44.7429025],[33.4910238,44.7430259],[33.4778334,44.7780249],[33.476656,44.7828979],[33.4767508,44.7878417],[33.4781148,44.7926905],[33.4807025,44.7972812],[33.4844272,44.8014597],[33.5716695,44.8817774],[33.5801029,44.9294231],[33.5397956,45.0197167],[33.5273584,45.0197174],[33.4568519,45.0149366],[33.3888235,45.00097],[33.3256502,44.9783057],[33.2695326,44.9477351],[33.2224172,44.9103244],[33.1859269,44.8673765],[33.1652479,44.8279067],[33.1613067,44.8203842],[33.1558828,44.7979234],[33.1294925,44.7852769],[33.0772669,44.7478697],[33.0363184,44.703954],[33.0081939,44.6552163],[32.9939391,44.6035244],[32.9940627,44.5508541],[33.0085227,44.4992141],[33.0367331,44.4505685],[33.0775919,44.4067631],[33.1295266,44.3694565],[33.1905566,44.3400581],[33.3157123,44.2916014],[33.3287386,44.2774106],[33.3744235,44.2367861],[33.4301184,44.2032151],[33.493743,44.1779426],[33.5629325,44.1619047],[33.6692745,44.145048],[33.6692554,44.1450796],[33.6692124,44.1451506],[33.6691961,44.1451776],[33.6691381,44.1452734],[33.5541327,44.3352412],[33.6691381,44.1452734],[33.6691961,44.1451776],[33.6692124,44.1451506],[33.6692554,44.1450796],[33.6692745,44.145048],[33.6692937,44.1450164],[34.7667932,42.3321488],[34.7668985,42.3319749],[34.7669465,42.3318956],[34.7669587,42.3318754],[34.7670256,42.3317648],[34.7670984,42.3316446],[34.85542,42.1857535],[34.7670984,42.3316446],[34.7670256,42.3317648],[34.7669587,42.3318754],[34.7669465,42.3318956],[34.7668985,42.3319749],[34.7667932,42.3321488],[34.7084161,42.3017976],[34.6567093,42.2606333],[34.62474,42.2211272],[33.3470026,42.2882979],[33.2708921,42.285963],[33.197116,42.2719324],[32.1315061,41.971932],[32.0726431,41.9502545],[32.0200439,41.9210149],[31.9754406,41.8851809],[31.8991171,41.8112998],[31.2386127,41.5558993],[31.1769233,41.5253393],[31.1249288,41.4859703],[31.0848191,41.4394649],[31.0582682,41.3877949],[31.0515394,41.3569098],[30.8828541,41.3518487],[30.3921169,41.4720931],[30.3296841,41.4827308],[30.2657158,41.4848801],[30.2022592,41.4784722],[30.1413448,41.4637121],[30.0849186,41.441072],[30.0516432,41.4246894],[29.2111776,41.5018669],[29.1623925,41.502653],[29.0290042,41.5231464],[28.4514061,41.7395324],[28.3976512,41.7821242],[28.3865652,41.7993721],[28.3875356,41.8009143],[28.404528,41.8517557],[28.4080199,41.9040888],[28.3978471,41.9559402],[28.3375667,42.1368062],[28.3056983,42.1984666],[28.2544998,42.2525291],[28.1430585,42.3436848],[28.1397007,42.3825519],[28.1208142,42.4343483],[28.088394,42.4823383],[28.1464499,42.5160365],[28.194462,42.5579967],[28.2300041,42.6062439],[28.2515826,42.6587914],[28.2582713,42.71347],[28.257619,42.7526921],[28.2576017,42.7537325],[28.2502003,42.8043947],[28.2299289,42.8531337],[28.1974849,42.8982042],[28.1540081,42.9379889],[28.1010428,42.9710576],[28.0404836,42.9962193],[27.9745074,43.0125669],[27.9212684,43.0179234],[27.9212683,43.0179234],[27.9271115,42.7504369],[27.9270983,42.7503209],[27.927096,42.7504241],[27.9262908,42.7556246],[27.9241331,42.7606136],[27.920704,42.7652031],[27.9161324,42.7692203],[27.9105902,42.7725138],[27.9042863,42.7749595],[27.897458,42.7764653],[27.8903628,42.7769744],[27.8897701,42.7769744],[27.8903754,42.75],[27.8903754,42.75],[27.85,42.75],[27.7515766,42.7142097],[27.8276626,42.7117764],[27.8912789,42.7097419],[27.8276626,42.7117764],[27.7515766,42.7142097],[27.7328773,42.7148077],[27.7272938,42.7053796],[27.6666667,42.6833333],[27.4833333,42.6166667],[27.3,42.55],[27.1,42.5],[26.9,42.45],[26.7,42.4],[26.5,42.3333333],[26.3,42.2666667],[26.1,42.2],[25.9333333,42.1333333],[25.7666667,42.0666667],[25.6,42],[25.4,41.8833333],[25.2,41.7666667],[25,41.65],[24.7666667,41.5833333],[24.5333333,41.5166667],[24.3,41.45],[24.0666667,41.4],[23.8333333,41.35],[23.6,41.3],[23.4,41.25],[23.36,41.24],[23.2,41.2],[23,41.15],[22.6,40.95],[22.4666667,40.8333333],[22.3333333,40.7166667],[22.2,40.6],[22.0666667,40.5],[21.9333333,40.4],[21.8,40.3],[21.6333333,40.25],[21.4666667,40.2],[21.3,40.15],[21.1333333,40.25],[20.9666667,40.35],[20.8,40.45],[20.6333333,40.6],[20.4666667,40.75],[20.3,40.9],[20.2666667,41.0666667],[20.2333333,41.2333333],[20.2,41.4],[20.1,41.6],[20,41.8],[19.6,42],[19.2370207,41.9092552],[19.2645819,41.8970459],[19.273699,41.8930072],[19.2875202,41.8868846],[19.2960361,41.8831122],[19.3065697,41.8784459],[19.3091722,41.877293],[19.3403045,41.8635018],[19.3663937,41.8519447],[19.3403045,41.8635018],[19.3091722,41.877293],[19.3065697,41.8784459],[19.2960361,41.8831122],[19.2875202,41.8868846],[19.273699,41.8930072],[19.2645819,41.8970459],[19.2370207,41.9092552],[19.2211047,41.9163058],[19.2107511,41.9208922],[19.2060047,41.9229948],[19.2059961,41.9229987],[19.2049188,41.9217751],[19.2059961,41.9229987],[19.2059935,41.9229998],[19.2059869,41.9230027],[19.2059813,41.9230052],[19.2059811,41.9230053],[19.205981,41.9230053],[19.2059809,41.9230054],[19.1719917,41.9380621],[19.1320708,42.0176421],[19.1320708,42.0176421],[19.0855909,42.110297],[19.0450347,42.1364532],[19.0448475,42.1365739],[19.0142767,42.1205489],[18.9997199,42.1129183],[18.9518737,42.075839],[18.9144875,42.0326944],[18.8889079,41.9850652],[18.8760422,41.9346928]],[[19.2046348,41.8972191],[19.2082771,41.8929098],[19.2129559,41.8891798],[19.2184974,41.8861699],[19.3478375,41.8288786],[19.3479077,41.8288548],[19.3479077,41.8288548],[19.3550458,41.826428],[19.3627971,41.8251995],[19.3627451,41.8252077],[19.3611325,41.8252622],[19.3542648,41.8265256],[19.3478625,41.8287652],[19.2185227,41.8860535],[19.2129875,41.8890642],[19.2083171,41.892802],[19.2046798,41.8971324],[19.2046348,41.8972191]],[[19.3629575,41.8252005],[19.3701817,41.8252481],[19.368202,41.8250233],[19.3629575,41.8252005]],[[19.3716995,41.8254205],[19.3773178,41.8263893],[19.3752022,41.8258183],[19.3716995,41.8254205]],[[23.3454797,39.691023],[23.7112051,39.6623588],[23.7812549,39.6621451],[23.849979,39.6726056],[23.9116559,39.692366],[23.9204984,39.6902301],[23.9892177,39.6845318],[24.0580627,39.6892657],[24.1243876,39.704251],[24.1856399,39.7289122],[24.2394557,39.762301],[24.2837488,39.8031315],[24.3167912,39.8498283],[24.3209587,39.8601581],[24.3517988,39.8615216],[24.4160137,39.8738665],[24.5093181,39.8990934],[24.5750954,39.9229355],[24.6331169,39.9566085],[24.6809085,39.9986849],[24.6824094,40.0007445],[24.6816537,39.9750501],[24.6968505,39.8180753],[24.7083273,39.7668661],[24.7282675,39.7265711],[24.6960595,39.6996232],[24.6608446,39.6554809],[24.6372911,39.6069715],[24.626246,39.5558922],[24.6280897,39.5041311],[24.6392286,39.4349403],[24.6536301,39.3848972],[24.6800129,39.3378611],[24.7174042,39.2955255],[24.7644424,39.2594119],[24.8194267,39.2308161],[24.880379,39.2107632],[24.9451138,39.1999715],[25.0113142,39.1988276],[25.0766123,39.207373],[25.1386713,39.2253026],[25.1952661,39.2519752],[25.2443611,39.2864355],[25.284182,39.3274474],[25.3456037,39.4049688],[25.3745816,39.4506562],[25.3919525,39.499727],[25.3941381,39.521372],[25.3977776,39.5214709],[25.4672022,39.5345367],[25.5317745,39.5581677],[25.5888204,39.5913882],[25.6359673,39.6328245],[25.671242,39.6807601],[25.6783553,39.6977939],[25.6873858,39.684816],[25.7303416,39.6443716],[25.7692616,39.6195389],[25.7442682,39.5658896],[25.7298294,39.5223308],[25.7041804,39.5099753],[25.652111,39.4713574],[25.611496,39.4252971],[25.5290785,39.3068853],[25.5023691,39.256983],[25.4890746,39.2039651],[25.4896988,39.1499629],[25.5041847,39.0971423],[25.5319227,39.0476172],[25.5717788,39.0033654],[25.622144,38.9661507],[25.6809997,38.9374541],[25.8779554,38.8612919],[25.7786775,38.8449623],[25.7658835,38.8418799],[25.7085871,38.8640848],[25.6396605,38.8780808],[25.5684955,38.8807686],[25.4981339,38.872034],[25.433115,38.8584705],[25.3708902,38.8403159],[25.314299,38.8132225],[25.2654353,38.778197],[25.2260982,38.736539],[25.197726,38.6897913],[25.1813444,38.6396817],[25.1775317,38.5880586],[25.1864011,38.5368217],[25.2076001,38.4878527],[25.240328,38.4429463],[25.2833675,38.4037451],[25.36614,38.3414393],[25.4183746,38.3090553],[25.477557,38.2851494],[25.5319333,38.2727849],[25.5387516,38.2212723],[25.5533987,38.1655969],[25.5732353,38.115407],[25.6050472,38.0691955],[25.6476105,38.0287096],[25.6993026,37.9954772],[25.8178869,37.9331925],[25.881721,37.9067812],[25.9511351,37.8914761],[25.9626215,37.8909163],[25.9367824,37.8843023],[25.8778185,37.8581338],[25.8265795,37.8232945],[25.7850759,37.7811608],[25.693871,37.666513],[25.6903676,37.6695925],[25.6366805,37.701248],[25.5761537,37.7239495],[25.5503752,37.7290547],[25.5428929,37.7400374],[25.5024736,37.7793258],[25.453416,37.8119201],[25.3974565,37.8366601],[25.3099116,37.8671435],[25.3031515,37.8824105],[25.2958934,37.8922279],[25.29546,37.911301],[25.2869328,37.9664576],[25.2642066,38.0190514],[25.2282213,38.0668392],[25.180491,38.1077783],[25.1230416,38.1401162],[25.0583259,38.1624664],[25.0512741,38.1636304],[25.0273415,38.187754],[24.9721974,38.2240798],[24.9088946,38.2503944],[24.8818733,38.2966032],[24.8397418,38.3412377],[24.7867722,38.3781246],[24.7252188,38.4056845],[24.6577131,38.422736],[24.5871497,38.4285479],[24.5514988,38.4285765],[24.5669541,38.4653943],[24.5709969,38.4936564],[24.6079396,38.4941138],[24.6747561,38.5054618],[24.7374365,38.5268615],[24.8452051,38.5739776],[24.9002914,38.6038184],[24.9470084,38.6413887],[24.9835929,38.6852828],[25.0086529,38.7338555],[25.0212225,38.7852822],[25.020801,38.8376273],[25.0073758,38.8889158],[24.981427,38.9372089],[24.9439136,38.9806768],[24.7604859,39.1533418],[24.7100664,39.1918365],[24.6505728,39.2215972],[24.584483,39.2413802],[24.5145586,39.2503582],[24.4437267,39.248156],[24.4054128,39.2407581],[24.4206288,39.2871531],[24.4309837,39.3412159],[24.427011,39.3957783],[24.4088412,39.4485945],[24.3771928,39.4974858],[24.333348,39.5404308],[24.2791026,39.575651],[24.2166938,39.6016855],[24.1487068,39.6174533],[24.0779659,39.6222997],[24.007413,39.6160238],[23.9399816,39.5988877],[23.8784707,39.5716043],[23.8388163,39.5495814],[23.7862942,39.5136754],[23.7583838,39.4849964],[23.7532412,39.4824161],[23.7288095,39.4640672],[23.7183324,39.4678838],[23.6540419,39.480579],[23.5877833,39.4836382],[23.5347521,39.4782521],[23.5218076,39.479616],[23.4055243,39.633877],[23.358075,39.6828237],[23.3454797,39.691023]],[[23.5172352,35.2935106],[23.5532355,35.3222164],[23.5388354,35.3745623],[23.5479172,35.3898975],[23.5479204,35.3899029],[23.5622776,35.4141459],[23.7777778,35.3333333],[24.158647,35.1905074],[24.0794902,35.1905074],[24.0500405,35.1905074],[24.0149602,35.2147047],[23.9888399,35.2327218],[23.9559695,35.2368332],[23.9559695,35.2368332],[23.9559368,35.2368373],[23.8268383,35.2529847],[23.6828368,35.2259675],[23.5856359,35.2394761],[23.5172352,35.2935106]],[[24.0744168,38.9322641],[24.1013607,38.9464929],[24.095539,38.9319975],[24.0953062,38.9301091],[24.0744168,38.9322641]],[[24.6837867,40.3037495],[24.7088526,40.305317],[24.7776592,40.320636],[24.9140499,40.3626849],[24.9737196,40.3862534],[25.0265073,40.4179568],[25.0705167,40.4566632],[25.0901308,40.482515],[25.0897513,40.4608903],[25.1017729,40.4101269],[25.1262537,40.3620276],[25.1622765,40.3183454],[25.2085107,40.2806693],[25.2148338,40.2764127],[25.191411,40.2764701],[24.9998653,40.2628919],[24.9328155,40.2530118],[24.8695419,40.2334519],[24.8124263,40.2049504],[24.7636111,40.1685816],[24.743843,40.1466889],[24.7450179,40.1561227],[24.7368165,40.2115303],[24.7138197,40.2644617],[24.6837867,40.3037495]],[[24.7376474,34.932155],[24.7397656,34.9429185],[24.7397666,34.9429233],[24.7452032,34.9705488],[24.8475866,34.932155],[24.76847,34.932155],[24.7376474,34.932155]],[[24.7397666,34.9429233],[24.7452032,34.9705488],[24.7452032,34.9705488],[24.7397666,34.9429233]],[[25.1369484,40.6175623],[25.1406567,40.6757706],[25.1427361,40.6754401],[25.1970097,40.6751945],[25.1685284,40.653412],[25.1369484,40.6175623]],[[26.1289248,37.2695067],[26.1887914,37.2825699],[26.1887593,37.2813566],[26.1997535,37.2305341],[26.2226794,37.1823117],[26.2566798,37.1384465],[26.2855237,37.1081211],[26.3314092,37.0687077],[26.3861522,37.037328],[26.4475829,37.0152207],[26.5132745,37.0032575],[26.5214993,37.0030952],[26.5536939,36.9767563],[26.5763168,36.9615545],[26.5746428,36.948896],[26.5805891,36.8964279],[26.5991607,36.8458922],[26.6035091,36.8392339],[26.6011713,36.8337212],[26.5478966,36.8621689],[26.4886712,36.8873214],[26.4243519,36.9025552],[26.4087473,36.9036574],[26.4081445,36.9248242],[26.3948132,36.974454],[26.3700455,37.0211941],[26.334703,37.0633804],[26.2900295,37.0995082],[26.2215635,37.1452286],[26.1723177,37.1722871],[26.1668225,37.1932554],[26.145369,37.24657],[26.1289248,37.2695067]],[[26.197311,37.9342252],[26.2226466,37.9470048],[26.2517757,37.9653622],[26.2715572,37.9560084],[26.2922689,37.9501257],[26.2901365,37.9499326],[26.197311,37.9342252]],[[28.1187008,40.7367237],[28.1744679,40.7660648],[28.2051936,40.790599],[28.4283214,40.73362],[28.4714077,40.7261068],[28.4772238,40.7235529],[28.5214843,40.7119751],[28.5061658,40.7009919],[28.4755732,40.6687918],[28.3716927,40.6740168],[28.3046033,40.6725298],[28.2773059,40.6699445],[28.2627782,40.6812123],[28.2038837,40.7114931],[28.1381763,40.7322505],[28.1187008,40.7367237]],[[33.0680955,36.0848255],[33.1010321,36.0936086],[33.1581316,36.1377992],[33.1010321,36.0936086],[33.0861309,36.0820762],[33.0680955,36.0848255]],[[33.3037875,36.1476767],[33.35,36.16],[33.8,36.28],[33.8477877,36.2927434],[33.8709387,36.3150998],[33.8477877,36.2927434],[33.8071643,36.2535141],[33.8071643,36.2535141],[33.8071534,36.2535036],[33.8071534,36.2535036],[33.6873369,36.1377992],[33.6477365,36.1918337],[33.5505355,36.1276677],[33.4569346,36.1580621],[33.4465856,36.1573603],[33.3037875,36.1476767]],[[33.8709387,36.3150998],[33.8947185,36.3052583],[34.025,36.34],[34.0761408,36.3536375],[34.0761408,36.3286084],[34.00054,36.3032798],[33.9573396,36.2137852],[33.9330347,36.2870715],[33.9321393,36.2897712],[33.8947185,36.3052583],[33.8709387,36.3150998]]]}}
