{"type":"Feature","properties":{"family":"byzantium","name":"Byzantine Empire, 971"},"geometry":{"type":"Polygon","coordinates":[[[14.8589046,42.071314],[15.1753363,41.9543097],[15.4470499,41.9346942],[15.446076,41.9346318],[15.1689955,41.9546162],[15.1621234,41.9546196],[15.1553756,41.9536636],[15.1489945,41.9517828],[15.1432092,41.9490446],[15.1382275,41.9455475],[15.1342281,41.9414171],[15.1331881,41.9397467],[15.1651517,41.9279307],[15.16558,41.9278998],[15.1333333,41.7666667],[15.1,41.6],[15.2,41.4],[15.3,41.2],[15.6,40.9],[15.8,40.5],[15.6121111,40.07725],[15.5769829,40.07725],[15.576905,40.0757739],[15.5778977,40.0707507],[15.580115,40.0659603],[15.5834774,40.0615743],[15.5878643,40.0577495],[15.5931186,40.0546228],[15.5990523,40.052306],[15.6054531,40.0508821],[15.6057466,40.0508609],[15.7396164,39.8824613],[15.6062149,40.0502718],[15.548993,40.050275],[15.4328922,39.9740404],[15.4270406,39.9709196],[15.4204888,39.9687661],[15.4135054,39.9676682],[15.4063765,39.9676708],[15.3993941,39.9687738],[15.2767532,39.9982359],[15.2884006,39.9711342],[15.3190043,39.928253],[15.4446438,39.7844955],[15.5255086,39.5060073],[15.5413908,39.4660204],[15.565141,39.428415],[15.6976163,39.2539226],[15.7394158,39.0366858],[15.7560926,38.985277],[15.7854685,38.9374135],[15.7914496,38.9297271],[15.7345635,38.9147073],[15.6709279,38.892088],[15.6144783,38.8600115],[15.5675222,38.8197976],[15.5319673,38.7730971],[15.5092449,38.7218233],[15.5002539,38.6680718],[15.5053295,38.6140342],[15.5207647,38.5714739],[15.5814916,38.5691551],[15.6512109,38.5547111],[15.7703615,38.519126],[15.8318764,38.4949326],[15.861339,38.4767945],[15.7853455,38.3193178],[15.6812195,38.2724161],[15.6819179,38.2672659],[15.681274,38.2619019],[15.6792855,38.2567452],[15.6760321,38.2520015],[15.6716436,38.2478597],[15.6662951,38.2444851],[15.6001766,38.2106623],[15.6123268,38.1467164],[15.590289,38.1008918],[15.5884207,38.0951568],[15.5881999,38.0892436],[15.589637,38.0834394],[15.5926618,38.0780258],[15.6194834,38.0415703],[15.6061611,38.0207229],[15.6036609,38.015533],[15.6025718,38.0100537],[15.60294,38.0045188],[15.6047494,37.9991642],[15.6079226,37.9942179],[15.6123242,37.9898909],[15.7095224,37.9122373],[15.7147741,37.9088029],[15.7207938,37.9062604],[15.7273405,37.9047117],[15.7341521,37.9042187],[15.7574026,37.9043381],[15.5707892,37.6963986],[15.6026589,37.6829442],[15.6679276,37.6674973],[15.7358174,37.6625722],[16.0622078,37.6641894],[16.1291621,37.6696443],[16.1935104,37.6853285],[16.2527648,37.7106379],[16.3046278,37.7445955],[16.3470792,37.7858884],[16.378455,37.8329164],[16.4681932,38.006823],[16.5422007,38.0786996],[16.7567314,38.1946143],[16.8112847,38.2310706],[16.8550559,38.2755656],[16.886127,38.3261735],[16.9031208,38.3806989],[16.9052653,38.4367709],[16.8872411,38.6236524],[16.9520444,38.6560165],[16.9852601,38.6464937],[17.0512821,38.6331258],[17.1194038,38.6300864],[17.1869946,38.6374944],[17.2514429,38.6550651],[17.3102541,38.6821207],[17.3611441,38.7176157],[17.4021271,38.7601758],[17.503318,38.8899513],[17.5320893,38.9362015],[17.5490316,38.985835],[17.5535029,39.037047],[17.5453129,39.0879713],[17.5247338,39.1367481],[17.4924945,39.1815922],[17.4651282,39.2067435],[17.4632144,39.2412389],[17.4968339,39.3380485],[17.5081094,39.3916127],[17.505192,39.4458204],[17.4881681,39.498461],[17.4577028,39.5473831],[17.4150176,39.5905832],[17.3618441,39.6262888],[16.9831289,39.8312414],[16.9446796,39.8483431],[16.9674524,39.8890143],[16.9815728,39.948296],[16.9780467,40.0084842],[16.9746007,40.0250761],[17.0878676,40.1582189],[17.222257,40.0985368],[17.2868706,40.0760628],[17.3560568,40.063875],[17.6150547,40.0384425],[17.614964,40.0328901],[17.6291143,39.9782217],[17.6576827,39.926952],[17.7624992,39.7820329],[17.8000893,39.7399002],[17.8473474,39.7039548],[17.9025718,39.6754815],[18.1682765,39.5643957],[18.2252535,39.5452848],[18.2857157,39.5341979],[18.3477743,39.5314823],[18.4094921,39.5372234],[18.4689419,39.5512431],[18.5227878,39.5680605],[18.5788614,39.5902478],[18.628892,39.6197826],[18.6712614,39.6557156],[18.704591,39.6968898],[18.727788,39.7419769],[18.7400814,39.7895197],[18.7557869,39.9030428],[18.7671573,39.920375],[18.5857126,39.9657338],[19.5852671,39.7158584],[19.2805681,39.7920291],[19.2748088,39.7551276],[19.2793548,39.7046854],[19.2960958,39.6557877],[19.3244184,39.6101544],[19.3633068,39.5693879],[19.5171417,39.4359178],[19.5455262,39.3690874],[19.5734032,39.320308],[19.6131486,39.276719],[19.6631937,39.2400194],[19.7215775,39.2116376],[19.7904191,39.1850724],[19.7904578,39.1820639],[19.8029469,39.1331935],[19.8268319,39.0869429],[19.8612771,39.0448892],[19.9050931,39.0084637],[19.9567785,38.9789044],[20.0214324,38.9486065],[20.0831192,38.9257564],[20.1493633,38.9127105],[20.2176171,38.9099713],[20.2852579,38.917645],[20.3080941,38.9239567],[20.2844149,38.8907164],[20.264378,38.8441586],[20.2076383,38.6565882],[20.1985858,38.6022229],[20.2006019,38.5812358],[20.1712411,38.5647508],[20.1233903,38.5239376],[20.0872658,38.4763518],[20.0643737,38.4240116],[20.0111919,38.243206],[20.0026959,38.1931083],[20.0062802,38.1426607],[20.0217938,38.0936382],[20.0486686,38.0477622],[20.0859428,38.0066406],[20.1322963,37.9717123],[20.1860986,37.9441976],[20.2454655,37.9250571],[20.2673786,37.9215411],[20.2947341,37.9030026],[20.2859077,37.8815866],[20.2778938,37.830825],[20.2821934,37.7797992],[20.2986261,37.7303479],[20.3265775,37.6842492],[20.3650241,37.6431578],[20.5594989,37.4713605],[20.6085066,37.4356562],[20.6653325,37.4082033],[20.7278052,37.390048],[20.7935444,37.3818818],[20.860049,37.3840163],[20.924789,37.3963711],[20.9852992,37.4184772],[21.0076806,37.4313455],[21.0581895,37.4348136],[21.0834706,37.4404969],[21.1028794,37.425827],[21.1560888,37.3985069],[21.2147567,37.3794926],[21.2768537,37.3694413],[21.2997256,37.3691781],[21.3185778,37.3438371],[21.2900576,37.3118763],[21.2548806,37.2619011],[21.2337996,37.2071614],[21.2277362,37.1501343],[21.2369294,37.0933945],[21.2697798,36.9837462],[21.2979506,36.9230312],[21.3434105,36.8694504],[21.3701728,36.8448625],[21.3701307,36.8431323],[21.3629889,36.8056056],[21.3596172,36.7549453],[21.3625841,36.7021577],[21.3783434,36.6508672],[21.4062652,36.6030416],[21.4452591,36.5605123],[21.4938175,36.5249051],[21.5357805,36.5045274],[21.5414703,36.5001516],[21.596337,36.4719623],[21.6250658,36.460179],[21.6890054,36.4402598],[21.7566561,36.4311928],[21.8252112,36.4333549],[21.8918277,36.4466572],[21.9291497,36.4610654],[21.9403837,36.4617319],[22.0049075,36.4762662],[22.0221378,36.4833465],[22.0289422,36.4474153],[22.0496873,36.3999614],[22.0810142,36.3564459],[22.1218194,36.3183783],[22.1706771,36.2870772],[22.1884492,36.2777244],[22.1932163,36.2680445],[22.2279174,36.224451],[22.2722984,36.1870199],[22.3247167,36.1571259],[22.3832415,36.1358659],[22.4457241,36.1240195],[22.5098747,36.1220211],[22.573344,36.1299446],[22.587136,36.1339527],[22.6048986,36.093376],[22.6340792,36.0519162],[22.6718253,36.0152679],[22.7546156,35.9478983],[22.8018384,35.9159442],[22.8555037,35.8915672],[22.913786,35.8755945],[22.9747078,35.8685679],[23.0362043,35.870726],[23.097197,35.8774508],[23.1633486,35.8903908],[23.2249263,35.9139236],[23.279374,35.9470751],[23.3244228,35.9884716],[23.3439367,36.0161701],[23.1586108,36.386435],[23.3437947,36.0164538],[23.3438879,36.0162677],[23.3439567,36.0161301],[23.3439944,36.0160549],[23.5589603,35.5865719],[23.4308385,35.8425479],[23.3797979,35.8114342],[23.3365811,35.772343],[23.3035402,35.7272038],[23.2820568,35.6900006],[23.2561382,35.6242891],[23.1924942,35.3421399],[23.1870689,35.2926379],[23.1928593,35.2431818],[23.2096481,35.1954497],[23.2368474,35.1510582],[23.273521,35.1115083],[23.3184179,35.0781351],[23.3700153,35.0520638],[23.5352185,34.9847279],[23.5878835,34.9676625],[23.6433417,34.9582424],[23.699962,34.9567447],[23.7560799,34.9632139],[23.8085266,34.9730698],[23.9426919,34.935458],[23.9956479,34.9244994],[24.0500931,34.9208676],[24.3065042,34.9209587],[24.3878542,34.8785573],[24.4191422,34.866231],[24.4193882,34.8648944],[24.4426246,34.8133129],[24.4780902,34.7666873],[24.5242966,34.7269481],[24.5793191,34.6957384],[24.6408771,34.6743468],[24.7064271,34.663656],[24.7732653,34.664107],[25.9567253,34.7654134],[26.0654404,34.7421071],[26.1210935,34.7342675],[26.1775627,34.7343751],[26.2331894,34.7424271],[26.2863391,34.7581872],[26.3797147,34.7935307],[26.4330204,34.8188806],[26.4796747,34.8519452],[26.5180386,34.8915701],[26.5467567,34.9363697],[26.6264761,35.0948863],[26.6454317,35.1466479],[26.646909,35.159917],[26.6673972,35.1465945],[26.7236706,35.1226758],[26.7844798,35.1079977],[26.8475922,35.1030986],[26.9106933,35.1081584],[27.0685806,35.1333946],[27.0851096,35.1374947],[27.0975646,35.1352373],[27.166041,35.1346723],[27.2332023,35.1456674],[27.2961754,35.1677527],[27.352261,35.1999836],[27.4494039,35.2690281],[27.4951801,35.3088033],[27.5302667,35.3552789],[27.5532144,35.4065625],[27.5630623,35.4605619],[27.5593804,35.5150695],[27.5422914,35.567852],[27.5051828,35.648205],[27.5273726,35.7138444],[27.5312678,35.7102934],[27.5811434,35.6732017],[27.6391896,35.6450704],[27.7030113,35.6270561],[27.7699828,35.6198991],[27.8373526,35.6238934],[27.9023536,35.6388751],[27.9623127,35.6642288],[28.0147583,35.6989123],[28.1235175,35.787023],[28.1277276,35.7870727],[28.1932726,35.7987729],[28.2546187,35.820891],[28.309283,35.8525336],[28.3550456,35.8924215],[28.3900383,35.93894],[28.4128212,35.9902023],[28.4224433,36.0441257],[28.4210967,36.0626372],[28.4388666,36.0832092],[28.4647925,36.1186911],[28.483753,36.1569482],[28.5600976,36.3526098],[28.5737304,36.4052489],[28.5738869,36.4258182],[28.6200353,36.3900453],[28.6774321,36.3608101],[28.7409327,36.3414705],[28.7707978,36.3376178],[28.7786912,36.3083169],[28.8054645,36.2590734],[28.8437692,36.2150786],[28.8920745,36.1780693],[29.1438045,36.0197999],[29.1953223,35.9930323],[29.2519861,35.9743165],[29.3118998,35.9642774],[29.3730616,35.9632503],[29.3736162,35.9633241],[29.4043411,35.9584562],[29.4151148,35.9535571],[29.4471877,35.9244415],[29.4990703,35.8926718],[29.5575415,35.8696537],[29.6203862,35.856257],[29.6852287,35.8529875],[29.7496202,35.8599684],[29.8111288,35.8769361],[30.0752473,35.9735357],[30.1142312,35.9710608],[30.176325,35.9765658],[30.2072219,35.9842063],[30.2550417,35.9612496],[30.3154575,35.9437798],[30.3788636,35.93598],[30.4429313,35.9381362],[30.5053088,35.9501691],[30.5637044,35.9716367],[30.6159684,36.0017503],[30.6447483,36.0219578],[30.7057676,36.0785964],[30.7996091,36.1948741],[30.8283818,36.2388161],[30.8466987,36.2862759],[30.8539198,36.3356465],[30.8502482,36.3796308],[30.8575181,36.3893984],[30.8835943,36.4327862],[30.8996814,36.4792206],[30.9052483,36.5272226],[30.905528,36.5904775],[31.2271197,36.5495743],[31.6486644,36.356423],[31.7298452,36.3296073],[31.8235089,36.3096316],[32.1000375,36.0158811],[32.1390254,35.9810147],[32.1848577,35.9521326],[32.2361467,35.9301045],[32.6742168,35.7786614],[32.7387756,35.7622311],[32.8060632,35.7567098],[32.8733194,35.7623231],[32.9377851,35.7788405],[32.9968129,35.8055838],[33.0006323,35.8077534],[33.2336846,35.3828267],[33.2336846,35.3828267],[33.0878565,35.6487165],[32.9738469,35.6642496],[32.9068656,35.6676257],[32.8404478,35.6599399],[32.7773379,35.6415095],[32.7201401,35.6130956],[32.671208,35.5758711],[32.6325459,35.5313706],[32.6057267,35.4814262],[32.5979834,35.4517196],[32.5961782,35.4515692],[32.5748206,35.4463167],[32.5396964,35.448135],[32.4723485,35.4402165],[32.408461,35.4211911],[32.3507611,35.3918716],[32.3075623,35.3580939],[32.281323,35.3605195],[32.2185642,35.356491],[32.157915,35.3427871],[32.1015972,35.3199103],[32.0516698,35.2886984],[32.0099516,35.250294],[31.9779547,35.206101],[31.9568297,35.1577326],[31.9473257,35.1069509],[31.9497659,35.0556028],[31.9640384,35.0055519],[32.1020458,34.6681946],[32.128862,34.6191602],[32.1669054,34.575454],[32.2146562,34.5388017],[32.2702192,34.5106479],[32.5216546,34.4096658],[32.5791895,34.3917589],[32.6397317,34.3830372],[32.7011565,34.3838063],[32.7613093,34.3940386],[32.7842236,34.3998307],[32.8407473,34.3752064],[32.9026538,34.3600478],[32.9669244,34.3552103],[33.0310698,34.3608808],[33.0926062,34.3768392],[33.1491478,34.4024671],[33.1950203,34.4284108],[33.2748095,34.431502],[33.3328582,34.4380609],[33.3885485,34.4530525],[33.7332418,34.5742556],[33.7975827,34.6042038],[33.8521379,34.6452772],[33.8938578,34.6950752],[34.1006612,34.6963931],[34.1645075,34.7018984],[34.2258136,34.7175079],[34.2822462,34.7426276],[34.3316525,34.7763014],[34.3721406,34.8172464],[34.4021517,34.8639008],[34.4205201,34.914482],[34.4265201,34.9670543],[34.4198971,35.0196013],[34.4008806,35.0701039],[34.3701796,35.1166171],[34.3277544,35.1680445],[34.3699623,35.2164838],[34.7515724,35.4158013],[34.7980066,35.4449198],[34.8374151,35.4802598],[34.8685572,35.5207175],[34.8904456,35.5650277],[34.9086244,35.6139399],[34.9210029,35.6638247],[34.9216151,35.7147321],[34.910416,35.7648455],[34.8877835,35.8123735],[34.8545075,35.8556132],[34.8117649,35.8930127],[34.7610785,35.9232273],[34.7042639,35.9451689],[34.6433632,35.958046],[34.5805705,35.9613936],[34.5181503,35.9550903],[34.4583539,35.939363],[33.5628447,35.6199548],[33.4287193,35.6022759],[33.1925868,35.6344476],[33.3403395,35.3645485],[32.9406372,36.0946824],[33.0948232,35.8130319],[33.0948251,35.8130283],[33.1504132,35.8174497],[33.2109245,35.8319527],[33.266979,35.8554452],[33.2819804,35.8650225],[33.5397522,35.8582362],[33.5993925,35.8609331],[33.6497737,35.8707125],[33.6608397,35.8691121],[33.7243662,35.8698454],[33.7865543,35.880319],[33.8451577,35.9001543],[33.8980557,35.9286344],[33.9207673,35.9467485],[33.9713073,35.944451],[34.0348772,35.9515119],[34.0955944,35.9682829],[34.151223,35.9941467],[34.1997097,36.028151],[34.2392573,36.0690425],[34.2613083,36.1040693],[34.2620977,36.1044094],[34.3125789,36.137777],[34.3540782,36.1784374],[34.3850031,36.2248451],[34.4041565,36.2752334],[34.4079007,36.3048742],[34.4969885,36.3806999],[34.7121954,36.4984328],[34.7223835,36.4921726],[34.7784947,36.4694901],[34.838839,36.4555708],[34.8873484,36.451945],[35.1718139,36.3119577],[35.2305745,36.2889134],[35.2937254,36.2754613],[35.358882,36.272108],[35.4235868,36.278979],[35.4592444,36.2886961],[35.4663582,36.2520615],[35.4911114,36.1995957],[35.5819818,36.0541386],[35.541837,36.0226042],[35.5039325,35.9773427],[35.4781801,35.9267927],[35.4656223,35.8730489],[35.4667509,35.8183341],[35.4795493,35.7719457],[35.4351041,35.7069945],[35.4104061,35.6612746],[35.3965675,35.6126144],[35.3940451,35.5626925],[35.402904,35.5132278],[35.4228184,35.4659202],[35.4530856,35.422392],[35.4926524,35.3841333],[35.5908047,35.3051758],[35.5925901,35.2879729],[35.6121946,35.2345952],[35.6447792,35.1856118],[35.6889346,35.1431055],[35.7427682,35.1088805],[35.803986,35.0843866],[35.8597099,35.0727977],[35.8542747,35.1058549],[35.854026,35.1108742],[35.8549204,35.1158443],[35.8569271,35.1205928],[35.8599767,35.1249548],[35.9250568,35.2005855],[35.8852811,35.2780103],[35.8832865,35.283416],[35.8827153,35.2890424],[35.8840434,35.3377324],[35.8840885,35.3380541],[35.8840819,35.337812],[35.884637,35.3322616],[35.884637,35.3322616],[35.8865792,35.3269195],[35.8898253,35.3220141],[35.8942365,35.3177548],[35.8996241,35.3143234],[35.905758,35.3118665],[35.9123764,35.3104889],[35.9163656,35.3103488],[35.9171073,35.337135],[35.975,35.35],[36.2,35.4],[36.3333333,35.5666667],[36.4666667,35.7333333],[36.6,35.9],[36.7,36.0666667],[36.8,36.2333333],[36.9,36.4],[37.4,36.9],[37.6,37],[37.8,37.1],[38,37.2],[38.2,37.3],[38.8,37.6],[38.975,37.725],[39.15,37.85],[39.5,38.1],[40.5,38.5],[40.8769231,38.8769231],[41.2,39.2],[41.35,39.4],[41.5,39.6],[41.8,40],[41.7333333,40.2333333],[41.6666667,40.4666667],[41.6,40.7],[41.6,40.775],[41.6,41.2],[41.55,41.5],[41.5174404,41.5105031],[41.3914139,41.3791431],[41.5210152,41.5142292],[41.5384418,41.5329889],[41.5317765,41.5351393],[41.5251347,41.5367321],[41.518204,41.5373409],[41.5112446,41.536943],[41.5045178,41.5355532],[41.4982761,41.5332237],[41.4939566,41.5307351],[41.4943242,41.5316664],[41.4979758,41.5366783],[41.6909555,41.744545],[41.6605615,41.7570202],[41.5940132,41.7728748],[41.5245662,41.7788889],[41.4548462,41.7748337],[41.3874902,41.7608608],[41.3250436,41.7374974],[41.2698603,41.7056249],[41.224012,41.6664456],[41.1469262,41.5858317],[40.8492342,41.4655227],[40.7987744,41.4662432],[40.7308013,41.4573564],[40.6663717,41.4389212],[40.6078766,41.4116215],[40.4440748,41.3174082],[40.4343894,41.317443],[40.3679336,41.308189],[40.304996,41.2897517],[40.1421733,41.2280259],[40.1371814,41.230028],[40.074085,41.2449766],[40.0083727,41.2509522],[39.942307,41.2477477],[39.8821531,41.236237],[39.7831213,41.2556988],[39.6335288,41.3334785],[39.5764951,41.3576001],[39.5145128,41.3735392],[39.4496635,41.3807586],[39.3841292,41.3790141],[39.3201163,41.3683634],[39.2597785,41.349164],[39.2428837,41.342358],[39.2313617,41.3447456],[39.1680378,41.3491405],[39.1046656,41.3450797],[39.0432542,41.3326908],[38.6307164,41.2182427],[38.3435949,41.1906191],[38.1154721,41.2243602],[38.0879024,41.2655979],[38.0471309,41.305581],[37.9970807,41.3391504],[37.9395054,41.3651202],[37.8764324,41.3825716],[37.7824957,41.4012321],[37.7098303,41.4097865],[37.6363469,41.4070534],[37.565157,41.3931472],[37.4992721,41.3686553],[37.4951927,41.3662548],[37.4860455,41.3704699],[37.431902,41.3908989],[37.373909,41.4041954],[37.3137335,41.4099759],[37.3075975,41.4101727],[37.2914883,41.4354991],[37.2462882,41.4797754],[37.1897967,41.516114],[37.1244389,41.5429429],[36.8969561,41.6141556],[36.8465866,41.6266852],[36.794278,41.6335397],[36.6569243,41.6437305],[36.5803064,41.6432501],[36.5055583,41.6306707],[36.4926584,41.6261992],[36.4897411,41.6497955],[36.4702803,41.6994197],[36.4384138,41.7453411],[36.3487161,41.8485677],[36.293332,41.8979798],[36.223665,41.9361683],[36.155106,41.9649826],[36.0893335,41.9864915],[36.0704856,41.9895594],[36.0470143,41.9960729],[35.9738461,42.0044381],[35.8998969,42.0015646],[35.8282817,41.9875726],[35.5832624,41.918796],[35.5550311,41.927461],[35.5727552,41.9697212],[35.5804326,42.0208653],[35.5748698,42.0721503],[35.5562388,42.121704],[35.5251918,42.1677134],[35.4828417,42.208491],[35.4307242,42.2425384],[35.3707435,42.2686016],[35.3051022,42.2857193],[35.2362192,42.293259],[35.2040916,42.2944664],[35.1567294,42.3190968],[35.0953762,42.3447873],[35.0284222,42.3612354],[34.9583973,42.367818],[34.8879523,42.3642851],[34.8576115,42.3582721],[34.9446002,42.2142289],[33.6458902,44.3647407],[33.7900668,44.1260012],[33.8174958,44.1216543],[33.8916147,44.11526],[33.9660594,44.1194761],[34.0379246,44.134137],[34.1044024,44.1586696],[34.1628875,44.1921144],[34.2110772,44.233162],[34.2470608,44.2802028],[34.2693953,44.3313887],[34.2771664,44.3847042],[34.2779757,44.5125011],[34.12795,44.4062139],[34.1217589,44.4026563],[34.1146648,44.4001026],[33.9527237,44.3562197],[33.9439107,44.354659],[33.9348332,44.3546492],[33.7153324,44.3732154],[33.7153346,44.3732292],[33.7153454,44.3732283],[33.8954631,44.3579951],[33.9025361,44.3578695],[33.9095198,44.3586907],[33.9161686,44.3604298],[33.9222485,44.3630256],[33.9222485,44.3630256],[33.9275457,44.3663868],[33.9318735,44.3703951],[33.9350794,44.3749094],[33.9350794,44.3749094],[33.9370503,44.3797708],[33.9372931,44.3816065],[33.9,44.3847608],[33.9,44.3847608],[33.9,44.75],[33.5277046,44.75],[33.5277046,44.75],[33.5277046,44.75],[33.5179511,44.775924],[33.5126641,44.7747321],[33.5059301,44.7720525],[33.5000959,44.7684623],[33.4954025,44.7641099],[33.4920435,44.759175],[33.4901573,44.7538615],[33.4898214,44.7483888],[33.4910492,44.7429829],[33.5072431,44.700017],[33.4910648,44.7429415],[33.4910254,44.7430169],[33.477835,44.7780158],[33.4766582,44.7828878],[33.4767534,44.7878311],[33.478118,44.7926796],[33.4807064,44.7972705],[33.4844318,44.8014493],[33.5716719,44.8817654],[33.5801055,44.9294128],[33.5398516,45.019587],[33.5276255,45.019588],[33.4570752,45.014807],[33.388997,45.0008359],[33.3257721,44.9781633],[33.2696052,44.9475813],[33.2224464,44.9101578],[33.1859222,44.8671971],[33.1612798,44.8201942],[33.155849,44.7977186],[33.1296195,44.7851573],[33.0773674,44.7477662],[33.0363862,44.7038717],[33.0082238,44.6551591],[32.9939274,44.6034948],[32.9940074,44.5508535],[33.0084232,44.4992424],[33.0365907,44.4506243],[33.0774093,44.4068435],[33.1293083,44.3695574],[33.1903086,44.3401741],[33.3155392,44.2916928],[33.3286257,44.2774376],[33.3742748,44.2368517],[33.4299328,44.2033125],[33.4935219,44.178063],[33.5626799,44.1620375],[33.66921,44.1451546],[33.5541327,44.3352412],[34.7670863,42.3316645],[34.7563848,42.3277825],[34.7002332,42.2961926],[34.65341,42.2571927],[34.6245986,42.2209784],[33.3471189,42.2881743],[33.2869001,42.2873138],[33.227698,42.2791047],[33.1711475,42.2637734],[32.8173332,42.1415994],[32.546455,42.1054625],[32.459737,42.085182],[32.1094666,41.9648591],[32.035967,41.9309652],[31.9754222,41.8850663],[31.8991113,41.8112019],[31.2386181,41.5558239],[31.1769255,41.5252629],[31.1249276,41.4858957],[31.0848148,41.4393946],[31.0582617,41.3877314],[31.0515333,41.3568568],[30.8829308,41.3518033],[30.3922088,41.4720615],[30.3297699,41.4827025],[30.2657916,41.4848535],[30.2023224,41.4784456],[30.1413937,41.4636836],[30.0849529,41.4410399],[30.0517036,41.4246717],[29.2112667,41.5018739],[29.1624823,41.5026613],[29.0290737,41.5231621],[28.4514518,41.7395776],[28.3976641,41.7821981],[28.3865793,41.7994443],[28.3875343,41.8009623],[28.4045336,41.8518238],[28.4080275,41.9041749],[28.3978518,41.956041],[28.3375769,42.1369004],[28.3057149,42.1985567],[28.2545261,42.2526118],[28.1481619,42.3396253],[28.1468211,42.3553584],[28.1280775,42.4070583],[28.0958463,42.4550007],[28.073114,42.4766256],[28.0878657,42.4820623],[28.1463831,42.5160315],[28.1944231,42.5580163],[28.2299883,42.6062903],[28.2515837,42.6588646],[28.2582822,42.7135679],[28.2537673,42.9859496],[28.2842595,43.0483026],[28.3160488,43.0743298],[28.3481601,43.1140195],[28.3625204,43.1094427],[28.4382638,43.0980975],[28.5155745,43.0984706],[28.5911072,43.110546],[28.6615908,43.1338006],[28.7239647,43.167227],[28.7755085,43.2093747],[28.8621151,43.2969631],[28.9085778,43.3600349],[28.9521863,43.4443374],[28.9725184,43.5024743],[28.9746729,43.5624344],[28.9562712,43.7180695],[29.0344267,43.9288054],[29.0454165,43.9722647],[29.046422,44.0164321],[29.0265328,44.2337185],[29.1255416,44.3123081],[29.1619895,44.346224],[29.1905289,44.3838303],[29.2487305,44.4773292],[29.2720512,44.4960024],[29.2758155,44.499663],[29.336642,44.5329944],[29.5993303,44.5520219],[29.6831309,44.5649321],[29.7607718,44.5909174],[29.8283024,44.628658],[29.8858963,44.6690574],[29.9347623,44.7109732],[29.9708738,44.759001],[29.9927373,44.8111964],[30.0737705,45.1115083],[30.0805734,45.1658375],[30.0717592,45.2200157],[30.0476464,45.2718255],[30.0091857,45.3191412],[29.9579266,45.3600163],[29.8928344,45.4022966],[29.8273692,45.4364416],[29.7945299,45.4468719],[29.7945387,45.4468005],[29.7938353,45.4418298],[29.7918362,45.4370344],[29.7886104,45.4325787],[29.7681784,45.4098374],[29.7935814,45.3277251],[29.7944531,45.3220942],[29.7936302,45.3164581],[29.7683751,45.2320368],[29.7661922,45.2271197],[29.7627214,45.2225832],[29.7580898,45.2185929],[29.7524664,45.2152942],[29.7460565,45.2128076],[29.6983658,45.1982694],[29.6675567,45.2182309],[29.6588966,45.2155906],[29.6228962,45.2105249],[29.6334359,45.203698],[29.475,45.2125],[29.25,45.225],[28.8,45.25],[28.6,45.2666667],[28.4,45.2833333],[28.2,45.3],[28.0285714,45.1428571],[27.8571429,44.9857143],[27.6857143,44.8285714],[27.5142857,44.6714286],[27.3428571,44.5142857],[27.1714286,44.3571429],[27,44.2],[26.7857143,44.1285714],[26.5714286,44.0571429],[26.3571429,43.9857143],[26.3571429,43.9857143],[26.1428571,43.9142857],[26.1428571,43.9142857],[25.9285714,43.8428571],[25.7142857,43.7714286],[25.5,43.7],[25.08,43.72],[24.87,43.73],[24.66,43.74],[24.45,43.75],[24.425,43.525],[24.4,43.3],[24.35,43.1],[24.3,42.9],[24.45,42.75],[24.6,42.6],[25,42.4],[25.2,42.2666667],[25.4,42.1333333],[25.6,42],[25.4,41.8833333],[25.2,41.7666667],[25,41.65],[24.7666667,41.5833333],[24.5333333,41.5166667],[24.3,41.45],[24.0666667,41.4],[23.8333333,41.35],[23.6,41.3],[23.4,41.25],[23.36,41.24],[23.2,41.2],[23,41.15],[22.6,40.95],[22.4666667,40.8333333],[22.3333333,40.7166667],[22.2,40.6],[22.0666667,40.5],[21.9333333,40.4],[21.8,40.3],[21.6333333,40.25],[21.4666667,40.2],[21.3,40.15],[21.1333333,40.25],[20.9666667,40.35],[20.8,40.45],[20.6333333,40.6],[20.4666667,40.75],[20.3,40.9],[20.2666667,41.0666667],[20.2333333,41.2333333],[20.2,41.4],[20.1,41.6],[20,41.8],[19.6,42],[19.2370207,41.9092552],[19.2059884,41.9230021],[19.2049252,41.9217936],[19.2049415,41.9218231],[19.2059809,41.9230054],[19.1719917,41.9380621],[19.1320708,42.0176421],[19.1320708,42.0176421],[19.0855909,42.110297],[19.0446459,42.1367039],[18.9998453,42.1132091],[18.9519634,42.0760818],[18.9145446,42.0328763],[18.8889379,41.9851765],[18.8760524,41.9347276],[18.8763279,41.8833706],[18.8897236,41.8329754],[18.9157233,41.7853729],[18.9533587,41.7422885],[19.0012477,41.705281],[19.0576458,41.6756875],[19.0968701,41.6625205],[19.0943521,41.6576014],[19.0824767,41.6075079],[19.0834612,41.5566346],[19.0843668,41.5533622],[19.0837898,41.5527864],[19.0533793,41.505275],[19.0359792,41.4542395],[19.0322269,41.4016407],[19.0422332,41.3494943],[19.0714709,41.260102],[19.094748,41.2104119],[19.0949228,41.21019],[19.0932673,41.2067749],[19.0837386,41.1440147],[19.0842169,41.0563447],[19.0549075,41.0184457],[19.0314835,40.9641538],[19.0238171,40.9073578],[19.0322132,40.8506161],[19.0323506,40.8501468],[18.9809768,40.7641331],[18.9587993,40.7145249],[18.9497724,40.6626068],[18.9542077,40.6103473],[18.9719065,40.559723],[18.9799261,40.5472566],[18.9597036,40.5164785],[18.9414905,40.4659817],[18.9365226,40.4137647],[18.9449572,40.3618048],[18.9664457,40.3120652],[19.0001509,40.2664208],[19.1877519,40.0609004],[19.239571,40.015631],[19.3031914,39.9802469],[19.3863715,39.9439986],[19.3758061,39.9372157],[19.3340311,39.8980226],[19.3077998,39.8608808],[19.6147476,39.7841397],[18.8098059,39.9853858],[18.8322123,40.0195406],[18.8581824,40.0721027],[18.8693104,40.1276326],[18.8650749,40.1837128],[18.8456236,40.2378957],[18.8117728,40.2878111],[18.5352574,40.6059991],[18.4898536,40.647969],[18.434189,40.6821691],[18.3468111,40.7254787],[18.32897,40.7636214],[18.2974814,40.8052847],[18.2566457,40.842052],[18.2077582,40.8727449],[18.1523788,40.8963787],[17.6642046,41.0616558],[17.2823554,41.291955],[17.2339125,41.3164047],[17.1807881,41.334632],[16.7426863,41.4525528],[16.4221908,41.5848414],[16.4691784,41.6193456],[16.5086856,41.6625279],[16.5362415,41.7105879],[16.5507794,41.7617146],[16.5517187,41.8139763],[16.538991,41.865394],[16.4892026,41.9939033],[16.4602894,42.0465457],[16.4170057,42.0935134],[16.3612728,42.1326918],[16.2955862,42.1623144],[16.2229034,42.1810438],[16.146508,42.1880349],[15.1672264,42.196284],[15.0934193,42.1910072],[15.0226459,42.1747733],[14.9578722,42.1482652],[14.9018036,42.1125957],[14.8589046,42.071314]],[[19.2009045,41.9069604],[19.2009288,41.9088616],[19.2009066,41.9069757],[19.2021431,41.9019585],[19.2046316,41.8972033],[19.2082825,41.892881],[19.2129645,41.8891467],[19.2185096,41.8861342],[19.2914084,41.8538438],[19.2906408,41.8541122],[19.2185064,41.8860625],[19.2129585,41.8890807],[19.2082749,41.8928242],[19.2046241,41.8971584],[19.2021374,41.9019276],[19.2009045,41.9069604]],[[19.2977167,41.8510496],[19.3478501,41.8288431],[19.3550516,41.8263947],[19.3627947,41.8251674],[19.3707097,41.8252196],[19.3784186,41.8265491],[19.4300598,41.8400078],[19.5526903,41.8016723],[19.5316084,41.7094653],[19.3988698,41.7756296],[19.3430979,41.8096914],[19.2977167,41.8510496]],[[23.3445589,37.0192929],[23.3721541,37.033705],[23.430824,37.0373106],[23.5528035,37.0541251],[23.6139244,37.0672956],[23.6709386,37.0892962],[23.7218604,37.1193629],[23.7330506,37.1290084],[23.7501596,37.134905],[23.8051417,37.1652292],[23.8516293,37.2035482],[23.8878068,37.2483781],[23.9122503,37.29798],[23.9239852,37.3504256],[23.922724,37.3964807],[23.962957,37.3867029],[23.993054,37.3840657],[24.0255294,37.3492904],[24.0320601,37.3446481],[24.0282883,37.324915],[24.0308338,37.2737099],[24.0454968,37.2238203],[24.0717256,37.1770435],[24.0868096,37.1598573],[24.0827202,37.1174684],[24.0913577,37.0632312],[24.1135093,37.0115064],[24.1480857,36.9646234],[24.1195436,36.9460229],[24.078276,36.9064836],[24.0471877,36.8613959],[24.0273974,36.8124108],[23.999032,36.7093336],[23.9912026,36.6558761],[23.9967602,36.6022489],[24.0154557,36.5505858],[24.0465209,36.5029383],[24.0887029,36.4611945],[24.1403165,36.4270062],[24.1993116,36.401724],[24.2633542,36.3863458],[24.3299168,36.3814784],[24.3963752,36.3873142],[24.6152501,36.4243164],[24.647579,36.4323624],[24.6626599,36.4215021],[24.7135831,36.3962929],[24.8141356,36.3558961],[24.8742696,36.337265],[24.9377136,36.328233],[25.0021392,36.3291317],[25.0274926,36.3334783],[25.0370462,36.2878046],[25.0590215,36.2401217],[25.0916775,36.1966174],[25.1338412,36.1588317],[25.1840097,36.1281002],[25.2404038,36.1055075],[25.3010303,36.0918504],[25.4050767,36.0767029],[25.4719488,36.0724585],[25.5385379,36.0790826],[25.6021777,36.0963104],[25.6249145,36.1069309],[25.647328,36.0994533],[25.708718,36.0892069],[25.7713995,36.0883944],[25.879022,36.0951196],[25.9439781,36.1044142],[26.005441,36.1238221],[26.0610281,36.1525927],[26.1085782,36.1896119],[26.1462339,36.2334442],[26.1707834,36.2791664],[26.187331,36.2704701],[26.2457128,36.2511783],[26.3075348,36.2410492],[26.3706165,36.2404398],[26.4327348,36.249372],[26.491699,36.2675312],[26.5454263,36.2942771],[26.5920133,36.328666],[26.5984869,36.3356621],[26.6367353,36.3499593],[26.6910259,36.3822189],[26.7362445,36.4225672],[26.7671821,36.4647819],[26.7790513,36.4580278],[26.8372864,36.4314512],[26.8419696,36.4302186],[26.8456188,36.4244921],[26.8858973,36.383402],[26.935232,36.3493355],[26.9917686,36.3235657],[27.0047088,36.3201018],[27.0095601,36.3123297],[27.0474124,36.2723974],[27.130246,36.1999684],[27.1804633,36.1640038],[27.1948112,36.157299],[27.1949054,36.156715],[27.2157286,36.106786],[27.2224364,36.0973279],[27.1920296,36.0974933],[27.1290157,36.0878913],[27.069459,36.0686877],[27.0045107,36.0415822],[26.9510248,36.0136889],[26.9050976,35.9780627],[26.8684027,35.9360112],[26.8422681,35.8890756],[26.7530399,35.6760715],[26.7401838,35.6300696],[26.7048977,35.6163559],[26.6502377,35.5895429],[26.6029377,35.554687],[26.5647519,35.5130895],[26.5583997,35.5023515],[26.5256736,35.5279061],[26.4706673,35.5563941],[26.4098339,35.575519],[26.3455501,35.5845326],[26.2803317,35.583082],[26.216732,35.5712244],[26.157239,35.5494243],[26.104175,35.5185349],[26.0804429,35.5015956],[26.0759435,35.5021234],[26.0273719,35.5004851],[26.0133821,35.5160979],[25.9646151,35.552357],[25.9079318,35.5799793],[25.8456001,35.5978561],[25.7801212,35.6052693],[25.714126,35.6019212],[25.5337328,35.5777057],[25.5146331,35.5870785],[25.4480016,35.605594],[25.3780353,35.6121895],[25.2619452,35.6129341],[25.2160069,35.6388527],[25.1574736,35.6596911],[25.0744235,35.6817141],[25.0253615,35.691404],[24.9750433,35.6949074],[24.7004846,35.6965861],[24.6116491,35.6871635],[24.499729,35.6623625],[24.4918045,35.6848059],[24.4636403,35.7300477],[24.4254985,35.770181],[24.3787235,35.8037764],[24.3249736,35.8296356],[24.266162,35.8468355],[24.2043878,35.8547615],[24.103234,35.8598386],[24.0412996,35.8582136],[24.0022859,35.8511601],[23.9758663,35.8775023],[23.9245773,35.9116306],[23.8658894,35.9367863],[23.8021566,35.9519581],[23.7359412,35.9565359],[23.6699081,35.9503359],[23.6067147,35.9336083],[23.5488998,35.9070268],[23.5086032,35.8785921],[23.3956038,36.1048275],[23.4088963,36.1291372],[23.4285463,36.1763802],[23.4371143,36.2257218],[23.4359195,36.2467569],[23.4539771,36.2610209],[23.4916044,36.3057836],[23.5174479,36.3556764],[23.5304491,36.4087028],[23.5300593,36.4627366],[23.5162656,36.5156063],[23.4734685,36.6238063],[23.445979,36.6744409],[23.4302561,36.6922296],[23.4371219,36.7061497],[23.4489636,36.7546262],[23.4495764,36.8040088],[23.4389176,36.8526402],[23.4173245,36.898885],[23.3445589,37.0192929]],[[23.3460506,39.6907878],[23.7112474,39.6621758],[23.7813045,39.6619687],[23.8500331,39.6724448],[23.9116429,39.6922064],[23.9205875,39.6900465],[23.9893013,39.6843581],[24.0581369,39.6891066],[24.1244497,39.7041101],[24.1856883,39.7287925],[24.2394902,39.7622046],[24.2837705,39.8030599],[24.3168022,39.8497825],[24.3209181,39.8599935],[24.3517638,39.8613573],[24.4159555,39.8736996],[24.509257,39.898929],[24.5687813,39.9199367],[24.6222336,39.9490198],[24.667767,39.9851786],[24.6824554,40.0023026],[24.682454,40.0022553],[24.6816542,39.9750314],[24.6968509,39.8180666],[24.6968525,39.8180501],[24.7083327,39.7668177],[24.7282108,39.7266332],[24.6960618,39.6997226],[24.660844,39.6555549],[24.6372894,39.6070164],[24.6262457,39.5559058],[24.628093,39.5041127],[24.6392329,39.4349191],[24.6536383,39.3848534],[24.6800227,39.3377961],[24.7174135,39.295441],[24.7644489,39.2593101],[24.8194286,39.2306996],[24.8803746,39.2106349],[24.945102,39.1998341],[25.0112946,39.1986841],[25.0765853,39.2072264],[25.1386382,39.2251557],[25.1952292,39.2518309],[25.2443234,39.2862966],[25.2841474,39.3273168],[25.3455646,39.4048364],[25.374556,39.4505442],[25.3919402,39.4996395],[25.3941261,39.5212477],[25.3978498,39.5213495],[25.4672629,39.53443],[25.5318219,39.5580774],[25.588854,39.5913155],[25.635988,39.6327701],[25.6712521,39.6807241],[25.6783549,39.6977448],[25.6874212,39.6847156],[25.7303914,39.6442565],[25.7692138,39.6194865],[25.7442816,39.5659675],[25.7298563,39.5224506],[25.7042082,39.5100939],[25.6521448,39.4714773],[25.611529,39.4254164],[25.5291054,39.3070013],[25.5023805,39.257069],[25.4890776,39.2040158],[25.4897008,39.1499756],[25.5041934,39.0971174],[25.5319448,39.0475575],[25.5718199,39.0032764],[25.6222076,38.9660399],[25.6810874,38.9373306],[25.8775894,38.8613511],[25.7786564,38.8450811],[25.765811,38.8419863],[25.7085772,38.864184],[25.6396519,38.8781949],[25.5684879,38.8808932],[25.4981271,38.872164],[25.4331066,38.8586023],[25.3708745,38.8404443],[25.3142778,38.8133401],[25.2654114,38.778297],[25.2260752,38.7366154],[25.197708,38.6898395],[25.181336,38.6396988],[25.1775373,38.5880433],[25.1864246,38.5367748],[25.2076446,38.4877768],[25.2403952,38.4428456],[25.283458,38.4036252],[25.3662351,38.3413197],[25.4184806,38.30893],[25.4776686,38.2850221],[25.5319566,38.2726789],[25.5387616,38.2212885],[25.55341,38.165611],[25.5732633,38.1153799],[25.6050996,38.0691313],[25.6476928,38.0286151],[25.6994181,37.9953615],[25.8180074,37.9330787],[25.8818339,37.906671],[25.9512311,37.8913676],[25.9618524,37.8908497],[25.9367463,37.8844237],[25.877811,37.8582681],[25.8265939,37.8234436],[25.7851034,37.7813247],[25.6938142,37.6665766],[25.6903033,37.6696636],[25.6366038,37.701341],[25.5760661,37.7240596],[25.5502791,37.7291705],[25.5428405,37.7400908],[25.5023936,37.7794139],[25.4533049,37.8120354],[25.3973131,37.8367931],[25.3098452,37.867252],[25.3031361,37.8824111],[25.2958875,37.8922203],[25.2954562,37.9112194],[25.2869267,37.9664188],[25.2641923,38.0190561],[25.2281937,38.0668853],[25.1804457,38.1078612],[25.1229758,38.1402285],[25.0582385,38.162599],[25.0511662,38.163767],[25.0272809,38.1878484],[24.9721403,38.2241885],[24.9087996,38.250537],[24.8818653,38.2966277],[24.839724,38.3413026],[24.7867412,38.3782247],[24.7251723,38.4058123],[24.6576504,38.4228823],[24.5870715,38.4287021],[24.5516044,38.4287317],[24.5669451,38.4652785],[24.5709812,38.4935007],[24.6079628,38.4939567],[24.6747552,38.5052999],[24.737414,38.5266941],[24.8451779,38.5738121],[24.9002803,38.6036676],[24.9470093,38.6412619],[24.9836005,38.6851878],[25.0086613,38.733798],[25.0212253,38.7852657],[25.0207919,38.8376527],[25.0073487,38.8889819],[24.9813769,38.9373117],[24.9438365,38.9808102],[24.76042,39.1534736],[24.710002,39.1919748],[24.6505173,39.2217416],[24.5844418,39.2415303],[24.5145349,39.2505138],[24.4437214,39.2483165],[24.4054915,39.2409351],[24.4206154,39.2870507],[24.4309802,39.3411416],[24.4270199,39.3957349],[24.4088642,39.4485843],[24.377231,39.4975098],[24.3334013,39.5404893],[24.2791698,39.5757427],[24.2167727,39.601808],[24.1487942,39.6176028],[24.0780577,39.6224711],[24.0075048,39.6162109],[23.940069,39.5990832],[23.8785492,39.5718005],[23.8388927,39.5497781],[23.7863397,39.5138487],[23.7584666,39.485201],[23.7533299,39.4826243],[23.728819,39.464218],[23.7182253,39.4680775],[23.6539339,39.4807704],[23.5876781,39.4838218],[23.5347452,39.4784345],[23.5217123,39.4798093],[23.4054756,39.6340242],[23.3579967,39.6830102],[23.3460506,39.6907878]],[[24.0749372,38.9323737],[24.1012359,38.9462653],[24.0955484,38.9321037],[24.0953223,38.93027],[24.0749372,38.9323737]],[[24.684121,40.3036208],[24.7088043,40.3051654],[24.7775809,40.3204811],[24.9139669,40.3625333],[24.9736574,40.3861147],[25.0264649,40.4178395],[25.0704914,40.4565743],[25.0901302,40.4824683],[25.0897514,40.4608461],[25.1017795,40.4100489],[25.1262719,40.3619199],[25.1623105,40.3182141],[25.2085632,40.2805219],[25.2144664,40.2765482],[25.1914493,40.2766056],[24.9999015,40.2630334],[24.9328465,40.2531519],[24.8695665,40.2335839],[24.812444,40.2050681],[24.7636223,40.1686792],[24.7433651,40.1462349],[24.7441392,40.1729227],[24.7333634,40.2224874],[24.7107039,40.2696625],[24.684121,40.3036208]],[[25.1369506,40.6176106],[25.1406465,40.6756302],[25.1427,40.6753038],[25.1967399,40.6750604],[25.168558,40.6535014],[25.1369506,40.6176106]],[[26.1289744,37.2693888],[26.1887937,37.2824438],[26.1887672,37.2814378],[26.1997735,37.2305711],[26.2227221,37.1823057],[26.2567541,37.138402],[26.2855998,37.1080763],[26.3314977,37.0686504],[26.386248,37.0372595],[26.4476804,37.0151422],[26.5133685,37.0031706],[26.521636,37.0030065],[26.5538084,36.9766887],[26.5763114,36.9615681],[26.5746504,36.9489993],[26.5806043,36.8964989],[26.5991902,36.8459294],[26.6034979,36.839333],[26.6011297,36.8337469],[26.5477588,36.8622482],[26.4885246,36.8874089],[26.4242024,36.9026491],[26.4087317,36.9037428],[26.408124,36.924804],[26.3947698,36.9744621],[26.3699772,37.0212295],[26.3346087,37.0634406],[26.2899095,37.0995893],[26.2214469,37.1453103],[26.1722765,37.1723329],[26.1668096,37.1931942],[26.145349,37.2465395],[26.1289744,37.2693888]],[[26.1980451,37.9344673],[26.2226427,37.9468755],[26.2518479,37.9652824],[26.2716602,37.9559132],[26.2918021,37.9501924],[26.2900741,37.950036],[26.1980451,37.9344673]],[[28.1187895,40.7367541],[28.1744438,40.7660422],[28.2051458,40.7905606],[28.4282949,40.7335846],[28.4758607,40.7252917],[28.5205765,40.7113227],[28.5061881,40.7010065],[28.4756089,40.6688226],[28.3717345,40.6740507],[28.3046553,40.6725662],[28.2773289,40.6699792],[28.2628045,40.6812474],[28.2039114,40.7115337],[28.1382033,40.7322946],[28.1187895,40.7367541]]]}}
