{"type":"Feature","properties":{"family":"byzantium","name":"Byzantine Empire, 789 – 854"},"geometry":{"type":"Polygon","coordinates":[[[12.0849621,37.7798241],[12.0952774,37.7296258],[12.1174531,37.681892],[12.1970418,37.5504273],[12.2358398,37.5009037],[12.2872708,37.4591807],[12.4418758,37.3581547],[12.4912567,37.3312504],[12.545869,37.3116467],[12.6040137,37.2999532],[12.6638848,37.2965341],[12.7892113,37.2980813],[12.79912,37.2901398],[12.8562974,37.259972],[12.9200016,37.2395586],[12.9876271,37.2297347],[13.0501984,37.2257464],[13.5122667,36.9555393],[13.5637311,36.9305492],[13.7432484,36.859842],[13.7982286,36.8427167],[13.856139,36.8334905],[13.9152156,36.8324452],[14.0453424,36.8391503],[14.207536,36.6443453],[14.2446515,36.6072261],[14.2893713,36.5759366],[14.3402934,36.5514527],[14.3958273,36.5345376],[14.9986386,36.3964647],[15.0682654,36.3865199],[15.1389959,36.3884985],[15.2077042,36.4023147],[15.2713501,36.4273596],[15.3271098,36.4625267],[15.3703197,36.4962085],[15.4102758,36.5335607],[15.4411377,36.5760825],[15.4618627,36.6223612],[15.4717412,36.6708559],[15.470422,36.719949],[15.4602808,36.7589557],[15.5084171,36.7828597],[15.5617731,36.8156084],[15.6059965,36.8561245],[15.6393197,36.9028054],[15.6603994,36.9538008],[15.6683715,37.0070851],[15.6628903,37.0605369],[15.6441461,37.1120235],[15.6377897,37.1216737],[15.6370376,37.1390075],[15.6216032,37.1906954],[15.5936151,37.2389234],[15.5892278,37.2436931],[15.5901473,37.2491054],[15.585903,37.3019826],[15.5686293,37.35314],[15.5389745,37.4005814],[15.4980759,37.4424523],[15.4747371,37.4584601],[15.4768675,37.4613868],[15.4991765,37.5180475],[15.5329052,37.6554123],[15.5697954,37.69665],[15.6028548,37.6826825],[15.6681231,37.6672289],[15.7360029,37.6623022],[16.0623943,37.6639265],[16.1295173,37.6694155],[16.194007,37.6851946],[16.2533573,37.7106529],[16.3052553,37.7448025],[16.3556774,37.7852208],[16.3931214,37.8208494],[16.4223127,37.8609821],[16.4423786,37.9044399],[16.4818708,38.0198426],[16.5421704,38.0783961],[16.7567134,38.1943245],[16.8112839,38.2308004],[16.8550679,38.2753299],[16.8861462,38.3259847],[16.903141,38.3805666],[16.9052799,38.4367013],[16.88727,38.6233978],[16.9521387,38.6557965],[16.985462,38.6462438],[17.0514553,38.6328825],[17.1195387,38.6298466],[17.1870861,38.6372543],[17.2514912,38.6548211],[17.3102641,38.6818701],[17.3611254,38.7173572],[17.4020931,38.7599101],[17.5032779,38.8896845],[17.5320816,38.9359935],[17.5490412,38.9856975],[17.5535132,39.0369871],[17.5453072,39.0879908],[17.5246962,39.1368434],[17.4924111,39.1817548],[17.4766522,39.1962423],[17.4830452,39.3239575],[17.4792225,39.3753538],[17.4627523,39.4252391],[17.4342138,39.471781],[17.4172939,39.4895159],[17.8080931,39.7337005],[17.8474768,39.7037414],[17.9027295,39.6752518],[18.1684416,39.564168],[18.225394,39.5450656],[18.2858221,39.5339838],[18.347841,39.5312688],[18.4095171,39.5370062],[18.4689271,39.5510178],[18.5227719,39.5678363],[18.5788482,39.5900297],[18.6288816,39.6195777],[18.6712537,39.6555304],[18.7045863,39.6967303],[18.7277864,39.7418481],[18.7400831,39.7894255],[18.7557777,39.9028866],[18.767237,39.9203551],[19.2805551,39.7920323],[19.2805591,39.7920313],[19.2805816,39.7920257],[19.5852671,39.7158584],[19.2805816,39.7920257],[19.2805591,39.7920313],[19.2805551,39.7920323],[19.2805507,39.7920334],[19.2748034,39.7551308],[19.2793655,39.7046398],[19.2961292,39.6556957],[19.3244797,39.6100212],[19.3633999,39.5692209],[19.517188,39.4357935],[19.5455457,39.3690282],[19.5734468,39.3202042],[19.613221,39.2765774],[19.6632973,39.2398493],[19.7217123,39.2114502],[19.9478976,39.1239326],[20.0114307,39.1050066],[20.0784902,39.095998],[20.1465336,39.0972491],[20.212982,39.1087135],[20.2239585,39.1124544],[20.170618,39.1934598],[20.3087437,38.983696],[20.3143912,38.9770221],[20.3217931,38.9714812],[20.3420324,38.9593405],[20.3150464,38.9338641],[20.2844276,38.8908864],[20.2643799,38.8443045],[20.2076355,38.6567294],[20.198575,38.6023259],[20.2005809,38.5814142],[20.1712269,38.564929],[20.1233868,38.5241136],[20.0872665,38.4765217],[20.0643718,38.4241704],[20.0111856,38.2433603],[20.0026818,38.1932182],[20.0062665,38.142722],[20.0217885,38.0936497],[20.0486792,38.0477256],[20.0859752,38.0065602],[20.1323549,37.9715947],[20.1861857,37.9440519],[20.2455813,37.9248936],[20.2675321,37.9213706],[20.2946535,37.9029859],[20.2858902,37.8817156],[20.277876,37.830903],[20.2821869,37.7798232],[20.2986417,37.7303184],[20.3266248,37.6841702],[20.3651104,37.6430367],[20.5595932,37.4712371],[20.6086088,37.4355248],[20.6654337,37.4080641],[20.7278979,37.3899008],[20.7936226,37.3817262],[20.8601088,37.3838517],[20.9248289,37.3961974],[20.98532,37.4182945],[21.007739,37.431185],[21.0583663,37.4346692],[21.0836034,37.4403494],[21.1029152,37.4257447],[21.1561384,37.3983992],[21.2148189,37.3793649],[21.2769266,37.3692995],[21.2998293,37.3690333],[21.3184984,37.3439389],[21.2900589,37.3120693],[21.2548674,37.2620696],[21.2337793,37.2072953],[21.2277169,37.1502265],[21.2369194,37.0934407],[21.269771,36.9837892],[21.2979755,36.9230031],[21.343487,36.8693611],[21.3701479,36.8448666],[21.3701095,36.8432842],[21.3629677,36.8057449],[21.3595954,36.7550831],[21.362561,36.7022669],[21.37832,36.6509436],[21.4062427,36.6030825],[21.4452382,36.5605162],[21.4937989,36.5248719],[21.5359365,36.5043836],[21.541582,36.5000417],[21.5964964,36.4718273],[21.625226,36.4600443],[21.6891723,36.440123],[21.7568209,36.4310559],[21.8253665,36.4332196],[21.8919671,36.4465249],[21.9292465,36.4609239],[21.9404377,36.4615856],[22.0049521,36.4761081],[22.0221679,36.4831811],[22.028933,36.4474677],[22.0497015,36.3999643],[22.0810617,36.3564031],[22.1219078,36.3182967],[22.1708108,36.2869663],[22.1884961,36.2776595],[22.1932183,36.2680695],[22.2279293,36.2244477],[22.2723194,36.1869882],[22.3247456,36.157067],[22.3832767,36.1357818],[22.4457638,36.1239129],[22.5099169,36.1218954],[22.5733868,36.1298037],[22.5872118,36.1338191],[22.6049095,36.0933936],[22.6341223,36.0518893],[22.6719083,36.0152027],[22.754702,35.9478326],[22.8019477,35.915862],[22.8556323,35.8914722],[22.9139297,35.8754907],[22.9748615,35.8684594],[23.0363625,35.870617],[23.0973549,35.8773433],[23.1634737,35.8902786],[23.2250172,35.9138015],[23.2794334,35.946939],[23.3244569,35.9883191],[23.3439944,36.0160549],[23.4308284,35.8425682],[23.4308995,35.842426],[23.4310205,35.8421843],[23.5556576,35.5931704],[23.4310205,35.8421843],[23.4308995,35.842426],[23.4308284,35.8425682],[23.4307755,35.8426738],[23.3797877,35.8116079],[23.3365663,35.7725231],[23.3035214,35.7273834],[23.2820365,35.6901795],[23.2561174,35.6244703],[23.192468,35.3423135],[23.1870418,35.2927732],[23.1928426,35.243274],[23.2096527,35.1954974],[23.2368827,35.1510629],[23.2735945,35.1114745],[23.3185346,35.0780696],[23.3701771,35.0519757],[23.5353848,34.9846417],[23.5880609,34.9675729],[23.6435239,34.9581502],[23.700143,34.956651],[23.7562543,34.9631194],[23.8087194,34.9729802],[23.9428784,34.9353736],[23.9958432,34.9244141],[24.0502915,34.9207827],[24.3066804,34.9208794],[24.3879884,34.8785024],[24.419147,34.8662273],[24.419373,34.8649994],[24.4426294,34.8133791],[24.4781229,34.7667153],[24.5243629,34.7269416],[24.5794218,34.6957033],[24.6410158,34.674291],[24.7065982,34.6635888],[24.7734621,34.6640382],[25.9569158,34.7653719],[26.0656188,34.7420709],[26.121273,34.7342313],[26.1777374,34.7343377],[26.2333542,34.7423871],[26.2864895,34.7581432],[26.379863,34.7934884],[26.4331332,34.8188229],[26.4797543,34.8518664],[26.5180903,34.8914663],[26.5467884,34.9362391],[26.6265027,35.0947524],[26.6454578,35.1465205],[26.6469514,35.1599528],[26.6675242,35.1465801],[26.7238181,35.1226579],[26.7846425,35.1079778],[26.8477639,35.1030781],[26.9108671,35.1081387],[27.0687532,35.1333786],[27.0852735,35.1374767],[27.09765,35.1352311],[27.1661359,35.1346528],[27.233302,35.1456371],[27.2962746,35.1677144],[27.3523542,35.1999401],[27.4494934,35.2689853],[27.4952493,35.3087467],[27.5303167,35.3552082],[27.5532478,35.4064786],[27.563083,35.460467],[27.5593928,35.5149672],[27.5423005,35.5677472],[27.5051999,35.6480827],[27.5274374,35.7138652],[27.5312987,35.7103453],[27.58119,35.673241],[27.6392509,35.6450969],[27.7030853,35.6270702],[27.7700663,35.6199018],[27.837442,35.6238858],[27.9024444,35.6388586],[27.9624003,35.664205],[28.0148381,35.6988827],[28.1236362,35.7870305],[28.1278655,35.7870804],[28.1933952,35.7987761],[28.2547222,35.8208852],[28.3093657,35.8525153],[28.3551075,35.8923878],[28.3900813,35.9388892],[28.4128486,35.9901344],[28.4224598,36.0440422],[28.4211107,36.062555],[28.4389121,36.0831639],[28.464825,36.1186294],[28.4837756,36.1568699],[28.5601151,36.3525267],[28.5737461,36.4051664],[28.5739015,36.4258818],[28.6201004,36.3900796],[28.6775194,36.3608392],[28.7410402,36.3414965],[28.7708033,36.3376576],[28.7786875,36.3084034],[28.8054715,36.2591528],[28.8437897,36.2151494],[28.8921103,36.1781306],[29.14385,36.0198623],[29.1953847,35.9930868],[29.2520647,35.9743637],[29.3119925,35.9643183],[29.3731653,35.963286],[29.3737445,35.9633631],[29.4044221,35.9585033],[29.4151539,35.9536258],[29.4472105,35.9245263],[29.4991166,35.8927421],[29.5576131,35.8697119],[29.6204825,35.8563065],[29.6853468,35.853032],[29.749755,35.860012],[29.8112732,35.8769824],[30.0753925,35.9735902],[30.1143299,35.9711157],[30.1764229,35.9766142],[30.2073398,35.9842558],[30.2550899,35.9613314],[30.3155238,35.9438523],[30.3789462,35.9360441],[30.4430271,35.9381933],[30.5054132,35.9502206],[30.5638119,35.9716838],[30.6160726,36.0017941],[30.6448514,36.0220018],[30.705826,36.0786013],[30.7996626,36.1948776],[30.8284171,36.2387947],[30.8467197,36.2862285],[30.8539312,36.3355737],[30.8502524,36.3795743],[30.8575646,36.3893988],[30.8836222,36.4327572],[30.8996968,36.4791609],[30.9052582,36.5271329],[30.9055368,36.5905622],[31.2271822,36.5496611],[31.6487058,36.3565322],[31.729928,36.3297057],[31.8235206,36.3097472],[32.1000304,36.0160328],[32.1390355,35.9811557],[32.1848897,35.9522632],[32.2362036,35.9302258],[32.6742852,35.7787901],[32.7388708,35.7623537],[32.8061825,35.7568279],[32.8734575,35.7624385],[32.9379342,35.7789545],[32.9969634,35.8056974],[33.0202271,35.8189128],[33.0632398,35.8153616],[33.1197682,35.8185123],[33.1748091,35.8293749],[34.1797575,36.097348],[34.2434061,36.1201238],[34.2998266,36.1530528],[34.3465701,36.1947113],[34.3815967,36.2432961],[34.4014703,36.2920563],[34.4556616,36.3336605],[34.4587499,36.3360315],[34.459782,36.3368239],[34.5009197,36.3748986],[34.5325241,36.4184866],[34.5534735,36.4660642],[34.5630141,36.5159654],[34.5607885,36.5664394],[34.5485996,36.6416492],[34.6440068,36.7681043],[34.5723695,36.7442306],[34.3023682,36.5682758],[34.2552446,36.5159828],[34.2552612,36.5160055],[34.2584439,36.5203475],[34.2605738,36.5251515],[34.2615366,36.5301936],[34.2612975,36.5352929],[34.2566091,36.5635009],[34.2280362,36.5317829],[34.2,36.7],[34.35,36.9],[34.5,37.1],[34.6666667,37.2333333],[34.8333333,37.3666667],[35,37.5],[35.6,38],[35.95,38.15],[36.125,38.225],[36.3,38.3],[37.2,38.6],[37.9,38.9],[38.26,39.1],[38.44,39.2],[38.62,39.3],[38.8,39.4],[39.025,39.5],[39.25,39.6],[39.475,39.7],[39.7,39.8],[39.925,39.9],[40.15,40],[40.375,40.1],[40.6,40.2],[41.3,40.7],[41.5,41.0333333],[41.6,41.2],[41.55,41.5],[41.5174404,41.5105031],[41.3914139,41.3791431],[41.5174404,41.5105031],[41.5210152,41.5142292],[41.5276077,41.521326],[41.5323841,41.5264678],[41.5384211,41.5329666],[41.5317919,41.5351054],[41.525146,41.5366993],[41.5182104,41.537309],[41.5112459,41.5369116],[41.5045141,41.5355222],[41.4982684,41.5331928],[41.4939432,41.530702],[41.4939521,41.5307247],[41.4943245,41.5316685],[41.4979762,41.536681],[41.6907692,41.7443461],[41.6605472,41.7567351],[41.5939749,41.772571],[41.5245029,41.7785713],[41.4547598,41.7745072],[41.3873853,41.7605306],[41.3249271,41.7371689],[41.2697415,41.7053043],[41.2253788,41.6674011],[41.223902,41.6661393],[41.1467873,41.5854983],[40.8491535,41.4652197],[40.798778,41.465941],[40.7307469,41.4570519],[40.6662671,41.4386089],[40.6077358,41.4112974],[40.4439764,41.3171136],[40.4343787,41.3171484],[40.3678613,41.3078892],[40.3048709,41.2894397],[40.1421854,41.2277709],[40.1373026,41.2297292],[40.0741567,41.244688],[40.0083875,41.2506679],[39.9422634,41.2474612],[39.8821721,41.235964],[39.7832605,41.2554047],[39.6336876,41.3331796],[39.5766236,41.3573142],[39.5145984,41.3732629],[39.4496985,41.380487],[39.3841109,41.3787418],[39.3200474,41.3680849],[39.2596672,41.3488744],[39.2428696,41.3421081],[39.2314468,41.3444753],[39.1680678,41.3488753],[39.1046393,41.3448128],[39.0431755,41.3324157],[38.6306636,41.2179843],[38.3436319,41.1903759],[38.1155904,41.2241103],[38.0879296,41.2654594],[38.0471767,41.3054008],[37.9971478,41.3389381],[37.9395948,41.364887],[37.8765433,41.3823296],[37.7826084,41.4009921],[37.7099079,41.4095537],[37.6363848,41.4068256],[37.5651556,41.3929218],[37.4992368,41.3684302],[37.4952181,41.3660663],[37.4861901,41.3702269],[37.432025,41.3906649],[37.3740019,41.4039684],[37.3137907,41.4097531],[37.3076991,41.4099486],[37.2915477,41.4353399],[37.2463737,41.4795821],[37.1899077,41.5158972],[37.1245727,41.5427146],[36.8970961,41.6139314],[36.8467011,41.6264686],[36.7943619,41.6333281],[36.6570095,41.6435221],[36.5803552,41.6430449],[36.5055696,41.6304663],[36.4926873,41.6260028],[36.4897498,41.6497652],[36.4703145,41.6993223],[36.4384882,41.7451849],[36.3487954,41.84841],[36.2934462,41.8977909],[36.2238106,41.9359619],[36.1552539,41.9647772],[36.0894665,41.986292],[36.0705903,41.9893649],[36.0469912,41.9959047],[35.973827,42.0042502],[35.8998823,42.0013663],[35.8282716,41.9873732],[35.5833338,41.9186261],[35.5549284,41.9273453],[35.5727433,41.9697778],[35.5804303,42.0208845],[35.5748796,42.0721314],[35.5562628,42.121648],[35.5252313,42.1676231],[35.4828972,42.2083708],[35.4307952,42.2423939],[35.3708285,42.2684395],[35.3051987,42.285547],[35.2696532,42.2894421],[35.212606,42.3217719],[35.1426834,42.3461449],[35.0673118,42.3590378],[34.9914023,42.3658296],[34.915311,42.3666937],[34.8575855,42.3583151],[34.8575439,42.3583839],[34.8575114,42.3584379],[34.8574595,42.3585238],[34.8573883,42.3586417],[33.7923659,44.1221942],[33.7923622,44.1222003],[33.7923492,44.1222218],[33.7921384,44.1225708],[33.7920911,44.1226492],[33.7901547,44.1258556],[33.7901339,44.1258901],[33.7901138,44.1259234],[33.7900693,44.1259971],[33.7900668,44.1260012],[33.7900525,44.1260249],[33.7899931,44.1261232],[33.6995242,44.2759291],[33.6993109,44.2762823],[33.6992106,44.2764484],[33.6458902,44.3647407],[33.6992106,44.2764484],[33.6993109,44.2762823],[33.6995242,44.2759291],[33.7899931,44.1261232],[33.8172934,44.1217973],[33.8914327,44.1154035],[33.9659047,44.1196217],[34.0378011,44.1342863],[34.1043108,44.1588231],[34.1628259,44.1922718],[34.211041,44.2333219],[34.2470433,44.2803626],[34.2693883,44.3315446],[34.2771608,44.3848513],[34.2779692,44.5125263],[34.277958,44.5125184],[34.1279686,44.4062589],[34.12177,44.4026976],[34.114666,44.4001405],[33.9527233,44.3562583],[33.9438924,44.3546945],[33.9347972,44.3546846],[33.8956701,44.3579944],[33.8955049,44.3580084],[33.9025177,44.3578839],[33.9095043,44.3587052],[33.9161562,44.3604445],[33.9222394,44.3630407],[33.9275395,44.3664022],[33.9318698,44.3704107],[33.9350776,44.374925],[33.9370495,44.3797862],[33.9372904,44.3816067],[33.9372881,44.3816069],[33.9000798,44.3847541],[33.9,44.3847608],[33.8754323,44.3868388],[33.9,44.3847608],[33.9000798,44.3847541],[33.9372881,44.3816069],[33.9372904,44.3816067],[33.9372908,44.3816067],[33.9372922,44.3816066],[33.9372931,44.3816065],[33.9372955,44.3816063],[33.9393394,44.3814334],[33.9372955,44.3816063],[33.9372931,44.3816065],[33.9372922,44.3816066],[33.9372908,44.3816067],[33.9372904,44.3816067],[33.9372881,44.3816069],[33.9000798,44.3847541],[33.9,44.3847608],[33.8178337,44.3917106],[33.719839,44.3999992],[33.7197433,44.4000073],[33.7197372,44.4000078],[33.7197433,44.4000073],[33.719839,44.3999992],[33.8178337,44.3917106],[33.9,44.3847608],[33.9,44.75],[33.5277046,44.75],[33.5229878,44.7625371],[33.5213092,44.7669985],[33.5203141,44.7696433],[33.5179572,44.7759079],[33.5126807,44.7747189],[33.5059437,44.7720395],[33.5001064,44.7684498],[33.4954099,44.7640979],[33.492048,44.7591639],[33.4901594,44.7538516],[33.4898217,44.7483804],[33.4910484,44.7429763],[33.4910832,44.7428838],[33.4910101,44.7430239],[33.4778201,44.7780225],[33.4766466,44.782882],[33.4767428,44.7878129],[33.4781059,44.7926498],[33.4806904,44.7972306],[33.4844099,44.8014017],[33.571658,44.8817253],[33.5800977,44.9294071],[33.5399026,45.0194517],[33.5278465,45.019453],[33.4572671,45.0146724],[33.3891547,45.0006992],[33.3258935,44.9780222],[33.2696914,44.9474344],[33.2225015,44.9100043],[33.1859527,44.8670378],[33.1650429,44.8271771],[33.1612943,44.8200312],[33.1558551,44.7975327],[33.129748,44.7850369],[33.0774793,44.7476636],[33.0364751,44.7037917],[33.008284,44.6551055],[32.9939542,44.60347],[32.9939975,44.5508586],[33.0083747,44.499277],[33.0365031,44.4506866],[33.0772839,44.4069306],[33.1291478,44.3696649],[33.1901172,44.3402967],[33.3154175,44.2917913],[33.3285589,44.2774771],[33.3741732,44.2369271],[33.4297948,44.2034174],[33.493348,44.1781891],[33.5624732,44.1621751],[33.6691381,44.1452734],[33.5541327,44.3352412],[33.6691961,44.1451776],[33.6692124,44.1451506],[33.6692554,44.1450796],[33.6692745,44.145048],[33.6692937,44.1450164],[34.7667932,42.3321488],[34.7668985,42.3319749],[34.7669465,42.3318956],[34.7669587,42.3318754],[34.7084049,42.301457],[34.6566576,42.2602883],[34.6247038,42.2208169],[33.3472336,42.2880432],[33.2710558,42.2857112],[33.1972079,42.2716746],[32.1315448,41.9717182],[32.0726536,41.9500311],[32.0200306,41.9207823],[31.9754105,41.8849407],[31.8991064,41.8110866],[31.2386236,41.5557279],[31.1769311,41.5251689],[31.1249329,41.4858074],[31.0848196,41.4393155],[31.058266,41.3876645],[31.0515328,41.3567777],[30.8830008,41.3517302],[30.3922945,41.4719974],[30.3298462,41.4826418],[30.2658551,41.4847945],[30.202371,41.4783863],[30.1414267,41.463622],[30.084971,41.440974],[30.0517459,41.4246189],[29.2113438,41.501839],[29.1625529,41.502628],[29.0291338,41.5231334],[28.4514935,41.7395696],[28.3976725,41.7822183],[28.386568,41.799495],[28.3875197,41.8010076],[28.4045235,41.8518751],[28.4080196,41.9042306],[28.3978436,41.9560988],[28.3375714,42.136953],[28.305719,42.1985952],[28.2545446,42.2526361],[28.1430574,42.3438332],[28.1397129,42.3826733],[28.1208525,42.4344548],[28.088453,42.4824491],[28.0884467,42.4824551],[28.1463658,42.5160873],[28.1944129,42.5580888],[28.2299816,42.6063782],[28.2515763,42.6589655],[28.2582698,42.7136782],[28.2576162,42.7529784],[28.2576003,42.7539378],[28.2502058,42.8045812],[28.2299531,42.8532965],[28.1975378,42.8983412],[28.1540975,42.9381003],[28.1011733,42.9711457],[28.0406567,42.9962881],[27.9747205,43.0126216],[27.9212641,43.0179961],[27.9271073,42.7504334],[27.9270979,42.75035],[27.9270958,42.7504446],[27.9262913,42.755643],[27.9241358,42.7606294],[27.92071,42.7652161],[27.9161425,42.7692306],[27.910605,42.7725217],[27.904306,42.7749656],[27.8974825,42.7764702],[27.8903913,42.776979],[27.88977,42.776979],[27.8897701,42.7769744],[27.8897701,42.7769744],[27.8903754,42.75],[27.8903754,42.75],[27.85,42.75],[27.7515766,42.7142097],[27.8276626,42.7117764],[27.8912789,42.7097419],[27.8276626,42.7117764],[27.7515766,42.7142097],[27.7328773,42.7148077],[27.7272938,42.7053796],[27.6666667,42.6833333],[27.4833333,42.6166667],[27.3,42.55],[27.1,42.5],[26.9,42.45],[26.7,42.4],[26.5,42.3333333],[26.3,42.2666667],[26.1,42.2],[25.9333333,42.1333333],[25.7666667,42.0666667],[25.6,42],[25.4,41.9],[25.2,41.8],[25,41.7],[24.7666667,41.6333333],[24.5333333,41.5666667],[24.3,41.5],[24.0666667,41.45],[23.8333333,41.4],[23.6,41.35],[23.4,41.2666667],[23.2,41.1833333],[23,41.1],[22.7333333,40.9],[22.6,40.8],[22.45,40.6],[22.3,40.4],[22,40],[21.8666667,39.8666667],[21.8333333,39.8333333],[21.7333333,39.7333333],[21.6666667,39.6666667],[21.6,39.6],[21.45,39.4],[21.3,39.2],[20.9828291,39.0414145],[20.9828291,39.0414145],[21,39.0339097],[20.9828291,39.0414145],[20.9828291,39.0414145],[20.9828291,39.0414145],[20.9649091,39.0492467],[20.9527144,39.0545766],[20.900009,39.0776122],[20.9527144,39.0545766],[20.9505689,39.0513982],[20.9486204,39.0460813],[20.9481109,39.0405683],[20.9490616,39.0350911],[20.9514321,39.02988],[20.9551225,39.0251541],[20.9599773,39.0211121],[20.9657925,39.0179238],[20.9830469,39.0103832],[20.9830522,39.0103808],[20.983048,39.010375],[20.9199935,39.0379491],[20.9201282,39.0364054],[20.919296,39.0312406],[20.9172099,39.0262936],[20.9139479,39.0217485],[20.9096316,39.0177745],[20.9044216,39.0145194],[20.898512,39.0121042],[20.8921226,39.0106187],[20.885491,39.0101183],[20.8459068,39.0101185],[20.8394367,39.0105953],[20.8331993,39.0120112],[20.8274158,39.0143161],[20.822291,39.0174284],[20.8180066,39.0212377],[20.8147146,39.0256091],[20.8125319,39.0303876],[20.8055163,39.0519984],[20.7875514,39.0324641],[20.8050048,39.0200124],[20.8001487,39.0228768],[20.7943992,39.0251113],[20.7882165,39.0264842],[20.781813,39.0269483],[20.7439857,39.0269479],[20.7439857,39.0269479],[20.7439857,39.0269479],[20.7817836,39],[20.7151506,39],[20.7053876,39.0257145],[20.7053876,39.0257145],[20.7012218,39.0246788],[20.6949987,39.0219363],[20.6896319,39.0182622],[20.6853493,39.0138128],[20.6823326,39.008777],[20.6807098,39.0033687],[20.6805493,38.9978177],[20.6815825,38.9935075],[20.6818577,38.9923594],[20.6815825,38.9935075],[20.6815794,38.9935204],[20.6571431,39.0578048],[20.4731961,39.1916338],[20.4731942,39.1916324],[20.455229,39.1788135],[20.4141202,39.1344767],[20.3854271,39.0846309],[20.3736544,39.0431384],[20.3057538,39.1464276],[20.3311603,39.1601748],[20.3783883,39.1982193],[20.4151858,39.2426436],[20.4252509,39.2624612],[20.3178429,39.2773292],[20.3113125,39.2787541],[20.3052684,39.2811426],[20.2999422,39.2844032],[20.2955383,39.2884108],[20.2091171,39.3846351],[20.2055118,39.3897457],[20.1838953,39.4302644],[20.1819001,39.4353991],[20.1812563,39.4407424],[20.1819896,39.4460824],[20.1840715,39.4512077],[20.1874196,39.4559148],[20.1919015,39.4600171],[20.1973395,39.4633519],[20.202194,39.4652651],[20.1891844,39.4774551],[20.185475,39.4816975],[20.1828716,39.486411],[20.1814689,39.4914249],[20.1813817,39.494392],[20.1256894,39.5038028],[20.1192874,39.5053998],[20.1134061,39.5079237],[20.1134061,39.5079237],[20.1082657,39.5112802],[20.1040587,39.5153436],[20.1009429,39.5199618],[20.0990351,39.5249618],[20.098407,39.5301565],[20.0990826,39.5353511],[20.1010367,39.5403511],[20.1389356,39.6115505],[19.9846648,39.6696841],[19.9792922,39.6721899],[19.9745916,39.675402],[19.9707155,39.6792162],[19.9677898,39.6835087],[19.9659097,39.6881401],[19.9569131,39.7201502],[19.9576469,39.7205237],[19.9629493,39.7247447],[19.9669376,39.7297467],[19.9694224,39.7352926],[19.9838461,39.7842578],[19.9846981,39.7894691],[19.9842162,39.794708],[19.9824183,39.7997755],[19.9793724,39.8044789],[19.9751943,39.8086392],[19.9700426,39.8120983],[19.9641131,39.8147246],[19.96166,39.8155769],[19.9616578,39.8155777],[19.971168,39.8513455],[19.8905931,39.8826055],[19.884735,39.8854707],[19.8797309,39.8891734],[19.8757781,39.8935677],[19.8730328,39.8984803],[19.8716034,39.9037176],[19.8715468,39.909073],[19.8728655,39.914335],[19.8755077,39.9192962],[19.8793694,39.9237606],[19.8998963,39.9430305],[19.840212,40.0218652],[19.7607368,40.0376299],[19.7542722,40.0394471],[19.7483987,40.0422019],[19.7433429,40.0457882],[19.7393,40.0500676],[19.721622,40.073273],[19.7216197,40.0732725],[19.7117036,40.0708674],[19.4842672,39.9945858],[19.4264869,39.9699131],[19.3856506,39.9437027],[19.3758068,39.9373846],[19.3340205,39.8981596],[19.3077248,39.8608995],[19.3077719,39.8608878],[19.3077729,39.8608875],[19.3078674,39.8608639],[19.6147476,39.7841397],[19.3078674,39.8608639],[19.3077729,39.8608875],[19.3077719,39.8608878],[18.8098351,39.9853785],[18.8098341,39.9853788],[18.8097357,39.9854034],[18.6143016,40.0342645],[18.8097357,39.9854034],[18.8098341,39.9853788],[18.8098351,39.9853785],[18.8098843,39.9853662],[18.83217,40.0193385],[18.8574885,40.0700098],[18.869021,40.1235282],[18.8662672,40.1777253],[18.8493054,40.2303999],[18.8187945,40.2794078],[18.6388534,40.5050051],[18.595012,40.5488606],[18.5830627,40.5567528],[18.5402708,40.5850154],[18.4769232,40.6119457],[18.4076359,40.6285152],[18.3353343,40.6340248],[18.2630745,40.6282429],[18.0614191,40.5955514],[18.0688853,40.5737316],[18.2589462,40.4797771],[18.26343,40.4771428],[18.2673048,40.4739991],[18.3639714,40.3816314],[18.364134,40.3814414],[18.4652614,40.2848144],[18.364134,40.3814414],[18.3639524,40.381615],[18.3586401,40.3856978],[18.3523089,40.3888314],[18.3452471,40.3908729],[18.3377762,40.3917295],[18.3302364,40.3913621],[18.311155,40.3888176],[18.31117,40.3888033],[18.3362637,40.3648352],[18.225,40.35],[18.0375,40.325],[17.85,40.3],[17.85,40.2860906],[17.8146302,40.28959],[17.814632,40.286087],[17.8153821,40.2805839],[17.817595,40.2753138],[17.8211767,40.2704992],[17.8259757,40.2663435],[17.8317893,40.2630223],[17.8383718,40.2606757],[17.8454451,40.2594029],[17.8462571,40.2593225],[17.8453649,40.2593477],[17.4972729,40.2937863],[17.4963195,40.2861934],[17.503039,40.2344074],[17.5227015,40.1845709],[17.5545477,40.1385407],[17.615531,40.0677689],[17.615038,40.0373241],[17.6149662,40.0328888],[17.6291397,39.9781438],[17.6577466,39.9268049],[17.7545534,39.792962],[17.4212762,39.5846082],[17.4212607,39.5845986],[17.3536657,39.5423404],[17.3454575,39.5481654],[17.2884856,39.5751899],[17.225819,39.593341],[17.159774,39.6019477],[17.0927958,39.6006924],[17.0273648,39.5896228],[16.9013219,39.5581111],[17.1230037,39.455306],[17.1755033,39.4309593],[17.1755012,39.4309579],[17.1704889,39.4278244],[17.16403,39.4228408],[17.1589547,39.4169793],[17.1554579,39.4104654],[17.1550723,39.4089709],[17.1595716,39.4068848],[17.1546763,39.3925784],[17.1554462,39.3895808],[17.158934,39.3830646],[17.1639988,39.3771992],[17.1704458,39.37221],[17.1780272,39.3682885],[17.1820238,39.367006],[17.149515,39.2721337],[17.1495062,39.2721497],[17.1682243,39.3267693],[17.1693127,39.331927],[17.1690881,39.3371491],[17.1675585,39.3422384],[17.1647816,39.347003],[17.1608617,39.3512629],[17.1559468,39.3548575],[17.1502222,39.3576509],[17.1439042,39.3595376],[17.1433945,39.359607],[17.1433891,39.3595913],[17.1345045,39.3336261],[16.8,39.25],[16.3,39.25],[16.1333333,39.3333333],[16.0143217,39.3928391],[16.0222513,39.372011],[16.0242478,39.3667669],[16.0327603,39.3444074],[16.0242478,39.3667669],[16.0222513,39.372011],[16.0143217,39.3928391],[16.004547,39.4185139],[16.0045397,39.4185332],[15.9994969,39.4171687],[15.9934407,39.4143709],[15.9882388,39.4106926],[15.9841041,39.4062845],[15.9812053,39.4013268],[15.9796607,39.3960223],[15.9795333,39.3905879],[15.9808251,39.3852568],[15.9808278,39.3852457],[15.9808251,39.3852568],[15.9808251,39.3852568],[15.965196,39.4262599],[15.8398608,39.5470453],[15.8366158,39.5507591],[15.8342117,39.5548355],[15.8089588,39.6091257],[15.7695151,39.5845822],[15.7263075,39.5449138],[15.6938227,39.4996227],[15.6732458,39.4503932],[15.6653139,39.3990523],[15.6702923,39.3475009],[15.6885167,39.265444],[15.7406156,39.0308639],[15.7574312,38.9824249],[15.7855477,38.9372532],[15.7912231,38.9299594],[15.7345296,38.9149918],[15.6708835,38.8923635],[15.6144272,38.8602636],[15.5674695,38.8200131],[15.5319189,38.7732649],[15.5092072,38.7219347],[15.5002335,38.6681212],[15.5053321,38.6140194],[15.5211466,38.570432],[15.5097928,38.5708574],[15.4383601,38.5617354],[15.3709509,38.5411711],[15.3274239,38.5235661],[15.2999824,38.5296718],[15.2342168,38.5340758],[15.1685632,38.5285945],[15.1054542,38.5134324],[15.0472243,38.4891525],[14.9960213,38.4566544],[14.986669,38.4479218],[14.9701805,38.4517295],[14.9006632,38.4563119],[14.831369,38.4498308],[14.6579834,38.4192907],[14.6004119,38.4048445],[14.5469761,38.3827462],[14.3855315,38.3008357],[14.2759721,38.287566],[14.0785157,38.3139403],[14.0140466,38.3176545],[13.9498062,38.3118394],[13.8880909,38.2967042],[13.7972398,38.2667711],[13.7586859,38.2977231],[13.7015492,38.3345517],[13.6355398,38.3608968],[13.6045254,38.3672214],[13.5952519,38.3792716],[13.5530746,38.4162904],[13.5028197,38.4465898],[13.44621,38.4691267],[13.3851929,38.483125],[13.3218721,38.4881027],[13.2584327,38.4838895],[13.0416766,38.4533339],[12.9803518,38.4399576],[12.9232387,38.4179993],[12.9197358,38.4159527],[12.8935182,38.429666],[12.8289616,38.4501774],[12.7603644,38.46008],[12.6905742,38.4589643],[12.6224886,38.4468787],[12.5589311,38.4243266],[12.5025308,38.3922451],[12.4556107,38.3519644],[12.4200919,38.305151],[12.4144775,38.2924272],[12.3338134,38.2589581],[12.278151,38.2300843],[12.2307089,38.1933487],[12.1932769,38.1501502],[12.1672566,38.1021304],[12.1536096,38.0511099],[12.1380541,37.9398538],[12.1269304,37.9270935],[12.1010536,37.8803704],[12.0869023,37.8306828],[12.0849621,37.7798241]],[[20.170618,39.1934598],[20.1977865,39.1522005],[20.1964347,39.1522506],[20.1898213,39.1535406],[20.1836658,39.1558179],[20.1188804,39.1862011],[20.1137225,39.1891583],[20.1093568,39.192808],[20.1059332,39.1970251],[20.1035696,39.2016646],[20.1023471,39.2065674],[20.1023083,39.2115649],[20.1058914,39.2436488],[20.1071788,39.2489505],[20.1097952,39.2539506],[20.1136362,39.258449],[20.1185483,39.2622659],[20.123597,39.2648679],[20.1402043,39.2396473],[20.1404014,39.2414042],[20.201602,39.1789269],[20.170618,39.1934598]],[[12.9439294,37.5680242],[13,37.512795],[13,37.512795],[12.9439294,37.5680242]],[[14.9491495,38.3971156],[14.9671497,38.4325757],[15,38.3955959],[15.00315,38.3920499],[15,38.3870263],[14.9851499,38.363344],[14.9491495,38.3971156]],[[14.9815498,36.6882754],[15,36.6994019],[15.0067501,36.7034726],[15,36.6994019],[14.9815498,36.6882754]],[[23.3446138,37.019175],[23.3722223,37.0336028],[23.4309339,37.0372101],[23.5529125,37.0540274],[23.6140127,37.0671957],[23.6710052,37.0891919],[23.7219066,37.1192527],[23.733095,37.1288987],[23.7502422,37.1348097],[23.8052177,37.1651412],[23.8516952,37.2034708],[23.8878599,37.2483143],[23.9122884,37.2979321],[23.9240067,37.3503954],[23.9227319,37.3964201],[23.9630697,37.3866173],[23.9931463,37.3839816],[24.0255254,37.3492942],[24.0320298,37.3446681],[24.0282737,37.3250168],[24.0308182,37.2737936],[24.0454822,37.223883],[24.0717136,37.1770833],[24.0867857,37.1599027],[24.0827055,37.1175212],[24.0913562,37.0632598],[24.1135247,37.0115104],[24.1480324,36.9647239],[24.1195229,36.9461476],[24.0782603,36.9066156],[24.0471745,36.8615319],[24.0273836,36.8125468],[23.999016,36.7094669],[23.9911839,36.6559852],[23.9967453,36.6023294],[24.0154507,36.5506353],[24.0465312,36.5029565],[24.0887328,36.4611834],[24.1403684,36.4269694],[24.1993861,36.4016667],[24.2634501,36.3862743],[24.3300307,36.3813997],[24.3965023,36.3872354],[24.6153752,36.4242426],[24.6477023,36.4322895],[24.6627445,36.4214572],[24.7137009,36.3962319],[24.8142562,36.3558363],[24.8744027,36.337202],[24.9378537,36.3281689],[25.0022808,36.3290686],[25.0275057,36.3333946],[25.0370595,36.2878077],[25.0590602,36.2401094],[25.0917421,36.1965911],[25.1339311,36.1587935],[25.184123,36.1280528],[25.2405373,36.1054542],[25.3011798,36.0917948],[25.4052275,36.0766494],[25.4720877,36.072406],[25.538659,36.0790274],[25.6022773,36.0962489],[25.6250475,36.1068855],[25.6474324,36.0994156],[25.7088459,36.0891622],[25.7715468,36.0883489],[25.8791691,36.0950767],[25.9441227,36.1043735],[26.005577,36.1237849],[26.0611503,36.1525598],[26.1086821,36.1895841],[26.1463157,36.2334219],[26.170847,36.2791583],[26.187384,36.2704658],[26.2457692,36.2511638],[26.3075915,36.2410235],[26.3706712,36.2404026],[26.4327852,36.2493228],[26.4917435,36.26747],[26.5454641,36.2942044],[26.5920444,36.3285826],[26.5985491,36.335612],[26.6368546,36.3499342],[26.69113,36.3821957],[26.7363298,36.4225461],[26.7672584,36.4647767],[26.7791201,36.4580272],[26.8373607,36.431447],[26.8420147,36.4302217],[26.8456632,36.4244995],[26.8859643,36.3834012],[26.9353207,36.3493281],[26.9918769,36.3235537],[27.0047495,36.3201083],[27.0095819,36.3123692],[27.0474431,36.2724315],[27.1302804,36.200002],[27.1805176,36.1640232],[27.1948178,36.1573401],[27.1949163,36.1567308],[27.2157643,36.106796],[27.2224761,36.0973384],[27.1919359,36.0975094],[27.1289124,36.0879142],[27.0693506,36.0687132],[27.0044006,36.0416089],[26.9509455,36.0137334],[26.9050453,35.97813],[26.8683711,35.9361042],[26.8422493,35.8891948],[26.7530151,35.6761858],[26.7401493,35.6301371],[26.7047717,35.6163887],[26.6501193,35.589578],[26.6028316,35.5547223],[26.5646627,35.513123],[26.5583025,35.5023624],[26.525635,35.5278768],[26.4706177,35.5563834],[26.4097747,35.5755272],[26.3454831,35.5845589],[26.280259,35.5831251],[26.2166562,35.5712818],[26.1571629,35.549493],[26.1041019,35.5186113],[26.0803117,35.5016317],[26.0758106,35.5021602],[26.0272701,35.5005286],[26.0133472,35.5160677],[25.9645544,35.5523524],[25.9078437,35.5799966],[25.8454852,35.5978901],[25.779982,35.6053136],[25.7139676,35.6019686],[25.5335799,35.5777582],[25.5145157,35.5871148],[25.4478554,35.605643],[25.3778649,35.6122439],[25.2617972,35.6129908],[25.2158963,35.6388916],[25.1573203,35.6597476],[25.074272,35.681772],[25.0251992,35.6914657],[24.9748738,35.694971],[24.7003161,35.6966561],[24.6115075,35.6872394],[24.4996751,35.6624609],[24.4918113,35.6847337],[24.4636269,35.7300132],[24.4254587,35.7701821],[24.3786525,35.8038086],[24.3248688,35.8296926],[24.2660234,35.8469093],[24.2042178,35.854843],[24.1030647,35.8599223],[24.034312,35.8575396],[24.0024757,35.8509348],[23.9758595,35.8774858],[23.9245681,35.9116406],[23.8658793,35.9368243],[23.8021464,35.9520245],[23.7359314,35.9566298],[23.6698988,35.9504554],[23.6067052,35.9337502],[23.5488895,35.9071865],[23.5085375,35.8787237],[23.5085899,35.8786187],[23.5086644,35.8784695],[23.5087837,35.8782306],[23.6410536,35.613414],[23.5087837,35.8782306],[23.5086644,35.8784695],[23.5085899,35.8786187],[23.3956557,36.1047236],[23.4089111,36.1289666],[23.4285697,36.1762377],[23.4371374,36.2256138],[23.4359421,36.2466056],[23.4540665,36.2609306],[23.4916709,36.3056981],[23.5174933,36.3555969],[23.5304766,36.4086312],[23.5300731,36.4626752],[23.5162705,36.5155582],[23.4734755,36.6237551],[23.4459573,36.6744443],[23.4303041,36.6921545],[23.4371536,36.7060492],[23.4489878,36.7545478],[23.4495899,36.8039554],[23.4389175,36.8526133],[23.4173082,36.8988849],[23.3446138,37.019175]],[[23.3463253,39.6906687],[23.7112927,39.6620826],[23.7813536,39.6618795],[23.8500834,39.6723644],[23.9116555,39.6921264],[23.9206491,39.6899551],[23.9893595,39.6842718],[24.0581891,39.6890272],[24.1244938,39.7040391],[24.1857232,39.7287309],[24.2395155,39.7621533],[24.2837867,39.8030193],[24.3168107,39.8497528],[24.3209043,39.8599135],[24.3517613,39.8612779],[24.4159418,39.8736192],[24.5092416,39.8988506],[24.5687737,39.9198644],[24.6222323,39.9489579],[24.6677701,39.9851307],[24.682454,40.0022553],[24.6816544,39.9750349],[24.6968527,39.8180488],[24.7083352,39.7668044],[24.7281844,39.7266724],[24.6960578,39.6997758],[24.66084,39.6555991],[24.6372859,39.6070497],[24.6262429,39.5559268],[24.6280916,39.5041207],[24.6392318,39.4349249],[24.6536394,39.3848475],[24.6800256,39.3377787],[24.7174177,39.2954126],[24.7644538,39.2592717],[24.8194334,39.2306525],[24.8803787,39.2105803],[24.9451046,39.1997737],[25.0112951,39.1986193],[25.0765835,39.2071587],[25.138634,39.2250867],[25.195223,39.251762],[25.244316,39.2862293],[25.2841401,39.3272526],[25.3455539,39.4047713],[25.3745502,39.4504879],[25.3919388,39.499594],[25.3941249,39.5211946],[25.3978916,39.5212979],[25.4672989,39.5343841],[25.5318508,39.5580378],[25.5888753,39.5912824],[25.636002,39.6327435],[25.6712598,39.680704],[25.6783603,39.697725],[25.6874378,39.6846802],[25.730415,39.6442152],[25.769192,39.6194746],[25.744283,39.5660056],[25.7298627,39.5225031],[25.7042131,39.5101461],[25.6521532,39.4715329],[25.6115378,39.4254745],[25.5291094,39.3070576],[25.5023788,39.2571139],[25.4890735,39.2040464],[25.4896981,39.1499905],[25.5041958,39.0971162],[25.5319556,39.0475413],[25.5718416,39.0032471],[25.6222418,38.9660006],[25.6811345,38.9372851],[25.8774577,38.8613793],[25.7786193,38.8451272],[25.7657566,38.8420285],[25.7085611,38.8642197],[25.6396303,38.8782396],[25.5684611,38.880944],[25.4980958,38.8722176],[25.4330745,38.8586574],[25.3708415,38.8404993],[25.3142452,38.8133923],[25.2653806,38.7783438],[25.226048,38.7366544],[25.1976864,38.6898686],[25.1813217,38.6397165],[25.1775322,38.5880487],[25.1864301,38.5367677],[25.2076618,38.4877578],[25.2404246,38.4428158],[25.2834993,38.4035864],[25.3662798,38.3412805],[25.4185328,38.3088867],[25.4777256,38.2849759],[25.5319587,38.2726438],[25.5387554,38.221326],[25.5534044,38.1656468],[25.5732671,38.1153939],[25.605118,38.069125],[25.64773,38.0285913],[25.6994765,37.9953246],[25.8180699,37.9330426],[25.8818998,37.9066339],[25.9512962,37.8913292],[25.9615366,37.8908296],[25.9366932,37.8844715],[25.877776,37.858326],[25.8265741,37.8235137],[25.7850943,37.781408],[25.6937591,37.6666074],[25.690251,37.6696918],[25.6365387,37.7013783],[25.5759903,37.7241045],[25.5502325,37.729211],[25.542813,37.7401022],[25.5023472,37.7794426],[25.4532382,37.8120783],[25.3972258,37.836846],[25.3098192,37.8672848],[25.3031318,37.8823956],[25.295897,37.8921869],[25.2954668,37.9111489],[25.2869349,37.9663725],[25.2641929,38.0190352],[25.228182,38.0668891],[25.180418,38.1078872],[25.1229296,38.1402728],[25.0581728,38.1626561],[25.051107,38.1638234],[25.0272562,38.1878732],[24.9721109,38.2242257],[24.9087575,38.2505904],[24.8818639,38.2966225],[24.8397115,38.3413213],[24.7867149,38.3782644],[24.7251304,38.4058688],[24.6575925,38.42295],[24.5869987,38.4287746],[24.5516741,38.4288048],[24.566952,38.4652049],[24.5709865,38.4934273],[24.6079998,38.4938822],[24.6747837,38.505223],[24.7374336,38.5266151],[24.8451945,38.573735],[24.900301,38.6035964],[24.9470315,38.6412007],[24.9836215,38.6851397],[25.0086782,38.7337655],[25.0212355,38.7852504],[25.0207928,38.8376552],[25.0073383,38.8890019],[24.9813535,38.9373481],[24.9437991,38.9808609],[24.7603907,39.153522],[24.7099725,39.1920288],[24.6504912,39.2218014],[24.5844217,39.2415964],[24.5145222,39.2505864],[24.4437165,39.2483955],[24.4055422,39.2410274],[24.4206137,39.286985],[24.4309826,39.3410898],[24.4270272,39.3956992],[24.4088769,39.4485661],[24.3772494,39.4975102],[24.3334252,39.5405087],[24.2791985,39.5757809],[24.216805,39.6018638],[24.1488286,39.6176745],[24.0780924,39.6225559],[24.0075379,39.6163054],[23.9400987,39.5991834],[23.8785741,39.5719019],[23.8389162,39.5498801],[23.7863506,39.5139415],[23.7584973,39.4853107],[23.7533648,39.4827365],[23.728804,39.4642946],[23.71816,39.4681728],[23.6538683,39.4808665],[23.5876145,39.4839164],[23.5347105,39.4785286],[23.5216527,39.4799073],[23.4054522,39.6340849],[23.3579514,39.6830989],[23.3463253,39.6906687]],[[24.0752128,38.9324227],[24.1011484,38.9461244],[24.0955446,38.9321709],[24.0953197,38.9303473],[24.0752128,38.9324227]],[[24.6841981,40.3035555],[24.7087892,40.3050949],[24.7775499,40.3204092],[24.9139331,40.3624642],[24.9736319,40.3860518],[25.0264468,40.4177865],[25.0704796,40.4565343],[25.0901334,40.4824537],[25.0897548,40.4608295],[25.1017855,40.4100175],[25.1262829,40.3618754],[25.1623284,40.3181591],[25.2085895,40.2804599],[25.2143135,40.2766068],[25.1914593,40.2766645],[24.999911,40.2630967],[24.9328557,40.2532156],[24.8695748,40.2336457],[24.8124508,40.2051252],[24.7636273,40.1687292],[24.7433651,40.1462757],[24.7441356,40.1729488],[24.7333521,40.2225317],[24.7106828,40.2697232],[24.6841981,40.3035555]],[[25.1369468,40.6176231],[25.1406373,40.6755696],[25.1426853,40.6752442],[25.1966259,40.6750021],[25.1685755,40.6535417],[25.1369468,40.6176231]],[[26.1289858,37.2693325],[26.1887787,37.2823834],[26.1887556,37.2815079],[26.1997682,37.2306234],[26.2227282,37.1823394],[26.2567757,37.1384176],[26.2856229,37.1080914],[26.3315291,37.0686572],[26.3862858,37.0372573],[26.4477224,37.0151306],[26.5134125,37.0031494],[26.5217093,37.0029836],[26.5538563,36.9766888],[26.5762935,36.9616129],[26.5746364,36.9490632],[26.5805996,36.8965488],[26.5991994,36.8459642],[26.6034773,36.8394148],[26.6010753,36.8337484],[26.5476924,36.8622578],[26.488451,36.8874255],[26.4241248,36.9026733],[26.4087411,36.9037627],[26.4081286,36.9247775],[26.3947589,36.9744441],[26.3699511,37.0212206],[26.3345681,37.0634412],[26.2898556,37.0995995],[26.2213957,37.1453206],[26.1722721,37.1723211],[26.1668204,37.1931246],[26.1453536,37.2464893],[26.1289858,37.2693325]],[[26.1983905,37.9345745],[26.2226755,37.9468254],[26.251912,37.9652531],[26.2717204,37.9558858],[26.2916665,37.9502208],[26.2900043,37.9500704],[26.1983905,37.9345745]],[[28.1187577,40.73676],[28.174435,40.7660634],[28.2051179,40.7905684],[28.4282657,40.7335991],[28.4713468,40.7260913],[28.4771817,40.7235297],[28.5214885,40.7119437],[28.5061965,40.7009804],[28.4756231,40.6688056],[28.3717714,40.6740356],[28.3046859,40.6725528],[28.277355,40.6699661],[28.2628234,40.6812404],[28.2039354,40.7115257],[28.1382315,40.7322864],[28.1187577,40.73676]],[[33.0680955,36.0848255],[33.1010321,36.0936086],[33.1581316,36.1377992],[33.1010321,36.0936086],[33.0861309,36.0820762],[33.0680955,36.0848255]],[[33.3037875,36.1476767],[33.3037875,36.1476767],[33.4465856,36.1573603],[33.3037875,36.1476767]],[[33.3037875,36.1476767],[33.35,36.16],[33.8,36.28],[33.8477877,36.2927434],[33.8709387,36.3150998],[33.8477877,36.2927434],[33.8071643,36.2535141],[33.8582493,36.2671367],[33.8071643,36.2535141],[33.8071534,36.2535036],[33.8071534,36.2535036],[33.6873369,36.1377992],[33.6477365,36.1918337],[33.5505355,36.1276677],[33.4569346,36.1580621],[33.3037875,36.1476767]],[[33.8709387,36.3150998],[33.8947185,36.3052583],[34.025,36.34],[34.0761408,36.3536375],[34.0761408,36.3286084],[34.00054,36.3032798],[33.9573396,36.2137852],[33.9330347,36.2870715],[33.9321393,36.2897712],[33.8947185,36.3052583],[33.8709387,36.3150998]]]}}
