{"type":"Feature","properties":{"family":"byzantium","name":"Byzantine Empire, 1047 – 1066"},"geometry":{"type":"Polygon","coordinates":[[[18.8760309,41.9346557],[18.8763125,41.8834381],[18.8896996,41.8331788],[18.915677,41.7857014],[18.9532786,41.7427246],[19.0011254,41.7058018],[19.0574767,41.6762653],[19.0971506,41.662954],[19.0943752,41.6575485],[19.0824786,41.6075998],[19.0834234,41.5568694],[19.0844489,41.5531588],[19.0838162,41.552529],[19.0534014,41.5051388],[19.0359869,41.4542326],[19.0322098,41.4017647],[19.0421819,41.3497442],[19.0714168,41.260358],[19.0946302,41.210812],[19.0950524,41.210276],[19.0932243,41.2065053],[19.0837312,41.1439812],[19.0842131,41.0560231],[19.0548398,41.0180679],[19.0314683,40.9639557],[19.0238123,40.9073553],[19.0321752,40.8508093],[19.0324189,40.8499766],[18.9808655,40.7636579],[18.9587656,40.7142302],[18.9497703,40.6625124],[18.9541886,40.610458],[18.9718235,40.5600288],[18.9800953,40.5471721],[18.9597535,40.5162984],[18.9415228,40.4659457],[18.9365178,40.4138768],[18.944897,40.3620605],[18.9663144,40.3124516],[18.9999367,40.2669176],[19.1875198,40.0614057],[19.2392728,40.0161954],[19.3028441,39.9808431],[19.3872352,39.9440658],[19.3757809,39.9367204],[19.3340451,39.8976262],[19.302648,39.8532623],[19.28268,39.8052004],[19.2748215,39.7551392],[19.279323,39.7048444],[19.2959994,39.6560855],[19.3242407,39.6105749],[19.3630361,39.5699075],[19.5170021,39.4363178],[19.5454628,39.3693024],[19.5732729,39.3206489],[19.6129409,39.277165],[19.6629034,39.2405435],[19.7212054,39.212208],[19.790422,39.1854958],[19.7904672,39.1819965],[19.8029267,39.1332886],[19.8267531,39.0871904],[19.8611153,39.0452696],[19.9048299,39.0089491],[19.9564032,38.9794603],[20.0210529,38.9491612],[20.0827001,38.926319],[20.1489217,38.9132592],[20.217171,38.9104851],[20.2848254,38.9181048],[20.3089418,38.9247404],[20.2843575,38.8902366],[20.2643578,38.8437662],[20.2076276,38.6562071],[20.1986005,38.601955],[20.2006507,38.5807252],[20.1712664,38.5642454],[20.1233825,38.5234492],[20.0872438,38.4758907],[20.0643593,38.4235903],[20.0111865,38.2427957],[20.002715,38.1928282],[20.0063032,38.1425214],[20.0218001,38.0936422],[20.0486396,38.0479041],[20.0858626,38.0069074],[20.1321535,37.9720842],[20.1858868,37.9446494],[20.2451841,37.9255594],[20.2669552,37.922069],[20.2949504,37.9031131],[20.2859267,37.8812382],[20.2779197,37.8306366],[20.282191,37.7797785],[20.298562,37.7304911],[20.3264221,37.6845419],[20.3647544,37.6435753],[20.5592113,37.471782],[20.6082068,37.4360939],[20.665048,37.4086563],[20.727559,37.3905169],[20.7933534,37.3823685],[20.8599229,37.3845228],[20.9247299,37.3968991],[20.9853014,37.4190268],[21.0076091,37.4318494],[21.05772,37.4352623],[21.0831259,37.4409507],[21.1027896,37.4261149],[21.1559778,37.3988638],[21.2146282,37.3799044],[21.2767124,37.3698924],[21.2994247,37.3696391],[21.3188016,37.3435918],[21.2899907,37.3113036],[21.2548727,37.2614247],[21.2338234,37.2068125],[21.2277609,37.1499334],[21.2369236,37.0933501],[21.2697704,36.9837091],[21.2978445,36.923201],[21.3431589,36.8697942],[21.3702102,36.84494],[21.3701571,36.8427559],[21.3630152,36.8052712],[21.3596443,36.7546143],[21.3626166,36.7019141],[21.3783811,36.6507205],[21.4063084,36.6029978],[21.4453074,36.5605733],[21.493871,36.5250692],[21.5353295,36.5050104],[21.5411531,36.5005334],[21.5958923,36.472414],[21.6246194,36.4606299],[21.6885461,36.4407128],[21.7562074,36.4316388],[21.8247938,36.4337857],[21.8914578,36.4470659],[21.9289869,36.4615228],[21.9402967,36.4621994],[22.0048629,36.476765],[22.0220282,36.4838212],[22.0289363,36.4473352],[22.0496186,36.4000304],[22.0808554,36.3566503],[22.1215495,36.3186953],[22.1702833,36.2874765],[22.1882753,36.2780073],[22.1931675,36.2680774],[22.2278426,36.2245643],[22.2722022,36.1872099],[22.3246045,36.1573866],[22.3831194,36.136189],[22.4455983,36.1243948],[22.5097511,36.1224369],[22.5732278,36.130388],[22.5869058,36.1343654],[22.6048262,36.0934268],[22.6339153,36.0520984],[22.6715481,36.0155604],[22.7543308,35.9481917],[22.8015127,35.9162693],[22.8551524,35.891917],[22.9134244,35.8759616],[22.9743506,35.868945],[23.0358649,35.8711059],[23.0968587,35.8778275],[23.1630992,35.8907786],[23.2247661,35.9143321],[23.2792929,35.9475111],[23.3244014,35.9889375],[23.3437947,36.0164538],[23.3438879,36.0162677],[23.3439567,36.0161301],[23.3439944,36.0160549],[23.4307755,35.8426738],[23.4308284,35.8425682],[23.4308995,35.842426],[23.4310205,35.8421843],[23.3797603,35.8109077],[23.3365533,35.7718089],[23.3035262,35.7266811],[23.2820457,35.6894796],[23.2561501,35.6238193],[23.1925165,35.3416884],[23.1870985,35.292311],[23.1928652,35.2429903],[23.2096007,35.1953956],[23.2367207,35.1511342],[23.2732945,35.1116988],[23.3180779,35.0784171],[23.3695563,35.0524083],[23.5347497,34.9850674],[23.5874175,34.9680017],[23.6428971,34.9585827],[23.6995544,34.9570882],[23.7557214,34.963563],[23.8080662,34.9733968],[23.9421929,34.9357877],[23.9951584,34.9248253],[24.0496291,34.9211904],[24.306037,34.9212682],[24.3874507,34.8788279],[24.4190802,34.866367],[24.4193942,34.8646612],[24.4425903,34.8131968],[24.4779975,34.7666849],[24.5241326,34.7270482],[24.5790773,34.695923],[24.6405581,34.6745926],[24.7060389,34.6639362],[24.772823,34.6643931],[25.9562635,34.7656332],[26.0649679,34.742323],[26.1206526,34.7344786],[26.1771686,34.734589],[26.232853,34.7426515],[26.2860665,34.7584294],[26.3794475,34.7937691],[26.4328348,34.8191527],[26.4795626,34.8522593],[26.5179852,34.8919305],[26.5467418,34.9367759],[26.6264722,35.0953007],[26.645412,35.1470012],[26.6468507,35.1598911],[26.6671151,35.1467144],[26.7233476,35.1228219],[26.7841275,35.1081621],[26.847224,35.1032729],[26.9103235,35.108334],[27.0682149,35.1335622],[27.0847348,35.1376588],[27.0973608,35.1353773],[27.1658447,35.1348461],[27.2330226,35.1458713],[27.2960196,35.167982],[27.3521339,35.2002325],[27.4492859,35.2692759],[27.4950852,35.3090589],[27.5301975,35.3555333],[27.553172,35.4068064],[27.5630462,35.4607859],[27.5593889,35.5152646],[27.5423219,35.5680098],[27.5051576,35.6484829],[27.5272493,35.7138297],[27.5311091,35.7103104],[27.580958,35.6732437],[27.6389885,35.6451382],[27.7028058,35.6271503],[27.7697835,35.6200199],[27.837169,35.6240403],[27.9021931,35.6390469],[27.9621804,35.6644236],[28.0146567,35.6991269],[28.1233003,35.7871314],[28.1273822,35.7871794],[28.1929663,35.7988809],[28.2543614,35.8210045],[28.3090804,35.8526562],[28.3548989,35.8925556],[28.3899443,35.9390862],[28.4127731,35.9903593],[28.4224312,36.0442895],[28.4210855,36.0629059],[28.4388322,36.0834504],[28.464772,36.118948],[28.4837423,36.1572167],[28.5600977,36.3528899],[28.5737251,36.4055048],[28.5738801,36.4257076],[28.619891,36.3900457],[28.6772405,36.3608432],[28.7406972,36.3415264],[28.7707277,36.3376554],[28.7786652,36.3081696],[28.8053986,36.2589806],[28.8436511,36.2150369],[28.8918965,36.178071],[29.1436052,36.0197978],[29.1951007,35.9930413],[29.251751,35.9743371],[29.3116603,35.9643103],[29.3728269,35.9632959],[29.3733009,35.9633591],[29.4040545,35.9584851],[29.4149316,35.953537],[29.4470848,35.9243541],[29.4989265,35.8926229],[29.5573574,35.8696375],[29.6201659,35.856266],[29.68498,35.8530132],[29.7493538,35.860002],[29.8108577,35.8769691],[30.0749344,35.9735352],[30.1139737,35.9710617],[30.1760971,35.9765805],[30.206901,35.984204],[30.2549363,35.9611636],[30.3153271,35.9437271],[30.3787121,35.935957],[30.442765,35.9381385],[30.5051355,35.9501918],[30.5635331,35.9716747],[30.6158089,36.0017987],[30.6445914,36.0220059],[30.7056998,36.0787205],[30.7995523,36.1950022],[30.8283455,36.2389674],[30.8466818,36.2864462],[30.8539202,36.3358308],[30.85026,36.3798381],[30.8574728,36.389529],[30.8835722,36.432951],[30.8996756,36.4794169],[30.9052508,36.5274455],[30.905533,36.5904009],[31.2268987,36.5495066],[31.648476,36.3563111],[31.7295842,36.3295134],[31.8233908,36.3095024],[32.0999731,36.015657],[32.138914,35.9808234],[32.184692,35.9519699],[32.2359234,35.9299641],[32.6739697,35.7785027],[32.7384983,35.7620792],[32.8057669,35.7565658],[32.8730173,35.7621883],[32.9374917,35.778716],[32.9965432,35.8054713],[33.0006154,35.8077841],[32.9710363,35.8617161],[32.8766184,36.0338692],[32.8766184,36.0338692],[32.8766182,36.0338697],[32.8766182,36.0338697],[32.8766168,36.0338722],[32.8766182,36.0338697],[32.8766182,36.0338697],[32.8766184,36.0338692],[32.8766184,36.0338692],[32.9710363,35.8617161],[33.0006311,35.8077556],[33.0006328,35.8077525],[33.0877331,35.6489416],[32.9741791,35.6644063],[32.9071571,35.6677722],[32.8406881,35.6600565],[32.7775222,35.6415785],[32.7202687,35.6131026],[32.6712859,35.5758057],[32.6325821,35.5312276],[32.6057335,35.4812053],[32.5980729,35.4518076],[32.5963237,35.4516606],[32.5751919,35.4464483],[32.5399575,35.4482605],[32.4725889,35.4403105],[32.4086725,35.4212462],[32.3509374,35.3918829],[32.3078937,35.3582133],[32.2815518,35.3606379],[32.2187607,35.3565739],[32.1580747,35.3428235],[32.1017188,35.3198912],[32.0517545,35.2886183],[32.0100033,35.2501504],[31.9779792,35.205895],[31.9568346,35.1574687],[31.9473195,35.1066372],[31.9497575,35.0552502],[31.964037,35.005174],[32.1020251,34.6678362],[32.1287994,34.6188575],[32.1667794,34.5752071],[32.2144515,34.5386049],[32.2699278,34.5104907],[32.521348,34.4094991],[32.5788253,34.391609],[32.6393198,34.3828981],[32.7007111,34.3836712],[32.7608485,34.3939012],[32.7838017,34.3997015],[32.8404477,34.3750207],[32.9023178,34.359879],[32.9665643,34.3550584],[33.0307008,34.3607452],[33.092245,34.3767192],[33.148812,34.4023621],[33.1945879,34.4282477],[33.2743258,34.4313328],[33.3323887,34.4378917],[33.3881089,34.4528889],[33.7328203,34.5740789],[33.7972845,34.6040863],[33.8519566,34.6452506],[33.8935327,34.694874],[34.1001976,34.69618],[34.1640936,34.7016924],[34.2254632,34.7173289],[34.2819675,34.7424942],[34.3314483,34.7762295],[34.3720081,34.8172481],[34.402083,34.8639835],[34.4205032,34.9146478],[34.42654,34.9672994],[34.4199366,35.0199163],[34.4009224,35.0704739],[34.3702072,35.1170225],[34.3278808,35.1683266],[34.3697299,35.2163491],[34.751245,35.4155972],[34.7977763,35.4447792],[34.8372728,35.4802021],[34.8684879,35.5207571],[34.8904294,35.5651728],[34.9086105,35.6140881],[34.921008,35.6640093],[34.9216465,35.7149459],[34.9104802,35.7650813],[34.8878856,35.8126243],[34.854651,35.8558727],[34.8119511,35.8932753],[34.7613068,35.9234881],[34.7045311,35.9454242],[34.6436635,35.9582932],[34.5808952,35.9616311],[34.5184885,35.9553171],[34.4586921,35.9395788],[33.5632457,35.6201396],[33.4291027,35.6024512],[33.1924601,35.6346791],[33.1925267,35.6345573],[33.1925847,35.6344514],[33.3381176,35.3686072],[33.1925847,35.6344514],[33.1925267,35.6345573],[33.0948621,35.8129606],[33.0948251,35.8130283],[33.0948232,35.8130319],[32.9513111,36.0751846],[33.0948232,35.8130319],[33.0948251,35.8130283],[33.0948621,35.8129606],[33.0948947,35.8129011],[33.1501081,35.8172986],[33.2106436,35.8318167],[33.2667323,35.8553311],[33.2816456,35.8648524],[33.5393937,35.8580529],[33.5990448,35.8607503],[33.6494275,35.870533],[33.6606853,35.8689093],[33.7241878,35.86967],[33.7863604,35.8801696],[33.844959,35.9000289],[33.8978646,35.9285311],[33.9204325,35.9465323],[33.9712271,35.9442544],[34.0347901,35.9513584],[34.0955053,35.9681749],[34.1511379,35.9940855],[34.1996344,36.0281366],[34.2391977,36.0690739],[34.2611414,36.1039377],[34.2618337,36.1042359],[34.312402,36.1376663],[34.3539783,36.1784081],[34.3849639,36.2249099],[34.4041565,36.2753977],[34.4078828,36.3048853],[34.496751,36.3805197],[34.7119438,36.4982264],[34.7222809,36.4918735],[34.7783166,36.4692169],[34.8385827,36.4553126],[34.8871632,36.4516793],[35.1717007,36.3116344],[35.2304092,36.2886081],[35.2935087,36.2751717],[35.3586201,36.2718307],[35.4232912,36.2787107],[35.459208,36.2885044],[35.4663435,36.2517046],[35.4911345,36.1991462],[35.5818006,36.0540175],[35.5419352,36.0226701],[35.5039749,35.9773029],[35.4781828,35.9266414],[35.4656045,35.8727878],[35.466733,35.8179726],[35.4794864,35.7717389],[35.4352059,35.7070277],[35.4104545,35.661224],[35.3965716,35.612479],[35.3940157,35.5624758],[35.4028532,35.5129377],[35.4227587,35.4655685],[35.4530292,35.4219944],[35.4926107,35.3837083],[35.5907843,35.3047282],[35.5925539,35.2876311],[35.5949482,35.2811001],[35.6121229,35.2342526],[35.6446534,35.1852754],[35.6887411,35.1427785],[35.7424997,35.1085627],[35.8036426,35.0840756],[35.8597763,35.0723918],[35.8542741,35.1058572],[35.8540253,35.1108762],[35.8549197,35.115846],[35.8569262,35.1205942],[35.8599755,35.1249558],[35.9250564,35.2005874],[35.8852807,35.2780123],[35.883286,35.2834182],[35.8827148,35.2890446],[35.8840429,35.3377347],[35.8840869,35.3380484],[35.8840795,35.337779],[35.8846333,35.332227],[35.8865723,35.3268846],[35.8898133,35.3219796],[35.8942181,35.3177212],[35.8995986,35.3142909],[35.9057254,35.3118348],[35.9123373,35.3104578],[35.9163647,35.3103164],[35.9163652,35.3103345],[35.9163656,35.3103488],[35.9163656,35.310349],[35.9171073,35.337135],[35.975,35.35],[36.2,35.4],[36.3333333,35.5666667],[36.4666667,35.7333333],[36.6,35.9],[37.3,36.2],[37.475,36.3],[37.65,36.4],[37.825,36.5],[38,36.6],[38.4,36.8],[38.6,36.9],[38.8,37],[38.975,37.1],[39.15,37.2],[39.5,37.4],[39.9,37.6],[40.1,37.7],[40.3,37.8],[40.9,38.1],[41.1,38.2],[41.3,38.3],[41.5,38.4],[42.1666667,38.4],[42.5,38.4],[43.5,38.2],[43.7,38.3],[43.9,38.4],[44.1,38.5],[44.3,38.6],[44.2,39.4],[43.8,40.2],[43.725,40.375],[43.65,40.55],[43.5,40.9],[43.254386,41.0754386],[43.254386,41.0754386],[43.15,41.15],[42.975,41.275],[42.8,41.4],[42.6,41.42],[42.4,41.44],[42.2,41.46],[42,41.48],[41.8,41.5],[41.575,41.5625],[41.5677314,41.564519],[41.5472249,41.5424438],[41.5384675,41.5330165],[41.5384675,41.5330165],[41.5384431,41.5329903],[41.5384377,41.5329844],[41.5384211,41.5329666],[41.5323841,41.5264678],[41.5276077,41.521326],[41.5210152,41.5142292],[41.5276077,41.521326],[41.5323841,41.5264678],[41.5384211,41.5329666],[41.5384377,41.5329844],[41.5384431,41.5329903],[41.5384675,41.5330165],[41.5384675,41.5330165],[41.5472249,41.5424438],[41.5677314,41.564519],[41.5782023,41.5757909],[41.5889351,41.5873447],[41.580295,41.5897449],[41.5737991,41.5910423],[41.5670919,41.5914171],[41.560407,41.5908561],[41.5539771,41.589379],[41.5480259,41.5870371],[41.5427608,41.5839119],[41.5383647,41.5801122],[41.5356042,41.577209],[41.7061407,41.7609011],[41.7163374,41.8104555],[41.6938657,41.8167001],[41.6286964,41.8297292],[41.561379,41.8335002],[41.4942828,41.8278793],[41.4297695,41.8130633],[41.3701071,41.7895725],[41.3173876,41.7582321],[41.2734518,41.7201421],[41.2481887,41.6934897],[41.1464349,41.5861403],[40.8494207,41.4660885],[40.7987972,41.4668068],[40.7309293,41.4579224],[40.66659,41.4394992],[40.608159,41.4122188],[40.4442889,41.3179543],[40.4344392,41.317989],[40.3680951,41.308743],[40.3052522,41.2903261],[40.1421806,41.2284945],[40.1369742,41.2305825],[40.0739728,41.2455097],[40.0083686,41.2514753],[39.9424132,41.2482736],[39.8821475,41.2367377],[39.782883,41.2562394],[39.6332456,41.3340302],[39.5762701,41.3581255],[39.5143687,41.3740447],[39.4496143,41.3812531],[39.3841794,41.3795081],[39.3202603,41.3688674],[39.2600013,41.3496874],[39.2429325,41.3428102],[39.2312239,41.3452358],[39.1680007,41.3496202],[39.1047313,41.3455609],[39.0434149,41.3331856],[38.6308347,41.2187039],[38.3435495,41.1910499],[38.1152635,41.2248026],[38.0878495,41.2658505],[38.0470475,41.3059038],[37.9969628,41.3395268],[37.939352,41.3655309],[37.8762455,41.3829957],[37.7823053,41.4016515],[37.7097016,41.410192],[37.6362878,41.4074486],[37.5651667,41.3935364],[37.4993412,41.3690425],[37.4951574,41.3665787],[37.4857927,41.3708932],[37.4316892,41.3913044],[37.3737512,41.4045869],[37.3136408,41.4103589],[37.3074175,41.4105582],[37.2913765,41.435779],[37.2461326,41.4801113],[37.1895995,41.5164876],[37.1242056,41.5433338],[36.8967099,41.6145364],[36.7941312,41.6338967],[36.6567755,41.6440803],[36.5802211,41.6435933],[36.5055382,41.6310117],[36.4925993,41.6265232],[36.489715,41.6498445],[36.4702107,41.6995803],[36.4382768,41.745599],[36.3485677,41.8488284],[36.2931238,41.8982921],[36.2234034,41.9365088],[36.1548394,41.9653206],[36.0890929,41.9868182],[36.0702915,41.9898778],[36.0470319,41.9963473],[35.9738578,42.0047437],[35.8999032,42.0018866],[35.8282836,41.9878955],[35.5831283,41.9190654],[35.5551886,41.9276393],[35.5727666,41.9696318],[35.580423,42.0208357],[35.5748351,42.0721816],[35.5561759,42.1217943],[35.5250989,42.167858],[35.4827188,42.2086827],[35.4305734,42.2427676],[35.3705686,42.2688576],[35.3049089,42.2859901],[35.2360146,42.2935325],[35.2038344,42.2947401],[35.1564695,42.3193679],[35.0951256,42.3450531],[35.0281976,42.3614963],[34.9582117,42.368076],[34.887814,42.3645428],[34.8574595,42.3585238],[34.8575114,42.3584379],[34.8575439,42.3583839],[34.8575855,42.3583151],[34.8576187,42.3582601],[34.9446002,42.2142289],[34.8576187,42.3582601],[34.8575855,42.3583151],[34.8575439,42.3583839],[34.8575114,42.3584379],[34.8573883,42.3586417],[33.7923659,44.1221942],[33.7923622,44.1222003],[33.7923492,44.1222218],[33.7921384,44.1225708],[33.7920911,44.1226492],[33.7901547,44.1258556],[33.7901339,44.1258901],[33.7901138,44.1259234],[33.7900693,44.1259971],[33.7900668,44.1260012],[33.7900525,44.1260249],[33.7899931,44.1261232],[33.6995242,44.2759291],[33.6993109,44.2762823],[33.6992106,44.2764484],[33.6458902,44.3647407],[33.6992106,44.2764484],[33.6993109,44.2762823],[33.6995242,44.2759291],[33.7899931,44.1261232],[33.7900525,44.1260249],[33.7900668,44.1260012],[33.7900693,44.1259971],[33.7901138,44.1259234],[33.7901339,44.1258901],[33.7901547,44.1258556],[33.8179142,44.1214547],[33.891985,44.1150584],[33.9663675,44.1192651],[34.038163,44.1339105],[34.1045699,44.1584231],[34.1629891,44.1918459],[34.2111233,44.2328723],[34.2470659,44.2798959],[34.2693774,44.3310714],[34.2771451,44.3843864],[34.277956,44.5125416],[34.1279529,44.406273],[34.1217499,44.4027091],[34.1146411,44.4001503],[33.9526986,44.3562684],[33.9438662,44.3547042],[33.934771,44.3546942],[33.8961182,44.3579639],[33.9025742,44.3578492],[33.9095513,44.3586697],[33.9161929,44.3604075],[33.9222656,44.3630015],[33.9275561,44.3663606],[33.9318783,44.3703668],[33.9350801,44.3748793],[33.9370487,44.3797394],[33.9372955,44.3816063],[33.9372931,44.3816065],[33.9372922,44.3816066],[33.9372908,44.3816067],[33.9372904,44.3816067],[33.9372881,44.3816069],[33.9000798,44.3847541],[33.9,44.3847608],[33.8754323,44.3868388],[33.8178337,44.3917106],[33.719839,44.3999992],[33.7197433,44.4000073],[33.7197372,44.4000078],[33.7197433,44.4000073],[33.719839,44.3999992],[33.8178337,44.3917106],[33.8754323,44.3868388],[33.9,44.3847608],[33.9,44.75],[33.5277046,44.75],[33.5229878,44.7625371],[33.5213092,44.7669985],[33.5203141,44.7696433],[33.5179572,44.7759079],[33.5179526,44.7759201],[33.5179516,44.7759227],[33.5179511,44.775924],[33.517945,44.7759403],[33.5179417,44.7759491],[33.5145351,44.7850034],[33.5179417,44.7759491],[33.517945,44.7759403],[33.5179511,44.775924],[33.5179516,44.7759227],[33.5179526,44.7759201],[33.5179572,44.7759079],[33.5213092,44.7669985],[33.5229878,44.7625371],[33.5277046,44.75],[33.5277046,44.75],[33.5229878,44.7625371],[33.5213092,44.7669985],[33.5179572,44.7759079],[33.5179526,44.7759201],[33.5179516,44.7759227],[33.5179511,44.775924],[33.517945,44.7759403],[33.5179417,44.7759491],[33.5126303,44.774751],[33.5059036,44.7720722],[33.5000768,44.7684828],[33.4953905,44.7641311],[33.4920377,44.7591967],[33.4901565,44.7538832],[33.4898241,44.7484098],[33.4910537,44.7430021],[33.4911349,44.7427868],[33.4910184,44.7430097],[33.4778284,44.7780082],[33.4766556,44.7828661],[33.4767526,44.7877959],[33.4781165,44.7926322],[33.4807018,44.797213],[33.4844221,44.8013845],[33.571667,44.8817058],[33.580107,44.9293901],[33.539762,45.0197702],[33.5271461,45.0197706],[33.4566647,45.0149905],[33.3886666,45.0010294],[33.3255257,44.9783749],[33.2694401,44.9478175],[33.2223533,44.9104225],[33.1858863,44.8674911],[33.1660618,44.8296411],[33.1612817,44.8205146],[33.155854,44.7980305],[33.1293493,44.7853247],[33.0771452,44.7479127],[33.036223,44.7039908],[33.0081283,44.6552459],[32.9939055,44.6035456],[32.9940621,44.5508664],[33.0085547,44.4992168],[33.0367962,44.4505615],[33.0776834,44.4067465],[33.129643,44.3694305],[33.1906935,44.3400236],[33.3157845,44.2915895],[33.328767,44.2774459],[33.3744834,44.2367902],[33.430215,44.2031927],[33.4938786,44.1779004],[33.5631065,44.1618509],[33.6692937,44.1450164],[34.7667932,42.3321488],[34.7668985,42.3319749],[34.7669465,42.3318956],[34.7563458,42.3280481],[34.7002357,42.2964649],[34.6534421,42.2574717],[34.6246,42.2212079],[33.3468971,42.2883475],[33.2867218,42.2874843],[33.2275674,42.2792783],[33.171065,42.2639557],[32.8172276,42.1417524],[32.5463083,42.1055961],[32.4596452,42.0853232],[32.1093951,41.9649875],[32.0359336,41.9311071],[31.9754191,41.8852241],[31.8990842,41.8113284],[31.2385717,41.5559093],[31.1768913,41.5253532],[31.1249056,41.4859893],[31.0848035,41.4394897],[31.0582583,41.3878257],[31.0515242,41.3569103],[30.882808,41.3518445],[30.3920713,41.4720771],[30.3296334,41.4827139],[30.2656617,41.4848622],[30.2022037,41.4784534],[30.1412901,41.4636928],[30.084867,41.4410526],[30.0515911,41.4246687],[29.2111276,41.5018263],[29.1623492,41.5026112],[29.0289886,41.5230975],[28.4514134,41.7394628],[28.3976735,41.7820415],[28.3865617,41.7993296],[28.3875458,41.8008932],[28.4045376,41.8517137],[28.4080318,41.9040273],[28.397864,41.9558617],[28.3375814,42.1367327],[28.3057173,42.1983794],[28.2545245,42.2524341],[28.1481646,42.339441],[28.1468114,42.3552479],[28.1280509,42.4069274],[28.0958049,42.4548545],[28.0729552,42.4765806],[28.0879689,42.4821088],[28.1464498,42.5160312],[28.1944597,42.5579628],[28.2300037,42.6061812],[28.2515886,42.6587012],[28.2582882,42.7133555],[28.2537774,42.985794],[28.2843263,43.0482595],[28.316137,43.0742975],[28.3483649,43.1141228],[28.362665,43.1095629],[28.438412,43.0981967],[28.5157207,43.0985433],[28.5912462,43.1105881],[28.6617176,43.1338103],[28.7240747,43.167204],[28.7755972,43.2093206],[28.8622137,43.2969112],[28.9086041,43.3598804],[28.9522183,43.4441875],[28.9725266,43.5022597],[28.9746797,43.5621635],[28.9562764,43.7178257],[29.03445,43.9286049],[29.0454231,43.9720067],[29.0464293,44.0161225],[29.0265366,44.233534],[29.125709,44.3122493],[29.1620833,44.3460956],[29.190568,44.3836259],[29.248818,44.4771931],[29.2722094,44.4959213],[29.2759929,44.4996012],[29.3370036,44.5330291],[29.5997777,44.5520492],[29.6834896,44.5649375],[29.7610347,44.5908794],[29.8284733,44.6285601],[29.8860729,44.6689594],[29.9348525,44.7107988],[29.9709029,44.758744],[29.9927359,44.8108583],[30.0737798,45.1111901],[30.0753671,45.1238909],[30.0805723,45.1655419],[30.0717293,45.2197546],[30.0475709,45.2716067],[30.0090508,45.318968],[29.9577234,45.3598879],[29.892625,45.4021677],[29.8270537,45.4363662],[29.7945201,45.4467],[29.7938352,45.4418793],[29.7918428,45.4371063],[29.7886291,45.4326692],[29.7681659,45.4098933],[29.7935862,45.3277244],[29.7944523,45.3221265],[29.7936337,45.3165221],[29.768378,45.2320999],[29.7661969,45.2271914],[29.7627262,45.2226613],[29.7580931,45.2186752],[29.752467,45.2153786],[29.7460535,45.2128918],[29.6982485,45.1983192],[29.6935125,45.2013877],[29.6894524,45.2040182],[29.688428,45.204682],[29.688428,45.204682],[29.6858399,45.2063588],[29.6857534,45.2064149],[29.667529,45.2182224],[29.667529,45.2182224],[29.6857533,45.2064149],[29.667529,45.2182224],[29.6588966,45.2155906],[29.6228962,45.2105249],[29.6334359,45.203698],[29.475,45.2125],[29.25,45.225],[28.8,45.25],[28.6,45.2666667],[28.4,45.2833333],[28.2,45.3],[28.0285714,45.1428571],[27.8571429,44.9857143],[27.6857143,44.8285714],[27.5142857,44.6714286],[27.3428571,44.5142857],[27.1714286,44.3571429],[27,44.2],[26.7857143,44.1285714],[26.5714286,44.0571429],[26.3571429,43.9857143],[26.3571429,43.9857143],[26.1428571,43.9142857],[26.1428571,43.9142857],[25.9285714,43.8428571],[25.7142857,43.7714286],[25.5,43.7],[25.08,43.72],[24.87,43.73],[24.66,43.74],[24.45,43.75],[24.025,43.775],[23.8125,43.7875],[23.6,43.8],[23.4,43.88],[23.2,43.96],[23,44.04],[22.8,44.12],[22.6,44.2],[22.6,44.55],[22.4,44.5666667],[22.2,44.5833333],[22,44.6],[21.8,44.65],[21.6,44.7],[21.4,44.75],[21.175,44.7625],[20.95,44.775],[20.725,44.7875],[20.5,44.8],[20.3,44.84],[20.1,44.88],[19.9,44.92],[19.5,45],[19.4333333,44.7666667],[19.3666667,44.5333333],[19.3,44.3],[19.36,44.1],[19.42,43.9],[19.48,43.7],[19.54,43.5],[19.6,43.3],[19.8,43.3666667],[20,43.4333333],[20.2,43.5],[20.3333333,43.1],[20.4,42.9],[20.2333333,42.7333333],[20.0666667,42.5666667],[19.9,42.4],[19.6,42],[19.2370207,41.9092552],[19.2645819,41.8970459],[19.2370207,41.9092552],[19.2211047,41.9163058],[19.2107511,41.9208922],[19.2059961,41.9229987],[19.2059961,41.9229987],[19.2059935,41.9229998],[19.2059869,41.9230027],[19.2059813,41.9230052],[19.2059811,41.9230053],[19.205981,41.9230053],[19.2059809,41.9230054],[19.1719917,41.9380621],[19.1320708,42.0176421],[19.1320708,42.0176421],[19.0855909,42.110297],[19.0450347,42.1364532],[18.9996732,42.1126862],[18.951843,42.0756428],[18.9144687,42.0325442],[18.8888958,41.9849691],[18.8760309,41.9346557]],[[19.2107511,41.9208922],[19.2211047,41.9163058],[19.2370207,41.9092552],[19.273699,41.8930072],[19.2875202,41.8868846],[19.2960361,41.8831122],[19.3065697,41.8784459],[19.3091722,41.877293],[19.3403045,41.8635018],[19.3663937,41.8519447],[19.3403045,41.8635018],[19.3091722,41.877293],[19.3065697,41.8784459],[19.2960361,41.8831122],[19.2875202,41.8868846],[19.273699,41.8930072],[19.2370207,41.9092552],[19.2211047,41.9163058],[19.2060047,41.9229948],[19.2049181,41.9217617],[19.2023266,41.9170704],[19.2023311,41.9170872],[19.202332,41.9170903],[19.2049416,41.9218231],[19.205981,41.9230053],[19.2059811,41.9230053],[19.2059813,41.9230052],[19.2059869,41.9230027],[19.2059935,41.9229998],[19.2059961,41.9229987],[19.2059961,41.9229987],[19.2107511,41.9208922]],[[19.2009045,41.9069604],[19.2009048,41.9069866],[19.2021382,41.9019852],[19.2046224,41.8972426],[19.2082677,41.8929309],[19.2129432,41.8892045],[19.2184814,41.8861969],[19.3478211,41.8289055],[19.2919433,41.8536567],[19.2915964,41.853778],[19.2906407,41.8541122],[19.2185063,41.8860624],[19.2129584,41.8890807],[19.2082748,41.8928241],[19.204624,41.8971583],[19.2021373,41.9019275],[19.2009045,41.9069604]],[[23.2414036,36.4135508],[23.3954822,36.105071],[23.4089147,36.1296347],[23.4285281,36.1767731],[23.437088,36.2259918],[23.4358896,36.2471972],[23.4537662,36.2612887],[23.491454,36.3060143],[23.5173547,36.3558652],[23.5304062,36.408845],[23.5300572,36.4628274],[23.5162932,36.5156411],[23.4734911,36.6238479],[23.4460843,36.674323],[23.4301297,36.6923725],[23.4370769,36.7064361],[23.4489299,36.7548212],[23.4495693,36.8041049],[23.4389516,36.852635],[23.4174121,36.8987816],[23.3443753,37.0196367],[23.3720795,37.0340708],[23.4305998,37.0376714],[23.5525821,37.0544795],[23.6137564,37.0676546],[23.6708243,37.089661],[23.7217948,37.1197335],[23.7330171,37.1293989],[23.7500199,37.1352556],[23.8050139,37.1655547],[23.8515195,37.2038355],[23.8877204,37.2486159],[23.9121915,37.298159],[23.9239568,37.350539],[23.9227179,37.3967365],[23.962641,37.3870326],[23.9927613,37.3843921],[24.0255498,37.349343],[24.0321309,37.3446744],[24.0282996,37.3246148],[24.0308603,37.273475],[24.0455352,37.2236589],[24.0717722,37.1769606],[24.0868495,37.1598173],[24.0827354,37.1172988],[24.0913533,37.0631492],[24.1134742,37.0115131],[24.1481663,36.9645043],[24.1483187,36.9643698],[24.1195746,36.9456412],[24.0782862,36.9060953],[24.0471878,36.8610096],[24.0273993,36.8120368],[23.9990384,36.708966],[23.9912217,36.6555894],[23.9967778,36.6020547],[24.0154579,36.5504898],[24.0464955,36.50294],[24.0886404,36.4612878],[24.1402106,36.4271797],[24.1991603,36.4019621],[24.2631596,36.3866296],[24.3296853,36.381787],[24.3961171,36.387626],[24.6149981,36.4246169],[24.647253,36.4326401],[24.6623857,36.4217431],[24.7132302,36.396573],[24.8137767,36.356173],[24.8738804,36.337548],[24.9373094,36.3285118],[25.0017358,36.3293966],[25.0274125,36.3337881],[25.0369932,36.2878167],[25.0589098,36.2401985],[25.0915037,36.1967532],[25.1336052,36.1590174],[25.1837148,36.1283239],[25.2400569,36.1057557],[25.3006419,36.0921084],[25.4046857,36.0769557],[25.4715984,36.0727059],[25.5382427,36.0793307],[25.601946,36.0965656],[25.624613,36.1071464],[25.6470674,36.0996625],[25.7084166,36.0894358],[25.7710676,36.0886265],[25.8786911,36.095346],[25.9436519,36.1046319],[26.0051333,36.1240215],[26.0607521,36.1527655],[26.1083458,36.1897511],[26.146055,36.2335444],[26.1706788,36.2792585],[26.1871381,36.2706139],[26.2455254,36.2513435],[26.307363,36.2412369],[26.3704683,36.2406512],[26.4326155,36.2496076],[26.4916108,36.2677907],[26.5453684,36.2945592],[26.5919819,36.3289679],[26.5984148,36.3359189],[26.6364716,36.3501297],[26.6907949,36.3823659],[26.7360566,36.422685],[26.7670384,36.4648664],[26.7788027,36.4581711],[26.8370319,36.4315996],[26.8417981,36.4303459],[26.8455089,36.4245197],[26.8857361,36.3834761],[26.9350195,36.3494479],[26.9915083,36.3237059],[27.0045394,36.3202188],[27.0094448,36.3123543],[27.0472566,36.2724559],[27.1300819,36.2000278],[27.1802642,36.1640905],[27.1947579,36.1573206],[27.1948625,36.1566687],[27.2156343,36.1067836],[27.2224429,36.0971762],[27.1921794,36.097324],[27.1291832,36.0876994],[27.0696365,36.068487],[27.0046923,36.0413791],[26.9511397,36.0134491],[26.9051566,35.9777806],[26.8684214,35.9356852],[26.8422658,35.8887087],[26.7530503,35.6757167],[26.740204,35.6297778],[26.7051174,35.6161398],[26.6504433,35.5893257],[26.6031199,35.5544792],[26.5649018,35.5129012],[26.5586057,35.50228],[26.5257113,35.5279235],[26.4707157,35.5563416],[26.4098923,35.5753992],[26.3456174,35.5843508],[26.2804065,35.5828466],[26.216812,35.5709461],[26.1573212,35.5491159],[26.1042556,35.5182105],[26.0806978,35.5013929],[26.0762683,35.5019115],[26.0276783,35.5002597],[26.0134618,35.51611],[25.9647466,35.5522862],[25.9081196,35.5798382],[25.8458444,35.5976615],[25.7804168,35.6050415],[25.7144628,35.6016824],[25.5341286,35.5774644],[25.5149766,35.5868596],[25.4483813,35.605352],[25.3784355,35.6119372],[25.2623565,35.6126757],[25.2163283,35.6386316],[25.1578943,35.6594264],[25.0748407,35.6814459],[25.0257743,35.6911329],[24.9754413,35.6946336],[24.7008822,35.6962978],[24.6119251,35.6868555],[24.4999101,35.6620258],[24.4918183,35.6849274],[24.4636993,35.7300593],[24.4256172,35.7700904],[24.3789125,35.8035973],[24.3252383,35.829387],[24.2665024,35.8465405],[24.2047976,35.8544465],[24.1036429,35.8595183],[24.0416779,35.8578916],[24.002638,35.850838],[23.9759384,35.8774238],[23.9246509,35.9114839],[23.8659575,35.936571],[23.8022141,35.9516763],[23.7359852,35.9561923],[23.6699382,35.9499379],[23.6067319,35.9331662],[23.5489073,35.9065533],[23.5087837,35.8782306],[23.6410536,35.613414],[23.5086644,35.8784695],[23.5085899,35.8786187],[23.5085375,35.8787237],[23.3956557,36.1047236],[23.3956258,36.1047835],[23.3955618,36.1049115],[23.2414036,36.4135508]],[[23.345035,39.6912177],[23.7111235,39.662518],[23.7811677,39.662299],[23.84989,39.6727464],[23.9116278,39.6925063],[23.9203897,39.6903895],[23.9891167,39.6846844],[24.0579736,39.6894089],[24.1243135,39.7043823],[24.1855823,39.7290296],[24.2394147,39.762403],[24.283723,39.8032169],[24.3167777,39.8498958],[24.3209812,39.8603064],[24.3517974,39.8616698],[24.4160306,39.8740177],[24.5093365,39.8992427],[24.5750996,39.9230738],[24.6331103,39.9567261],[24.6808953,39.9987737],[24.6824143,40.0008565],[24.6816539,39.975037],[24.6968509,39.8180666],[24.7083244,39.7668827],[24.7283199,39.7264912],[24.6960713,39.6995209],[24.6608547,39.6553976],[24.6372989,39.6069105],[24.626251,39.5558559],[24.6280912,39.504121],[24.63923,39.4349321],[24.6536284,39.3849113],[24.6800096,39.3378973],[24.7174011,39.295583],[24.764441,39.2594894],[24.8194284,39.2309118],[24.8803849,39.2108747],[24.9451246,39.2000962],[25.0113301,39.1989625],[25.076633,39.207515],[25.1386957,39.2254485],[25.1952926,39.2521215],[25.2443873,39.2865786],[25.2842051,39.3275838],[25.3456302,39.405106],[25.3745963,39.450774],[25.3919569,39.4998206],[25.394143,39.521493],[25.3977004,39.5215893],[25.4671372,39.5346455],[25.5317235,39.5582652],[25.5887838,39.5914732],[25.6359439,39.6328958],[25.6712295,39.6808169],[25.6783434,39.6978411],[25.6873418,39.6849082],[25.7302811,39.6444791],[25.7693137,39.6195745],[25.744259,39.5657934],[25.729811,39.5222047],[25.7041689,39.5098538],[25.6520904,39.4712324],[25.6114735,39.4251701],[25.5290607,39.3067598],[25.5023661,39.2568864],[25.4890794,39.203903],[25.4897033,39.1499385],[25.5041812,39.0971559],[25.5319039,39.0476665],[25.571739,39.0034454],[25.6220792,38.9662542],[25.6809081,38.9375722],[25.8783175,38.8612303],[25.7787157,38.8448452],[25.7659675,38.8417738],[25.7086067,38.8639884],[25.639684,38.8779698],[25.5685222,38.8806479],[25.4981632,38.8719092],[25.4331451,38.8583443],[25.3709264,38.840193],[25.3143391,38.8131094],[25.2654762,38.7780998],[25.2261365,38.736463],[25.1977576,38.6897406],[25.1813654,38.6396592],[25.1775381,38.5880655],[25.1863895,38.5368577],[25.2075679,38.487916],[25.2402734,38.4430334],[25.2832901,38.4038513],[25.3660596,38.3415459],[25.4182825,38.3091693],[25.4774581,38.2852677],[25.531925,38.2728833],[25.5387569,38.2212485],[25.5534036,38.1655747],[25.5732243,38.1154256],[25.6050122,38.0692514],[25.6475453,38.0287965],[25.6992035,37.9955866],[25.8177841,37.9333014],[25.8816222,37.9068889],[25.9510481,37.8915841],[25.9633943,37.8909829],[25.9368272,37.8841823],[25.8778405,37.8580034],[25.8265839,37.8231525],[25.7850702,37.7810073],[25.6939298,37.6664356],[25.6904203,37.6695197],[25.6367489,37.7011556],[25.5762362,37.7238419],[25.5504506,37.7289455],[25.5429285,37.7399859],[25.5025374,37.7792424],[25.4535112,37.8118118],[25.3975842,37.8365353],[25.3099581,37.8670459],[25.3031534,37.8824089],[25.2958813,37.8922421],[25.2954462,37.9113829],[25.2869228,37.9664981],[25.2642071,38.01905],[25.2282384,38.066798],[25.1805293,38.1077021],[25.1231043,38.140012],[25.0584139,38.1623432],[25.0513688,38.1635056],[25.0273881,38.1876733],[24.9722469,38.2239832],[24.90897,38.2502713],[24.8818742,38.2965847],[24.8397573,38.3411806],[24.7868061,38.3780343],[24.7252732,38.4055683],[24.6577885,38.4226029],[24.5872444,38.4284081],[24.5513834,38.4284361],[24.5669474,38.4655093],[24.5709958,38.4937974],[24.6079023,38.4942571],[24.6747361,38.5056105],[24.7374328,38.5270151],[24.8452042,38.5741293],[24.9002781,38.6039579],[24.9469868,38.6415077],[24.9835681,38.6853744],[25.0086305,38.7339145],[25.0212084,38.7853054],[25.0208007,38.8376135],[25.0073944,38.8888661],[24.9814687,38.9371261],[24.9439815,38.9805659],[24.7605466,39.1532334],[24.710129,39.19172],[24.6506304,39.2214729],[24.5845303,39.2412482],[24.514592,39.2502186],[24.4437449,39.2480093],[24.4053235,39.2405887],[24.4206333,39.2872676],[24.4309804,39.3413043],[24.426999,39.3958371],[24.40882,39.4486212],[24.3771626,39.4974788],[24.3333092,39.5403901],[24.2790565,39.5755776],[24.2166421,39.6015819],[24.1486519,39.6173232],[24.0779103,39.622148],[24.0073595,39.6158567],[23.9399328,39.5987118],[23.8784289,39.5714272],[23.8387758,39.5494037],[23.7862755,39.5135151],[23.7583311,39.4848082],[23.7531846,39.4822254],[23.728835,39.4639362],[23.7184488,39.4677195],[23.6541597,39.480415],[23.5878983,39.4834788],[23.5348092,39.4780944],[23.521904,39.4794524],[23.4055682,39.6337735],[23.3581542,39.682678],[23.345035,39.6912177]],[[24.0739348,38.9321731],[24.1015033,38.9467288],[24.0955416,38.9318851],[24.0953054,38.9299689],[24.0739348,38.9321731]],[[24.68365,40.3038805],[24.7088622,40.3054568],[24.7776974,40.3207805],[24.9140907,40.3628267],[24.9737511,40.3863874],[25.0265302,40.4180765],[25.0705321,40.456763],[25.0901282,40.4825812],[25.089745,40.4609204],[25.1017557,40.4101885],[25.1262215,40.3621175],[25.1622263,40.3184587],[25.2084406,40.2807994],[25.2151461,40.2762853],[25.1914185,40.2763426],[24.9998731,40.2627602],[24.9328219,40.2528808],[24.8695471,40.233326],[24.8124305,40.2048343],[24.7636146,40.1684797],[24.7438309,40.1465793],[24.7450189,40.1560977],[24.7368337,40.2114664],[24.7138576,40.2643624],[24.68365,40.3038805]],[[25.1369472,40.6174944],[25.1406685,40.6758946],[25.1427291,40.6755673],[25.1972943,40.6753203],[25.1685201,40.6533213],[25.1369472,40.6174944]],[[26.128851,37.2696201],[26.1888119,37.2827024],[26.1887744,37.2812842],[26.1997578,37.2305037],[26.2226629,37.1823223],[26.2566339,37.1384939],[26.2854766,37.108169],[26.3313488,37.0687694],[26.3860825,37.0374021],[26.4475078,37.0153053],[26.513198,37.003351],[26.5213925,37.0031901],[26.5536114,36.9768293],[26.576347,36.9615514],[26.5746608,36.9488057],[26.5806011,36.8963691],[26.5991603,36.8458662],[26.6035457,36.8391518],[26.6012196,36.8336677],[26.5479996,36.8620848],[26.4887865,36.8872287],[26.4244745,36.9024564],[26.4087364,36.9035673],[26.4081378,36.9248379],[26.3948278,36.9744406],[26.3700838,37.0211548],[26.3347664,37.0633176],[26.2901183,37.0994256],[26.2216499,37.1451461],[26.1723329,37.1722395],[26.1668115,37.1933075],[26.1453665,37.2465916],[26.128851,37.2696201]],[[26.1965532,37.9339768],[26.2226375,37.9471335],[26.2517037,37.9654502],[26.2714679,37.9561055],[26.2927602,37.950058],[26.2902044,37.9498264],[26.1965532,37.9339768]],[[28.1185534,40.7366926],[28.1744977,40.7661212],[28.2052267,40.7906553],[28.4283076,40.7336823],[28.4758968,40.7253801],[28.5206973,40.7113825],[28.5061354,40.7009415],[28.4755392,40.6687369],[28.3716782,40.6739579],[28.3045777,40.6724689],[28.2773167,40.6698865],[28.262782,40.6811569],[28.203892,40.7114296],[28.13819,40.7321827],[28.1185534,40.7366926]]]}}
