{"type":"Feature","properties":{"family":"islam","name":"Gilan, Daylam and Tabaristan, 882 – 1014"},"geometry":{"type":"Polygon","coordinates":[[[48.6,37.8],[48.75,37.6],[48.9,37.4],[49.5,36.6],[51.5,36.2],[51.7,36.18],[51.9,36.16],[52.1,36.14],[52.3,36.12],[52.5,36.1],[53.5,36.3],[54.5,36.6],[55.1,36.96],[55.3,37.08],[55.5,37.2],[55.5,38.5],[53.8309851,38.5],[53.8359162,38.4751362],[53.8363205,38.4730978],[53.8363205,38.4730978],[53.8363346,38.4730267],[53.8312758,38.4730268],[53.8243331,38.4735276],[53.8176646,38.475121],[53.8115456,38.4777412],[53.8062283,38.4812801],[53.8019323,38.4855918],[53.7988351,38.4904984],[53.7970646,38.4957974],[53.7968542,38.4968557],[53.796845,38.4969023],[53.7969254,38.4958432],[53.8342937,38.3078775],[53.8173451,38.2314915],[53.7630464,38.2355146],[53.695135,38.2521632],[53.6330407,38.2795009],[53.5794318,38.3163569],[53.5366233,38.3611508],[53.5064771,38.4119583],[53.4903209,38.4665921],[53.4888908,38.5224997],[53.4888858,38.5226945],[53.4889456,38.5232502],[53.4893039,38.5265836],[53.4864532,38.5092653],[53.4905645,38.4579947],[53.5206789,38.3097291],[53.4703034,38.0782347],[53.4659028,38.0185171],[53.4852256,37.7315024],[53.4906965,37.6956205],[53.6171232,37.1634058],[51.9119608,36.8591448],[51.2194215,36.9901587],[50.6929755,37.2460512],[50.5839901,37.3387336],[50.5148501,37.484598],[50.484021,37.5336601],[50.4412768,37.5767528],[50.3883754,37.612085],[50.3275064,37.6381861],[50.0639668,37.7245844],[50.0094555,37.7382573],[49.9528101,37.7445106],[49.5330475,37.7618725],[49.3539009,37.8361827],[49.320446,37.86964],[49.2785296,37.9669195],[49.2095469,38.358257],[49.2102558,38.3460804],[49.2058077,38.2888818],[49.1860831,38.2337095],[48.9986195,37.8622255],[48.9776386,37.9104928],[48.89966,38.3171247],[48.9009702,38.3313906],[48.9001992,38.327336],[48.8986475,38.3234095],[48.8733814,38.2729241],[48.8650887,38.3160639],[48.8666666,38.3333331],[48.8,38.2],[48.7,38],[48.6,37.8]]]}}
