{"type":"Feature","properties":{"family":"celts","name":"Connacht, 917 – 926"},"geometry":{"type":"Polygon","coordinates":[[[-10.7232418,53.9635562],[-10.7080391,53.9106233],[-10.6754022,53.8605035],[-10.6266737,53.8151677],[-10.5638117,53.7763929],[-10.496557,53.7486855],[-10.5355906,53.728597],[-10.5915562,53.6851237],[-10.6314706,53.6358504],[-10.6537409,53.5828161],[-10.6575161,53.5282071],[-10.6427123,53.4742662],[-10.6232412,53.4438835],[-10.6281293,53.4113046],[-10.6195859,53.3605704],[-10.5952371,53.3116979],[-10.5560001,53.2664236],[-10.503309,53.2263509],[-10.4390588,53.1928946],[-10.3655364,53.1672332],[-10.2853402,53.1502688],[-10.260044,53.146468],[-10.2315113,53.1421809],[-10.1982218,53.1208769],[-10.1231518,53.0891297],[-10.0661785,53.074259],[-10.0395075,53.0536537],[-9.9765086,53.0202383],[-9.9043446,52.9944293],[-9.8255191,52.977117],[-9.7427539,52.968898],[-9.6752504,52.9698342],[-9.6266869,52.9676576],[-9.6108872,52.9645623],[-9.5257828,52.9582029],[-9.5114378,52.9587839],[-9.3104636,53.1607267],[-9.304761,53.165262],[-9.2975998,53.1689807],[-9.2892975,53.1717176],[-9.2802225,53.1733513],[-9.2707777,53.1738092],[-9.2613824,53.173071],[-9.1725942,53.1602434],[-9.1724852,53.1622587],[-9.170373,53.167556],[-9.1665284,53.1724908],[-9.1611077,53.176862],[-9.1543316,53.1804912],[-9.1464763,53.1832302],[-9.1378623,53.1849673],[-9.1288412,53.1856316],[-9.1197813,53.1851959],[-9.0881381,53.1817138],[-9.0881969,53.1816282],[-9.0898977,53.1764282],[-9.0898698,53.1711293],[-9.0881148,53.1659359],[-9.0847011,53.1610481],[-9.0797608,53.1566546],[-9.0743735,53.1527517],[-9.0743735,53.1527517],[-9.0743735,53.1527517],[-9.0743735,53.1527517],[-9.0155985,53.1462651],[-9.0155985,53.1462651],[-9.0054901,53.1451495],[-9.0325503,53.1647651],[-9.0444776,53.173411],[-9.0450905,53.1738553],[-9.0444776,53.173411],[-9.0325503,53.1647651],[-8.95,53.14],[-8.75,53.08],[-8.5,53.04],[-8.22,53.08],[-8,53.25],[-7.95,53.42],[-7.97,53.6],[-7.85,53.75],[-7.6,53.85],[-7.55,53.98],[-7.75,54.15],[-7.875,54.24],[-8,54.33],[-8.25,54.47],[-8.2848166,54.4849214],[-8.3276788,54.4747146],[-8.3276788,54.4747146],[-8.4438844,54.4470425],[-8.3276788,54.4747146],[-8.3276788,54.4747146],[-8.2848166,54.4849214],[-8.2848166,54.4849214],[-8.2848166,54.4849214],[-8.2771809,54.4867397],[-8.2345279,54.4968967],[-8.2572428,54.5066344],[-8.2654156,54.5094358],[-8.2743991,54.5112139],[-8.283818,54.5118946],[-8.2932787,54.5114494],[-8.3023857,54.5098968],[-8.3096293,54.5081734],[-8.3127308,54.5110508],[-8.3159753,54.5160326],[-8.3174713,54.5212873],[-8.3171597,54.5266102],[-8.315052,54.5317938],[-8.3112297,54.5366361],[-8.2641534,54.5833633],[-8.2751509,54.5807747],[-8.2836244,54.5793049],[-8.2924244,54.5787899],[-8.3012336,54.5792483],[-8.3097348,54.5806634],[-8.3176215,54.5829844],[-8.3246093,54.5861275],[-8.3304463,54.5899795],[-8.3331824,54.5926832],[-8.4276812,54.5449228],[-8.43497,54.5418965],[-8.4431232,54.5397369],[-8.4518386,54.5385241],[-8.4607929,54.538303],[-8.4696542,54.539082],[-8.478094,54.540832],[-8.4857994,54.5434882],[-8.4924844,54.5469521],[-8.4979008,54.5510952],[-8.5018474,54.5557639],[-8.504177,54.5607849],[-8.5048026,54.5659717],[-8.5037003,54.5711318],[-8.5009105,54.5760735],[-8.4965362,54.580613],[-8.4934527,54.5827243],[-8.4958071,54.583909],[-8.5015115,54.58822],[-8.5181294,54.6038017],[-8.5958987,54.5979556],[-8.6056527,54.5978158],[-8.6152433,54.5988557],[-8.6242502,54.6010295],[-8.6322788,54.6042422],[-8.638977,54.6083529],[-8.6440506,54.6131813],[-8.6472767,54.6185159],[-8.648384,54.6212214],[-8.6742867,54.6192774],[-8.7930879,54.6598033],[-8.7935875,54.665193],[-8.8257796,54.6464601],[-8.8766552,54.6017804],[-8.8780093,54.599838],[-8.9145398,54.5861867],[-8.9777158,54.5571307],[-9.0141249,54.5588855],[-9.0527534,54.5586422],[-9.1004574,54.5583417],[-9.1139266,54.5567795],[-9.1353788,54.561994],[-9.2314294,54.5724555],[-9.8112007,54.5979467],[-9.9045412,54.5963533],[-9.9954121,54.5839349],[-10.0433602,54.5710726],[-10.1053171,54.5661377],[-10.1887049,54.54973],[-10.2651785,54.5244549],[-10.3319673,54.4912332],[-10.4471287,54.4216863],[-10.5038194,54.3796865],[-10.5450819,54.3319914],[-10.5693406,54.280487],[-10.5757043,54.2272023],[-10.5660444,54.1835218],[-10.6070891,54.1615908],[-10.6611491,54.1182427],[-10.6993901,54.0694678],[-10.7203434,54.017213],[-10.7232418,53.9635562]],[[-9.0450905,53.1738553],[-9.0444949,53.1738902],[-9,53.176499],[-8.9997882,53.1765114],[-8.9874899,53.1772324],[-8.9997882,53.1765114],[-9,53.176499],[-9.0444949,53.1738902],[-9.0450905,53.1738553]],[[-9.8568703,53.1382153],[-9.8560358,53.1435814],[-9.8534393,53.1487408],[-9.8491839,53.1534876],[-9.843439,53.1576321],[-9.8364339,53.1610088],[-9.8284481,53.1634827],[-9.8198007,53.1649549],[-9.8108373,53.1653666],[-9.6955641,53.1636771],[-9.685825,53.1628856],[-9.6766055,53.1608447],[-9.6683459,53.1576517],[-9.6614406,53.1534594],[-9.6146508,53.1179855],[-9.6098046,53.1134355],[-9.606566,53.1083974],[-9.6050642,53.1030729],[-9.6053588,53.0976757],[-9.6074374,53.0924218],[-9.611216,53.0875217],[-9.6165429,53.0831715],[-9.6232044,53.0795454],[-9.6309337,53.0767884],[-9.6394214,53.0750108],[-9.6483281,53.0742837],[-9.6572975,53.0746362],[-9.6659709,53.0760541],[-9.8278916,53.1131814],[-9.835923,53.1155915],[-9.8429972,53.1189112],[-9.848832,53.1230083],[-9.8531945,53.1277194],[-9.8559102,53.1328567],[-9.8568703,53.1382153]],[[-9.0234902,53.2751699],[-9,53.2711634],[-9,53.2711634],[-9.0234902,53.2751699]],[[-9,53.2392635],[-9,53.2392635],[-8.9442894,53.2616613],[-9,53.2392635]]]}}
