{"type":"Feature","properties":{"family":"islam","name":"Emirate of Córdoba, 789 – 842"},"geometry":{"type":"Polygon","coordinates":[[[-9.8442983,38.7935417],[-9.8366079,38.6922644],[-9.8250757,38.6373679],[-9.79936,38.5854922],[-9.7605818,38.5388403],[-9.7104076,38.4993897],[-9.6509765,38.4688097],[-9.5848091,38.448393],[-9.5739959,38.4460272],[-9.5758182,38.4375903],[-9.5736305,38.3840022],[-9.5579461,38.3318214],[-9.5294124,38.2831086],[-9.4891782,38.2397837],[-9.4388451,38.2035512],[-9.3804031,38.1758347],[-9.3161522,38.1577217],[-9.2486135,38.1499231],[-9.1804336,38.1527451],[-9.1605163,38.1551386],[-9.2122189,38.0518899],[-9.2301497,38.0027903],[-9.2359772,37.9519193],[-9.2295173,37.9011058],[-9.2110269,37.8521727],[-9.1811912,37.8068721],[-9.1566128,37.7823293],[-9.1586311,37.7583199],[-9.1560409,37.702845],[-9.1486318,37.6792437],[-9.1604778,37.6483041],[-9.1654883,37.5866326],[-9.1573249,37.458933],[-9.3157407,37.1130415],[-9.3324535,37.0603002],[-9.3355367,37.0059743],[-9.3248944,36.9522769],[-9.3009879,36.9013907],[-9.2648122,36.85538],[-9.2178527,36.8161078],[-9.1620223,36.7851616],[-9.0995837,36.7637913],[-9.0330594,36.7528592],[-8.9651318,36.7528067],[-8.8985388,36.7636368],[-8.548495,36.8500222],[-8.2919674,36.8274489],[-8.1558684,36.7590546],[-8.0895177,36.7332658],[-8.0177571,36.7196421],[-7.9440026,36.7188324],[-7.7897478,36.730596],[-7.7161897,36.7428774],[-7.6478048,36.7678811],[-7.3028202,36.9324839],[-7.1415968,36.9481225],[-7.0453777,36.919882],[-7.033127,36.9173403],[-6.7690435,36.778954],[-6.7751211,36.7378154],[-6.7688337,36.6820615],[-6.7483451,36.6285588],[-6.690383,36.5189651],[-6.6573756,36.4707831],[-6.6187209,36.4344343],[-6.6050057,36.4075844],[-6.4531843,36.1783429],[-6.4109129,36.1286042],[-6.2884283,36.014055],[-6.2407607,35.9773959],[-6.1870539,35.9499817],[-6.1851556,35.9490128],[-6.1237689,35.9300023],[-6.0589734,35.9210986],[-6.0340868,35.9196929],[-5.8520297,35.8142341],[-5.7804207,35.8195801],[-5.711792,35.8563693],[-5.7063911,35.8587135],[-5.7005513,35.8602148],[-5.6944708,35.8608223],[-5.6883559,35.8605154],[-5.6070656,35.8502542],[-5.415988,35.9478761],[-5.4107728,35.9500401],[-5.4051699,35.9514302],[-5.3993527,35.9520034],[-5.3935015,35.951742],[-5.2782632,35.938229],[-5.2716355,35.9368744],[-5.2654892,35.9344521],[-5.2600832,35.9310642],[-5.2556453,35.9268534],[-5.2523623,35.9219974],[-5.2503723,35.9167005],[-5.249759,35.9111861],[-5.2505479,35.9056863],[-5.2527054,35.9004328],[-5.2561406,35.8956467],[-5.3060577,35.8400676],[-5.3032391,35.8210671],[-5.297105,35.8232518],[-5.242358,35.8478862],[-5.2279634,35.8576082],[-5.2200331,35.8594187],[-5.1629781,35.8826955],[-5.1124098,35.914354],[-5.0701852,35.9532378],[-5.0378629,35.9979248],[-5.0166457,36.0467776],[-5.0106176,36.0665032],[-4.9795689,36.1681036],[-4.9535199,36.199665],[-4.8443335,36.2353934],[-4.6553247,36.2378678],[-4.5923637,36.2434646],[-4.5318138,36.2585102],[-4.4758292,36.2824702],[-4.3392521,36.3548559],[-4.286994,36.3889774],[-4.2442012,36.430802],[-4.2172789,36.4632375],[-3.8571652,36.4813137],[-3.4711686,36.4290826],[-3.4043197,36.4253682],[-3.3378785,36.432396],[-3.2744744,36.449888],[-3.21662,36.4771521],[-3.2153544,36.4778939],[-2.9959986,36.4815994],[-2.8490154,36.4324973],[-2.7908783,36.4178359],[-2.7304172,36.4118592],[-2.6696098,36.4147625],[-2.6104447,36.4264511],[-2.5548586,36.4465426],[-2.4506796,36.4936721],[-2.3952111,36.5250185],[-2.3795716,36.5383484],[-2.2837674,36.4974452],[-2.2267303,36.4782287],[-2.1662978,36.4677303],[-2.104504,36.4663031],[-2.0434272,36.4739951],[-1.9851226,36.4905474],[-1.9315545,36.5154031],[-1.8845327,36.5477252],[-1.8456519,36.586424],[-1.7533978,36.6976122],[-1.7341012,36.7062825],[-1.678774,36.7373428],[-1.6322524,36.7766196],[-1.5964125,36.8225416],[-1.5727115,36.8732686],[-1.5010733,37.0903031],[-1.4490241,37.1482958],[-1.3551585,37.1823678],[-1.3044494,37.2051063],[-1.259343,37.2344099],[-1.2096823,37.272728],[-1.1633303,37.266534],[-1.0931859,37.2630065],[-1.0236302,37.2710297],[-0.9612096,37.2892182],[-0.9265368,37.2864424],[-0.8651367,37.2904175],[-0.8056408,37.3031378],[-0.5866972,37.3670848],[-0.5258285,37.3904671],[-0.4719574,37.4229487],[-0.4272137,37.4632519],[-0.3933761,37.5097889],[-0.3718015,37.5607232],[-0.3633689,37.6140409],[-0.3684412,37.6676293],[-0.3868461,37.7193604],[-0.3885784,37.7220313],[-0.3922263,37.7653544],[-0.4005397,37.8091895],[-0.4008092,37.8098467],[-0.3817225,37.8263417],[-0.3499322,37.8657345],[-0.3271975,37.9088645],[-0.3142138,37.9544438],[-0.3084351,37.9881306],[-0.3004143,37.991974],[-0.2523252,38.0262821],[-0.213272,38.0671091],[-0.1846638,38.1129987],[-0.1675436,38.1623109],[-0.1660911,38.1771395],[-0.1202142,38.2226517],[-0.1008369,38.2470608],[0.0406843,38.2862274],[0.0962074,38.3060356],[0.1464283,38.3332111],[0.1897735,38.3669059],[0.2011168,38.3795659],[0.2102869,38.3817514],[0.264392,38.4033733],[0.3128397,38.4320911],[0.4675511,38.5415392],[0.5155403,38.5832296],[0.551511,38.6317669],[0.5738909,38.6850641],[0.5816847,38.7408243],[0.5745215,38.7966393],[0.5675873,38.8136068],[0.2516807,38.7705293],[0.251679,38.770529],[0.2516807,38.7705293],[0.567601,38.8136086],[0.5676021,38.8136088],[0.5676092,38.8136098],[0.8722312,38.8551485],[0.8722356,38.8551491],[0.8722363,38.8551492],[1.180949,38.8972457],[1.1809492,38.8972458],[1.1809493,38.8972458],[1.2158907,38.9020104],[1.1809493,38.8972458],[1.1809492,38.8972458],[1.180949,38.8972457],[0.8722458,38.8551505],[0.8736969,38.8388183],[0.893887,38.7841618],[0.9282972,38.7340079],[0.9753769,38.6905753],[1.033026,38.6557811],[1.0405837,38.6529499],[1.0396898,38.623362],[1.0504924,38.5729925],[1.0732288,38.5251111],[1.1070635,38.4814283],[1.1507709,38.4435016],[1.2027805,38.4126807],[1.261234,38.3900609],[1.3240508,38.3764449],[1.3890003,38.3723153],[1.453779,38.377818],[1.5099019,38.3912759],[1.5538564,38.3850454],[1.6202976,38.3857623],[1.6853339,38.3964327],[1.7465661,38.4166626],[1.8017316,38.4457054],[1.8487848,38.4824883],[1.8859726,38.525651],[1.911899,38.5735948],[1.9255789,38.6245406],[1.9264773,38.6765943],[1.9145329,38.7278163],[1.8901645,38.7762937],[1.8542594,38.8202124],[1.8485454,38.8248883],[1.896181,38.8635876],[1.934245,38.9112427],[1.9588462,38.9639905],[1.9688929,39.0195559],[1.9639163,39.0755367],[1.9498139,39.1380507],[1.936274,39.175329],[1.6556257,39.03503],[1.9362859,39.1753349],[1.9362868,39.1753354],[1.936293,39.1753384],[2.1920472,39.3031926],[2.1920563,39.3031971],[2.1920576,39.3031978],[2.4250851,39.4196906],[2.1920726,39.3032053],[2.2376083,39.2816882],[2.2522479,39.2773319],[2.2859663,39.2540724],[2.3421767,39.2279798],[2.4036713,39.2104661],[2.4682929,39.2021442],[2.5216036,39.2030919],[2.5227012,39.2018773],[2.5684663,39.167569],[2.5664478,39.1453525],[2.5747154,39.0936372],[2.5956397,39.0441162],[2.6284156,38.9986338],[2.6718029,38.9588803],[2.7186044,38.9235183],[2.7717947,38.8905103],[2.8322046,38.8661845],[2.8975236,38.8514681],[2.9652601,38.846921],[3.032834,38.852716],[3.0976713,38.8686314],[3.1572993,38.8940604],[3.2094379,38.9280329],[3.252085,38.9692514],[3.2835927,39.0161399],[3.3089762,39.0650336],[3.3145297,39.0798079],[3.4700742,39.1759428],[3.5259549,39.2192442],[3.5678341,39.2711751],[3.7922634,39.633578],[3.8076273,39.6666082],[3.9070094,39.6611704],[4.0688299,39.5864659],[4.1401991,39.5613076],[4.2170203,39.548975],[4.2954709,39.5500803],[4.3456779,39.5551318],[4.4136686,39.5673431],[4.4771922,39.5896653],[4.533742,39.6212187],[4.5810782,39.6607585],[4.6165893,39.7058033],[4.6173079,39.7064017],[4.6538496,39.7528448],[4.6775699,39.8039629],[4.6874816,39.8576905],[4.6831509,39.9118518],[4.6647205,39.9642485],[4.6329086,40.0127487],[4.4678569,40.210719],[4.4269831,40.2506856],[4.3769642,40.2840896],[4.3195731,40.3097382],[4.2568536,40.3267139],[4.2324376,40.3295733],[4.2190168,40.3341795],[4.15241,40.3460253],[4.0840418,40.3478581],[4.0164956,40.3396077],[3.7129909,40.278614],[3.6490231,40.2604455],[3.5908706,40.233217],[3.5407148,40.1979534],[3.5004283,40.15598],[3.4753476,40.1151361],[3.4456334,40.1469181],[3.3951354,40.1831008],[3.3363047,40.2110336],[3.2714183,40.2296304],[3.2029966,40.238167],[3.1337023,40.2363104],[3.0662339,40.224132],[2.6941811,40.1258558],[2.6366211,40.1059386],[2.5846734,40.0784706],[2.1233892,39.7820863],[2.0733817,39.7422503],[2.0350717,39.6953943],[2.0100587,39.6435047],[1.9993706,39.588777],[2.0034246,39.5335217],[2.0220155,39.4800657],[2.0543296,39.4306552],[2.097669,39.3784163],[2.122244,39.3539567],[2.3748932,39.480304],[2.1222282,39.3539488],[2.1222269,39.3539482],[2.1222178,39.3539436],[1.8962907,39.2409597],[1.8962816,39.2409552],[1.8962802,39.2409545],[1.8116715,39.1986425],[1.6329658,39.1092736],[1.6329649,39.1092732],[1.6329648,39.1092731],[1.6329648,39.1092731],[1.6324013,39.1089913],[1.6234718,39.1045258],[1.6008023,39.093189],[1.6234718,39.1045258],[1.6324013,39.1089913],[1.6329633,39.1092724],[1.6329633,39.1092724],[1.6329648,39.1092731],[1.6329648,39.1092731],[1.6329649,39.1092732],[1.6329658,39.1092736],[1.8116715,39.1986425],[1.8962645,39.2409466],[1.8544321,39.2810579],[1.8001606,39.3156479],[1.7379727,39.3410821],[1.6513186,39.3682012],[1.5940504,39.3817939],[1.5346054,39.3875904],[1.4747545,39.3854177],[1.4162812,39.3753402],[1.2501221,39.3346735],[1.1802862,39.3107017],[1.1189398,39.2755086],[1.0577081,39.2314811],[1.0155173,39.1950202],[0.982577,39.1532395],[0.9813043,39.1506685],[0.9753382,39.1469096],[0.9331138,39.1079626],[0.9011204,39.0635461],[0.8804834,39.0152504],[0.8719166,38.9648014],[0.8701793,38.927908],[0.8701734,38.9279072],[0.870173,38.9279072],[0.8701709,38.9279069],[0.5297816,38.8814895],[0.5297728,38.8814883],[0.5297715,38.8814881],[0.1917586,38.8353947],[0.5297554,38.8814859],[0.5170661,38.8988653],[0.4344461,38.9885587],[0.3845907,39.0318288],[0.3239116,39.0657803],[0.1633149,39.1363627],[0.0271139,39.434664],[0.0271839,39.448601],[0.2034892,39.7000864],[0.6293534,40.1189071],[0.6632784,40.1587689],[0.7653368,40.3050717],[0.7952619,40.3105813],[0.8581871,40.3327282],[0.9142933,40.3637686],[1.0941637,40.4849861],[1.1410065,40.5231742],[1.1773443,40.5674914],[1.2018026,40.6162875],[1.2163927,40.6567682],[1.2282597,40.7104898],[1.2256487,40.7649205],[1.2109683,40.8105769],[2.1283288,41.0351165],[2.0806221,41.0351881],[2.0120429,41.0455641],[1.9474512,41.0658172],[1.8893059,41.0951777],[1.8398288,41.132529],[1.8009215,41.1764483],[1.7839375,41.2002182],[2.0687344,41.2481224],[2.0753558,41.2497393],[2.0814382,41.252286],[2.1822204,41.3046148],[2.1821932,41.3046443],[2.1821293,41.3046047],[2.1373204,41.2813401],[2.1310243,41.2787266],[2.124165,41.2771102],[2.117018,41.2765557],[2.1098706,41.2770853],[2.1030097,41.2786778],[2.096711,41.2812692],[2.0912277,41.2847554],[2.0875734,41.2882401],[2.0875828,41.288245],[2.0875836,41.2882454],[2.0875836,41.2882454],[2.1170048,41.3035238],[2.1170048,41.3035238],[2.1170048,41.3035238],[2.1186677,41.3043874],[2.1365226,41.3136594],[2.1415129,41.3162509],[2.1618216,41.3267972],[2.152465,41.3219383],[2.1618099,41.3267911],[2.1488838,41.3200785],[2.1415129,41.3162509],[2.1186677,41.3043874],[2.1170048,41.3035238],[1.95,41.5],[1.8,41.75],[1.5,41.95],[1.2,42],[0.9,42.1],[0.6,42.25],[0.35,42.45],[0.225,42.575],[0.1,42.7],[-0.3,42.8],[-0.5,42.85],[-0.7,42.9],[-1,43],[-1.35,43.1],[-1.6,43.25],[-1.7,43.35],[-1.7412605,43.3912605],[-1.7412605,43.3912605],[-1.7412605,43.3912605],[-1.7412605,43.3912605],[-1.7000677,43.3959603],[-1.7000677,43.3959603],[-1.7000672,43.3959603],[-1.7000672,43.3959603],[-1.6614166,43.40037],[-1.7000672,43.3959603],[-1.7000672,43.3959603],[-1.7000677,43.3959603],[-1.7000677,43.3959603],[-1.7412605,43.3912605],[-1.7727335,43.3876697],[-1.7777412,43.3870983],[-1.7783408,43.3907772],[-1.7776844,43.3962595],[-1.7755084,43.4015335],[-1.7719031,43.4063791],[-1.7670187,43.4105942],[-1.7610589,43.4140027],[-1.7542723,43.4164624],[-1.7469422,43.4178704],[-1.6821079,43.4252729],[-1.6820562,43.4253234],[-1.8003907,43.4118225],[-1.8097524,43.4098033],[-1.939395,43.3675726],[-1.9422326,43.3663888],[-1.9456838,43.3677802],[-1.952992,43.3694212],[-1.960608,43.3699362],[-1.9682074,43.3693033],[-1.9754667,43.3675494],[-2.0997164,43.3266351],[-2.1059709,43.3423437],[-2.1120513,43.3957527],[-2.1034473,43.4490086],[-2.0804611,43.4999995],[-2.0439701,43.5466979],[-1.995398,43.5872422],[-1.9421838,43.6169308],[-2.1310512,43.5713726],[-2.5489938,43.6691772],[-2.5503561,43.6693859],[-2.5469119,43.6673318],[-2.5098142,43.6582658],[-2.3495408,43.6059587],[-2.2845325,43.5786232],[-2.2284967,43.5423636],[-2.1837199,43.4986716],[-2.1520136,43.4493408],[-2.134643,43.3963914],[-2.1322798,43.3419866],[-2.1385052,43.3156925],[-2.3562219,43.34199],[-2.6470999,43.4368279],[-2.6505083,43.4376531],[-2.6470429,43.4368073],[-2.4872279,43.3846957],[-2.4807416,43.3819717],[-2.475141,43.3783565],[-2.4706543,43.3739975],[-2.4674642,43.3690725],[-2.4657004,43.3637822],[-2.4654344,43.3583421],[-2.4666766,43.3529738],[-2.4681962,43.3489278],[-2.5024625,43.3601001],[-2.525,43.3],[-2.6,43.1],[-2.725,43.025],[-2.85,42.95],[-3.3,42.9],[-3.4666667,42.8833333],[-3.6333333,42.8666667],[-3.8,42.85],[-4.4,42.85],[-4.6,42.8333333],[-4.8,42.8166667],[-5,42.8],[-5.2,42.7666667],[-5.4,42.7333333],[-5.6,42.7],[-6.2,42.55],[-6.4,42.5166667],[-6.6,42.4833333],[-6.8,42.45],[-7,42.4166667],[-7.2,42.3833333],[-7.4,42.35],[-7.6,42.3],[-7.8,42.25],[-8,42.2],[-8.1666667,42.15],[-8.3333333,42.1],[-8.5,42.05],[-8.7,41.99],[-8.8822168,41.935335],[-8.8810775,41.9174332],[-8.8807255,41.9119036],[-8.8805073,41.9084751],[-8.8799262,41.8993432],[-8.8794888,41.8924705],[-8.8799262,41.8993432],[-8.8805073,41.9084751],[-8.8807255,41.9119036],[-8.8810775,41.9174332],[-8.8822168,41.935335],[-8.8840322,41.9638614],[-8.8822168,41.935335],[-8.8810775,41.9174332],[-8.8807255,41.9119036],[-8.8805073,41.9084751],[-8.8819799,41.9083625],[-8.8888758,41.9088196],[-8.8955292,41.9102435],[-8.9016975,41.9125823],[-8.907156,41.9157507],[-8.9117057,41.9196333],[-8.9151805,41.9240887],[-8.9174536,41.9289544],[-8.9184296,41.9339898],[-8.9156837,41.891219],[-8.9146252,41.8859135],[-8.9121756,41.8808678],[-8.908432,41.8762818],[-8.903543,41.8723369],[-8.9004092,41.8706481],[-8.9042997,41.8669888],[-8.9084392,41.8620926],[-8.9110769,41.8566507],[-8.9120914,41.8509141],[-8.9156284,41.7377799],[-8.9151493,41.7327344],[-8.9134143,41.7278437],[-8.9104848,41.72328],[-8.906464,41.7192038],[-8.8620493,41.6820193],[-8.8640298,41.6781025],[-8.8651648,41.6725043],[-8.8647144,41.6669464],[-8.8855837,41.6656155],[-8.9534804,41.6708738],[-9.0188614,41.685542],[-9.0794164,41.7091023],[-9.1329997,41.740722],[-9.1777044,41.7792823],[-9.2119294,41.823417],[-9.2344372,41.8715593],[-9.2442742,41.9213592],[-9.2413734,41.8794587],[-9.237352,41.8598002],[-9.2379468,41.8563369],[-9.2409156,41.7432076],[-9.2358772,41.6927729],[-9.2183132,41.6439175],[-9.1888669,41.5983562],[-9.1755008,41.5848659],[-9.0892592,41.2048326],[-9.068331,41.149111],[-9.0321119,41.0980182],[-9.024022,41.0890647],[-9.099521,40.7041189],[-9.2499689,40.2694106],[-9.2606533,40.2199736],[-9.2591456,40.1698819],[-9.2455243,40.1208667],[-9.242279,40.1149243],[-9.4154279,39.6862685],[-9.4459713,39.6443098],[-9.483589,39.6379521],[-9.5504315,39.6210584],[-9.611495,39.5942008],[-9.6643007,39.5584743],[-9.7067158,39.5153326],[-9.7370393,39.4665279],[-9.7540695,39.4140382],[-9.7571485,39.3599858],[-9.7461845,39.3065514],[-9.7216498,39.2558857],[-9.7144687,39.2446371],[-9.7690515,39.1091608],[-9.783309,39.0538317],[-9.7823868,38.9974201],[-9.7792937,38.9770885],[-9.810949,38.9257547],[-9.8316215,38.883353],[-9.842838,38.8388612],[-9.8442983,38.7935417]],[[-8.8284913,41.9223707],[-8.811025,41.9326112],[-8.7498875,41.9684565],[-8.7498938,41.9684507],[-8.7812128,41.9390705],[-8.7812128,41.9390705],[-8.7851577,41.9353699],[-8.8284913,41.9223707]]]}}
