{"type":"Feature","properties":{"family":"islam","name":"Emirate of Córdoba, 855 – 864"},"geometry":{"type":"Polygon","coordinates":[[[-9.8443089,38.7935885],[-9.8366196,38.6923111],[-9.8250856,38.6374079],[-9.7993645,38.5855242],[-9.7605778,38.5388642],[-9.7103925,38.4994059],[-9.6509488,38.4688196],[-9.5847683,38.4483985],[-9.5740143,38.4460456],[-9.5758331,38.4376244],[-9.5736429,38.3840332],[-9.5579535,38.3318482],[-9.5294128,38.2831305],[-9.4891699,38.2398005],[-9.4388269,38.2035633],[-9.3803746,38.1758427],[-9.3161134,38.1577268],[-9.2485657,38.1499265],[-9.1803784,38.1527482],[-9.1605545,38.1551304],[-9.2122405,38.0519178],[-9.2301706,38.0028195],[-9.2359961,37.9519487],[-9.2295332,37.9011342],[-9.2110387,37.8521991],[-9.1811979,37.8068957],[-9.1566335,37.7823684],[-9.158652,37.7583595],[-9.1560611,37.7028803],[-9.1486524,37.6792834],[-9.1605009,37.648338],[-9.165511,37.5866748],[-9.1573485,37.4589676],[-9.3157716,37.1130689],[-9.3324839,37.0603272],[-9.3355642,37.0059996],[-9.3249165,36.9522994],[-9.3010023,36.9014097],[-9.2648171,36.8553952],[-9.2178467,36.8161191],[-9.1620045,36.7851695],[-9.0995542,36.7637965],[-9.0330188,36.7528626],[-8.9650817,36.7528095],[-8.8984812,36.76364],[-8.5484444,36.8500235],[-8.2919502,36.8274528],[-8.1558699,36.7590674],[-8.0895037,36.7332723],[-8.0177268,36.7196449],[-7.9439569,36.7188345],[-7.7897009,36.7305982],[-7.7161403,36.7428797],[-7.6477552,36.7678829],[-7.3027713,36.932486],[-7.1415692,36.9481226],[-7.0453668,36.9198868],[-7.0331244,36.9173467],[-6.769074,36.778976],[-6.7751514,36.737837],[-6.768864,36.6820879],[-6.7483767,36.6285884],[-6.6904155,36.518994],[-6.6574031,36.470805],[-6.6187537,36.4344621],[-6.6050394,36.4076131],[-6.4532194,36.1783699],[-6.4109448,36.1286269],[-6.2884605,36.0140765],[-6.2407829,35.9774099],[-6.1851653,35.9490205],[-6.1237642,35.9300056],[-6.0589536,35.9210997],[-6.0340915,35.9196953],[-5.8520313,35.814234],[-5.8520312,35.814234],[-5.8520312,35.814234],[-5.8520297,35.8142341],[-5.7804207,35.8195801],[-5.711792,35.8563693],[-5.7063911,35.8587135],[-5.7005513,35.8602148],[-5.6944708,35.8608223],[-5.6883559,35.8605154],[-5.6070656,35.8502542],[-5.415988,35.9478761],[-5.4107728,35.9500401],[-5.4051699,35.9514302],[-5.3993527,35.9520034],[-5.3935015,35.951742],[-5.2782632,35.938229],[-5.2716355,35.9368744],[-5.2654892,35.9344521],[-5.2600832,35.9310642],[-5.2556453,35.9268534],[-5.2523623,35.9219974],[-5.2503723,35.9167005],[-5.249759,35.9111861],[-5.2505479,35.9056863],[-5.2527054,35.9004328],[-5.2561406,35.8956467],[-5.3060577,35.8400676],[-5.3032391,35.8210671],[-5.3032375,35.8210568],[-5.3032374,35.8210559],[-5.297059,35.8232564],[-5.2423131,35.8478902],[-5.2279216,35.8576099],[-5.2200176,35.8594138],[-5.1629549,35.8826889],[-5.1123804,35.9143463],[-5.0701511,35.9532298],[-5.037826,35.997917],[-5.0166079,36.0467704],[-4.9795306,36.1681021],[-4.9534772,36.1996692],[-4.8443038,36.2353937],[-4.6553057,36.2378682],[-4.5923365,36.2434657],[-4.5317797,36.2585128],[-4.4757897,36.2824749],[-4.339212,36.3548616],[-4.286955,36.3889827],[-4.244164,36.4308057],[-4.2172451,36.4632374],[-3.8571582,36.4813131],[-3.4711694,36.429083],[-3.4043107,36.4253683],[-3.3378601,36.432397],[-3.2744477,36.4498911],[-3.2165867,36.4771582],[-3.2153321,36.4778936],[-2.9960067,36.4815987],[-2.8490353,36.4325004],[-2.790889,36.4178368],[-2.730418,36.4118592],[-2.6696012,36.414763],[-2.6696005,36.414763],[-2.6104259,36.4264533],[-2.5548315,36.4465478],[-2.450652,36.4936779],[-2.3951806,36.525026],[-2.3795628,36.5383375],[-2.2837939,36.4974492],[-2.2267494,36.4782305],[-2.1663085,36.4677307],[-2.1045057,36.4663031],[-2.0434201,36.4739957],[-1.9851071,36.4905497],[-1.9315318,36.5154079],[-1.8845044,36.5477332],[-1.8456198,36.5864355],[-1.7533688,36.6976212],[-1.7340793,36.7062884],[-1.6787488,36.7373506],[-1.632225,36.7766288],[-1.596384,36.8225518],[-1.5726828,36.8732792],[-1.5010464,37.0903149],[-1.4490022,37.1483028],[-1.3551454,37.1823721],[-1.3044318,37.2051128],[-1.2593219,37.2344188],[-1.2096766,37.2727252],[-1.1633471,37.2665344],[-1.0931953,37.2630067],[-1.0236319,37.2710307],[-0.9612151,37.2892177],[-0.9265493,37.2864426],[-0.8651417,37.2904183],[-0.8056384,37.3031402],[-0.5866934,37.3670881],[-0.5258212,37.3904717],[-0.471947,37.4229543],[-0.4272003,37.4632579],[-0.39336,37.5097949],[-0.371783,37.5607288],[-0.3633485,37.6140456],[-0.3684191,37.667633],[-0.3868227,37.7193628],[-0.3885582,37.7220388],[-0.3922071,37.765367],[-0.4005202,37.8091987],[-0.4007915,37.8098604],[-0.3817071,37.8263536],[-0.3499154,37.865748],[-0.3271801,37.9088794],[-0.3141965,37.9544595],[-0.3084188,37.9881419],[-0.3004086,37.9919803],[-0.252316,38.0262906],[-0.21326,38.0671198],[-0.18465,38.1130113],[-0.1675289,38.162325],[-0.1660763,38.1771552],[-0.1202017,38.2226655],[-0.1008311,38.2470664],[0.0406774,38.2862302],[0.0962059,38.3060408],[0.1464316,38.3332192],[0.1897808,38.3669172],[0.2011188,38.3795713],[0.2102786,38.3817544],[0.2643895,38.4033789],[0.3128424,38.4320999],[0.467554,38.5415493],[0.5155448,38.5832414],[0.5515172,38.6317798],[0.5738987,38.6850773],[0.5816939,38.7408371],[0.574532,38.796651],[0.5676021,38.8136088],[0.5676092,38.8136098],[0.8722312,38.8551485],[0.8722363,38.8551492],[0.8722458,38.8551505],[1.180949,38.8972457],[1.1809493,38.8972458],[1.2158907,38.9020104],[1.1809493,38.8972458],[1.1809492,38.8972458],[1.1809492,38.8972458],[1.180949,38.8972457],[0.8722458,38.8551505],[0.8722363,38.8551492],[0.8722356,38.8551491],[0.8736879,38.8388006],[0.8938749,38.7841491],[0.9282806,38.7340001],[0.9753547,38.6905717],[1.032998,38.6557807],[1.0405739,38.6529426],[1.039679,38.6233411],[1.0504806,38.5729734],[1.073216,38.5250943],[1.1070498,38.4814143],[1.1507565,38.4434905],[1.2027658,38.4126728],[1.2612194,38.3900562],[1.3240366,38.3764433],[1.3889871,38.3723166],[1.4537672,38.377822],[1.50987,38.3912766],[1.5538228,38.3850466],[1.6202673,38.3857637],[1.6853079,38.3964347],[1.7465454,38.4166654],[1.8017165,38.4457092],[1.8487757,38.4824932],[1.8859694,38.5256569],[1.9119015,38.5736015],[1.9255868,38.624548],[1.9264899,38.6766019],[1.9145495,38.7278238],[1.8901843,38.7763007],[1.8542818,38.8202185],[1.8485503,38.8249087],[1.8961803,38.8636038],[1.9342479,38.9112626],[1.9588516,38.9640137],[1.9688995,39.0195814],[1.9639227,39.0755633],[1.9498197,39.1380771],[1.9362868,39.1753354],[1.936293,39.1753384],[2.1920472,39.3031926],[2.1920576,39.3031978],[2.1920726,39.3032053],[2.4250851,39.4196906],[2.1920726,39.3032053],[2.1920576,39.3031978],[2.1920563,39.3031971],[2.2375792,39.2816865],[2.2522184,39.2773304],[2.2859557,39.2540599],[2.3421638,39.2279717],[2.4036565,39.2104624],[2.4682765,39.2021446],[2.5215733,39.203095],[2.5226851,39.2018648],[2.5684616,39.1675482],[2.5664412,39.1453451],[2.5747025,39.0936293],[2.5956214,39.0441082],[2.6283931,38.998626],[2.6717776,38.9588733],[2.7185792,38.9235109],[2.7717693,38.890504],[2.8321805,38.8661802],[2.8975023,38.8514666],[2.9652427,38.8469235],[3.032821,38.8527231],[3.0976631,38.8686438],[3.1572956,38.8940785],[3.2094383,38.9280565],[3.2520886,38.9692802],[3.2835983,39.0161732],[3.3089814,39.0650672],[3.3145313,39.0798315],[3.4700585,39.1759571],[3.525949,39.2192667],[3.5678351,39.2712064],[3.7922616,39.6336118],[3.8076104,39.6666091],[3.8076119,39.666609],[3.9069619,39.6611729],[4.0687936,39.586463],[4.1401546,39.5613083],[4.2169693,39.5489779],[4.2954157,39.5500838],[4.3456231,39.5551354],[4.4136242,39.5673491],[4.4771589,39.5896759],[4.5337194,39.6212356],[4.5810649,39.660783],[4.6165794,39.7058309],[4.6172936,39.7064257],[4.6538397,39.7528721],[4.6775644,39.8039925],[4.6874799,39.8577213],[4.6831527,39.9118826],[4.6647252,39.9642777],[4.6329156,40.012775],[4.467863,40.2107435],[4.4269918,40.2507061],[4.3769753,40.2841053],[4.3195862,40.3097484],[4.2568683,40.3267184],[4.2324803,40.3295724],[4.2190474,40.3341821],[4.1524486,40.3460238],[4.0840875,40.3478543],[4.0165464,40.3396036],[3.7130438,40.2786112],[3.6490716,40.2604422],[3.5909129,40.2332131],[3.5407498,40.1979485],[3.5004551,40.1559739],[3.4753714,40.115136],[3.4456527,40.1469258],[3.3951607,40.1831057],[3.3363353,40.2110359],[3.2714534,40.2296304],[3.203035,40.2381651],[3.1337426,40.2363071],[3.0662744,40.224128],[2.694224,40.1258536],[2.6366526,40.1059328],[2.584694,40.078459],[2.1234104,39.7820786],[2.0733977,39.7422406],[2.0350823,39.6953826],[2.0100639,39.6434913],[1.9993708,39.5887622],[2.0034207,39.5335059],[2.0220083,39.4800497],[2.0543203,39.4306397],[2.0976594,39.3784004],[2.1222269,39.3539482],[2.1222178,39.3539436],[1.8962907,39.2409597],[1.8962802,39.2409545],[1.8962645,39.2409466],[1.8116715,39.1986425],[1.6329658,39.1092736],[1.6329648,39.1092731],[1.6329648,39.1092731],[1.6329633,39.1092724],[1.6329633,39.1092724],[1.6324013,39.1089913],[1.6008023,39.093189],[1.6324013,39.1089913],[1.6329633,39.1092724],[1.6329633,39.1092724],[1.6329648,39.1092731],[1.6329648,39.1092731],[1.6329649,39.1092732],[1.6329648,39.1092731],[1.6329648,39.1092731],[1.6329633,39.1092724],[1.6329633,39.1092724],[1.6324013,39.1089913],[1.6234718,39.1045258],[1.6324013,39.1089913],[1.6329633,39.1092724],[1.6329633,39.1092724],[1.6329648,39.1092731],[1.6329648,39.1092731],[1.6329658,39.1092736],[1.8116715,39.1986425],[1.8962645,39.2409466],[1.8962802,39.2409545],[1.8962816,39.2409552],[1.854449,39.2810661],[1.8001841,39.3156512],[1.7380034,39.341082],[1.6513499,39.3682008],[1.5940817,39.3817932],[1.5346356,39.3875893],[1.4747828,39.3854161],[1.4163068,39.3753378],[1.2501488,39.3346718],[1.180303,39.3106969],[1.1189472,39.2754988],[1.0577155,39.2314719],[1.0155205,39.1950082],[0.9825765,39.1532247],[0.9813046,39.1506557],[0.9753465,39.146902],[0.9331164,39.1079515],[0.9011183,39.0635311],[0.8804781,39.0152316],[0.8719097,38.9647791],[0.870173,38.9279072],[0.8701734,38.9279072],[0.8701793,38.927908],[1.1924153,38.97185],[1.1924154,38.97185],[1.1924153,38.97185],[0.8701793,38.927908],[0.8701734,38.9279072],[0.8701709,38.9279069],[0.5297816,38.8814895],[0.5297715,38.8814881],[0.5297554,38.8814859],[0.1917586,38.8353947],[0.5297554,38.8814859],[0.5297715,38.8814881],[0.5297728,38.8814883],[0.5170792,38.8988735],[0.4344588,38.988566],[0.3846063,39.0318329],[0.3239306,39.0657818],[0.1633243,39.1363674],[0.0271156,39.4346788],[0.0271854,39.4486156],[0.203484,39.7000965],[0.6293433,40.1189185],[0.6632684,40.1587813],[0.765319,40.3050746],[0.7952383,40.3105837],[0.8581641,40.3327318],[0.9142715,40.3637734],[1.094142,40.4849925],[1.1409893,40.523185],[1.1773305,40.5675071],[1.2017907,40.6163081],[1.2163804,40.656789],[1.2282472,40.7105096],[1.2256373,40.7649384],[1.2109621,40.810583],[2.1277953,41.0349979],[2.0809082,41.0351123],[2.0122257,41.0455657],[1.947526,41.0659046],[1.8892744,41.0953557],[1.8396995,41.132798],[1.8007085,41.1768042],[1.7839729,41.2002249],[1.7839729,41.200225],[2.0687303,41.2481226],[2.0753517,41.2497395],[2.0814342,41.2522863],[2.1372352,41.2812597],[2.1310889,41.27871],[2.1242213,41.2770952],[2.1170633,41.2765445],[2.109903,41.2770801],[2.1030284,41.2786804],[2.0967161,41.2812811],[2.0912202,41.2847774],[2.0875836,41.2882454],[2.1170048,41.3035238],[2.1170048,41.3035238],[2.1170048,41.3035238],[2.1186677,41.3043874],[2.1365226,41.3136594],[2.1415129,41.3162509],[2.1488838,41.3200785],[2.152465,41.3219383],[2.1618099,41.3267911],[2.1618216,41.3267972],[2.1618099,41.3267911],[2.152465,41.3219383],[2.1488838,41.3200785],[2.1415129,41.3162509],[2.1365226,41.3136594],[2.1186677,41.3043874],[2.1170048,41.3035238],[1.95,41.5],[1.8,41.75],[1.5,41.95],[1.2,42],[0.9,42.1],[0.6,42.25],[0.35,42.45],[0.225,42.575],[0.1,42.7],[-0.3,42.8],[-0.3,42.45],[-0.5,42.4333333],[-0.7,42.4166667],[-0.9,42.4],[-1.1,42.4166667],[-1.3,42.4333333],[-1.5,42.45],[-1.6666667,42.5],[-1.8333333,42.55],[-2,42.6],[-2.45,42.75],[-2.65,42.775],[-2.85,42.8],[-3.3,42.7],[-3.4666667,42.6666667],[-3.6333333,42.6333333],[-3.8,42.6],[-4,42.5666667],[-4.2,42.5333333],[-4.4,42.5],[-4.6,42.4833333],[-4.8,42.4666667],[-5,42.45],[-5.2,42.4166667],[-5.4,42.3833333],[-5.6,42.35],[-5.7666667,42.3166667],[-5.9333333,42.2833333],[-6.1,42.25],[-6.7,42.1],[-6.9,42.0666667],[-7.1,42.0333333],[-7.3,42],[-7.5,41.9833333],[-7.7,41.9666667],[-7.9,41.95],[-8.5,41.95],[-8.7,41.9233333],[-8.8142236,41.9081035],[-8.7851577,41.9353699],[-8.7812128,41.9390705],[-8.7812128,41.9390705],[-8.7498875,41.9684565],[-8.7812128,41.9390705],[-8.7812128,41.9390705],[-8.7851577,41.9353699],[-8.8142236,41.9081035],[-8.8142236,41.9081035],[-8.7851577,41.9353699],[-8.7812128,41.9390705],[-8.7812128,41.9390705],[-8.7498938,41.9684507],[-8.7812128,41.9390705],[-8.7812128,41.9390705],[-8.7851577,41.9353699],[-8.8142236,41.9081035],[-8.8142236,41.9081035],[-8.8142236,41.9081035],[-8.8170101,41.9054896],[-8.8201526,41.9025416],[-8.8462941,41.8780185],[-8.8466773,41.8778291],[-8.8520815,41.8760202],[-8.8578089,41.8748909],[-8.873541,41.8727934],[-8.8803544,41.8723721],[-8.8871526,41.8729109],[-8.8936938,41.8743904],[-8.8997453,41.8767582],[-8.9050918,41.87993],[-8.909543,41.8837929],[-8.9129404,41.8882096],[-8.9151628,41.8930228],[-8.916115,41.897979],[-8.9156812,41.891222],[-8.9146225,41.8859164],[-8.9121726,41.8808705],[-8.908429,41.8762842],[-8.9035399,41.8723389],[-8.9004049,41.8706492],[-8.9042858,41.8670032],[-8.9084314,41.8621049],[-8.9110731,41.8566594],[-8.9120891,41.8509183],[-8.9156261,41.7377841],[-8.915147,41.732738],[-8.9134117,41.7278466],[-8.9104816,41.7232821],[-8.9064601,41.7192053],[-8.8620476,41.6820225],[-8.8640281,41.6781054],[-8.8651626,41.6725078],[-8.8647045,41.6668556],[-8.8566938,41.6308145],[-8.8669132,41.6297912],[-8.9370436,41.6329891],[-9.0050354,41.6462389],[-9.0683411,41.6690442],[-9.1245827,41.7005502],[-9.1716388,41.7395748],[-9.2077233,41.7846517],[-9.2314535,41.8340837],[-9.2417445,41.8852094],[-9.2413487,41.8794904],[-9.2373284,41.8598414],[-9.2379232,41.8563812],[-9.2408933,41.743252],[-9.2358544,41.692811],[-9.2182875,41.6439482],[-9.1888362,41.5983793],[-9.1754777,41.5848964],[-9.0892425,41.2048724],[-9.0683116,41.1491425],[-9.0320869,41.098041],[-9.0240081,41.0890996],[-9.0995107,40.7041592],[-9.2499638,40.2694504],[-9.2606486,40.2200117],[-9.2591397,40.1699168],[-9.2455157,40.1208972],[-9.2422749,40.1149635],[-9.4154322,39.6863001],[-9.4459978,39.6443115],[-9.4836427,39.6379493],[-9.5504772,39.621058],[-9.6115319,39.5942045],[-9.6643288,39.5584833],[-9.7067356,39.5153477],[-9.737052,39.4665494],[-9.7540767,39.4140657],[-9.757152,39.3600184],[-9.7461863,39.3065875],[-9.7216517,39.2559234],[-9.7144739,39.2446796],[-9.7690606,39.1091979],[-9.7833171,39.0538744],[-9.7823952,38.9974666],[-9.7793013,38.9771283],[-9.810964,38.9257835],[-9.8316336,38.8833886],[-9.8428486,38.838903],[-9.8443089,38.7935885]]]}}
