{"type":"Feature","properties":{"family":"islam","name":"Emirate of Córdoba, 843 – 854"},"geometry":{"type":"Polygon","coordinates":[[[-9.8443082,38.7935846],[-9.8366188,38.6923073],[-9.8250849,38.6374046],[-9.7993643,38.5855216],[-9.7605782,38.5388622],[-9.7103939,38.4994045],[-9.6509512,38.4688188],[-9.5847717,38.4483981],[-9.5740129,38.4460441],[-9.575832,38.4376216],[-9.573642,38.3840307],[-9.557953,38.331846],[-9.5294128,38.2831287],[-9.4891706,38.2397991],[-9.4388285,38.2035623],[-9.3803769,38.175842],[-9.3161166,38.1577263],[-9.2485696,38.1499262],[-9.1803829,38.1527479],[-9.1605515,38.155131],[-9.2122389,38.0519155],[-9.230169,38.0028171],[-9.2359947,37.9519463],[-9.229532,37.9011318],[-9.2110378,37.852197],[-9.1811974,37.8068938],[-9.156632,37.7823652],[-9.1586505,37.7583562],[-9.1560596,37.7028774],[-9.1486509,37.6792801],[-9.1604991,37.6483352],[-9.1655093,37.5866714],[-9.1573467,37.4589647],[-9.3157692,37.1130667],[-9.3324815,37.060325],[-9.335562,37.0059975],[-9.3249148,36.9522975],[-9.3010012,36.9014081],[-9.2648168,36.8553939],[-9.2178472,36.8161181],[-9.162006,36.7851689],[-9.0995566,36.763796],[-9.0330221,36.7528623],[-8.9650857,36.7528092],[-8.8984859,36.7636398],[-8.5484485,36.8500234],[-8.2919517,36.8274525],[-8.1558699,36.7590663],[-8.0895049,36.7332718],[-8.0177293,36.7196447],[-7.9439606,36.7188343],[-7.7897047,36.730598],[-7.7161443,36.7428795],[-7.6477591,36.7678828],[-7.3027752,36.9324858],[-7.1415715,36.9481226],[-7.0453678,36.9198864],[-7.0331247,36.9173462],[-6.7690716,36.7789742],[-6.775149,36.7378352],[-6.7688617,36.6820858],[-6.7483743,36.628586],[-6.690413,36.5189917],[-6.657401,36.4708033],[-6.6187512,36.4344598],[-6.6050368,36.4076108],[-6.4532166,36.1783677],[-6.4109424,36.1286251],[-6.288458,36.0140748],[-6.2407812,35.9774087],[-6.1870524,35.9499835],[-6.1851646,35.9490199],[-6.1237646,35.9300054],[-6.0589553,35.9210996],[-6.0340912,35.9196951],[-5.8520312,35.814234],[-5.8520297,35.8142341],[-5.7804207,35.8195801],[-5.711792,35.8563693],[-5.7063911,35.8587135],[-5.7005513,35.8602148],[-5.6944708,35.8608223],[-5.6883559,35.8605154],[-5.6070656,35.8502542],[-5.415988,35.9478761],[-5.4107728,35.9500401],[-5.4051699,35.9514302],[-5.3993527,35.9520034],[-5.3935015,35.951742],[-5.2782632,35.938229],[-5.2716355,35.9368744],[-5.2654892,35.9344521],[-5.2600832,35.9310642],[-5.2556453,35.9268534],[-5.2523623,35.9219974],[-5.2503723,35.9167005],[-5.249759,35.9111861],[-5.2505479,35.9056863],[-5.2527054,35.9004328],[-5.2561406,35.8956467],[-5.3060577,35.8400676],[-5.3032391,35.8210671],[-5.3032375,35.8210568],[-5.2970626,35.8232561],[-5.2423167,35.8478898],[-5.227925,35.8576098],[-5.2200188,35.8594142],[-5.1629568,35.8826894],[-5.1123827,35.9143469],[-5.0701538,35.9532305],[-5.0378289,35.9979176],[-5.0166109,36.046771],[-5.0105892,36.0664762],[-4.9795336,36.1681023],[-4.9534806,36.1996689],[-4.8443062,36.2353937],[-4.6553072,36.2378681],[-4.5923387,36.2434656],[-4.5317824,36.2585126],[-4.4757928,36.2824746],[-4.3392151,36.3548612],[-4.2869581,36.3889823],[-4.2441669,36.4308054],[-4.2172478,36.4632374],[-3.8571588,36.4813132],[-3.4711694,36.4290829],[-3.4043114,36.4253683],[-3.3378616,36.4323969],[-3.2744498,36.4498909],[-3.2165893,36.4771578],[-3.2153338,36.4778936],[-2.996006,36.4815988],[-2.8490337,36.4325001],[-2.7908882,36.4178367],[-2.7304179,36.4118592],[-2.6696012,36.414763],[-2.6104274,36.4264532],[-2.5548336,36.4465474],[-2.4506542,36.4936775],[-2.395183,36.5250255],[-2.3795635,36.5383383],[-2.2837918,36.4974489],[-2.2267479,36.4782303],[-2.1663076,36.4677307],[-2.1045056,36.4663031],[-2.0434207,36.4739957],[-1.9851083,36.4905495],[-1.9315336,36.5154075],[-1.8845066,36.5477325],[-1.8456223,36.5864346],[-1.753371,36.6976205],[-1.7340809,36.706288],[-1.6787508,36.73735],[-1.6322271,36.7766281],[-1.5963862,36.822551],[-1.5726851,36.8732783],[-1.5010484,37.090314],[-1.4490039,37.1483023],[-1.3551464,37.1823718],[-1.3044332,37.2051123],[-1.2593235,37.2344181],[-1.209677,37.2727254],[-1.1633458,37.2665344],[-1.0931946,37.2630067],[-1.0236317,37.2710306],[-0.9612146,37.2892178],[-0.9265482,37.2864426],[-0.8651413,37.2904183],[-0.8056385,37.30314],[-0.5866936,37.3670879],[-0.5258217,37.3904713],[-0.4719477,37.4229538],[-0.4272013,37.4632574],[-0.3933612,37.5097944],[-0.3717844,37.5607283],[-0.36335,37.6140452],[-0.3684208,37.6676326],[-0.3868244,37.7193626],[-0.3885598,37.7220382],[-0.3922085,37.765366],[-0.4005217,37.8091979],[-0.4007929,37.8098593],[-0.3817082,37.8263526],[-0.3499167,37.865747],[-0.3271814,37.9088782],[-0.3141978,37.9544582],[-0.30842,37.988141],[-0.3004089,37.9919798],[-0.2523167,38.0262899],[-0.2132609,38.0671189],[-0.184651,38.1130103],[-0.16753,38.1623239],[-0.1660774,38.177154],[-0.1202026,38.2226644],[-0.1008314,38.247066],[0.0406781,38.28623],[0.0962061,38.3060404],[0.1464315,38.3332185],[0.1897804,38.3669163],[0.2011187,38.3795708],[0.2102793,38.3817542],[0.2643898,38.4033785],[0.3128423,38.4320992],[0.4675539,38.5415485],[0.5155446,38.5832404],[0.5515168,38.6317788],[0.5738982,38.6850762],[0.5816933,38.740836],[0.5745312,38.79665],[0.567601,38.8136086],[0.5675873,38.8136068],[0.2516807,38.7705293],[0.5675873,38.8136068],[0.5676021,38.8136088],[0.5676092,38.8136098],[0.8722312,38.8551485],[0.8722356,38.8551491],[0.8722458,38.8551505],[1.180949,38.8972457],[1.1809492,38.8972458],[1.1809493,38.8972458],[1.1809492,38.8972458],[1.180949,38.8972457],[0.8722458,38.8551505],[0.8722363,38.8551492],[0.8736885,38.838802],[0.8938758,38.7841502],[0.9282818,38.7340008],[0.9753564,38.690572],[1.0330002,38.6557808],[1.0405746,38.6529432],[1.0396798,38.6233428],[1.0504815,38.572975],[1.0732169,38.5250957],[1.1070509,38.4814154],[1.1507576,38.4434914],[1.202767,38.4126734],[1.2612206,38.3900566],[1.3240378,38.3764434],[1.3889882,38.3723165],[1.4537683,38.3778217],[1.5098726,38.3912765],[1.5538255,38.3850465],[1.6202698,38.3857636],[1.6853101,38.3964345],[1.7465471,38.4166652],[1.8017178,38.4457089],[1.8487765,38.4824928],[1.8859698,38.5256564],[1.9119014,38.5736009],[1.9255862,38.6245473],[1.926489,38.6766013],[1.9145482,38.7278231],[1.8901829,38.7763001],[1.8542801,38.820218],[1.84855,38.824907],[1.8961805,38.8636025],[1.9342478,38.911261],[1.9588513,38.9640118],[1.968899,39.0195793],[1.9639223,39.0755611],[1.9498194,39.1380749],[1.9362859,39.1753349],[1.9362868,39.1753354],[1.936293,39.1753384],[2.1920472,39.3031926],[2.1920563,39.3031971],[2.1920726,39.3032053],[2.4250851,39.4196906],[2.1920726,39.3032053],[2.1920576,39.3031978],[2.2375815,39.2816866],[2.2522207,39.2773305],[2.2859565,39.2540609],[2.3421649,39.2279724],[2.4036577,39.2104627],[2.4682779,39.2021445],[2.5215757,39.2030948],[2.5226863,39.2018659],[2.5684619,39.16755],[2.5664416,39.1453457],[2.5747034,39.09363],[2.5956228,39.0441089],[2.6283948,38.9986267],[2.6717796,38.9588739],[2.7185811,38.9235115],[2.7717712,38.8905045],[2.8321824,38.8661805],[2.897504,38.8514668],[2.9652441,38.8469233],[3.0328221,38.8527225],[3.0976638,38.8686428],[3.157296,38.894077],[3.2094383,38.9280546],[3.2520884,38.9692779],[3.283598,39.0161705],[3.3089811,39.0650644],[3.3145313,39.0798296],[3.4700599,39.1759559],[3.5259496,39.2192649],[3.5678351,39.2712039],[3.7922619,39.6336091],[3.8076119,39.666609],[3.9069657,39.6611727],[4.0687965,39.5864633],[4.1401582,39.5613082],[4.2169735,39.5489776],[4.2954203,39.5500835],[4.3456277,39.5551351],[4.4136279,39.5673486],[4.4771617,39.589675],[4.5337214,39.6212342],[4.5810661,39.660781],[4.6165803,39.7058287],[4.6172948,39.7064237],[4.6538406,39.7528698],[4.6775649,39.8039901],[4.6874802,39.8577188],[4.6831527,39.91188],[4.6647249,39.9642753],[4.6329152,40.0127728],[4.4678626,40.2107415],[4.4269912,40.2507044],[4.3769745,40.284104],[4.3195852,40.3097476],[4.2568671,40.326718],[4.2324769,40.3295724],[4.2190449,40.3341819],[4.1524455,40.346024],[4.0840837,40.3478546],[4.0165421,40.339604],[3.7130394,40.2786114],[3.6490675,40.2604425],[3.5909094,40.2332134],[3.5407468,40.1979489],[3.5004528,40.1559744],[3.4753695,40.1151362],[3.4456512,40.1469252],[3.3951587,40.1831053],[3.3363328,40.2110357],[3.2714505,40.2296304],[3.2030318,40.2381653],[3.1337393,40.2363074],[3.066271,40.2241283],[2.6942204,40.1258538],[2.6366499,40.1059333],[2.5846922,40.0784599],[2.1234085,39.7820792],[2.0733963,39.7422414],[2.0350813,39.6953836],[2.0100633,39.6434924],[1.9993707,39.5887634],[2.0034209,39.5335072],[2.0220088,39.480051],[2.0543209,39.4306411],[2.0976601,39.3784018],[2.1222282,39.3539488],[2.122244,39.3539567],[2.3748932,39.480304],[2.122244,39.3539567],[2.1222269,39.3539482],[2.1222178,39.3539436],[1.8962907,39.2409597],[1.8962816,39.2409552],[1.8962645,39.2409466],[1.8116715,39.1986425],[1.6329658,39.1092736],[1.6329649,39.1092732],[1.6329648,39.1092731],[1.6329648,39.1092731],[1.6329649,39.1092732],[1.6329658,39.1092736],[1.8116715,39.1986425],[1.8962645,39.2409466],[1.8962802,39.2409545],[1.8544478,39.2810654],[1.8001823,39.315651],[1.738001,39.341082],[1.6513474,39.3682008],[1.5940792,39.3817933],[1.5346332,39.3875894],[1.4747804,39.3854162],[1.4163046,39.375338],[1.2501466,39.3346719],[1.1803015,39.3106973],[1.1189465,39.2754996],[1.0577148,39.2314726],[1.0155201,39.1950091],[0.9825764,39.1532259],[0.9813045,39.1506567],[0.9753457,39.1469026],[0.9331161,39.1079524],[0.9011184,39.0635324],[0.8804784,39.0152332],[0.8719101,38.9647809],[0.8701734,38.9279072],[0.8701793,38.927908],[1.1924153,38.97185],[0.8701793,38.927908],[0.870173,38.9279072],[0.8701709,38.9279069],[0.5297816,38.8814895],[0.5297728,38.8814883],[0.5297554,38.8814859],[0.1917586,38.8353947],[0.5297554,38.8814859],[0.5297715,38.8814881],[0.5170782,38.8988728],[0.4344579,38.9885653],[0.3846052,39.0318326],[0.3239291,39.0657817],[0.1633237,39.136367],[0.0271156,39.4346776],[0.0271854,39.4486144],[0.2034846,39.7000957],[0.6293442,40.1189176],[0.6632694,40.1587803],[0.7653206,40.3050744],[0.7952403,40.3105835],[0.8581661,40.3327315],[0.9142735,40.3637731],[1.0941439,40.484992],[1.1409908,40.5231841],[1.1773317,40.5675058],[1.2017918,40.6163065],[1.2163815,40.6567873],[1.2282484,40.710508],[1.2256384,40.7649369],[1.2109628,40.8105825],[2.1277993,41.0349979],[2.1277953,41.0349979],[2.0809082,41.0351123],[2.0122257,41.0455657],[1.947526,41.0659046],[1.8892744,41.0953557],[1.8396995,41.132798],[1.8007085,41.1768042],[1.7839729,41.2002249],[2.0687306,41.2481226],[2.075352,41.2497395],[2.0814346,41.2522863],[2.1372372,41.2812606],[2.1372352,41.2812597],[2.1372352,41.2812597],[2.1310889,41.27871],[2.1242213,41.2770952],[2.1170633,41.2765445],[2.109903,41.2770801],[2.1030284,41.2786804],[2.0967161,41.2812811],[2.0912202,41.2847774],[2.0875836,41.2882454],[2.1170048,41.3035238],[2.1170048,41.3035238],[2.1170048,41.3035238],[2.1186677,41.3043874],[2.1365226,41.3136594],[2.1415129,41.3162509],[2.1488838,41.3200785],[2.152465,41.3219383],[2.1618099,41.3267911],[2.1618216,41.3267972],[2.1618099,41.3267911],[2.152465,41.3219383],[2.1488838,41.3200785],[2.1415129,41.3162509],[2.1365226,41.3136594],[2.1186677,41.3043874],[2.1170048,41.3035238],[1.95,41.5],[1.8,41.75],[1.5,41.95],[1.2,42],[0.9,42.1],[0.6,42.25],[0.35,42.45],[0.225,42.575],[0.1,42.7],[-0.3,42.8],[-0.3,42.45],[-0.5,42.4333333],[-0.7,42.4166667],[-0.9,42.4],[-1.1,42.4166667],[-1.3,42.4333333],[-1.5,42.45],[-1.6666667,42.5],[-1.8333333,42.55],[-2,42.6],[-2.45,42.75],[-2.65,42.8],[-2.85,42.85],[-3.3,42.8],[-3.4666667,42.7833333],[-3.6333333,42.7666667],[-3.8,42.75],[-4,42.7333333],[-4.2,42.7166667],[-4.4,42.7],[-4.6,42.6666667],[-4.8,42.6333333],[-5.2,42.5666667],[-5.4,42.5333333],[-5.6,42.5],[-5.8,42.4666667],[-6,42.4333333],[-6.2,42.4],[-6.4,42.3833333],[-6.6,42.3666667],[-6.8,42.35],[-7,42.3166667],[-7.2,42.2833333],[-7.4,42.25],[-7.6,42.2],[-7.8,42.15],[-8,42.1],[-8.1666667,42.0666667],[-8.3333333,42.0333333],[-8.5,42],[-8.7,41.9566667],[-8.7812128,41.9390705],[-8.7851577,41.9353699],[-8.8142236,41.9081035],[-8.8142236,41.9081035],[-8.8142236,41.9081035],[-8.8142236,41.9081035],[-8.8170101,41.9054896],[-8.8201526,41.9025416],[-8.8462941,41.8780185],[-8.8758888,41.8502561],[-8.8462941,41.8780185],[-8.8201526,41.9025416],[-8.8170101,41.9054896],[-8.8142236,41.9081035],[-8.8142236,41.9081035],[-8.8142236,41.9081035],[-8.8142236,41.9081035],[-8.7851577,41.9353699],[-8.7812128,41.9390705],[-8.7498938,41.9684507],[-8.7498875,41.9684565],[-8.7498938,41.9684507],[-8.7812128,41.9390705],[-8.7851577,41.9353699],[-8.8142236,41.9081035],[-8.8142236,41.9081035],[-8.8142236,41.9081035],[-8.8142236,41.9081035],[-8.8170101,41.9054896],[-8.8201526,41.9025416],[-8.8709357,41.8915392],[-8.8780796,41.8905532],[-8.8853438,41.8906471],[-8.8924368,41.8918171],[-8.8990737,41.8940162],[-8.9049882,41.8971561],[-8.9099426,41.9011109],[-8.9137378,41.9057216],[-8.9162211,41.910803],[-8.917277,41.9160746],[-8.9156819,41.8912289],[-8.9146252,41.8859235],[-8.9121776,41.8808776],[-8.9084362,41.8762909],[-8.9035493,41.8723448],[-8.9004065,41.8706497],[-8.9042924,41.8669969],[-8.9084347,41.8621],[-8.9110741,41.8566566],[-8.9120893,41.850918],[-8.9156263,41.7377837],[-8.9151472,41.7327377],[-8.9134119,41.7278464],[-8.9104818,41.7232819],[-8.9064604,41.7192052],[-8.8620478,41.6820223],[-8.8640282,41.6781052],[-8.8651628,41.6725075],[-8.8647047,41.6668553],[-8.8607487,41.6490568],[-8.9183812,41.6491359],[-8.9899934,41.6601965],[-9.05719,41.681769],[-9.1172404,41.7129782],[-9.1676946,41.7525567],[-9.2064817,41.798895],[-9.2319946,41.8501049],[-9.2430022,41.9033371],[-9.2413558,41.8795591],[-9.2373296,41.8598445],[-9.2379253,41.8563775],[-9.2408952,41.7432484],[-9.2358564,41.6928079],[-9.2182898,41.6439457],[-9.1888389,41.5983774],[-9.1754797,41.5848939],[-9.089244,41.2048692],[-9.0683133,41.1491399],[-9.0320891,41.0980392],[-9.0240093,41.0890968],[-9.0995117,40.7041559],[-9.2499644,40.2694471],[-9.2606491,40.2200086],[-9.2591403,40.169914],[-9.2455165,40.1208947],[-9.2422754,40.1149603],[-9.415432,39.6862975],[-9.4459958,39.6443113],[-9.4836383,39.6379495],[-9.5504735,39.621058],[-9.6115289,39.5942042],[-9.6643266,39.5584826],[-9.7067341,39.5153465],[-9.7370511,39.4665477],[-9.7540762,39.4140634],[-9.7571519,39.3600157],[-9.7461862,39.3065846],[-9.7216517,39.2559203],[-9.7144735,39.2446761],[-9.76906,39.1091948],[-9.7833165,39.0538709],[-9.7823947,38.9974628],[-9.7793008,38.977125],[-9.8109629,38.9257811],[-9.8316328,38.8833857],[-9.8428479,38.8388995],[-9.8443082,38.7935846]]]}}
