{"type":"Feature","properties":{"family":"celts","name":"Cornwall, 789 – 842"},"geometry":{"type":"Polygon","coordinates":[[[-6.122666,50.0276858],[-6.1077798,49.9771619],[-6.0783025,49.9293657],[-6.0353395,49.8860228],[-5.9804716,49.8486939],[-5.9156942,49.8187196],[-5.8433452,49.7971744],[-5.7660218,49.7848294],[-5.686491,49.7821259],[-5.5611926,49.7854831],[-5.5137729,49.7898393],[-5.4992143,49.7773471],[-5.4406883,49.743053],[-5.3732877,49.716457],[-5.2994038,49.698498],[-5.2216466,49.6898089],[-5.1427558,49.6906958],[-5.0655091,49.7011274],[-4.9926293,49.7207364],[-4.9266925,49.7488315],[-4.8700405,49.7844208],[-4.736651,49.8853673],[-4.6891085,49.9294142],[-4.6653818,49.9646612],[-4.5565401,50.0111972],[-4.4918711,50.045157],[-4.4409686,50.084984],[-4.405834,50.0889825],[-4.3903288,50.083704],[-4.3099544,50.0627944],[-4.2246499,50.0528545],[-4.2234351,50.0528748],[-4.2234013,50.0528754],[-4.137989,50.0543006],[-4.0535996,50.0670718],[-3.9750188,50.0906334],[-3.9055521,50.1239974],[-3.8481386,50.1657623],[-3.8221317,50.1951019],[-3.9725099,50.2906159],[-4.0408653,50.2745769],[-4.0494094,50.273195],[-4.0582161,50.2729764],[-4.066902,50.2739307],[-4.075089,50.2760163],[-4.0824208,50.2791423],[-4.0885781,50.2831728],[-4.1465142,50.3299473],[-4.1508433,50.3164473],[-4.1465142,50.3299473],[-4.1465142,50.3299473],[-4.1465142,50.3299475],[-4.140015,50.3502149],[-4.1391609,50.3551924],[-4.1397632,50.3601849],[-4.1418016,50.3650204],[-4.1452062,50.3695322],[-4.14986,50.3735649],[-4.1504183,50.3738969],[-4.1502188,50.3744903],[-4.1670417,50.3758827],[-4.1792752,50.3963758],[-4.18,50.4],[-4.1898446,50.4210957],[-4.1897753,50.4211824],[-4.1908812,50.4274393],[-4.1797813,50.4336828],[-4.1725115,50.4427757],[-4.1712289,50.4443799],[-4.1725115,50.4427757],[-4.1635183,50.4540243],[-4.1598416,50.458623],[-4.1635183,50.4540243],[-4.1639828,50.4534433],[-4.1635183,50.4540243],[-4.1635407,50.4577538],[-4.1638076,50.458623],[-4.199442,50.458623],[-4.2057108,50.4550946],[-4.25,50.55],[-4.33,50.7],[-4.45,50.85],[-4.5353749,50.9353749],[-4.54021,50.8896388],[-4.5402101,50.8896384],[-4.5486455,50.8098471],[-4.5402101,50.8896384],[-4.54021,50.8896388],[-4.5353749,50.9353749],[-4.5325349,50.9622381],[-4.5285428,51],[-4.5325349,50.9622381],[-4.5353749,50.9353749],[-4.54021,50.8896388],[-4.5402101,50.8896384],[-4.54021,50.8896388],[-4.5353749,50.9353749],[-4.5325349,50.9622381],[-4.5335979,50.9623312],[-4.5418483,50.9620443],[-4.5498573,50.9607645],[-4.5573266,50.9585395],[-4.5639778,50.9554522],[-4.5695634,50.9516177],[-4.5738756,50.9471788],[-4.5767541,50.9423007],[-4.5780922,50.9371652],[-4.5780933,50.9371544],[-4.5780933,50.9371544],[-4.5780935,50.9371577],[-4.5698362,51.0159505],[-4.5684142,51.0212804],[-4.5653313,51.0263249],[-4.5607107,51.0308816],[-4.5547376,51.0347673],[-4.5476517,51.0378261],[-4.5397376,51.0399348],[-4.5313133,51.0410089],[-4.5227174,51.041005],[-4.3351954,51.0288909],[-4.2570402,51.082134],[-4.2965999,51.140355],[-4.2991427,51.1454253],[-4.3000518,51.1507099],[-4.2992915,51.1560038],[-4.2980309,51.1586803],[-4.3309644,51.1726098],[-4.4061808,51.1926641],[-4.486134,51.2033902],[-4.567894,51.2043948],[-4.6484608,51.195641],[-4.7248808,51.1774497],[-4.7943595,51.1504877],[-4.8543685,51.1157417],[-4.9027395,51.0744808],[-4.937743,51.0282082],[-4.9581486,50.9786052],[-4.9614405,50.965576],[-4.9614447,50.9655595],[-4.9819925,50.8842329],[-5.0240454,50.8492112],[-5.0420876,50.8470247],[-5.1231325,50.8256071],[-5.1954337,50.794125],[-5.2314755,50.7701818],[-5.2833993,50.7481657],[-5.3376499,50.7149706],[-5.3817287,50.6762223],[-5.4142671,50.6331471],[-5.4269533,50.6039584],[-5.4615852,50.5848941],[-5.5136047,50.5418067],[-5.5509058,50.492961],[-5.554322,50.4844544],[-5.841527,50.4123227],[-5.9100503,50.3901948],[-5.9710972,50.3605038],[-6.0226459,50.3242406],[-6.0630032,50.2826133],[-6.090859,50.2370048],[-6.1053272,50.1889265],[-6.1223754,50.0791076],[-6.122666,50.0276858]],[[-4.1879632,50.4109297],[-4.1839658,50.4042333],[-4.1868876,50.4048438],[-4.1879632,50.4109297]]]}}
