{"type":"Feature","properties":{"family":"other","name":"Kingdom of Croatia, 985 – 1066"},"geometry":{"type":"Polygon","coordinates":[[[13.8965633,44.5047267],[13.9114777,44.4835319],[13.9549855,44.443034],[14.0083408,44.4090846],[14.0696386,44.3828864],[14.1091099,44.3694332],[14.1256308,44.3651436],[14.1431533,44.3541479],[14.2017437,44.3304834],[14.2049631,44.3272328],[14.2547223,44.2863621],[14.3148284,44.2534053],[14.3743261,44.2326604],[14.3751652,44.2212961],[14.3936597,44.1695813],[14.4259502,44.1214835],[14.470748,44.0788756],[14.5182881,44.0485251],[14.5481122,44.0132759],[14.822283,43.7505834],[14.8984581,43.6957428],[14.9703401,43.6570466],[15.0151305,43.6375411],[15.0388196,43.6195954],[15.0826261,43.5912301],[15.1320093,43.5681858],[15.2181647,43.534548],[15.2834191,43.5145599],[15.3526872,43.503861],[15.4234891,43.5028342],[15.4932921,43.5115164],[15.5381203,43.5237458],[15.5593923,43.5153022],[15.5669226,43.4852043],[15.5944134,43.4351542],[15.6096065,43.4182826],[15.6155562,43.4034359],[15.6491342,43.3564979],[15.6946092,43.3152102],[15.7502248,43.2811474],[15.7980174,43.261967],[15.7649,43.2386111],[15.7228659,43.1937888],[15.6940459,43.1437327],[15.6795791,43.0904798],[15.6800147,43.036192],[15.6952956,42.9830672],[15.7247674,42.9332507],[15.764558,42.881019],[15.8053598,42.8378553],[15.856735,42.8012845],[15.916738,42.7726794],[15.9831095,42.7531122],[16.0533599,42.7433153],[16.1248599,42.7436554],[16.1949349,42.7541197],[16.2609619,42.774317],[16.3301126,42.8014807],[16.3595949,42.7656068],[16.4063104,42.7274792],[16.4567672,42.6993967],[16.4591304,42.6910713],[16.480489,42.6408638],[16.5146421,42.5946511],[16.5602722,42.5541793],[16.6156381,42.5209745],[16.6786418,42.4962864],[16.7469075,42.4810429],[16.8178685,42.4758165],[16.888861,42.4808033],[16.9572198,42.4958161],[17.0360046,42.5194347],[17.097983,42.5432726],[17.1527369,42.5753325],[17.1982767,42.6144567],[17.2226366,42.645933],[17.2832341,42.6527103],[17.3027211,42.657943],[17.3202597,42.6550312],[17.3882582,42.6531938],[17.4555581,42.660587],[17.519872,42.6769597],[17.5860762,42.6990092],[17.5928884,42.7019043],[17.3144262,42.7649941],[17.3075873,42.7671028],[17.3014641,42.7701764],[17.2963059,42.7740899],[17.292323,42.7786839],[17.2896777,42.7837714],[17.2884782,42.7891452],[17.2887736,42.7945863],[17.2905524,42.7998732],[17.2937423,42.8047903],[17.2982138,42.8091372],[17.3037846,42.8127366],[17.3102278,42.8154417],[17.3172807,42.8171422],[17.3246555,42.8177687],[17.3320515,42.8172957],[17.6669938,42.7699958],[17.6747783,42.7682068],[17.6818328,42.7652009],[17.7209316,42.7439235],[17.7521739,42.7543289],[17.8120782,42.7794439],[17.8459543,42.8006486],[17.8459543,42.8006486],[17.76351,42.8175668],[17.7624745,42.8169778],[17.7562772,42.8146667],[17.7495981,42.8132519],[17.7426756,42.8127839],[17.7357567,42.8132794],[17.7290884,42.8147208],[17.7276348,42.8151478],[17.7276349,42.8151477],[17.7276349,42.8151476],[17.7304152,42.810366],[17.7710581,42.7942644],[17.7708422,42.7939714],[17.7486025,42.7790869],[17.7535775,42.7705307],[17.7405037,42.7756818],[17.738045,42.7766505],[17.742399,42.774935],[17.7201935,42.7600733],[17.7197763,42.7599425],[17.7197763,42.7599425],[17.7017234,42.7909611],[17.408454,42.9065085],[17.4084541,42.9065085],[17.3676985,42.9225661],[17.4,42.9333333],[17.4341148,42.9447049],[17.4596111,42.9253428],[17.4655747,42.9208141],[17.7057455,42.8505902],[17.7427774,42.8397624],[17.7067771,42.8870426],[17.6527765,42.8904197],[17.6341459,42.8988347],[17.6292653,42.8971228],[17.6220809,42.8958057],[17.6146822,42.8955678],[17.6073681,42.8964187],[17.5461918,42.9082338],[17.5463076,42.9085559],[17.5601747,42.9322454],[17.6086882,42.9103332],[17.5704948,42.9275841],[17.5555756,42.9343227],[17.6167762,42.9225027],[17.5608001,42.9333137],[17.5692532,42.9477545],[17.5531372,42.9547321],[17.5144487,42.9714829],[17.6,43],[17.6666667,43.2333333],[17.7333333,43.4666667],[17.8,43.7],[18.4,44.3],[18.55,44.45],[18.7,44.6],[18.85,44.75],[19.2142857,45.1142857],[19.2142857,45.1142857],[19.3,45.2],[19.1666667,45.3166667],[19.0333333,45.4333333],[18.9,45.55],[18.7333333,45.6166667],[18.5666667,45.6833333],[18.4,45.75],[17.8,45.9],[17.6,45.9833333],[17.4,46.0666667],[17.2,46.15],[17,46.2166667],[16.8,46.2833333],[16.6,46.35],[16.4,46.45],[16.2333333,46.3666667],[16.0666667,46.2833333],[15.9,46.2],[15.75,46.025],[15.6,45.85],[15.3,45.6],[15.1333333,45.55],[14.9666667,45.5],[14.8,45.45],[14.45,45.33],[14.460457,45.3028119],[14.4585359,45.3033437],[14.4159764,45.3151247],[14.4562444,45.303978],[14.4412371,45.3081322],[14.4960397,45.2929621],[14.4933449,45.2889327],[14.4887499,45.2845977],[14.4830176,45.2809955],[14.4763785,45.2782709],[14.4690996,45.2765334],[14.4614733,45.2758528],[14.4538063,45.2762565],[14.4464064,45.2777282],[14.4272278,45.283041],[14.4272184,45.2830241],[14.5139307,45.2590241],[14.513053,45.2576047],[14.5114543,45.2523229],[14.4955644,45.1505496],[14.4081629,45.1122739],[14.3928492,45.1746105],[14.3928492,45.1746105],[14.3908493,45.179707],[14.3881789,45.1834473],[14.3908984,45.1795718],[14.3928366,45.1745844],[14.406868,45.1173894],[14.4074144,45.1120951],[14.406481,45.1068287],[14.4041043,45.1017942],[14.4003767,45.0971865],[14.3954429,45.0931839],[14.3770547,45.0809289],[14.3551436,45.169999],[14.3692124,45.1128083],[14.3118132,45.0745422],[14.3118132,45.0745422],[14.2820412,45.109642],[14.2800681,45.111968],[14.2863663,45.1045428],[14.3314101,45.0514384],[14.325263,45.0492944],[14.3179444,45.0479199],[14.3103846,45.0475931],[14.3028811,45.048327],[14.2957287,45.0500926],[14.2892089,45.0528206],[14.283578,45.0564036],[14.2790579,45.0607007],[14.2467983,45.0987066],[14.2467765,45.0986974],[14.3557861,44.9703431],[14.3542279,44.9673717],[14.3530597,44.9619227],[14.352509,44.9538437],[14.3202496,44.9670723],[14.3134833,44.9692525],[14.3062473,44.970462],[14.298817,44.9706549],[14.2914753,44.9698238],[14.2845016,44.9680003],[14.2781613,44.9652539],[14.2726955,44.961689],[14.2683122,44.9574414],[14.2651778,44.9526726],[14.2634111,44.9475639],[14.2562339,44.9121016],[14.2558614,44.9075919],[14.2565568,44.9031013],[14.2583005,44.8987559],[14.340325,44.7442882],[14.3394555,44.7443858],[14.3321999,44.7442064],[14.3251252,44.7430496],[14.3184901,44.7409576],[14.3125371,44.7380071],[14.3074839,44.7343059],[14.3035151,44.7299893],[14.3007754,44.7252152],[14.2993646,44.7201579],[14.299334,44.7150024],[14.3006844,44.7099368],[14.3064767,44.6957738],[14.3027188,44.6982946],[14.3027188,44.6982946],[14.2963293,44.7011271],[14.2892781,44.703007],[14.2818432,44.7038602],[14.2743177,44.7036529],[14.2669981,44.7023934],[14.260173,44.7001314],[14.2241634,44.6849281],[14.2179195,44.6816306],[14.2127533,44.6774971],[14.2088819,44.6727013],[14.2064677,44.667445],[14.1956893,44.6319815],[14.1948428,44.6268711],[14.1953756,44.6217392],[14.1972678,44.6167727],[14.2004502,44.6121522],[14.204807,44.6080457],[14.2101794,44.6046026],[14.2163719,44.6019481],[14.2258106,44.5987286],[14.2111799,44.5901277],[14.1460227,44.5650813],[14.1401338,44.5637871],[14.1370173,44.5616575],[14.0759234,44.533608],[14.0084704,44.5143706],[13.9371214,44.5046465],[13.8965633,44.5047267]],[[17.7427774,42.8397624],[17.7057459,42.8505901],[17.7088776,42.8516797],[17.7161658,42.8529807],[17.7236624,42.8531709],[17.7310557,42.8522422],[17.7336844,42.8517044],[17.7427774,42.8397624]],[[14.3163851,44.6661237],[14.3168631,44.6703592],[14.3178135,44.6680297],[14.3163851,44.6661237]],[[14.423186,45.0509784],[14.4841977,45.0116227],[14.4897284,45.0086555],[14.4959276,45.0064455],[14.5025901,45.0050656],[14.5094958,45.0045615],[14.5164163,45.0049499],[14.5866428,45.0134633],[14.5907156,44.9754709],[14.5920976,44.9700393],[14.5950129,44.9649203],[14.5993391,44.9603279],[14.6048949,44.9564541],[14.6114478,44.953461],[14.6565557,44.9371876],[14.6307094,44.9162962],[14.5733393,44.8781652],[14.5134895,44.8455892],[14.4956679,44.8393799],[14.4908945,44.8015204],[14.5119284,44.968349],[14.5118207,44.9738917],[14.5101134,44.979302],[14.5068782,44.9843511],[14.5022513,44.9888259],[14.4232803,45.0505931],[14.423186,45.0509784]],[[14.7029737,45.1082619],[14.7029737,45.1082619],[14.7029944,45.1392747],[14.7617509,45.1081167],[14.7510493,45.1043406],[14.7502133,45.0997791],[14.7497395,45.0998989],[14.7029737,45.1082619]],[[16.8103681,42.7755965],[16.8187064,42.7456119],[16.8977588,42.7693277],[16.8977588,42.7693277],[16.8977589,42.7693277],[16.9253312,42.7593342],[16.9306068,42.7574221],[16.9306068,42.7574221],[16.9363694,42.7553335],[16.927956,42.753977],[16.927956,42.753977],[16.8211682,42.7367592],[16.8103681,42.7755965]]]}}
