{"type":"Feature","properties":{"family":"steppe","name":"Cumans, 1047 – 1066"},"geometry":{"type":"Polygon","coordinates":[[[22.6,44.2],[22.8,44.12],[23,44.04],[23.2,43.96],[23.4,43.88],[23.6,43.8],[23.8125,43.7875],[24.025,43.775],[24.45,43.75],[24.66,43.74],[24.87,43.73],[25.08,43.72],[25.5,43.7],[25.7142857,43.7714286],[25.9285714,43.8428571],[26.1428571,43.9142857],[26.1428571,43.9142857],[26.3571429,43.9857143],[26.3571429,43.9857143],[26.5714286,44.0571429],[26.7857143,44.1285714],[27,44.2],[27.1714286,44.3571429],[27.3428571,44.5142857],[27.5142857,44.6714286],[27.6857143,44.8285714],[27.8571429,44.9857143],[28.0285714,45.1428571],[28.2,45.3],[28.4,45.2833333],[28.6,45.2666667],[28.8,45.25],[29.25,45.225],[29.475,45.2125],[29.6334359,45.203698],[29.6228962,45.2105249],[29.6588966,45.2155906],[29.667529,45.2182224],[29.6857533,45.2064149],[29.6857534,45.2064149],[29.6857533,45.2064149],[29.667529,45.2182224],[29.6857533,45.2064149],[29.6858399,45.2063588],[29.688428,45.204682],[29.688428,45.204682],[29.6935125,45.2013877],[29.6894524,45.2040182],[29.6982485,45.1983192],[29.7460535,45.2128918],[29.752467,45.2153786],[29.7580931,45.2186752],[29.7627262,45.2226613],[29.7661969,45.2271914],[29.768378,45.2320999],[29.7936337,45.3165221],[29.7944523,45.3221265],[29.7935862,45.3277244],[29.7681659,45.4098933],[29.7886291,45.4326692],[29.7918428,45.4371063],[29.7938352,45.4418793],[29.7945201,45.4467],[29.8270537,45.4363662],[29.892625,45.4021677],[29.9577234,45.3598879],[30.0090508,45.318968],[30.0475709,45.2716067],[30.0717293,45.2197546],[30.0805723,45.1655419],[30.0753671,45.1238909],[30.0973487,45.160722],[30.1123574,45.215008],[30.1389952,45.4243515],[30.1383986,45.4763714],[30.1365614,45.4826404],[30.1702662,45.5087086],[30.1798601,45.5198325],[30.2120724,45.539113],[30.2360339,45.5606866],[30.2991765,45.5761548],[30.3623991,45.6017785],[30.4176437,45.6352254],[30.774285,45.8943767],[30.8291604,45.9445655],[31.0245634,46.1736579],[31.0498636,46.2107972],[31.0932823,46.2454821],[31.1297523,46.288687],[31.1333715,46.2957055],[31.152276,46.2591574],[31.2284118,46.1479662],[31.2641798,46.1059287],[31.3102954,46.0690422],[31.3652375,46.0385091],[31.4272061,46.015323],[31.4941812,46.0002378],[31.8525179,45.9430608],[31.927654,45.9361865],[31.9866245,45.9387983],[32.0186729,45.9172651],[32.080692,45.88917],[32.1492444,45.8697485],[32.3893923,45.8193057],[32.4667492,45.8087674],[32.4793372,45.8088561],[32.4854225,45.8068507],[32.5566285,45.794077],[32.5625605,45.7934211],[32.5514055,45.7831309],[32.5269348,45.7777029],[32.4432037,45.7510876],[32.3709419,45.7114191],[32.2089857,45.597889],[32.1636429,45.5594602],[32.1292441,45.5158608],[32.1069452,45.4685911],[32.0974794,45.4192734],[32.1011363,45.3695958],[32.1177566,45.3212541],[32.1505338,45.2538284],[32.1783424,45.2098501],[32.216816,45.1700619],[32.2647123,45.1357276],[32.3204978,45.1079359],[32.3823972,45.0875666],[32.4612782,45.0673886],[32.5282935,45.0549173],[32.5974137,45.0511585],[32.6663904,45.0562352],[32.7329795,45.0699831],[32.7843325,45.0842294],[33.0138634,44.9497493],[33.0791634,44.9187705],[33.1520461,44.8979038],[33.195665,44.8923455],[33.1692825,44.8389393],[33.1660618,44.8296411],[33.1858863,44.8674911],[33.2223533,44.9104225],[33.2694401,44.9478175],[33.3255257,44.9783749],[33.3886666,45.0010294],[33.4566647,45.0149905],[33.5271461,45.0197706],[33.539762,45.0197702],[33.580107,44.9293901],[33.571667,44.8817058],[33.4844221,44.8013845],[33.4807018,44.797213],[33.4781165,44.7926322],[33.4767526,44.7877959],[33.4766556,44.7828661],[33.4778284,44.7780082],[33.4910184,44.7430097],[33.4911349,44.7427868],[33.4910537,44.7430021],[33.4898241,44.7484098],[33.4901565,44.7538832],[33.4920377,44.7591967],[33.4953905,44.7641311],[33.5000768,44.7684828],[33.5059036,44.7720722],[33.5126303,44.774751],[33.5179417,44.7759491],[33.517945,44.7759403],[33.5179511,44.775924],[33.5179516,44.7759227],[33.5179526,44.7759201],[33.5179572,44.7759079],[33.5203141,44.7696433],[33.5213092,44.7669985],[33.5229878,44.7625371],[33.5277046,44.75],[33.5277046,44.75],[33.5378345,44.7230756],[33.5277046,44.75],[33.5277046,44.75],[33.5229878,44.7625371],[33.5213092,44.7669985],[33.5203141,44.7696433],[33.5179572,44.7759079],[33.5179526,44.7759201],[33.5179516,44.7759227],[33.5179511,44.775924],[33.517945,44.7759403],[33.5179417,44.7759491],[33.5145351,44.7850034],[33.5179417,44.7759491],[33.517945,44.7759403],[33.5179511,44.775924],[33.5179516,44.7759227],[33.5179526,44.7759201],[33.5179572,44.7759079],[33.5203141,44.7696433],[33.5213092,44.7669985],[33.5229878,44.7625371],[33.5277046,44.75],[33.5277046,44.75],[33.5378525,44.7230278],[33.5469355,44.698886],[33.5378525,44.7230278],[33.5277046,44.75],[33.9,44.75],[33.9,44.3847608],[33.8754323,44.3868388],[33.8178337,44.3917106],[33.719839,44.3999992],[33.7197433,44.4000073],[33.7197372,44.4000078],[33.7197433,44.4000073],[33.719839,44.3999992],[33.8178337,44.3917106],[33.8754323,44.3868388],[33.9,44.3847608],[33.9000798,44.3847541],[33.9372881,44.3816069],[33.9372904,44.3816067],[33.9372908,44.3816067],[33.9372922,44.3816066],[33.9372931,44.3816065],[33.9372955,44.3816063],[33.9370487,44.3797394],[33.9350801,44.3748793],[33.9318783,44.3703668],[33.9275561,44.3663606],[33.9222656,44.3630015],[33.9161929,44.3604075],[33.9095513,44.3586697],[33.9025742,44.3578492],[33.8961182,44.3579639],[33.934771,44.3546942],[33.9438662,44.3547042],[33.9526986,44.3562684],[34.1146411,44.4001503],[34.1217499,44.4027091],[34.1279529,44.406273],[34.277956,44.5125416],[34.2771451,44.3843864],[34.2693774,44.3310714],[34.2470659,44.2798959],[34.2111233,44.2328723],[34.1629891,44.1918459],[34.1045699,44.1584231],[34.038163,44.1339105],[33.9663675,44.1192651],[33.891985,44.1150584],[33.8179142,44.1214547],[33.7901547,44.1258556],[33.7901339,44.1258901],[33.7901138,44.1259234],[33.7900693,44.1259971],[33.7900668,44.1260012],[33.7900525,44.1260249],[33.7899931,44.1261232],[33.6995242,44.2759291],[33.6993109,44.2762823],[33.6992106,44.2764484],[33.6993109,44.2762823],[33.6995242,44.2759291],[33.7899931,44.1261232],[33.7900525,44.1260249],[33.7900668,44.1260012],[33.7900693,44.1259971],[33.7901138,44.1259234],[33.7901339,44.1258901],[33.7901547,44.1258556],[33.7920911,44.1226492],[33.8937912,44.1140373],[33.9752371,44.1134082],[34.0550201,44.1253309],[34.1294339,44.1492534],[34.5208531,44.3123451],[34.5781129,44.3414011],[34.6269255,44.3775056],[34.6655974,44.4194196],[34.7290657,44.5042813],[34.9278272,44.5469858],[34.9926159,44.53127],[35.0648927,44.5242343],[35.1377463,44.527169],[35.2085028,44.5399671],[35.2745618,44.5621595],[35.3334881,44.5929315],[35.3830994,44.6311511],[35.4338285,44.6786128],[35.4379907,44.6788812],[35.5065926,44.6928044],[35.5703792,44.7155635],[35.6271157,44.7463644],[35.6488201,44.7635612],[35.7083071,44.7417136],[35.7855894,44.7267224],[35.865589,44.7235303],[36.0124939,44.7285591],[36.0947408,44.7377763],[36.1306218,44.7478138],[36.1740595,44.7407855],[36.2427217,44.7386648],[36.3108245,44.7453255],[36.3761662,44.7605529],[36.6021824,44.8294637],[36.6294455,44.8400618],[36.5804555,44.848078],[36.5155109,44.8682239],[36.4569083,44.896526],[36.34184,44.963824],[36.2870041,45.0031179],[36.2796635,45.0111328],[36.2796635,45.0111328],[36.2796411,45.0111572],[36.289697,45.0194089],[36.4617079,45.0510358],[36.4685366,45.0527891],[36.4747734,45.0554231],[36.4801927,45.0588425],[36.4845983,45.0629238],[36.4878307,45.0675193],[36.4897726,45.0724627],[36.4903535,45.0775753],[36.4895518,45.0826718],[36.4873963,45.0875679],[36.448181,45.1535566],[36.4632936,45.2382973],[36.5255859,45.2806412],[36.5302606,45.2844707],[36.5338402,45.2888447],[36.5361992,45.2936102],[36.5372546,45.2986003],[36.5382896,45.3120709],[36.5382892,45.3120694],[36.5372017,45.3070238],[36.5347127,45.3021283],[36.5309353,45.2976593],[36.52601,45.2937828],[36.5201198,45.2906425],[36.5134834,45.288355],[36.5063468,45.2870051],[36.4989749,45.2866428],[36.491641,45.2872817],[36.4846171,45.2888979],[36.4833462,45.2893969],[36.498965,45.3000195],[36.5,45.3136125],[36.502565,45.3472996],[36.5,45.3136125],[36.5,45.4],[36.6025434,45.4146491],[36.6321663,45.3405453],[36.6025434,45.4146491],[36.599766,45.421597],[36.5060649,45.4283988],[36.5948999,45.4410898],[36.6020438,45.4416262],[36.6092053,45.4412203],[36.6161338,45.4398862],[36.6225873,45.4376707],[36.6283401,45.4346512],[36.6331913,45.4309332],[36.6369716,45.4266467],[36.6394972,45.4220363],[36.6394972,45.4220363],[36.6395419,45.4219548],[36.636769,45.4289027],[36.6339964,45.4338765],[36.6298785,45.4383681],[36.6245768,45.442201],[36.6182996,45.4452245],[36.6112936,45.4473196],[36.6038342,45.448404],[36.326859,45.4685402],[36.3198242,45.485058],[36.3167702,45.4902072],[36.3122673,45.4948045],[36.3065083,45.4986529],[36.2997397,45.5015875],[36.2922517,45.5034824],[36.2843654,45.5042562],[36.2764189,45.503876],[36.137603,45.486889],[36.1376174,45.4869229],[36.1441502,45.502336],[36.1792072,45.548957],[36.2265977,45.5898976],[36.2845225,45.623582],[36.3507647,45.6487113],[36.4227751,45.6643147],[36.5257802,45.6790333],[36.5975221,45.6844202],[36.6537661,45.6812363],[36.6678824,45.6856954],[36.6405858,45.6896626],[36.4967413,45.7001995],[36.4513598,45.7198918],[36.3762078,45.7389147],[36.297008,45.746682],[36.2172002,45.742857],[36.0508351,45.7224824],[35.9998518,45.7122433],[35.9614359,45.7247473],[35.8890673,45.7372317],[35.8145814,45.7397391],[35.7407916,45.7321757],[35.6704834,45.7148278],[35.606305,45.6883508],[35.5506642,45.6537432],[35.5398702,45.6438174],[35.342978,45.8574202],[35.3268139,45.883093],[35.3308583,45.8844361],[35.3878083,45.9076514],[35.438329,45.9372196],[35.4809597,45.9722935],[35.7723356,46.2561915],[36.0424935,46.3904549],[36.0472338,46.3907339],[36.0588559,46.3840898],[36.1250605,46.3591786],[36.1969337,46.3434542],[36.2718336,46.3374946],[36.3470115,46.3415191],[36.4197087,46.3553806],[36.4872529,46.3785709],[36.5471535,46.4102383],[36.5512341,46.41342],[36.6175085,46.3886917],[36.6931978,46.3728661],[36.7719447,46.3678121],[36.8505733,46.3737342],[36.9259121,46.3903942],[36.9949158,46.4171206],[37.0547846,46.4528339],[37.1030746,46.4960891],[37.1377964,46.5451319],[37.1414033,46.5518811],[37.1414889,46.5521136],[37.1416466,46.5523367],[37.1734477,46.6119476],[37.2140202,46.6267235],[37.2411061,46.6202278],[37.3176403,46.6128413],[37.3468909,46.613982],[37.3495298,46.6025323],[37.3752301,46.553975],[37.5529153,46.2961935],[37.5915899,46.2514838],[37.6419202,46.2127302],[37.6557135,46.2039705],[37.6315809,46.1862214],[37.5914392,46.1419373],[37.5644413,46.0931211],[37.4964435,45.9214481],[37.4846623,45.9191139],[37.4176096,45.8952786],[37.3585035,45.8628505],[37.3095817,45.8230666],[37.2772797,45.7908938],[37.2400948,45.7447329],[37.2166018,45.6943973],[37.2076715,45.6418352],[37.2068817,45.6139346],[37.2069016,45.6139276],[37.2716904,45.5910397],[37.2720293,45.5914587],[37.3218227,45.6317347],[37.3820253,45.6643566],[37.4502817,45.6880393],[37.5239077,45.7018486],[37.5999987,45.7052393],[37.6587337,45.6996714],[37.6587337,45.6996714],[37.6587776,45.6996672],[37.6434917,45.6920268],[37.6426526,45.6923881],[37.6353722,45.6942508],[37.6277043,45.6950595],[37.6199584,45.6947815],[37.6124476,45.6934281],[37.6054751,45.691054],[37.5993224,45.6877549],[37.5942377,45.6836642],[37.5618471,45.6515722],[37.5581109,45.6469659],[37.5557345,45.6419389],[37.5548092,45.636685],[37.5478882,45.4363449],[37.5478909,45.4363601],[37.5478909,45.4363601],[37.5488075,45.4415589],[37.5512002,45.4466116],[37.5549611,45.4512361],[37.559944,45.4552522],[37.565955,45.4585034],[37.5727596,45.460863],[37.5800929,45.4622388],[37.5872623,45.4625591],[37.5863128,45.4356145],[37.5861759,45.4317285],[37.5863128,45.4356145],[37.6,45.4333333],[37.6294033,45.4284328],[37.6381181,45.4547105],[37.6383009,45.4546801],[37.6455955,45.4529035],[37.6522366,45.4501403],[37.6579563,45.4465017],[37.6625239,45.4421348],[37.6657556,45.4372156],[37.6675212,45.4319426],[37.6677501,45.4265283],[37.666595,45.4218458],[37.6668356,45.4223432],[37.6687093,45.427988],[37.6723456,45.4109778],[37.6723406,45.4110454],[37.6719628,45.4161901],[37.6730356,45.4213938],[37.6755263,45.4263526],[37.6793406,45.4308781],[37.6843339,45.4347983],[37.6903165,45.4379641],[37.6970612,45.4402552],[37.7043115,45.4415844],[37.7046725,45.4415997],[37.7103562,45.4149406],[37.8,45.4],[37.6,45],[37.1636119,45],[37.1901719,44.9910098],[37.2157407,44.9730205],[37.1637149,44.9730205],[37.1551754,44.9736885],[37.1471624,44.9756669],[37.1471496,44.97567],[37.1678665,44.968659],[37.2633355,44.9015258],[37.2539804,44.8740411],[37.2529229,44.8680285],[37.2537869,44.8620018],[37.256528,44.8562653],[37.335784,44.7364018],[37.3395255,44.7319181],[37.3416783,44.7302054],[37.1646374,44.7302049],[37.0795931,44.7368572],[36.9987557,44.7568057],[36.9508291,44.773039],[36.9503851,44.7731894],[36.9698695,44.7608664],[37.0052581,44.6736049],[37.0304155,44.6277024],[37.0668559,44.5858232],[37.1133475,44.5493562],[37.221277,44.4786857],[37.2778383,44.4480243],[37.3414051,44.4254352],[37.4097497,44.4117079],[37.7250654,44.3701587],[37.7484878,44.3537959],[37.8094766,44.3251964],[37.8251031,44.3206425],[37.9012414,44.2381792],[37.9483482,44.1966686],[38.0059097,44.1626274],[38.0716653,44.137383],[38.1430462,44.1219187],[38.4473961,44.0785155],[38.737836,43.939575],[38.7377453,43.9396431],[38.7371226,43.9401106],[38.7368378,43.9403245],[38.7111608,43.9596036],[38.6658716,44.0001095],[38.6321682,44.0460999],[38.6113223,44.0958772],[38.6041377,44.1476],[38.6109167,44.1993501],[38.631443,44.2492033],[38.6544478,44.2808193],[38.7353184,44.2519626],[38.8273033,44.1673008],[38.8317462,44.163867],[38.8369508,44.1610373],[38.8427601,44.1588971],[38.9567203,44.1254565],[38.9567137,44.1254626],[38.9567137,44.1254626],[38.9567024,44.1254729],[38.9566915,44.1254828],[38.9506019,44.1310426],[38.9465166,44.1356563],[38.943811,44.140766],[38.9425963,44.146162],[38.942923,44.1516227],[38.9447779,44.1569239],[38.9456287,44.1581905],[38.9793898,44.1484098],[38.9801311,44.1477327],[39.15,44.2],[39.3666667,44.2666667],[39.5833333,44.3333333],[39.8,44.4],[40.0428571,44.4285714],[40.2857143,44.4571429],[40.5285714,44.4857143],[40.7714286,44.5142857],[41.0142857,44.5428571],[41.2571429,44.5714286],[41.5,44.6],[41.7222222,44.5888889],[41.9444444,44.5777778],[42.1666667,44.5666667],[42.3888889,44.5555556],[42.6111111,44.5444444],[42.8333333,44.5333333],[43.0555556,44.5222222],[43.2777778,44.5111111],[43.5,44.5],[43.7142857,44.4285714],[43.9285714,44.3571429],[44.1428571,44.2857143],[44.3571429,44.2142857],[44.5714286,44.1428571],[44.7857143,44.0714286],[45,44],[45.3,43.65],[45.45,43.475],[45.6,43.3],[46.5,43.6],[47.3740979,43.6],[47.3674737,43.6198851],[47.3740979,43.6],[47.3827924,43.5739001],[47.3828047,43.5738632],[47.3885325,43.5751311],[47.3950997,43.5777178],[47.398533,43.5798106],[47.4042766,43.5807431],[47.4107695,43.5827947],[47.416607,43.5857011],[47.4170604,43.5860346],[47.4258424,43.5596435],[47.4415287,43.6060421],[47.4415304,43.6060474],[47.4455662,43.6207679],[47.4415304,43.6060474],[47.4413226,43.6052893],[47.4406104,43.6000238],[47.4413315,43.5947576],[47.4434579,43.5896935],[47.4469072,43.5850264],[47.4515465,43.5809358],[47.4571971,43.5775792],[47.4636414,43.5750855],[47.4705375,43.5735715],[47.4705575,43.5736439],[47.4759462,43.5931567],[47.4778361,43.6],[47.5405155,43.6],[47.5367203,43.5897214],[47.5358588,43.5873881],[47.5352188,43.5856549],[47.5305867,43.5731094],[47.5305811,43.5730941],[47.530559,43.5730344],[47.5405494,43.5730344],[47.5474686,43.5735027],[47.5541455,43.574895],[47.5603474,43.5771628],[47.5658582,43.5802272],[47.5704857,43.5839812],[47.5740684,43.5882941],[47.5764812,43.5930156],[47.5765038,43.5930767],[47.5764995,43.5930576],[47.5764981,43.5930512],[47.5764884,43.5930079],[47.5271132,43.4595031],[47.5294656,43.3472052],[47.547693,43.3565616],[47.5542592,43.3592497],[47.5614373,43.3609171],[47.568931,43.3614949],[47.5764306,43.3609593],[47.5836264,43.3593324],[47.5902212,43.3566813],[47.5959429,43.3531156],[47.6005552,43.3487826],[47.603868,43.343861],[47.6081441,43.3354278],[47.6084032,43.3349167],[47.6097942,43.3350109],[47.6763193,43.348881],[47.7381649,43.3714767],[47.7931933,43.4020191],[47.8394938,43.4394542],[47.8754483,43.4824878],[47.8997881,43.5296296],[47.9073203,43.5497141],[47.9457397,43.6521574],[48.013188,43.7251226],[48.0149799,43.7275329],[48.0902791,43.7676235],[48.146047,43.804043],[48.1906242,43.8477841],[48.2221895,43.8970853],[48.2394349,43.949957],[48.2416234,44.0042598],[48.2286243,44.0577903],[48.2009256,44.1083704],[48.1596205,44.1539362],[48.1063678,44.1926236],[48.0433284,44.2228464],[47.9730771,44.2433627],[47.8984963,44.2533281],[47.695965,44.2652168],[47.6246194,44.2644585],[47.6241746,44.2643922],[47.589838,44.3207468],[47.5512169,44.3694815],[47.4992909,44.411452],[47.4362922,44.4448317],[47.3649496,44.4681651],[47.3580134,44.4692786],[47.329973,44.5037226],[47.2819894,44.5502687],[47.2746377,44.5548853],[47.3213038,44.5771056],[47.3747549,44.6154846],[47.4164372,44.660674],[47.4446587,44.7108709],[47.4582543,44.7640679],[47.4590453,44.7711411],[47.4752241,44.7829477],[47.5296297,44.8333066],[47.5660064,44.8912867],[47.6010375,44.9712079],[47.6241573,44.9830707],[47.6734971,45.0201989],[47.7121283,45.0632169],[47.7386562,45.1106001],[47.7521072,45.1606649],[47.7593583,45.2155848],[47.7838329,45.2448705],[47.8214498,45.2276887],[47.8924935,45.2079055],[47.967656,45.1983931],[48.0439868,45.199524],[48.1184918,45.2112535],[48.1882459,45.2331207],[48.2505033,45.2642666],[48.3028019,45.3034662],[48.3430593,45.3491753],[48.3696555,45.3995893],[48.3815002,45.4527129],[48.3810297,45.4601098],[48.4098615,45.4674609],[48.4750581,45.4952978],[48.5311857,45.5315847],[48.5673039,45.5664785],[48.5984368,45.5569642],[48.6726031,45.5456206],[48.7484859,45.5446236],[48.8231805,45.5540105],[48.8938262,45.5734215],[48.9691776,45.600324],[49.0301687,45.6273516],[49.0829338,45.6618333],[49.1256246,45.7025719],[49.1567326,45.7481499],[49.1751437,45.796978],[49.1801806,45.8473496],[49.1753145,45.8758986],[49.1977428,45.8885027],[49.207644,45.889508],[49.2795608,45.9073001],[49.3451176,45.9345115],[49.4017919,45.9700993],[49.4341472,46.0003348],[49.4383477,46.0011561],[49.5044116,46.0241468],[49.5167464,46.0307208],[49.5315591,46.0183443],[49.5929263,45.984206],[49.6628669,45.9593002],[49.7385406,45.9446337],[49.8168852,45.9407987],[49.8947354,45.9479493],[49.9689457,45.9657956],[50.0365117,45.9936159],[50.0946878,46.0302836],[50.1410955,46.0743121],[50.17382,46.1239128],[50.1914905,46.1770656],[50.2102073,46.2799925],[50.2124298,46.3312389],[50.2005323,46.381855],[50.1884041,46.4046549],[50.2787849,46.4583019],[50.3471137,46.4680581],[50.4182299,46.488817],[50.4820974,46.5187363],[50.5362484,46.5566657],[50.5426101,46.5620983],[50.5991643,46.5612917],[50.6762517,46.5708337],[50.7490801,46.5906515],[50.8147812,46.6199655],[50.8578354,46.6489367],[50.9245487,46.6675162],[50.9890305,46.6965741],[51.0440512,46.7336754],[51.0874922,46.7774053],[51.089777,46.7802731],[51.2469841,46.8324157],[51.2760972,46.8265165],[51.2896716,46.8153488],[51.3443985,46.778315],[51.4085397,46.7492242],[51.4784877,46.7295045],[51.5065202,46.7118286],[51.5706332,46.6847128],[51.6410601,46.6664188],[51.6536006,46.6649329],[51.690083,46.6506523],[51.75921,46.6342436],[51.8374272,46.621054],[51.8889229,46.5914596],[51.9539803,46.5665863],[52.0246571,46.5505444],[52.0984408,46.5439022],[52.2309787,46.5405574],[52.3054252,46.5434804],[52.3777354,46.5559762],[52.4453309,46.5775986],[52.5057947,46.6075759],[52.5569549,46.6448372],[52.5861187,46.6763467],[52.5991487,46.6822947],[52.6335266,46.680811],[52.6823639,46.6822351],[52.6797093,46.678881],[52.6368751,46.6095022],[52.6142991,46.5599841],[52.6060287,46.5084051],[52.6123311,46.4566861],[52.632931,46.4067479],[52.6670274,46.3604397],[52.7014145,46.33002],[52.7075826,46.322059],[52.7484949,46.2795209],[52.7147614,46.1157088],[52.4171126,45.7810281],[52.3831856,45.7309659],[52.3069521,45.6873296],[52.2705967,45.6616883],[52.0339815,45.6450869],[52.0294051,45.6489146],[51.9715286,45.6816995],[51.9056569,45.7060898],[51.8342656,45.7211643],[51.7600474,45.7263527],[51.6858067,45.721458],[51.6143492,45.7066643],[51.5483717,45.6825299],[51.4935412,45.6517547],[51.4718004,45.6557279],[51.3923072,45.6584451],[51.3137433,45.6496692],[51.2394967,45.6297777],[51.1727619,45.5996274],[51.1163982,45.5605158],[51.0728044,45.5141235],[50.9045731,45.285627],[50.8883702,45.2563276],[50.7852456,45.2188208],[50.711129,45.2304153],[50.6653321,45.2342337],[50.6558341,45.2455037],[50.604863,45.2852285],[50.543682,45.317076],[50.4747118,45.3397773],[50.4006947,45.352426],[50.3245829,45.3545163],[50.2494164,45.3459638],[50.1770993,45.3323972],[50.1699622,45.3305261],[50.1104063,45.3397903],[50.0309366,45.34033],[49.9530553,45.3293069],[49.8801482,45.3071996],[49.8153769,45.2749685],[49.7615366,45.2340122],[49.7209343,45.1861046],[49.664082,45.0995144],[49.6389917,45.0480995],[49.62908,44.9941616],[49.6347082,44.9399032],[49.6556033,44.8875334],[49.6908759,44.8391782],[49.7371923,44.7984423],[49.743316,44.7743984],[49.7706096,44.7251742],[49.7811332,44.7105658],[49.8247034,44.6630788],[49.8811934,44.6230736],[49.9073959,44.6110315],[49.906547,44.5820764],[49.9199139,44.5292853],[49.9476528,44.4794039],[50.1663848,44.1757286],[50.2008649,44.1363237],[50.2442168,44.1017271],[50.295147,44.0729588],[50.3521457,44.0508652],[50.4857646,44.0091494],[50.4977352,43.9554436],[50.5268859,43.9017731],[50.5711397,43.8537509],[50.6629811,43.7738483],[50.7645509,43.5702447],[50.7907777,43.5288122],[50.8262127,43.4911465],[50.8698338,43.458316],[50.9142392,43.4300544],[50.9445384,43.1426171],[50.9577461,43.088961],[50.9854376,43.0383097],[51.0264495,42.9927258],[51.0790865,42.9540609],[51.1411936,42.9238818],[51.2102439,42.9034091],[51.2834402,42.8934692],[51.3578248,42.8944624],[51.4173189,42.8996594],[51.605646,42.6941015],[51.6529476,42.652092],[51.7106858,42.6178797],[51.7765081,42.5928479],[51.8477463,42.5780067],[51.921522,42.5739539],[51.9948593,42.5808521],[52.0566724,42.5913883],[52.09984,42.5655156],[52.1694362,42.5394154],[52.2448746,42.5247059],[52.2893374,42.5231947],[52.2577105,42.4439379],[52.086857,42.2287492],[52.0546354,42.1752781],[52.0388752,42.1178637],[52.0402798,42.059237],[52.0587341,42.0021784],[52.1122029,41.8912806],[52.086709,41.81744],[52.0762547,41.7693001],[52.0776411,41.7205105],[52.0907948,41.6726742],[52.1152582,41.6273587],[52.1502071,41.5860455],[52.194481,41.5500821],[52.2056786,41.5424848],[52.2027376,41.5184271],[52.2106992,41.4645639],[52.2328602,41.4129381],[52.2682924,41.3656316],[52.315541,41.3245475],[52.4337568,41.2402495],[52.4980408,41.0206956],[52.5191603,40.971396],[52.5453021,40.935624],[52.4900326,40.8031268],[52.4764034,40.7557781],[52.4742359,40.7073047],[52.4781628,40.6871177],[52.4756499,40.6837166],[52.4491264,40.6383878],[52.4340849,40.5900879],[52.4310135,40.5404679],[52.4399893,40.49122],[52.6135267,39.9230131],[52.6371347,39.8703728],[52.6569733,39.8447955],[52.654331,39.8115642],[52.6634091,39.7596396],[52.6752992,39.720695],[52.6785054,39.713475],[52.6797974,39.7059616],[52.6826962,39.6964665],[52.7017487,39.6518418],[52.7305142,39.6103941],[52.7681062,39.5733743],[52.7860904,39.5585044],[52.7971461,39.5509979],[52.7858151,39.5308742],[52.7715422,39.4829092],[52.7688553,39.4336869],[52.7778189,39.384859],[52.8395459,39.1826134],[52.8611478,39.1333633],[52.894463,39.0881873],[52.9382351,39.0487571],[52.990829,39.0165287],[53.0334037,38.9994606],[53.0333766,39],[53.0333766,39],[53.0303303,39.0607265],[53.0879309,39.0911209],[53.0555306,39.0269549],[53.0601708,39],[53.0601708,39],[53.0618826,38.9900566],[53.114428,38.9781178],[53.1808723,38.9733473],[53.2471807,38.978553],[53.3109138,38.9935426],[53.3287357,39.0008883],[53.369185,38.9741525],[53.3723235,38.9727648],[53.3931333,38.9405245],[53.434723,38.8987979],[53.4858422,38.8641083],[53.506797,38.8547116],[53.5151761,38.8501123],[53.52832,38.8381057],[53.5622493,38.8168532],[53.5272489,38.747264],[53.5048204,38.6720315],[53.4890034,38.5249235],[53.4890303,38.5226817],[53.489604,38.4748872],[53.5019996,38.4257386],[53.525737,38.3791739],[53.5599759,38.3367966],[53.60352,38.3000626],[53.6548607,38.2702315],[53.7122293,38.2483242],[53.7736568,38.2350893],[53.8175478,38.2322424],[53.8343212,38.3078348],[53.7969542,38.4958051],[53.7968484,38.497203],[53.7920183,38.5214952],[53.7968484,38.497203],[53.7970779,38.4960489],[53.7988628,38.4907183],[53.8019903,38.4857761],[53.8063296,38.4814286],[53.8116991,38.4778577],[53.8178742,38.4752125],[53.824597,38.4736034],[53.8315866,38.4730977],[53.8363205,38.4730978],[53.8359162,38.4751362],[53.8309851,38.5],[55.5,38.5],[55.7272727,38.5454545],[55.9545455,38.5909091],[56.1818182,38.6363636],[56.4090909,38.6818182],[56.6363636,38.7272727],[56.8636364,38.7727273],[57.0909091,38.8181818],[57.3181818,38.8636364],[57.5454545,38.9090909],[57.7727273,38.9545455],[58,39],[58.2380952,39.047619],[58.4761905,39.0952381],[58.7142857,39.1428571],[58.952381,39.1904762],[59.1904762,39.2380952],[59.4285714,39.2857143],[59.6666667,39.3333333],[59.9047619,39.3809524],[60.1428571,39.4285714],[60.3809524,39.4761905],[60.6190476,39.5238095],[60.8571429,39.5714286],[61.0952381,39.6190476],[61.3333333,39.6666667],[61.5714286,39.7142857],[61.8095238,39.7619048],[62.047619,39.8095238],[62.2857143,39.8571429],[62.5238095,39.9047619],[62.7619048,39.952381],[63,40],[63,39.972317],[63.0075432,39.9738257],[63.0140195,39.9753669],[63.0199675,39.9778371],[63.025163,39.981143],[63.0294099,39.9851603],[63.0325481,39.9897373],[63.0344591,39.9947016],[63.0350704,39.999866],[63.035071,40.0008503],[63.0351745,40.0000086],[63.0350526,39.7302039],[63.0752681,39.7382512],[63.1398122,39.7536167],[63.1991372,39.7782396],[63.2510241,39.8112006],[63.293524,39.8512683],[63.32503,39.8969441],[63.3443382,39.9465166],[63.3506959,39.9981244],[63.3507569,40.0079735],[63.3858227,45.6685816],[63.3793335,45.720899],[63.3581803,45.7713797],[63.323142,45.8180698],[63.1978468,45.9508345],[63.1942266,45.9691808],[63.2120819,46.0289851],[63.3164296,46.1282785],[63.3572667,46.1771907],[63.3822454,46.2309377],[63.3902087,46.2871312],[63.4875203,56.497954],[63.479299,56.5526335],[63.4507706,56.6051257],[63.4030656,56.653203],[63.338148,56.6948169],[63.2587411,56.728187],[63.1682159,56.7518806],[63.0704462,56.7648768],[63.0493436,56.7652403],[63.0493436,56.7652403],[63.0487642,56.50016],[63.0487375,56.4999789],[63.0478707,56.5053435],[63.0449648,56.5105851],[63.0401584,56.5153799],[63.0336538,56.5195251],[63.0257258,56.5228455],[63.0167093,56.5252006],[63.0069856,56.5264906],[63,56.5266095],[63,56.5],[62.7608696,56.4565217],[62.5217391,56.4130435],[62.0434783,56.326087],[61.8043478,56.2826087],[61.5652174,56.2391304],[61.326087,56.1956522],[61.0869565,56.1521739],[60.8478261,56.1086957],[60.6086957,56.0652174],[60.6086957,56.0652174],[60.3695652,56.0217391],[60.1304348,55.9782609],[59.8913043,55.9347826],[59.8913043,55.9347826],[59.6521739,55.8913043],[59.4130435,55.8478261],[59.173913,55.8043478],[58.9347826,55.7608696],[58.6956522,55.7173913],[58.4565217,55.673913],[57.9782609,55.5869565],[57.7391304,55.5434783],[57.5,55.5],[57.2666667,55.4333333],[57.0333333,55.3666667],[56.8,55.3],[56.5666667,55.2333333],[56.3333333,55.1666667],[56.1,55.1],[55.8666667,55.0333333],[55.6333333,54.9666667],[55.4,54.9],[55.1666667,54.8333333],[54.9333333,54.7666667],[54.7,54.7],[54.4666667,54.6333333],[54.2333333,54.5666667],[54,54.5],[52,52.5],[51.5714286,52.3],[51.3571429,52.2],[51.1428571,52.1],[50.9285714,52],[50.5,51.8],[50.2666667,51.78],[50.0333333,51.76],[49.8,51.74],[49.5666667,51.72],[49.3333333,51.7],[49.1,51.68],[48.8666667,51.66],[48.6333333,51.64],[48.4,51.62],[48.1666667,51.6],[47.9333333,51.58],[47.4666667,51.54],[47.2333333,51.52],[47,51.5],[46.5384615,51.5769231],[46.3076923,51.6153846],[45.8461538,51.6923077],[45.8461538,51.6923077],[45.6153846,51.7307692],[45.3846154,51.7692308],[45.1538462,51.8076923],[45.1538462,51.8076923],[44.6923077,51.8846154],[44.4615385,51.9230769],[44,52],[43.7666667,52.04],[43.5333333,52.08],[43.3,52.12],[43.0666667,52.16],[42.8333333,52.2],[42.6,52.24],[42.3666667,52.28],[42.1333333,52.32],[41.9,52.36],[41.6666667,52.4],[41.4333333,52.44],[41.2,52.48],[40.9666667,52.52],[40.7333333,52.56],[40.5,52.6],[38.5,52.6],[37.9,52.27],[37.7,52.16],[37.5,52.05],[36.5,51.5],[36.3111111,51.3666667],[36.1222222,51.2333333],[35.9333333,51.1],[35.7444444,50.9666667],[35.5555556,50.8333333],[35.440528,50.7521374],[35.4516762,50.7196013],[35.4516762,50.7196013],[35.440528,50.7521374],[35.3666667,50.7],[35.1777778,50.5666667],[34.8,50.3],[34.5833333,50.2166667],[34.3666667,50.1333333],[34.15,50.05],[33.9333333,49.9666667],[33.7166667,49.8833333],[33.5,49.8],[33.0714286,49.7428571],[32.8571429,49.7142857],[32.6428571,49.6857143],[32.4285714,49.6571429],[32.2142857,49.6285714],[32,49.6],[31.7857143,49.5428571],[31.5714286,49.4857143],[31.3571429,49.4285714],[31.1428571,49.3714286],[30.9285714,49.3142857],[30.7142857,49.2571429],[30.5,49.2],[30.2857143,49.1142857],[30.0714286,49.0285714],[29.8571429,48.9428571],[29.6428571,48.8571429],[29.4285714,48.7714286],[29.2142857,48.6857143],[29,48.6],[28.7857143,48.5285714],[28.5714286,48.4571429],[28.3571429,48.3857143],[28.1428571,48.3142857],[27.9285714,48.2428571],[27.7142857,48.1714286],[27.5,48.1],[27.2857143,48.1285714],[27.0714286,48.1571429],[26.8571429,48.1857143],[26.6428571,48.2142857],[26.4285714,48.2428571],[26.2142857,48.2714286],[26,48.3],[25.8,48.2],[25.6,48.1],[25.2,47.9],[25,47.8],[24.8,47.7],[25.5,47.2],[25.625,47.025],[25.75,46.85],[26,46.5],[26,45.8],[25.825,45.725],[25.65,45.65],[25.3,45.5],[25.0833333,45.4833333],[24.8666667,45.4666667],[24.65,45.45],[24.4333333,45.4333333],[24.2166667,45.4166667],[24,45.4],[23,45.2],[22.8,44.875],[22.7,44.7125],[22.6,44.55],[22.6,44.2]],[[49.9846998,44.9471068],[49.9896858,44.9546311],[50.010245,44.985657],[50.0270195,44.9621726],[50.0207002,44.9437297],[50.0380085,44.9364231],[50.0380085,44.9364231],[50.0486081,44.9319486],[50.0567006,44.9285325],[50.0486081,44.9319486],[50.0600645,44.9159096],[50.0747007,44.8609894],[50.0761012,44.8604263],[50.0761311,44.8604143],[50.1092006,44.8471191],[50.1196571,44.83248],[50.1719017,44.830595],[50.1196571,44.83248],[50.0783008,44.8339721],[50.0722149,44.8413282],[50.072189,44.8413594],[50.072189,44.8413594],[49.9846998,44.9471068]],[[50.2259023,44.5671769],[50.2691027,44.5705541],[50.2841146,44.6022396],[50.3123031,44.6617373],[50.2841146,44.6022396],[50.4166667,44.4166667],[50.5014803,44.2979276],[50.4533528,44.3060311],[50.45335,44.3060315],[50.2763028,44.3358419],[50.2295023,44.3915649],[50.2259023,44.5671769]],[[51.2627126,43.1639692],[51.2649949,43.1706216],[51.2649965,43.1706261],[51.2650226,43.1707022],[51.2785264,43.210063],[51.3129352,43.1618907],[51.2700529,43.1636654],[51.2699698,43.1636689],[51.2699648,43.1636691],[51.2627126,43.1639692]],[[52.699127,40.2731249],[52.7351274,40.4841971],[52.7588579,40.5160433],[52.7588614,40.516048],[52.7847592,40.5508025],[52.8461538,40.3461538],[52.9153846,40.1153846],[52.955361,39.9821299],[52.9439294,39.9810011],[52.9151292,40.0215269],[52.9096931,40.0143877],[52.897129,39.9978868],[52.9295293,39.8965722],[52.9833367,39.8409],[53,39.8236592],[53,39.8236592],[53.0042086,39.8193048],[53.0159015,39.7803284],[53.0051301,39.7834375],[53.0203081,39.7656395],[53.023159,39.7561366],[53.0411304,39.7412231],[53.023159,39.7561366],[53,39.7753551],[52.9943299,39.7800604],[52.904329,39.8746207],[52.8827288,39.9455409],[52.7387274,40.0536099],[52.7675277,40.153236],[52.699127,40.2731249]],[[52.7589054,40.5161069],[52.7847592,40.5508025],[52.7847592,40.5508025],[52.7589054,40.5161069]],[[53.0843308,39.4001305],[53.0913059,39.4098218],[53.09131,39.4098276],[53.1165365,39.4448782],[53.1772593,39.2424689],[53.1701036,39.2162284],[53.1700764,39.2161288],[53.1700764,39.2161288],[53.1599316,39.1789269],[53.1531866,39.2232191],[53.1383314,39.3207674],[53.1021787,39.3739],[53.1434602,39.2365337],[53.1021787,39.3739],[53.0843308,39.4001305]],[[53.185438,41.3875449],[53.2632108,41.6040386],[53.2749389,41.65755],[53.2720552,41.71178],[53.2546389,41.7645238],[53.2369166,41.7923604],[53.2666568,41.8118265],[53.294141,41.8091211],[53.3802794,41.8161035],[53.5461284,41.8446585],[53.5647036,41.7960023],[53.596076,41.7498063],[53.6636663,41.6700582],[53.7043465,41.4648567],[53.7212782,41.4139711],[53.7509969,41.3664546],[53.7923533,41.3240991],[53.8437681,41.2884978],[54.1087613,41.1370949],[54.0788456,41.1275357],[54.0214338,41.0980768],[53.9728231,41.0607323],[53.9349037,41.0169832],[53.9009007,41.0563935],[53.8494037,41.0955486],[53.7884142,41.1260085],[53.7204929,41.1464867],[53.6485034,41.1561163],[53.5754881,41.1544887],[53.5045354,41.1416718],[53.4386439,41.1182065],[53.4100479,41.1018996],[53.4002586,41.1033409],[53.3295131,41.1030364],[53.3078824,41.0996498],[53.298212,41.1037482],[53.2590083,41.1661994],[53.2538104,41.1892921],[53.185438,41.3875449]]]}}
