{"type":"Feature","properties":{"family":"celts","name":"Dál Riata, 789 – 842"},"geometry":{"type":"Polygon","coordinates":[[[-7.4783205,56.5026045],[-7.4680843,56.4496977],[-7.4393117,56.3989244],[-7.3931854,56.3522471],[-7.331541,56.3114632],[-7.2235581,56.2526596],[-7.148851,56.2192092],[-7.0638821,56.1945222],[-6.9719257,56.1795452],[-6.8765081,56.1748519],[-6.7812799,56.1806218],[-6.7792566,56.1809772],[-6.7382066,56.1477358],[-6.7183344,56.1346358],[-6.7316106,56.1168726],[-6.7502717,56.0639867],[-6.7501876,56.0560124],[-6.7852811,56.0400331],[-6.846315,55.9983821],[-6.8912203,55.9507682],[-6.9182539,55.8991056],[-6.9738994,55.7317214],[-6.9819626,55.6789064],[-6.9715577,55.6262227],[-6.9431583,55.5756996],[-6.9095307,55.5411901],[-6.8979205,55.5292755],[-6.8376295,55.4887252],[-6.7646248,55.4555936],[-6.6877731,55.4329314],[-6.6337959,55.3932369],[-6.5606258,55.3574539],[-6.4763499,55.3307656],[-6.3844097,55.3142561],[-6.3237895,55.3106763],[-6.3237865,55.3106791],[-6.3237865,55.3106791],[-6.3237858,55.3106797],[-6.3214533,55.3128208],[-6.3150198,55.3167221],[-6.3073593,55.3198238],[-6.2605401,55.3350298],[-6.2520304,55.337191],[-6.2429417,55.3383634],[-6.2336256,55.3385017],[-6.2244425,55.3376005],[-6.2244425,55.3376005],[-6.2157475,55.3356947],[-6.160137,55.3197521],[-6.1601366,55.319752],[-6.1509178,55.3171091],[-6.1434574,55.3144454],[-6.1369931,55.3110417],[-6.131748,55.3070158],[-6.127903,55.3025066],[-6.1255906,55.2976702],[-6.1248901,55.2926734],[-6.125825,55.2876889],[-6.1283624,55.2828888],[-6.1499904,55.2525021],[-6.1545013,55.247647],[-6.1553928,55.2470324],[-6.1151211,55.2437372],[-6.1053831,55.2423237],[-6.0963896,55.2397687],[-6.0885471,55.2361878],[-6.002146,55.1871959],[-5.9964757,55.1833041],[-5.99218,55.1788755],[-5.9894098,55.1740664],[-5.9882623,55.1690462],[-5.9887772,55.1639917],[-6.0084769,55.0904317],[-5.9563683,55.0782001],[-5.9476202,55.0754943],[-5.9400604,55.0717972],[-5.9340256,55.0672735],[-5.9297844,55.0621251],[-5.9297844,55.0621251],[-5.9278428,55.0573608],[-5.9278428,55.0573608],[-5.927842,55.057359],[-5.9077334,55.0529851],[-5.8165511,55.0441493],[-5.6520622,55.0374409],[-5.6379879,55.0377099],[-5.5522249,55.0393486],[-5.455284,55.0532052],[-5.3655251,55.078399],[-5.2869342,55.1138158],[-5.1933536,55.1659068],[-5.1761429,55.1777081],[-5.0931741,55.1817226],[-5.0054258,55.1959446],[-4.9562209,55.2101619],[-4.9128938,55.2351918],[-4.8796752,55.3368108],[-4.8765027,55.3426781],[-4.8710784,55.3479854],[-4.7732197,55.4222845],[-4.6771574,55.4952198],[-4.7228198,55.5278703],[-4.7278518,55.5322882],[-4.7312755,55.5371744],[-4.7329607,55.5423433],[-4.7328425,55.5475989],[-4.7309249,55.5527417],[-4.7272799,55.5575764],[-4.7193434,55.5657776],[-4.7312311,55.5856533],[-4.8382414,55.6128859],[-4.8479095,55.6161638],[-4.8559498,55.6206295],[-4.9567743,55.6915193],[-4.9622112,55.6962807],[-4.9657663,55.7015765],[-4.9672822,55.7071736],[-4.9666915,55.7128256],[-4.9640191,55.7182834],[-4.9593821,55.7233065],[-4.9556633,55.7264708],[-4.955661,55.7264724],[-4.9556614,55.7264721],[-4.9556821,55.7264545],[-4.9556614,55.7264721],[-4.955661,55.7264724],[-4.911077,55.7644176],[-4.9283576,55.874676],[-4.8681948,55.950758],[-4.8651571,55.9559547],[-4.8640529,55.9613875],[-4.8649283,55.9668334],[-4.8658804,55.9686013],[-4.8586792,55.9721844],[-4.8527938,55.9766159],[-4.8486427,55.9816248],[-4.8464003,55.9870016],[-4.8463165,55.9889355],[-4.8510485,55.9887136],[-4.8639316,56.0582052],[-4.8654487,56.0663881],[-4.8581477,56.0755569],[-4.8578815,56.0758913],[-4.8592198,56.0854117],[-4.8505927,56.0850447],[-4.7538475,56.2065401],[-4.7927744,56.1686707],[-4.8510485,56.1119797],[-4.7927744,56.1686707],[-4.75,56.22],[-4.7,56.4],[-4.75,56.6],[-4.95,56.8],[-5.125,56.85],[-5.3,56.9],[-5.4666667,56.8833333],[-5.6333333,56.8666667],[-5.7449547,56.8555045],[-5.7412663,56.855072],[-5.7449547,56.8555045],[-5.7834578,56.8600195],[-5.7527921,56.8821481],[-5.7540002,56.8820272],[-5.7649033,56.8801826],[-5.8320322,56.8639299],[-5.8313212,56.8665869],[-5.8311504,56.8668459],[-5.9201974,56.866812],[-5.9298863,56.8673293],[-5.9392015,56.8688754],[-5.9477811,56.8713904],[-5.9552917,56.8747765],[-5.9614415,56.8789023],[-5.9659907,56.8836074],[-5.9687622,56.8887089],[-5.9696472,56.8940084],[-5.9686106,56.8992999],[-5.9656919,56.9043774],[-5.9610041,56.9090432],[-5.954729,56.9131156],[-5.9471107,56.9164359],[-5.9384458,56.9188747],[-5.9296948,56.9202398],[-5.9300764,56.9219589],[-5.9292828,56.9273491],[-5.926535,56.9325447],[-5.8618259,57.0203746],[-5.8577322,57.024728],[-5.8522611,57.0286075],[-5.8455921,57.0318854],[-5.8379444,57.0344539],[-5.8295697,57.0362283],[-5.8201036,57.0377118],[-5.8251483,57.0398823],[-5.8315239,57.0439798],[-5.8362831,57.0486829],[-5.839237,57.0538056],[-5.840145,57.0585082],[-5.8973284,57.0229475],[-5.9040373,57.0194829],[-5.9118104,57.0167565],[-5.9203774,57.0148631],[-5.9923325,57.0030514],[-6.0016046,57.0020393],[-6.0110606,57.0020046],[-6.0203566,57.0029485],[-6.0291544,57.0048368],[-6.037134,57.0076007],[-6.0440049,57.0111397],[-6.0495168,57.015325],[-6.0534685,57.0200042],[-6.0751062,57.0537676],[-6.0772425,57.0583597],[-6.0778692,57.0630844],[-6.0769666,57.0677959],[-6.0762741,57.069107],[-6.1440302,57.0473022],[-6.1813331,57.0290052],[-6.1824722,57.0288063],[-6.2024974,57.0239051],[-6.2027283,57.0222748],[-6.228023,56.9479872],[-6.2310315,56.9424849],[-6.236105,56.9374542],[-6.2430132,56.9331227],[-6.251443,56.9296863],[-6.261013,56.9273003],[-6.325774,56.9154885],[-6.3346364,56.9143516],[-6.34373,56.9141208],[-6.3527468,56.9148039],[-6.3613815,56.9163778],[-6.3693416,56.9187891],[-6.3763573,56.9219563],[-6.4508564,56.962339],[-6.502588,56.9461506],[-6.5913644,56.9377276],[-6.6810271,56.918851],[-6.7621882,56.8908097],[-6.8608404,56.8485993],[-7.0003156,56.7889219],[-7.0278332,56.7743748],[-7.0765115,56.7692563],[-7.0817951,56.7687007],[-7.1748297,56.7535153],[-7.260512,56.7285558],[-7.289349,56.7155732],[-7.335465,56.6948115],[-7.396758,56.6536163],[-7.4420234,56.606594],[-7.4695456,56.5555915],[-7.4783205,56.5026045]],[[-5.1882585,55.4206814],[-5.1791713,55.4201217],[-5.1700293,55.4205644],[-5.1612069,55.4219949],[-5.1530322,55.4243602],[-5.1458094,55.4275723],[-5.1398074,55.4315117],[-5.1277679,55.4411357],[-5.1786258,55.4470994],[-5.0927307,55.5158154],[-5.1210512,55.5243548],[-5.0706507,55.5091576],[-5.0922509,55.5007148],[-5.084386,55.4758139],[-5.0538788,55.5002004],[-5.0493948,55.5046034],[-5.0464478,55.5094045],[-5.0451428,55.5144334],[-5.0455267,55.5195117],[-5.0475867,55.5244591],[-5.05125,55.5290999],[-5.0563872,55.5332693],[-5.0628161,55.5368191],[-5.0632024,55.5369636],[-5.0506592,55.5579229],[-5.0629414,55.5373997],[-5.048241,55.5329663],[-5.0401582,55.5298863],[-5.0333522,55.5259394],[-5.0281075,55.5212909],[-5.0246432,55.5161352],[-5.0231035,55.510688],[-5.0235518,55.5051773],[-5.0259687,55.4998334],[-5.0302523,55.4948795],[-5.0362231,55.4905227],[-5.0400863,55.488657],[-5.0310321,55.4598687],[-5.0303,55.4547063],[-5.03132,55.4495596],[-5.0340541,55.4446182],[-5.0384007,55.4400641],[-5.0441995,55.4360649],[-5.0512365,55.4327679],[-5.0908246,55.4175795],[-5.0991651,55.4150244],[-5.1082317,55.4134594],[-5.1176643,55.4129467],[-5.1270885,55.4135067],[-5.1882235,55.4206752],[-5.1882585,55.4206814]]]}}
