{"type":"Feature","properties":{"family":"danes","name":"Kingdom of the Danes, 804 – 957"},"geometry":{"type":"Polygon","coordinates":[[[7.6178152,55.5549533],[7.6260831,55.5003521],[7.6536218,55.4478207],[7.6992276,55.3995152],[7.7609741,55.3574106],[7.8362988,55.3232227],[7.9655233,55.275727],[7.9914164,55.2446625],[8.0180282,55.2234368],[8.0104583,55.2009969],[7.984183,55.1748226],[7.8667117,55.0224374],[7.8384757,54.9732893],[7.8271604,54.9219543],[7.8183472,54.7513804],[7.8247163,54.6982529],[7.8286647,54.6899058],[7.8282953,54.6419524],[7.8459268,54.589729],[7.8808486,54.5405216],[7.9316525,54.4962312],[7.9963347,54.4585629],[8.0723781,54.4289627],[8.152,54.4041202],[8.1446302,54.389932],[8.1360008,54.3362723],[8.145838,54.2826882],[8.1736791,54.2313139],[8.2183549,54.184188],[8.2978777,54.1169002],[8.3362795,54.0906284],[8.3362973,54.0906163],[8.3362984,54.0906155],[8.3363405,54.0905866],[8.3364002,54.0905458],[8.3364305,54.0905251],[8.3364979,54.090479],[8.3365072,54.0904726],[8.3366291,54.0903892],[8.3601508,54.0742974],[8.4359862,54.0401327],[8.5221222,54.0158626],[8.6148801,54.0025197],[8.7103148,54.0006712],[8.7722776,54.0070865],[8.8106763,54.001775],[8.8106872,54.0017734],[8.8106877,54.0017734],[8.8106992,54.0017718],[8.8106998,54.0017717],[8.8107158,54.0017695],[8.7915286,54.024829],[8.7884482,54.0296281],[8.7869668,54.0346837],[8.7871386,54.0398133],[8.7889579,54.0448312],[8.7923595,54.0495559],[8.7972208,54.0538165],[8.8033663,54.0574587],[8.8105736,54.0603506],[8.8185819,54.0623876],[8.8271013,54.0634958],[8.8358231,54.063635],[8.9607524,54.0585598],[8.971843,54.0933424],[8.9538095,54.1137682],[8.8756877,54.0988689],[8.8667443,54.0977231],[8.8575925,54.0976415],[8.8485953,54.0986274],[8.8401093,54.1006417],[8.8324715,54.1036044],[8.8259848,54.1073981],[8.8209072,54.1118722],[8.7704684,54.1675792],[8.7673049,54.1719616],[8.7655033,54.1766019],[8.7651198,54.181356],[8.7661671,54.1860758],[8.7945455,54.2611582],[8.7945531,54.2611595],[8.8419698,54.2690722],[8.8415986,54.2665717],[8.8426876,54.2611405],[8.844839,54.2573439],[8.8877832,54.2669773],[8.975,54.26],[9.1,54.25],[9.25,54.26],[9.4,54.27],[9.67,54.3],[9.9,54.33],[10,54.3436364],[10.12,54.36],[10.197867,54.4318773],[10.204302,54.4605512],[10.197867,54.4318773],[10.1899019,54.3963852],[10.1431014,54.3727451],[10.1431014,54.3367749],[10.146695,54.3379645],[10.1535724,54.3414322],[10.1591554,54.3456167],[10.159173,54.3456329],[10.1680568,54.3538259],[10.1679568,54.3534648],[10.1676749,54.3524458],[10.1676629,54.3524024],[10.1675638,54.352044],[10.1675526,54.3520035],[10.167359,54.3513038],[10.1673282,54.3511925],[10.1673215,54.3511684],[10.1673023,54.3510988],[10.1672746,54.350999],[10.1672666,54.35097],[10.1672236,54.3508145],[10.1671997,54.3507281],[10.1669865,54.3499576],[10.1669687,54.3498932],[10.16689,54.3496088],[10.1668455,54.349448],[10.16689,54.3496088],[10.1669687,54.3498932],[10.1669865,54.3499576],[10.1671997,54.3507281],[10.1672236,54.3508145],[10.1672666,54.35097],[10.1672746,54.350999],[10.1673023,54.3510988],[10.1673215,54.3511684],[10.1673282,54.3511925],[10.167359,54.3513038],[10.1675526,54.3520035],[10.1675638,54.352044],[10.1676629,54.3524024],[10.1676749,54.3524458],[10.1679568,54.3534648],[10.1680568,54.3538259],[10.1978837,54.381334],[10.2327761,54.417994],[10.2327761,54.417994],[10.2331023,54.4183367],[10.2393329,54.4201632],[10.2414776,54.422711],[10.2438505,54.4283829],[10.2472771,54.4435752],[10.2494307,54.4531233],[10.2494472,54.4531963],[10.2494484,54.4532019],[10.2494486,54.4532024],[10.2984735,54.4677161],[10.3069015,54.4696312],[10.3158093,54.4705591],[10.3248577,54.4704643],[10.3337022,54.4693506],[10.3420063,54.4672604],[10.639413,54.3706204],[10.6507653,54.3877483],[10.6664242,54.4365867],[10.6664339,54.4664748],[10.6665235,54.4664664],[10.6862206,54.4669677],[10.7618683,54.4688929],[10.8543963,54.4825287],[10.9206198,54.5012617],[10.9722143,54.4838235],[10.9722145,54.4838234],[10.9874518,54.5165721],[10.9909043,54.5217746],[10.9961263,54.526454],[11.0028955,54.5304102],[11.0109225,54.5334741],[11.100962,54.5605071],[11.1089624,54.562382],[11.1174229,54.5633674],[11.1260517,54.5634294],[11.1345517,54.5625658],[11.1426299,54.5608065],[11.150008,54.558212],[11.2832409,54.5007701],[11.2910111,54.4965235],[11.2969063,54.491359],[11.3544577,54.425485],[11.3578707,54.420314],[11.3593961,54.4148464],[11.3589705,54.4093128],[11.3566124,54.4039464],[11.352422,54.3989733],[11.3465764,54.3946029],[11.3393221,54.3910192],[11.3309649,54.3883731],[11.3218565,54.3867759],[11.3123803,54.3862948],[11.2657191,54.3866994],[11.336068,54.3686034],[11.4391447,54.3570464],[11.5440347,54.3592255],[11.6615389,54.3694085],[11.7093617,54.3464194],[11.7907747,54.3210495],[11.8791283,54.3055468],[11.9709647,54.300517],[12.0626979,54.3061565],[12.1507456,54.3222452],[12.2316614,54.3481544],[12.3022626,54.3828704],[12.3597508,54.4250317],[12.4018218,54.4729803],[12.4138025,54.4978884],[12.4138025,54.4978884],[12.4267588,54.5248246],[12.4335076,54.5785116],[12.4325242,54.5995364],[12.528478,54.6656861],[12.5329728,54.6694561],[12.5495788,54.6833843],[12.5979936,54.6839092],[12.6683058,54.6925674],[12.6855537,54.6946913],[12.7680152,54.7148807],[12.8423893,54.743748],[12.8618787,54.7549375],[12.8619182,54.7549602],[12.9059643,54.7802485],[12.9564018,54.823058],[12.9918223,54.8706189],[12.9972667,54.8850691],[12.9972835,54.8851139],[12.9972844,54.8851162],[12.9973004,54.8851587],[12.9973168,54.8852021],[12.9973181,54.8852056],[12.9973208,54.8852127],[13.0108778,54.9211951],[13.0128076,54.9729335],[13.0061983,55.0236171],[12.9917462,55.0726859],[12.9617482,55.1193944],[12.9586641,55.122356],[12.9783663,55.1250686],[13.2672656,55.0838037],[13.3523765,55.0761492],[13.4384943,55.0774308],[13.5227986,55.0876063],[13.905302,55.154307],[14.0576197,55.1307148],[14.1540113,55.1216651],[14.2146842,55.1231754],[14.2112565,55.1054156],[14.2184769,55.0542505],[14.2424482,55.0047905],[14.2822471,54.9588166],[14.336394,54.9179787],[14.4029113,54.8837376],[14.4793977,54.8573145],[14.8664126,54.7499081],[14.9496237,54.7319938],[15.0371529,54.7234267],[15.1258989,54.7245097],[15.2127202,54.7352044],[15.2945393,54.7551318],[15.3684462,54.7835852],[15.4317969,54.8195539],[15.4823056,54.8617574],[15.5181265,54.908689],[15.5987203,55.0485396],[15.61933,55.1014177],[15.6210817,55.1555886],[15.6038286,55.208868],[15.5681947,55.2590987],[15.5155617,55.3042391],[15.4480223,55.3424479],[15.0585057,55.5207003],[14.9774001,55.5503726],[14.8872918,55.5701251],[14.8396387,55.574636],[14.8395148,55.5771821],[14.8217672,55.6247045],[14.7891566,55.6696533],[14.7310114,55.732688],[14.7327104,55.7326362],[14.8186531,55.7387795],[14.9012799,55.7534765],[14.9779376,55.776256],[15.0461537,55.8063868],[15.1001227,55.8349478],[15.1599407,55.8730955],[15.1710309,55.8836262],[15.1969879,55.8841481],[15.2151322,55.8813833],[15.2866538,55.8746772],[15.3841099,55.8716916],[15.4292193,55.8509043],[15.5124942,55.8258711],[15.6028015,55.8104051],[15.696712,55.8050924],[15.7906686,55.8101336],[15.8389446,55.8182588],[15.8827844,55.8174406],[15.973405,55.8255057],[16.0597086,55.8430405],[16.1385982,55.869417],[16.2072276,55.9036892],[16.2631007,55.9446253],[16.282937,55.9623486],[16.282945,55.9623557],[16.2829518,55.9623618],[16.4423793,56.1048063],[16.4835389,56.1504487],[16.5085915,56.199589],[16.5111364,56.2157973],[16.4550755,56.1956942],[16.4461803,56.1931798],[16.4365489,56.1917311],[16.4265885,56.1914094],[16.4167201,56.1922283],[16.4073607,56.1941531],[16.3989061,56.1971026],[16.3917138,56.200952],[16.3860886,56.2055385],[16.382269,56.2106681],[16.3804172,56.2161239],[16.3441124,56.4558883],[16.344113,56.4559193],[16.344113,56.4559193],[16.2384816,56.5160944],[16.2384814,56.5160945],[16.14064,56.4105462],[16.0877302,56.2506568],[16.085292,56.2458363],[16.0812934,56.2413493],[16.0723323,56.2332743],[16.0722953,56.2332474],[16.0724049,56.2333703],[16.0724049,56.2333703],[16.0763606,56.2378063],[16.0788167,56.242729],[16.0795586,56.2478205],[16.078559,56.2528985],[16.0758531,56.2577806],[16.0715373,56.2622917],[16.0657662,56.2662698],[16.0470135,56.2769019],[16.0399604,56.2555088],[16.0310047,56.2474307],[16,56.265],[15.85,56.35],[15.65,56.4],[15.45,56.45],[15.2666667,56.46],[15.0833333,56.47],[14.9,56.48],[14.7333333,56.46],[14.5666667,56.44],[14.4,56.42],[14.2333333,56.43],[14.0666667,56.44],[13.9,56.45],[13.5,56.55],[13.4,56.85],[13.225,56.975],[13.05,57.1],[12.8833333,57.1833333],[12.7166667,57.2666667],[12.55,57.35],[12.1,57.5],[11.9036533,57.5245433],[11.903519,57.5236303],[11.9036533,57.5245433],[11.907594,57.5513451],[11.905242,57.5515094],[11.8954457,57.5511608],[11.8859631,57.5497966],[11.8771564,57.5474688],[11.8693619,57.5442664],[11.8628771,57.5403117],[11.857949,57.5357558],[11.8547652,57.5307726],[11.8534526,57.5255762],[11.8534465,57.5255521],[11.8534584,57.5254464],[11.8540423,57.5202935],[11.8565291,57.5151973],[11.8608115,57.5104577],[11.8666517,57.505333],[11.8666517,57.505333],[11.8666525,57.5053323],[11.8666539,57.505331],[11.8823577,57.4915509],[11.8666539,57.505331],[11.8666525,57.5053323],[11.8666517,57.505333],[11.8663936,57.5054569],[11.8602974,57.50988],[11.855998,57.5148754],[11.8536749,57.5202355],[11.8534255,57.5257372],[11.8615093,57.5812978],[11.8525388,57.5823038],[11.8436601,57.5843034],[11.8356533,57.5871723],[11.8288114,57.5908058],[11.8233848,57.5950709],[11.8195726,57.5998118],[11.7871085,57.6538338],[11.7850124,57.6590149],[11.7848507,57.6643152],[11.7866303,57.6695302],[11.7896065,57.6735452],[11.7070105,57.6722751],[11.6970121,57.6726492],[11.6873499,57.6740763],[11.6784061,57.6765],[11.6705347,57.6798245],[11.6640473,57.6839183],[11.6592012,57.6886194],[11.6561888,57.6937416],[11.6551304,57.6990822],[11.6560686,57.7044295],[11.6589673,57.7095717],[11.6637122,57.7143047],[11.7402,57.7750271],[11.732361,57.7779309],[11.7323402,57.7779279],[11.7323292,57.7779263],[11.7256461,57.7769644],[11.6371836,57.7535487],[11.5590717,57.7213576],[11.4943093,57.6816396],[11.445354,57.6359309],[11.4140308,57.5859932],[11.4097772,57.5683182],[11.4028052,57.5705245],[11.3132597,57.5876763],[11.2428562,57.5934765],[11.2421404,57.5935355],[11.2419549,57.5935507],[11.2192448,57.5954217],[11.1241888,57.5934782],[11.0685266,57.5865397],[11.1084386,57.6228688],[11.1405224,57.6709465],[11.15516,57.7213964],[11.1517562,57.7724178],[11.135596,57.8100007],[11.1355415,57.8101274],[11.135336,57.8106054],[11.1303581,57.8221822],[11.0916642,57.8688989],[11.0370088,57.9108801],[11.0240473,57.9176213],[11.0229686,57.9181823],[11.0227559,57.9182929],[10.9683222,57.9466037],[10.8880655,57.9747705],[10.8338076,57.9900669],[10.7448078,58.0096138],[10.6503908,58.0198569],[10.5540086,58.0204217],[10.4591901,58.0112875],[10.3694028,57.9927887],[10.2879187,57.9656017],[10.0683225,57.8753434],[9.8750929,57.8564872],[9.773188,57.840383],[9.6799685,57.8132501],[9.5995895,57.7763052],[9.5356004,57.7311999],[9.1939219,57.4255569],[8.5649462,57.3917335],[8.4773955,57.3824648],[8.3943645,57.3649102],[8.3185365,57.3396393],[8.2523483,57.3074699],[8.1979087,57.2694408],[7.8328009,56.9575421],[7.7881444,56.9085721],[7.7626021,56.8556859],[7.7599751,56.8293963],[7.7564573,56.8222444],[7.7530912,56.7938153],[7.6584515,56.6360783],[7.640465,56.5956443],[7.634023,56.554168],[7.6263173,56.0273225],[7.6355493,55.9725354],[7.6511562,55.9441107],[7.6968026,55.7793388],[7.6292389,55.6093746],[7.6178152,55.5549533]],[[8.3610836,54.9873873],[8.3815202,55],[8.4294843,55.0296017],[8.3815202,55],[8.3610836,54.9873873]],[[8.8866889,54.4183367],[9,54.463432],[9.0054901,54.4656169],[9,54.463432],[8.8866889,54.4183367]],[[8.8866889,54.6023917],[9,54.5158364],[9.0126901,54.5061427],[9,54.5158364],[8.8866889,54.6023917]],[[8.9415303,57],[8.9571021,57.0027824],[8.9415303,57],[8.9415303,57]],[[9.2898929,56.9967942],[9.3074068,57],[9.3074068,57],[9.2898929,56.9967942]],[[9.5120568,57],[9.5120568,57],[9.6066961,56.969777],[9.5120568,57]],[[9.5814958,55.0498646],[9.7210291,55],[9.7210291,55],[9.7326973,54.9958302],[9.7210291,55],[9.7210291,55],[9.5814958,55.0498646]],[[9.6066961,56.969777],[9.6428427,57],[9.6428427,57],[9.6066961,56.969777]],[[9.9594899,55],[9.9594899,55],[10.0099001,54.9755672],[9.9594899,55]],[[10.1797271,57],[10.1797271,57],[10.1935019,56.9934171],[10.1797271,57]],[[10.7407074,54.752675],[10.8918225,55],[10.8918225,55],[10.9099091,55.0296017],[10.8918225,55],[10.8918225,55],[10.7407074,54.752675]],[[10.7814127,56.880321],[10.7831359,56.8816979],[10.8215161,56.9311974],[10.8339604,56.9530606],[10.8354476,56.9526184],[10.9303925,56.9366722],[11.0292211,56.9313207],[11.12803,56.9367753],[11.2229158,56.9528207],[11.3101208,56.9788226],[11.386173,57.0137516],[11.4480188,57.0562212],[11.4632349,57.0691277],[11.4792594,57.0741297],[11.5506845,57.1075323],[11.6093357,57.1476357],[11.6211415,57.1598939],[11.6281889,57.1562655],[11.6365126,57.1402],[11.6785062,57.0945358],[11.6897732,57.086519],[11.701674,57.0692226],[11.7363284,57.038956],[11.7497262,57.0077877],[11.7632411,56.9913056],[11.7410508,56.9949461],[11.6407565,56.9997661],[11.5407646,56.9933596],[11.4452931,56.9759972],[11.307778,56.9420041],[11.2246761,56.915768],[11.152564,56.8812173],[11.0941708,56.8396759],[11.0516783,56.7927305],[11.0427849,56.7747857],[10.9718939,56.7912913],[10.8822925,56.8019718],[10.8112788,56.8030127],[10.7814127,56.880321]],[[10.8739087,55.7421813],[11,55.693063],[11.0863109,55.659441],[11,55.693063],[10.8739087,55.7421813]],[[10.99991,54.7864466],[11,54.7864162],[11.4751148,54.6260317],[11,54.7864162],[10.99991,54.7864466]],[[10.99991,54.7864466],[11,54.7864846],[11.1079111,54.8320382],[11,54.7864846],[10.99991,54.7864466]],[[11,55.7451384],[11,55.7451384],[11.1619116,55.7489356],[11,55.7451384]],[[11.3762169,56.2594578],[11.378155,56.2621605],[11.4333785,56.3700252],[11.4503298,56.4216404],[11.4503218,56.421941],[11.4831403,56.4165183],[11.5732253,56.4112575],[11.6635228,56.4152382],[11.7509821,56.4283261],[11.832642,56.4500785],[11.9057262,56.4797593],[11.967733,56.5163614],[12.0363372,56.5651179],[12.0891457,56.6116166],[12.1238914,56.663023],[12.1285841,56.6797944],[12.1954106,56.6513699],[12.2432757,56.5898038],[12.2268997,56.5797073],[12.1792318,56.5357253],[12.1719935,56.524716],[12.1526135,56.5179947],[12.0828845,56.4815016],[12.0275668,56.4381568],[11.9887716,56.3896555],[11.9733767,56.3514015],[11.9598221,56.3469939],[11.6839652,56.2345991],[11.623718,56.227876],[11.6000885,56.2237935],[11.4136436,56.2553976],[11.3762169,56.2594578]],[[11.8423184,55.0296017],[11.8671119,55],[11.8819188,54.9823215],[11.8671119,55],[11.8423184,55.0296017]],[[11.9107191,55.0093388],[11.9389252,55],[11.9389252,55],[11.9107191,55.0093388]],[[12.0331203,54.9688129],[12.1471043,55],[12.1471043,55],[12.1627216,55.004273],[12.1471043,55],[12.1471043,55],[12.0331203,54.9688129]],[[12.2635226,55.0650618],[12.2820175,55],[12.2851229,54.9890758],[12.2820175,55],[12.2635226,55.0650618]],[[12.5371254,55.0025845],[12.5374927,55],[12.5443254,54.9519271],[12.5374927,55],[12.5371254,55.0025845]],[[12.9799298,55.4027773],[13,55.3999195],[13.3831338,55.3453657],[13,55.3999195],[12.9799298,55.4027773]],[[13,55.6080622],[13,55.6080622],[13.0375304,55.6358009],[13,55.6080622]],[[14.9527495,56.1727685],[15,56.1637393],[15.0499505,56.1541942],[15,56.1637393],[14.9527495,56.1727685]],[[15,55.0069544],[15,55.0069544],[15.0343135,55],[15.0715507,54.992453],[15.0343135,55],[15,55.0069544]]]}}
