{"type":"Feature","properties":{"family":"danes","name":"East Anglia and the southern Danelaw, 902 – 916"},"geometry":{"type":"Polygon","coordinates":[[[-1.3,52.42],[-0.85,52.06],[-0.75,52.08],[-0.6,52.12],[-0.47,52.13],[-0.42,51.9],[-0.3,51.86],[-0.15,51.82],[-0.04,51.75],[-0.026,51.68],[-0.02,51.65],[0,51.5],[0.1,51.5],[0.4,51.47],[0.4071768,51.4704785],[0.3834038,51.453195],[0.4071768,51.4704785],[0.4071768,51.4704785],[0.4112834,51.473464],[0.4454711,51.4983191],[0.4494504,51.4993399],[0.4612918,51.501216],[0.6114141,51.5112237],[0.6224189,51.5110752],[0.7030918,51.503507],[0.7110168,51.5022759],[0.7184291,51.5001407],[0.7250652,51.4971774],[0.7251367,51.4971306],[0.7251367,51.4971306],[0.7251378,51.4971298],[0.7251383,51.4971295],[0.7769109,51.5006722],[0.7867389,51.5020735],[0.7957817,51.5048497],[0.7957817,51.5048498],[0.9469389,51.565608],[0.9469391,51.5656081],[0.9543437,51.5693514],[0.9543444,51.5693518],[0.9602554,51.5740108],[0.9890699,51.6027075],[0.9930053,51.6077076],[0.9952057,51.6131027],[0.9955768,51.6186635],[0.9941022,51.6241533],[0.990844,51.6293384],[0.9859403,51.633998],[0.9795997,51.6379336],[0.9727857,51.6406962],[0.9918014,51.6665943],[0.9946841,51.671935],[0.9957166,51.6775305],[0.9956379,51.6780413],[1.0876655,51.6429547],[1.4322063,51.6517972],[1.514884,51.6488743],[1.5605445,51.6416775],[1.5605454,51.6416773],[1.6022951,51.6659306],[1.6493182,51.7053224],[1.6841433,51.7493261],[1.7055893,51.7964915],[1.7483655,51.8327316],[1.8166232,51.8534642],[1.889643,51.8891445],[1.9488769,51.9335343],[1.9916209,51.9846401],[2.0158906,52.0401597],[2.0566978,52.1989175],[2.1801789,52.3862101],[2.2076232,52.4476129],[2.210746,52.5112272],[2.1905291,52.6497641],[2.1795078,52.69005],[2.1585522,52.7288626],[2.0553266,52.8795002],[2.0160571,52.92417],[1.9635655,52.9636151],[1.8996835,52.9964341],[1.5315203,53.150881],[1.4447886,53.1790567],[1.3498164,53.1951535],[0.7911875,53.2494872],[0.7941371,53.2166143],[0.7855428,53.0832496],[0.7748715,53.034261],[0.7586605,53.004156],[0.6956371,53.0127462],[0.6854268,53.0134017],[0.6752365,53.0126418],[0.5599697,52.9957459],[0.5523913,52.9941874],[0.5453953,52.9918416],[0.4589706,52.9563634],[0.4519284,52.9527742],[0.4462574,52.9483917],[0.4421979,52.9434019],[0.3651735,52.8168751],[0.3568655,52.8217433],[0.3505571,52.8248193],[0.3434315,52.827155],[0.3357239,52.8286732],[0.3276886,52.8293238],[0.3195911,52.8290854],[0.263955,52.8243463],[0.1598136,52.8944973],[0.165353,52.8898524],[0.1691431,52.8846071],[0.1710139,52.8789973],[0.170882,52.8732757],[0.1687541,52.8676995],[0.1647265,52.8625196],[0.1576944,52.8554936],[0.1265018,52.8765018],[0,52.75],[-0.3,52.58],[-0.45,52.55],[-0.6,52.52],[-1,52.45],[-1.3,52.42]]]}}
