{"type":"Feature","properties":{"family":"danes","name":"Danelaw, 879 – 901"},"geometry":{"type":"Polygon","coordinates":[[[-2.05,53.38],[-1.95,53.25],[-1.85,53.1],[-1.7,52.65],[-1.6,52.6],[-1.45,52.53],[-1.3,52.42],[-0.85,52.06],[-0.75,52.08],[-0.6,52.12],[-0.47,52.13],[-0.42,51.9],[-0.3,51.86],[-0.15,51.82],[-0.04,51.75],[-0.026,51.68],[-0.02,51.65],[0,51.5],[0.1,51.5],[0.4,51.47],[0.4071768,51.4704785],[0.3834038,51.453195],[0.4071768,51.4704785],[0.4071768,51.4704785],[0.4112834,51.473464],[0.4454711,51.4983191],[0.4494504,51.4993399],[0.4612918,51.501216],[0.6114141,51.5112237],[0.6224189,51.5110752],[0.7030918,51.503507],[0.7110168,51.5022759],[0.7184291,51.5001407],[0.7250652,51.4971774],[0.7251367,51.4971306],[0.7251367,51.4971306],[0.7251378,51.4971298],[0.7769119,51.5006724],[0.7867393,51.5020736],[0.7957817,51.5048497],[0.9469389,51.565608],[0.9543437,51.5693514],[0.9602544,51.5740101],[0.9890688,51.6027068],[0.9930042,51.6077068],[0.9952045,51.613102],[0.9955755,51.6186628],[0.9941008,51.6241527],[0.9908424,51.6293378],[0.9859386,51.6339975],[0.9795979,51.6379332],[0.9727846,51.6406955],[0.9918003,51.6665935],[0.994683,51.6719341],[0.9957154,51.6775295],[0.9956365,51.6780418],[0.9948519,51.6831361],[0.9956365,51.6780418],[0.9956379,51.6780413],[1.0876655,51.6429547],[1.4322063,51.6517972],[1.514884,51.6488743],[1.5605445,51.6416775],[1.5605454,51.6416773],[1.5605462,51.6416772],[1.6022915,51.6659278],[1.6493114,51.7053166],[1.6841345,51.7493172],[1.7055818,51.7964847],[1.7483681,51.8327331],[1.8166316,51.8534673],[1.8896461,51.8891447],[1.9488757,51.933531],[1.9916166,51.984633],[2.015885,52.0401489],[2.0566949,52.1989089],[2.1801797,52.3862027],[2.2076238,52.4476022],[2.2107473,52.5112138],[2.190533,52.6497502],[2.1795127,52.6900353],[2.158558,52.7288476],[2.0553356,52.8794857],[2.0160665,52.9241562],[1.9635746,52.9636025],[1.8996915,52.9964229],[1.5315295,53.1508729],[1.4661647,53.1734495],[1.3953708,53.1891222],[1.3211673,53.1974425],[0.7926547,53.2282104],[0.78629,53.2781832],[0.7551967,53.3370616],[0.5889476,53.5577724],[0.5928316,53.5853275],[0.5923446,53.5964045],[0.580934,53.6497982],[0.5518216,53.7007808],[0.5061117,53.7473112],[0.4455893,53.7875203],[0.3726546,53.8197878],[0.2902292,53.8428102],[0.2016366,53.8556556],[0.187478,53.8568357],[0.0964913,53.8589118],[0.0964869,53.8589119],[0.0538488,53.8922132],[-0.0188471,53.9292542],[-0.103181,53.956487],[-0.1357018,53.962202],[-0.1077569,53.9117373],[0.1731376,53.6580082],[0.1770005,53.6536783],[0.1794781,53.6490059],[0.1804894,53.644145],[0.183425,53.5893646],[0.183424,53.5893562],[0.183424,53.5893562],[0.1834237,53.5893534],[0.183423,53.5893675],[0.1822319,53.5947031],[0.1792797,53.599792],[0.1746832,53.6044318],[0.1686251,53.6084375],[0.1613464,53.6116495],[0.1531368,53.6139399],[0.1443237,53.6152174],[0.1364998,53.6158694],[0.1364998,53.6158694],[0.1364998,53.6158694],[0.1364998,53.615869],[0.1375858,53.5960038],[0.1379959,53.5885003],[0.1239248,53.5896729],[0.1350014,53.6111968],[0.1209561,53.6165868],[0.1209561,53.6165868],[0.1209551,53.6165872],[0.1120365,53.6157138],[0.1034747,53.6137689],[0.0957454,53.6108444],[0.0957444,53.6108439],[0.0891629,53.6070592],[0.0839948,53.6025674],[0.0804508,53.5975517],[0.0804393,53.5975293],[0.0804402,53.5975319],[0.0804402,53.5975319],[0.0804441,53.5975431],[0.0815039,53.5996077],[0.0430609,53.6143523],[-0.0912173,53.6116641],[-0.0912173,53.6116641],[-0.0912176,53.611664],[-0.155039,53.6384591],[-0.2400495,53.7214595],[-0.2456512,53.7258387],[-0.2526368,53.7294556],[-0.2607167,53.73216],[-0.2695557,53.7338397],[-0.2787868,53.734425],[-0.2797818,53.7343676],[-0.2797818,53.7343676],[-0.2797818,53.7343676],[-0.2797818,53.7343676],[-0.279788,53.734367],[-0.279788,53.734367],[-0.279788,53.734367],[-0.279788,53.734367],[-0.3000503,53.7324421],[-0.3000503,53.7324421],[-0.3000607,53.7324411],[-0.5215594,53.7057436],[-0.5331267,53.7103007],[-0.5362922,53.71],[-0.5362922,53.71],[-0.5362922,53.71],[-0.5454055,53.7091343],[-0.5362922,53.71],[-0.5487014,53.71],[-0.6354064,53.7327744],[-0.7254073,53.7006914],[-0.6210062,53.7125114],[-0.61167,53.708833],[-0.5492816,53.6842521],[-0.5492724,53.6842485],[-0.5492724,53.6842485],[-0.5492724,53.6842485],[-0.5492724,53.6842485],[-0.5492724,53.6842485],[-0.5310053,53.6770513],[-0.5492724,53.6842485],[-0.5492724,53.6842485],[-0.5492724,53.6842485],[-0.5492724,53.6842485],[-0.5492724,53.6842485],[-0.5492816,53.6842521],[-0.61167,53.708833],[-0.7,53.7],[-0.9,53.55],[-1.2,53.48],[-1.5,53.42],[-1.8,53.42],[-1.925,53.4],[-2.05,53.38]]]}}
