{"type":"Feature","properties":{"family":"danes","name":"East Mercia and East Anglia under the Danes, 874 – 878"},"geometry":{"type":"Polygon","coordinates":[[[-2.05,53.38],[-1.95,53.25],[-1.85,53.1],[-1.7,52.65],[-1.6,52.6],[-1.45,52.53],[-1.3,52.42],[-0.85,52.06],[-0.75,52.08],[-0.6,52.12],[-0.47,52.13],[-0.42,51.9],[-0.3,51.86],[-0.15,51.82],[-0.04,51.75],[-0.026,51.68],[-0.03,51.72],[0.05,51.8],[0.16,51.87],[0.3,51.98],[0.4,52.05],[0.7,52.03],[0.95,51.97],[1.1124486,51.9537551],[1.2726127,51.9563911],[1.2534676,51.9684579],[1.2534676,51.9684579],[1.2534643,51.9684599],[1.1574116,52.0289999],[1.2534643,51.9684599],[1.2534676,51.9684579],[1.2800484,51.9667821],[1.2859832,51.9637711],[1.2859832,51.9637711],[1.2862084,51.9636569],[1.2859832,51.9637711],[1.2859832,51.9637711],[1.2859832,51.9637711],[1.2862084,51.9636569],[1.2863842,51.9635677],[1.2870276,51.9632413],[1.2913484,51.9610492],[1.3176562,51.9477023],[1.3192476,51.9433961],[1.3195204,51.9382478],[1.3182006,51.9331613],[1.3153368,51.9283219],[1.3110339,51.923906],[1.3052374,51.9190691],[1.3059624,51.9187001],[1.3133941,51.9156463],[1.3216755,51.9135864],[1.330462,51.9126062],[1.3393878,51.9127465],[1.3480818,51.9140013],[1.356182,51.9163186],[1.3633514,51.9196019],[1.3692913,51.9237145],[1.4983223,52.033555],[1.5973836,52.0560293],[1.6049792,52.0582789],[1.6117356,52.0613798],[1.6174035,52.0652176],[1.6217737,52.069651],[1.6246844,52.0745162],[1.6330787,52.0941587],[1.6531812,52.0771971],[1.6891072,52.0294394],[1.709212,51.9782954],[1.7113939,51.946172],[1.712968,51.9433239],[1.7239752,51.8886263],[1.7167294,51.8336888],[1.7055894,51.796582],[1.7055125,51.7964129],[1.7055105,51.7964085],[1.7483662,51.8327315],[1.8166315,51.8534662],[1.8896448,51.8891429],[1.9488734,51.9335285],[1.9916138,51.9846298],[2.0158821,52.0401451],[2.0566927,52.1989053],[2.1801785,52.386199],[2.2076228,52.4475982],[2.2107466,52.5112098],[2.1905329,52.6497462],[2.1795127,52.6900316],[2.158558,52.7288443],[2.0553362,52.8794827],[2.0160668,52.9241538],[1.9635744,52.9636007],[1.8996906,52.9964217],[1.5315281,53.1508724],[1.4661631,53.1734491],[1.3953691,53.1891219],[1.3211656,53.1974424],[0.7926573,53.2282105],[0.7862931,53.2781812],[0.7552003,53.3370595],[0.5889519,53.5577709],[0.5928361,53.5853261],[0.5923544,53.5962853],[0.5923492,53.5964031],[0.5809388,53.6497969],[0.5518263,53.7007797],[0.506116,53.7473103],[0.445593,53.7875196],[0.3726575,53.8197873],[0.290231,53.84281],[0.2016373,53.8556556],[0.1874786,53.8568356],[0.0964913,53.8589118],[0.0538547,53.8922121],[-0.018842,53.9292534],[-0.1031769,53.9564866],[-0.135702,53.9622024],[-0.1357018,53.962202],[-0.1077569,53.9117373],[0.1731376,53.6580082],[0.1770005,53.6536783],[0.1794781,53.6490059],[0.1804894,53.644145],[0.183425,53.5893646],[0.183424,53.5893562],[0.1834234,53.5893675],[0.1822324,53.594703],[0.1792801,53.599792],[0.1746836,53.6044317],[0.1686254,53.6084374],[0.1613466,53.6116495],[0.153137,53.6139399],[0.1443238,53.6152174],[0.1364998,53.6158694],[0.1364998,53.615869],[0.1375858,53.5960038],[0.1379959,53.5885003],[0.1239248,53.5896729],[0.1350014,53.6111968],[0.1209561,53.6165868],[0.1209561,53.6165868],[0.1209551,53.6165872],[0.1209551,53.6165873],[0.1120364,53.6157138],[0.1034745,53.6137689],[0.095745,53.6108444],[0.0891625,53.6070592],[0.0839943,53.6025674],[0.0804504,53.5975516],[0.0804402,53.5975319],[0.0663522,53.5701017],[0.0804402,53.5975319],[0.0804441,53.5975431],[0.0815039,53.5996077],[0.0430609,53.6143523],[-0.0912173,53.6116641],[-0.1550385,53.638459],[-0.2400489,53.7214594],[-0.2456507,53.7258386],[-0.2526364,53.7294555],[-0.2607164,53.73216],[-0.2695555,53.7338397],[-0.2787868,53.734425],[-0.2797818,53.7343676],[-0.279788,53.734367],[-0.279788,53.734367],[-0.279788,53.734367],[-0.279788,53.734367],[-0.3000503,53.7324421],[-0.3000503,53.7324421],[-0.3000607,53.7324411],[-0.300061,53.7324411],[-0.5215592,53.7057437],[-0.5331264,53.7103007],[-0.5331267,53.7103007],[-0.5362922,53.71],[-0.5487014,53.71],[-0.6354064,53.7327744],[-0.7254073,53.7006914],[-0.6210062,53.7125114],[-0.61167,53.708833],[-0.5492816,53.6842521],[-0.5492724,53.6842485],[-0.5492724,53.6842485],[-0.5492724,53.6842485],[-0.5492724,53.6842485],[-0.5492724,53.6842485],[-0.5310053,53.6770513],[-0.5492724,53.6842485],[-0.5492724,53.6842485],[-0.5492724,53.6842485],[-0.5492724,53.6842485],[-0.5492724,53.6842485],[-0.5492816,53.6842521],[-0.61167,53.708833],[-0.7,53.7],[-0.9,53.55],[-1.2,53.48],[-1.5,53.42],[-1.8,53.42],[-1.925,53.4],[-2.05,53.38]]]}}
