{"type":"Feature","properties":{"family":"other","name":"Drevlians, 941 – 957"},"geometry":{"type":"Polygon","coordinates":[[[26.6,51],[26.7666667,50.8666667],[26.9333333,50.7333333],[27.1,50.6],[27.2666667,50.4666667],[27.4333333,50.3333333],[27.6,50.2],[27.8333333,50.15],[28.0666667,50.1],[28.3,50.05],[28.5333333,50],[28.7666667,49.95],[29,49.9],[29.2,50],[29.4,50.1],[29.6,50.2],[29.8,50.3],[29.9333333,50.4666667],[30.0666667,50.6333333],[30.2,50.8],[30.1333333,51.0333333],[30.0666667,51.2666667],[30,51.5],[29.7857143,51.5285714],[29.5714286,51.5571429],[29.3571429,51.5857143],[29.1428571,51.6142857],[28.9285714,51.6428571],[28.7142857,51.6714286],[28.5,51.7],[28.26,51.68],[28.02,51.66],[27.78,51.64],[27.54,51.62],[27.3,51.6],[27.125,51.45],[26.95,51.3],[26.775,51.15],[26.6,51]]]}}
