{"type":"Feature","properties":{"family":"norse","name":"Kingdom of Dublin, 843 – 1066"},"geometry":{"type":"Polygon","coordinates":[[[-6.5,53.42],[-6.4531646,53.3075949],[-6.45,53.3],[-6.2,53.2],[-6.090711,53.2],[-6.100261,53.2143811],[-6.090711,53.2],[-6.090711,53.2],[-6.0740803,53.1749562],[-6.0736291,53.1750373],[-6.0658817,53.177493],[-6.059074,53.1808014],[-6.053464,53.1848374],[-6.0492644,53.1894482],[-6.0466347,53.1944591],[-6.0466347,53.1944591],[-6.0456751,53.1996803],[-6.0464226,53.204914],[-6.0488473,53.2099571],[-5.9900863,53.1213396],[-5.9873255,53.1150268],[-5.9871718,53.1085008],[-6.0035524,53.0168588],[-5.9549006,52.9726003],[-5.950986,52.9681956],[-5.9484878,52.9634318],[-5.9474911,52.9584723],[-5.9480297,52.9534871],[-5.9500845,52.9486473],[-5.9533199,52.9444613],[-5.9236893,52.9495573],[-5.8424506,52.9751484],[-5.7714523,53.0101211],[-5.7136548,53.053031],[-5.6714936,53.1021013],[-5.6467758,53.1552937],[-5.6405978,53.2103909],[-5.6433136,53.2562846],[-5.6433146,53.256302],[-5.6439441,53.2669387],[-5.6238199,53.2991832],[-5.6095677,53.3502743],[-5.6119198,53.4020507],[-5.6308491,53.4526032],[-5.6469461,53.4745296],[-5.6279585,53.5230406],[-5.6261971,53.5796991],[-5.6444297,53.635325],[-5.6819258,53.6874556],[-5.7370862,53.7337741],[-5.7424688,53.7374005],[-5.8247139,53.7928108],[-5.831672,53.7966475],[-5.8902824,53.828965],[-5.9666565,53.8568128],[-6.0508629,53.8752631],[-6.1396054,53.8835922],[-6.2095983,53.8819401],[-6.2061852,53.8794464],[-6.2022158,53.8751264],[-6.1996419,53.8704535],[-6.1985486,53.8655829],[-6.1850264,53.6674924],[-6.0502247,53.5770962],[-6.1323576,53.6321601],[-6.1389107,53.6357604],[-6.146525,53.6385316],[-6.1549066,53.6403667],[-6.163732,53.6411949],[-6.1726601,53.6409842],[-6.1813464,53.6397426],[-6.1894552,53.6375183],[-6.1971064,53.6348398],[-6.1663955,53.6142616],[-6.0786608,53.5554737],[-6.1663955,53.6142616],[-6.35,53.55],[-6.5,53.42]],[[-6.0446331,53.5733474],[-6.0399523,53.5694427],[-6.0446276,53.5733428],[-6.0446114,53.5733319],[-6.0394014,53.569044],[-6.0392708,53.5688742],[-6.0446331,53.5733474]],[[-6.0390989,53.5687308],[-6.0380146,53.5672417],[-6.035701,53.5642349],[-6.0355509,53.5638581],[-6.0365422,53.5652196],[-6.0353116,53.5635295],[-6.0390989,53.5687308]],[[-6.0353367,53.5476549],[-6.0353238,53.5476887],[-6.0335597,53.5523066],[-6.034187,53.5506646],[-6.0347529,53.5485859],[-6.0353367,53.5476549]],[[-6.034713,53.5617543],[-6.0336517,53.5590895],[-6.0336161,53.5585014],[-6.034713,53.5617543]],[[-6.0335443,53.5530252],[-6.0334762,53.5561908],[-6.0333318,53.5538055],[-6.0335443,53.5530252]]]}}
