{"type":"Feature","properties":{"family":"anglo","name":"Kingdom of East Anglia, 789 – 866"},"geometry":{"type":"Polygon","coordinates":[[[0.1024507,52.9170683],[0.1036608,52.9171098],[0.1116602,52.9169519],[0.1194847,52.9159366],[0.1268833,52.9140964],[0.1336191,52.9114905],[0.1394762,52.9082022],[0.2353394,52.843605],[0.2639327,52.8243442],[0.2353394,52.843605],[0.2336147,52.8447668],[0.2332351,52.8450225],[0.2266157,52.848666],[0.2189249,52.8514383],[0.2104722,52.8532279],[0.2015978,52.8539628],[0.1926591,52.8536132],[0.184016,52.8521934],[0.1760164,52.8497604],[0.1702689,52.8470246],[0.2,52.8270007],[0.2466025,52.795614],[0.2,52.8270007],[0.2,52.7],[0.15,52.45],[0.2,52.3],[0.3,52.15],[0.4,52.05],[0.7,52.03],[0.95,51.97],[1.1124486,51.9537551],[1.2726127,51.9563911],[1.1124486,51.9537551],[1.0674107,51.9530139],[1.1437236,51.9506276],[1.15,51.95],[1.2758455,51.9399324],[1.2461739,51.9151233],[1.2701118,51.9131855],[1.2794247,51.9130432],[1.2885756,51.9141201],[1.2971499,51.9163674],[1.3043646,51.9195114],[1.305236,51.919068],[1.3052379,51.919067],[1.3052422,51.9190648],[1.2928982,51.9087645],[1.3005754,51.9077396],[1.3087439,51.9055014],[1.3160032,51.9022851],[1.3220499,51.8982251],[1.3266315,51.8934913],[1.3295569,51.8882815],[1.3307044,51.8828135],[1.3300268,51.8773157],[1.3191924,51.8401711],[1.317084,51.8354472],[1.3136278,51.8310369],[1.3089383,51.8270855],[1.3031703,51.8237233],[1.2965141,51.821061],[1.084194,51.7518659],[1.0760777,51.7498254],[1.0674665,51.7488305],[1.0587078,51.7489213],[1.050155,51.750094],[1.042153,51.7523014],[1.0350249,51.7554544],[1.0290584,51.7594259],[0.9825585,51.797365],[0.9493842,51.7678261],[0.9538259,51.7664612],[0.9607587,51.7631101],[0.9664622,51.7589657],[0.9707044,51.7541967],[0.9733128,51.7489978],[0.9913137,51.693958],[1.0170842,51.6904776],[1.0476051,51.688666],[1.0740587,51.6842913],[1.0802989,51.6836674],[1.0943791,51.6824044],[1.2194897,51.672397],[1.2929116,51.6713447],[1.3004681,51.6704992],[1.3892487,51.6718958],[1.4757592,51.6843805],[1.5564523,51.7074418],[1.6280073,51.7401341],[1.6874614,51.7811139],[1.7055125,51.7964129],[1.7055809,51.7964709],[1.7483519,51.8327211],[1.8166114,51.8534536],[1.8896316,51.8891333],[1.9488667,51.9335231],[1.9916123,51.9846297],[2.0158842,52.0401507],[2.056694,52.1989065],[2.1801779,52.3861967],[2.2076235,52.4476008],[2.2107476,52.5112173],[2.1905323,52.6497562],[2.1795108,52.6900435],[2.158555,52.7288577],[2.0553289,52.8794978],[2.016057,52.92417],[1.9635627,52.9636173],[1.8996779,52.9964383],[1.5315081,53.1508863],[1.4447753,53.1790616],[1.3498031,53.1951583],[0.7842229,53.2502346],[0.7635401,53.2963565],[0.72323,53.3446283],[0.6675426,53.3871227],[0.5986876,53.4221213],[0.523152,53.4469798],[0.5179544,53.4410347],[0.4602525,53.3986708],[0.389539,53.3640568],[0.3230211,53.3431023],[0.3230201,53.343102],[0.3863439,53.235113],[0.3883511,53.2302861],[0.3888434,53.2253205],[0.3874022,53.1991249],[0.3867991,53.2044992],[0.3844192,53.2097019],[0.3803579,53.2145169],[0.3747771,53.2187516],[0.3678999,53.2222365],[0.3600013,53.2248321],[0.3513974,53.2264345],[0.3433801,53.2269218],[0.3438034,53.2262012],[0.3423892,53.2],[0.3366034,53.0928036],[0.3423892,53.2],[0.2,53.2],[0.2,53.0274229],[0.1650553,53.0106978],[0.169283,53.0077654],[0.17654,53.0044298],[0.1847688,53.0020475],[0.1936282,53.0007174],[0.2027516,53.0004944],[0.2117609,53.0013878],[0.2202833,53.0033605],[0.2279248,53.0063152],[0.2279248,53.0063152],[0.2279248,53.0063152],[0.2279052,53.006304],[0.2279037,53.0063032],[0.192597,52.9894114],[0.1024507,52.9170683]]]}}
