{"type":"Feature","properties":{"family":"franks","name":"East Francia, 843 – 866"},"geometry":{"type":"Polygon","coordinates":[[[6.62,51.75],[6.7,51.5],[6.735,51.375],[6.77,51.25],[6.86,51.1],[6.95,50.95],[7.1,50.73],[7.225,50.615],[7.35,50.5],[7.6,50.36],[7.7,50.15],[7.8,50.06],[7.9,49.97],[7.8,49.86],[7.7,49.75],[7.6,49.5],[7.7,49.2],[8,49.05],[8.2,48.97],[7.95,48.7],[7.8,48.55],[7.65,48.25],[7.58,48],[7.565,47.875],[7.55,47.75],[7.59,47.56],[7.5,47.35],[7.45,47.1],[7.55,46.85],[7.75,46.65],[7.925,46.6],[8.1,46.55],[8.275,46.5],[8.45,46.45],[9.2,46.45],[9.35,46.4],[9.5,46.35],[9.6666667,46.3666667],[9.8333333,46.3833333],[10,46.4],[10.225,46.475],[10.45,46.55],[10.6333333,46.5],[10.8166667,46.45],[11,46.4],[11.3,46.35],[11.5,46.4],[11.7,46.45],[11.8666667,46.5],[12.0333333,46.55],[12.2,46.6],[12.3666667,46.6166667],[12.5333333,46.6333333],[12.7,46.65],[12.9333333,46.6166667],[13.1666667,46.5833333],[13.4,46.55],[13.7,46.5],[13.8,46.2],[14.2,45.6],[14.45,45.33],[14.8,45.45],[14.9666667,45.5],[15.1333333,45.55],[15.3,45.6],[15.6,45.85],[15.75,45.9875],[15.9,46.125],[16.05,46.2625],[16.2,46.4],[16.6,46.35],[16.8,46.2833333],[17,46.2166667],[17.2,46.15],[17.4,46.0666667],[17.6,45.9833333],[17.8,45.9],[18.4,45.75],[18.5666667,45.6833333],[18.7333333,45.6166667],[18.9,45.55],[18.85,46],[18.8666667,46.1666667],[18.8833333,46.3333333],[18.9,46.5],[18.9166667,46.6666667],[18.9333333,46.8333333],[18.95,47],[18.9666667,47.1666667],[18.9833333,47.3333333],[19,47.5],[18.9,47.8],[18.6666667,47.7833333],[18.4333333,47.7666667],[18.2,47.75],[17.6,47.9],[17.3933333,47.99],[16.98,48.17],[16.965,48.385],[16.95,48.6],[16.2,48.65],[16,48.6333333],[15.8,48.6166667],[15.6,48.6],[15.4,48.5833333],[15.2,48.5666667],[15,48.55],[14.8,48.5666667],[14.6,48.5833333],[14.4,48.6],[14.356,48.612],[14.2166667,48.65],[14.0333333,48.7],[13.85,48.75],[13.5,48.95],[13.1,49.2],[12.75,49.45],[12.5,49.8],[12.4,50.1],[12.1,50.3],[11.95,50.35],[11.8,50.4],[11.7,50.6],[11.8,50.85],[11.95,51.1],[11.95,51.35],[11.9,51.6],[11.85,51.725],[11.8,51.85],[11.7,52.05],[11.8,52.2],[11.95,52.4],[12,52.65],[11.85,52.85],[11.55,53],[11.2,53.1],[11.05,53.15],[10.9,53.2],[10.6,53.37],[10.6,53.5],[10.5,53.7],[10.35,53.9],[10.25,54.1],[10.2,54.3],[10.2327761,54.417994],[10.1978837,54.381334],[10.1978837,54.381334],[10.1978519,54.3813006],[10.1665629,54.3484264],[10.1431014,54.3237764],[10.1665629,54.3484264],[10.1668455,54.349448],[10.16689,54.3496088],[10.1668455,54.349448],[10.16689,54.3496088],[10.1669687,54.3498932],[10.1669865,54.3499576],[10.1671997,54.3507281],[10.1672236,54.3508145],[10.1672666,54.35097],[10.1672236,54.3508145],[10.1672666,54.35097],[10.1672746,54.350999],[10.1673023,54.3510988],[10.1673215,54.3511684],[10.1673282,54.3511925],[10.167359,54.3513038],[10.1673282,54.3511925],[10.167359,54.3513038],[10.1675526,54.3520035],[10.1675638,54.352044],[10.1676629,54.3524024],[10.1676749,54.3524458],[10.1679568,54.3534648],[10.1676749,54.3524458],[10.1676629,54.3524024],[10.1676749,54.3524458],[10.1679568,54.3534648],[10.1680568,54.3538259],[10.159173,54.3456329],[10.1591554,54.3456167],[10.1535724,54.3414322],[10.146695,54.3379645],[10.1431014,54.3367749],[10.1431014,54.3727451],[10.1899019,54.3963852],[10.197867,54.4318773],[10.204302,54.4605512],[10.197867,54.4318773],[10.12,54.36],[10,54.3436364],[9.9,54.33],[9.67,54.3],[9.4,54.27],[9.25,54.26],[9.1,54.25],[8.975,54.26],[8.8877832,54.2669773],[8.844839,54.2573439],[8.8426876,54.2611405],[8.8415986,54.2665717],[8.8419698,54.2690722],[8.7945531,54.2611595],[8.7945455,54.2611582],[8.7945448,54.2611581],[8.7945364,54.2611567],[8.7945363,54.2611567],[8.7944874,54.2611485],[8.7944821,54.2611476],[8.7944821,54.2611476],[8.7944819,54.2611476],[8.7944765,54.2611467],[8.766113,54.1861008],[8.7650677,54.1813874],[8.7654522,54.1766389],[8.7672541,54.1720027],[8.7704168,54.1676228],[8.8208553,54.1119164],[8.8259444,54.1074328],[8.8324481,54.1036302],[8.8401072,54.1006598],[8.8486168,54.0986399],[8.8576384,54.0976507],[8.8668131,54.0977316],[8.875776,54.0988794],[8.9538043,54.1137605],[8.9717952,54.0933828],[8.96069,54.0585523],[8.8357683,54.0636262],[8.8270436,54.0634878],[8.818523,54.0623822],[8.8105149,54.0603493],[8.8033088,54.0574627],[8.7971652,54.0538268],[8.7923058,54.0495731],[8.7889059,54.0448553],[8.7870879,54.0398438],[8.7869169,54.0347198],[8.7883984,54.0296683],[8.7914784,54.0248716],[8.8743518,53.9252733],[8.8106992,54.0017718],[8.8106877,54.0017734],[8.8106872,54.0017734],[8.8106763,54.001775],[8.7722776,54.0070865],[8.7103148,54.0006712],[8.6148801,54.0025197],[8.5221222,54.0158626],[8.4359862,54.0401327],[8.3601508,54.0742974],[8.3366291,54.0903892],[8.3365072,54.0904726],[8.3364979,54.090479],[8.3364305,54.0905251],[8.3364002,54.0905458],[8.3363405,54.0905866],[8.3362984,54.0906155],[8.3362973,54.0906163],[8.3362795,54.0906284],[8.2952354,54.0721955],[8.2297049,54.0361815],[8.177485,53.9933342],[8.1557988,53.9651503],[8.1020592,53.9736769],[8.0081137,53.9768206],[7.8803966,53.9732478],[7.8736914,53.9763729],[7.7949939,54.0002496],[7.7099151,54.0147387],[7.6012577,54.0266254],[7.5150264,54.0311112],[7.4289285,54.0259467],[7.3854708,54.0208474],[7.302132,54.0060669],[7.225149,53.9822448],[7.1573282,53.9502541],[7.1340926,53.9341463],[7.1076386,53.9284196],[7.0314245,53.900967],[6.9407081,53.8603893],[6.9454724,53.8597224],[7.0259368,53.8380468],[7.0977378,53.807569],[7.1172529,53.795268],[7.1581896,53.7941183],[7.2481983,53.7803697],[7.3315508,53.7560428],[7.404737,53.7221654],[7.4135267,53.7160086],[7.3036582,53.7124141],[7.2948685,53.7116063],[7.2865146,53.7098019],[7.2789156,53.7070699],[7.0592681,53.6090835],[7.0530362,53.6057076],[7.0479671,53.6017049],[7.0442358,53.5972137],[7.0419708,53.5923892],[7.0412498,53.5873981],[7.0420972,53.5824128],[7.0444831,53.5776053],[7.0483248,53.5731417],[7.0710216,53.5518852],[7.0769633,53.5530254],[7.0852412,53.5541163],[7.093717,53.5542699],[7.1020936,53.5534806],[7.1100771,53.5517762],[7.1173879,53.5492165],[7.1237698,53.5458911],[7.1289993,53.5419166],[7.1328936,53.5374322],[7.1338192,53.5355846],[7.0908846,53.5273462],[7.1529195,53.3412414],[7.1975884,53.3386583],[7.1969538,53.3353782],[7.1940026,53.3300912],[7.1892982,53.3252805],[7.1830419,53.3211515],[7.175501,53.3178801],[7.1669972,53.315606],[7.1578933,53.3144262],[7.1488602,53.3143918],[7.1488665,53.3143915],[7.2035917,53.311248],[7.1728,53.2772631],[7.172791,53.2772531],[7.1980763,53.2724306],[7.2068371,53.2701169],[7.2145837,53.2667463],[7.2145966,53.2667376],[7.1946719,53.2447755],[7.1844239,53.2467283],[7.25,53.05],[7.2,52.85],[7.15,52.65],[7.075,52.475],[7,52.3],[6.8,52],[6.62,51.75]],[[10.1673023,54.3510988],[10.1673215,54.3511684],[10.1673282,54.3511925],[10.167359,54.3513038],[10.1675526,54.3520035],[10.167359,54.3513038],[10.1673282,54.3511925],[10.1673215,54.3511684],[10.1673023,54.3510988]]]}}
