{"type":"Feature","properties":{"family":"franks","name":"East Francia, 867 – 901"},"geometry":{"type":"Polygon","coordinates":[[[3.0198542,51.5921068],[3.0198624,51.5921085],[3.0199969,51.5921367],[3.0200019,51.5921378],[3.096132,51.6080967],[3.0996901,51.6145992],[3.1440955,51.6616304],[3.2029049,51.7021338],[3.2737234,51.7344369],[3.3536404,51.757203],[3.4393522,51.7694884],[3.5273031,51.7707834],[3.6138398,51.7610345],[3.665714,51.7480628],[3.6657163,51.7480622],[3.6657221,51.7480607],[3.6657346,51.7480576],[3.6596808,51.7454193],[3.6536768,51.7414746],[3.6490722,51.7368658],[3.646053,51.7317795],[3.6447409,51.7264215],[3.6451883,51.7210085],[3.6560286,51.6771099],[3.658001,51.6722254],[3.6614046,51.6676526],[3.6661204,51.663551],[3.6719835,51.6600635],[3.6787894,51.6573118],[3.6863008,51.6553917],[3.694256,51.6543701],[3.7023777,51.6542827],[3.7103831,51.6551324],[3.8005235,51.6701427],[3.9344611,51.6028285],[3.8893431,51.6255038],[3.88937,51.6254784],[3.9012362,51.6142514],[3.9012897,51.6142008],[3.8837074,51.6274029],[3.8777942,51.6310575],[3.8708634,51.6339438],[3.8631709,51.6359554],[3.8550008,51.6370179],[3.8466547,51.6370921],[3.5548822,51.6218836],[3.5473539,51.621063],[3.5401754,51.6194363],[3.5335692,51.617054],[3.421943,51.5680614],[3.4156681,51.5646983],[3.4105397,51.5606548],[3.4067449,51.5560788],[3.404422,51.5511374],[3.4036553,51.5460111],[3.4044723,51.5408872],[3.4068427,51.5359526],[3.4106794,51.5313875],[3.4569339,51.4871616],[3.4569808,51.4871216],[3.4568977,51.4872217],[3.4568632,51.4872634],[3.4530048,51.4919171],[3.4506338,51.4971634],[3.4500034,51.5026005],[3.4511399,51.5080062],[3.4539973,51.5131599],[3.4584597,51.5178509],[3.4643449,51.5218875],[3.4697384,51.5243425],[3.4697392,51.5243418],[3.4704102,51.5236997],[3.4802304,51.5143033],[3.4932698,51.5018265],[3.4932698,51.5018265],[3.4932698,51.5018265],[3.5370354,51.4599494],[3.5483883,51.459569],[3.5914559,51.4581261],[3.591456,51.4581261],[3.5914682,51.457237],[3.5899521,51.4521442],[3.5869047,51.4473253],[3.5824388,51.4429578],[3.5767192,51.4392026],[3.5722689,51.4372252],[3.5974968,51.4309409],[3.6730632,51.4284127],[3.7514216,51.3926387],[3.6319071,51.4223338],[3.6319738,51.4223122],[3.6389583,51.4200506],[3.645574,51.4167428],[3.6510259,51.4126914],[3.6551042,51.4080525],[3.6719218,51.3833562],[3.6657471,51.3848937],[3.6642005,51.3852788],[3.64968,51.3888943],[3.6430478,51.3905458],[3.6351867,51.3925032],[3.6153863,51.3974335],[3.6153863,51.3974335],[3.6153863,51.3974335],[3.6153863,51.3974335],[3.6153863,51.3974335],[3.75,51.2],[3.72,51.05],[3.6,50.85],[3.45,50.7],[3.38,50.55],[3.3,50.35],[3.25,50.18],[3.5,50],[3.9,49.85],[4.1,49.775],[4.3,49.7],[4.7,49.5],[4.85,49.2],[4.9,48.9],[4.925,48.75],[4.95,48.6],[5.1,48.3],[5.2,48],[5.45,47.7],[5.6,47.45],[5.4,47.2],[5.10625,46.9552083],[5.1,46.95],[4.88,46.78],[4.85,46.4],[5.075,46.35],[5.3,46.3],[5.525,46.225],[5.75,46.15],[6.1,46.1],[6.5,46],[6.86,45.83],[7.015,45.85],[7.17,45.87],[7.3333333,45.9066667],[7.4966667,45.9433333],[7.66,45.98],[7.87,45.94],[7.985,46.095],[8.1,46.25],[8.275,46.35],[8.45,46.45],[9.2,46.45],[9.35,46.4],[9.5,46.35],[9.6666667,46.3666667],[9.8333333,46.3833333],[10,46.4],[10.225,46.475],[10.45,46.55],[10.6333333,46.5],[10.8166667,46.45],[11,46.4],[11.3,46.35],[11.5,46.4],[11.7,46.45],[11.8666667,46.5],[12.0333333,46.55],[12.2,46.6],[12.3666667,46.6166667],[12.5333333,46.6333333],[12.7,46.65],[12.9333333,46.6166667],[13.1666667,46.5833333],[13.4,46.55],[13.7,46.5],[13.8,46.2],[14.2,45.6],[14.45,45.33],[14.8,45.45],[14.9666667,45.5],[15.1333333,45.55],[15.3,45.6],[15.6,45.85],[15.75,45.9875],[15.9,46.125],[16.05,46.2625],[16.2,46.4],[16.6,46.35],[16.8,46.2833333],[17,46.2166667],[17.2,46.15],[17.4,46.0666667],[17.6,45.9833333],[17.8,45.9],[18.4,45.75],[18.5666667,45.6833333],[18.7333333,45.6166667],[18.9,45.55],[18.85,46],[18.8666667,46.1666667],[18.8833333,46.3333333],[18.9,46.5],[18.9166667,46.6666667],[18.9333333,46.8333333],[18.95,47],[18.9666667,47.1666667],[18.9833333,47.3333333],[19,47.5],[18.9,47.8],[18.6666667,47.7833333],[18.4333333,47.7666667],[18.2,47.75],[17.6,47.9],[17.3933333,47.99],[16.98,48.17],[16.965,48.385],[16.95,48.6],[16.2,48.65],[16,48.6333333],[15.8,48.6166667],[15.6,48.6],[15.4,48.5833333],[15.2,48.5666667],[15,48.55],[14.8,48.5666667],[14.6,48.5833333],[14.4,48.6],[14.356,48.612],[14.2166667,48.65],[14.0333333,48.7],[13.85,48.75],[13.5,48.95],[13.1,49.2],[12.75,49.45],[12.5,49.8],[12.4,50.1],[12.1,50.3],[11.95,50.35],[11.8,50.4],[11.7,50.6],[11.8,50.85],[11.95,51.1],[11.95,51.35],[11.9,51.6],[11.85,51.725],[11.8,51.85],[11.7,52.05],[11.8,52.2],[11.95,52.4],[12,52.65],[11.85,52.85],[11.55,53],[11.2,53.1],[11.05,53.15],[10.9,53.2],[10.6,53.37],[10.6,53.5],[10.5,53.7],[10.35,53.9],[10.25,54.1],[10.2,54.3],[10.2327761,54.417994],[10.2327761,54.417994],[10.1978837,54.381334],[10.1680568,54.3538259],[10.1680568,54.3538259],[10.159173,54.3456329],[10.1591554,54.3456167],[10.1535724,54.3414322],[10.146695,54.3379645],[10.1431014,54.3367749],[10.1431014,54.3727451],[10.1899019,54.3963852],[10.197867,54.4318773],[10.204302,54.4605512],[10.197867,54.4318773],[10.12,54.36],[10,54.3436364],[9.9,54.33],[9.67,54.3],[9.4,54.27],[9.25,54.26],[9.1,54.25],[8.975,54.26],[8.8877832,54.2669773],[8.844839,54.2573439],[8.8426876,54.2611405],[8.8415986,54.2665717],[8.8419698,54.2690722],[8.7945531,54.2611595],[8.7945455,54.2611582],[8.7945448,54.2611581],[8.7945364,54.2611567],[8.7945363,54.2611567],[8.7944874,54.2611485],[8.7944821,54.2611476],[8.7944821,54.2611476],[8.7944819,54.2611476],[8.7661146,54.1860918],[8.7650688,54.1813767],[8.765453,54.1766268],[8.7672547,54.1719896],[8.7704176,54.1676092],[8.8208563,54.1119026],[8.8259434,54.1074209],[8.8324441,54.1036201],[8.8400996,54.1006514],[8.8486053,54.0986328],[8.8576231,54.0976445],[8.8667945,54.0977258],[8.875755,54.0988736],[8.9537956,54.1137572],[8.9537959,54.1137573],[8.9717953,54.09337],[8.9606961,54.0585586],[8.8357879,54.0636322],[8.8270614,54.0634936],[8.8185386,54.0623871],[8.8105279,54.0603529],[8.803319,54.0574644],[8.7971727,54.0538263],[8.7923108,54.0495701],[8.7889089,54.0448497],[8.7870894,54.0398358],[8.7869175,54.0347096],[8.7883988,54.0296562],[8.7914792,54.0248582],[8.8743531,53.9252598],[8.8106877,54.0017734],[8.8106872,54.0017734],[8.8106763,54.001775],[8.7722776,54.0070865],[8.7103148,54.0006712],[8.6148801,54.0025197],[8.5221222,54.0158626],[8.4359862,54.0401327],[8.3601508,54.0742974],[8.3366291,54.0903892],[8.3365072,54.0904726],[8.3364979,54.090479],[8.3364305,54.0905251],[8.3364002,54.0905458],[8.3363405,54.0905866],[8.3362984,54.0906155],[8.3362973,54.0906163],[8.2953915,54.0722464],[8.229811,54.0362062],[8.1775485,53.9933254],[8.1559288,53.9652299],[8.1022276,53.9737521],[8.0083153,53.9768964],[7.8805236,53.973324],[7.8738264,53.9764471],[7.7951428,54.0003304],[7.7100713,54.0148225],[7.6014151,54.026711],[7.515217,54.0311964],[7.4291449,54.0260345],[7.3856866,54.020936],[7.3023117,54.0061485],[7.2252898,53.9823106],[7.1574307,53.9502959],[7.1342579,53.9342292],[7.107828,53.9285075],[7.0315967,53.9010496],[6.9404277,53.8603729],[6.8593538,53.8716947],[6.7708573,53.8736466],[6.629573,53.8685423],[6.5426264,53.8603057],[6.460051,53.842329],[6.3849579,53.8152914],[6.3201614,53.7802126],[6.3118913,53.7735829],[6.2518735,53.7767803],[6.1675208,53.7765974],[6.0847135,53.7671832],[6.006332,53.7488658],[5.9468695,53.7309992],[5.8701955,53.7328302],[5.7842365,53.7300116],[5.7007674,53.7176215],[5.6228172,53.6961103],[5.5532039,53.6662591],[5.5194301,53.6486315],[5.457579,53.6090776],[5.4103738,53.56298],[5.400148,53.5460801],[5.3398708,53.5259729],[5.2820941,53.498411],[5.1380432,53.4169954],[5.0887182,53.3839974],[5.0491869,53.3466156],[5.0204967,53.3058655],[5.0143694,53.294643],[5.0144158,53.2946504],[5.0145538,53.2946727],[5.0146982,53.294696],[5.0147149,53.2946987],[5.0147962,53.2947118],[5.0148045,53.2947131],[5.0148612,53.2947223],[5.0149027,53.294729],[5.015221,53.2947803],[5.103051,53.3089415],[5.0010334,53.2688085],[5.0006667,53.2686643],[5.0006195,53.2686457],[5.0005538,53.2686199],[5.0005443,53.2686161],[5.0004509,53.2685794],[5.0004319,53.2685719],[5.0002641,53.2685059],[5.0001065,53.2684439],[5.000054,53.2684232],[4.9950696,53.259294],[4.8856122,53.2071597],[4.7340061,53.1900834],[4.6583782,53.1773032],[4.5876949,53.1567903],[4.5241397,53.1291811],[4.4104135,53.0698292],[4.3458304,53.0279728],[4.2975037,52.9788479],[4.2675644,52.9246796],[4.0955485,52.4449994],[3.8714008,52.2416824],[3.8372755,52.234803],[3.7605892,52.2079081],[3.6943459,52.1721341],[3.6412233,52.128943],[3.603345,52.0800947],[3.5821976,52.0275736],[3.5818336,52.0221392],[3.5499472,52.0057896],[3.4984295,51.9665345],[3.4732446,51.959709],[3.4014925,51.9283644],[3.3414928,51.8887756],[3.2956666,51.8425631],[3.2700399,51.7987972],[3.1949942,51.7657585],[3.1301762,51.7306677],[3.0779021,51.6883443],[3.0402,51.6404615],[3.0198542,51.5921068]],[[3.5370354,51.4599494],[3.4932698,51.5018265],[3.5483883,51.459569],[3.5914559,51.4581261],[3.591456,51.4581261],[3.6882369,51.4548836],[3.591456,51.4581261],[3.5914559,51.4581261],[3.5483883,51.459569],[3.5370354,51.4599494]],[[3.9473252,51.5672525],[3.947583,51.5684043],[3.9494802,51.5669873],[3.9494903,51.5669797],[3.9495006,51.566972],[3.9495009,51.5669717],[3.9473252,51.5672525]],[[4.7040417,52.8661017],[4.7168049,52.9083223],[4.716814,52.9083527],[4.716814,52.9083527],[4.7168163,52.9083603],[4.7168163,52.9083603],[4.7168164,52.9083604],[4.7168165,52.9083609],[4.7168165,52.9083609],[4.7168166,52.9083611],[4.7168168,52.9083618],[4.7168166,52.9083611],[4.7168165,52.9083609],[4.7168165,52.9083609],[4.7168164,52.9083604],[4.7168163,52.9083603],[4.7168163,52.9083603],[4.716814,52.9083527],[4.716814,52.9083527],[4.7168049,52.9083223],[4.7040417,52.8661017],[4.7040417,52.8661017],[4.7040417,52.8661017]],[[4.7040417,52.8661017],[4.7168049,52.9083223],[4.716814,52.9083527],[4.716814,52.9083527],[4.7168163,52.9083603],[4.7168163,52.9083603],[4.7168164,52.9083604],[4.7168165,52.9083609],[4.7168165,52.9083609],[4.7168166,52.9083611],[4.7168174,52.908364],[4.7168174,52.908364],[4.7168177,52.9083648],[4.7168178,52.908365],[4.7322473,52.959406],[4.8186482,52.9678489],[4.8142315,52.9519666],[4.8142315,52.9519666],[4.8142304,52.9519623],[4.8142304,52.9519623],[4.8142296,52.9519597],[4.8142296,52.9519597],[4.8142289,52.9519571],[4.8142289,52.9519571],[4.8142278,52.9519531],[4.8142278,52.9519531],[4.814226,52.9519465],[4.8078481,52.9290116],[4.8176525,52.9251793],[4.8726487,52.9036829],[4.8176525,52.9251793],[4.7040417,52.8661017]],[[4.7070471,53.0286376],[4.8546485,53.1873639],[4.8906489,53.1806096],[4.8942489,53.1113779],[4.8942489,53.0759178],[4.7971352,53],[4.797048,52.9999318],[4.7968342,53],[4.7968342,53],[4.7070471,53.0286376]],[[5.1678517,53.3680417],[5.4234542,53.430519],[5.5854559,53.4541591],[5.4702547,53.4085675],[5.2074521,53.3528445],[5.1678517,53.3680417]],[[5.6358564,53.4490934],[5.6754568,53.4676677],[5.7872641,53.4649784],[5.7872641,53.4649784],[5.787267,53.4649783],[5.7872766,53.4649781],[5.7872803,53.464978],[5.7872864,53.4649778],[5.7872897,53.4649777],[5.7872903,53.4649777],[5.7872909,53.4649777],[5.7873078,53.4649773],[5.7873623,53.464976],[5.8527007,53.4634044],[5.8189594,53.4458589],[5.7746208,53.4409973],[5.7746076,53.4409959],[5.7746072,53.4409958],[5.7746019,53.4409952],[5.7745654,53.4409912],[5.6790568,53.430519],[5.6358564,53.4490934]],[[5.7745679,53.4409915],[5.7746019,53.4409952],[5.7746072,53.4409958],[5.7746076,53.4409959],[5.7746208,53.4409973],[5.8189594,53.4458589],[5.8189594,53.4458589],[5.7746208,53.4409973],[5.7746076,53.4409959],[5.7746072,53.4409958],[5.7746019,53.4409952],[5.7745679,53.4409915]]]}}
