{"type":"Feature","properties":{"family":"anglo","name":"English Mercia, 874 – 916"},"geometry":{"type":"Polygon","coordinates":[[[-3.2626626,53.3614289],[-3.1667874,53.3117423],[-3.1667866,53.3117419],[-3.1667858,53.3117415],[-3.1667817,53.3117394],[-3.166781,53.311739],[-3.166781,53.311739],[-3.166781,53.311739],[-3.1667759,53.3117364],[-3.1667754,53.3117362],[-3.1667752,53.3117361],[-3.0921524,53.2730634],[-3.0911877,53.2731898],[-3.0836005,53.2732599],[-3.0844209,53.2640251],[-3.0859874,53.2463907],[-3.05,53.22],[-2.95,53.12],[-3.05,53],[-3.08,52.8],[-3.1,52.6],[-3.1,52.4],[-3.05,52.2],[-2.85,51.9],[-2.7,51.75],[-2.6575625,51.6226874],[-2.6214655,51.6475861],[-2.6149987,51.6281305],[-2.6141124,51.6231153],[-2.6147456,51.6180854],[-2.6168759,51.6132167],[-2.6204281,51.6086794],[-2.6252779,51.604632],[-2.6335428,51.5989339],[-2.6383906,51.5960692],[-2.6438886,51.5937008],[-2.6902449,51.5767924],[-2.6902584,51.5767875],[-2.6902584,51.5767875],[-2.6902584,51.5767875],[-2.6902589,51.5767873],[-2.6902595,51.5767871],[-2.6902595,51.5767871],[-2.6902595,51.5767871],[-2.6902596,51.5767871],[-2.6902596,51.5767871],[-2.6902596,51.5767871],[-2.6902613,51.5767865],[-2.6902613,51.5767865],[-2.6902613,51.5767865],[-2.6902648,51.5767852],[-2.8382247,51.522817],[-2.6902648,51.5767852],[-2.6902613,51.5767865],[-2.7485776,51.517569],[-2.7516936,51.5161881],[-2.7442143,51.5188331],[-2.7360173,51.5205084],[-2.727449,51.52114],[-2.7188495,51.5207027],[-2.7105598,51.5192141],[-2.6989278,51.5163058],[-2.6989279,51.5163057],[-2.6989279,51.5163057],[-2.6989283,51.5163054],[-2.6989283,51.5163054],[-2.7162272,51.4987866],[-2.72666,51.494165],[-2.55,51.45],[-2.36,51.38],[-2.15,51.45],[-2,51.6],[-1.8,51.68],[-1.5,51.7],[-1.25,51.73],[-1.1,51.6],[-0.97,51.48],[-0.835,51.49],[-0.7,51.5],[-0.5,51.45],[-0.3,51.47],[-0.1,51.5],[0,51.5],[-0.02,51.62],[-0.026,51.68],[-0.04,51.75],[-0.15,51.82],[-0.3,51.86],[-0.42,51.9],[-0.47,52.13],[-0.6,52.12],[-0.75,52.08],[-0.85,52.06],[-1.3,52.42],[-1.45,52.53],[-1.6,52.6],[-1.7,52.65],[-1.85,53.1],[-1.95,53.25],[-2.05,53.38],[-2.35,53.4],[-2.475,53.395],[-2.6,53.39],[-2.8,53.35],[-2.95,53.38],[-2.9527079,53.3823211],[-2.9250293,53.3494673],[-2.8202925,53.325606],[-2.9596315,53.3534721],[-3,53.3870907],[-3.0227282,53.4060186],[-3.0227282,53.4060186],[-3.0227282,53.4060186],[-3.0227282,53.4060186],[-3.0227372,53.4060261],[-3.0227373,53.4060262],[-3.0227373,53.4060262],[-3.0312767,53.4161005],[-3.0382965,53.4243821],[-3.0392856,53.4255489],[-3.039454,53.4257477],[-3.03961,53.4259317],[-3.0399985,53.42639],[-3.0399985,53.42639],[-3.0434366,53.4304461],[-3.0399985,53.42639],[-3.0399148,53.4262912],[-3.0399985,53.42639],[-3.0698307,53.4615843],[-3.0713009,53.4614166],[-3.0799271,53.4592686],[-3.2095784,53.4170308],[-3.2168386,53.414079],[-3.2230037,53.4103463],[-3.2278412,53.4059734],[-3.231169,53.4011256],[-3.2328621,53.3959856],[-3.2328572,53.3907474],[-3.2311552,53.3856083],[-3.2278207,53.3807621],[-3.166781,53.311739],[-3.1667817,53.3117394],[-3.1667858,53.3117415],[-3.1667866,53.3117419],[-3.1667874,53.3117423],[-3.2626626,53.3614289]],[[-2.7878388,53.3241354],[-2.698227,53.3511559],[-2.7127382,53.3390016],[-2.7127382,53.3390016],[-2.712739,53.3390009],[-2.7486275,53.3089415],[-2.712739,53.3390009],[-2.7127382,53.3390016],[-2.7127382,53.3390016],[-2.7127379,53.3390018],[-2.7127379,53.3390018],[-2.7127379,53.3390018],[-2.7855857,53.3244313],[-2.7878388,53.3241354]]]}}
