{"type":"Feature","properties":{"family":"english","name":"Kingdom of England, 985 – 1014"},"geometry":{"type":"Polygon","coordinates":[[[-6.1224938,50.0275318],[-6.1076263,49.9770456],[-6.0781851,49.9292896],[-6.0352738,49.8859864],[-5.98047,49.8486936],[-5.9157652,49.8187494],[-5.8434923,49.7972261],[-5.7662436,49.7848933],[-5.6867806,49.7821919],[-5.5614901,49.7855451],[-5.5138338,49.7899221],[-5.4991081,49.7772866],[-5.4406268,49.7430237],[-5.3732771,49.7164566],[-5.299447,49.6985227],[-5.2217432,49.6898537],[-5.1429021,49.6907552],[-5.0656985,49.7011955],[-4.9928524,49.7208075],[-4.9269379,49.7489004],[-4.8702957,49.7844831],[-4.7368944,49.8854222],[-4.6893393,49.9294681],[-4.6655967,49.9647162],[-4.5568031,50.0112231],[-4.4921039,50.0451927],[-4.4585321,50.0714652],[-4.3886012,50.0832436],[-4.3157941,50.0639116],[-4.2367632,50.0535779],[-4.2253066,50.0535105],[-4.2176639,50.0509072],[-4.1427098,50.0359618],[-4.1052364,50.0331924],[-4.0852542,50.0205112],[-4.0280819,49.9901069],[-3.9635364,49.9666206],[-3.8936161,49.9507761],[-3.8204777,49.9430612],[-3.746372,49.9437133],[-3.6174959,49.9521056],[-3.5306922,49.9637378],[-3.4495557,49.9867991],[-3.3776719,50.0202739],[-3.3182359,50.0626851],[-3.2739137,50.1121569],[-3.2467216,50.1664947],[-3.2427412,50.1787765],[-3.1873785,50.2142688],[-3.1341597,50.2558831],[-3.0948089,50.303406],[-3.0709205,50.354965],[-3.0634907,50.4085223],[-3.0665412,50.4259134],[-3.0646638,50.4269091],[-2.9329879,50.4465954],[-2.8328714,50.4089971],[-2.8289502,50.402864],[-2.7839188,50.3591188],[-2.7265834,50.3217177],[-2.6591025,50.2920513],[-2.5839966,50.2712203],[-2.5040562,50.2599964],[-2.4222425,50.2587949],[-2.3415822,50.2676604],[-2.2650617,50.2862649],[-2.1955217,50.3139194],[-2.1400609,50.346921],[-2.0313525,50.335804],[-1.9450582,50.3326205],[-1.8595359,50.3406519],[-1.7783059,50.3595677],[-1.7047211,50.3885889],[-1.6873694,50.3990639],[-1.686687,50.3988879],[-1.602693,50.3889942],[-1.5899949,50.3891474],[-1.5144679,50.3572476],[-1.4375876,50.3315122],[-1.3541559,50.3162878],[-1.2676403,50.3122061],[-1.1816299,50.3194364],[-1.0996934,50.3376787],[-1.0252393,50.3661757],[-0.8223608,50.4626914],[-0.7811172,50.4607556],[-0.7012419,50.4666648],[-0.624518,50.4820241],[-0.5536685,50.5062891],[-0.5035347,50.532233],[-0.2831034,50.5564627],[0.168645,50.4856812],[0.2468842,50.4780673],[0.3259769,50.4797883],[0.4032122,50.4907852],[0.4759399,50.5106807],[0.541657,50.5387921],[0.5980904,50.574153],[0.6026237,50.5775765],[0.7261174,50.5967984],[0.8174921,50.6182179],[0.8983874,50.6520126],[0.9392249,50.6494697],[1.0246136,50.6495659],[1.1082745,50.6604123],[1.1868908,50.6815787],[1.2573361,50.7122258],[1.3167936,50.751136],[1.3628666,50.7967604],[1.3936745,50.8472778],[1.397278,50.8607836],[1.5534376,50.9030448],[1.6222255,50.9264665],[1.6831776,50.957357],[1.7342684,50.9946982],[1.7737852,51.0372572],[1.8003863,51.0836249],[1.8297853,51.1544363],[1.8435939,51.2158718],[1.8364712,51.2649882],[1.8630242,51.3054269],[1.8793028,51.357428],[1.8790031,51.4104177],[1.8620794,51.4623508],[1.8291314,51.5112164],[1.78139,51.5551156],[1.7206753,51.5923374],[1.6493308,51.6214268],[1.5701326,51.6412444],[1.5615057,51.6422511],[1.6023164,51.6659501],[1.6493205,51.705325],[1.6841314,51.7493098],[1.7055732,51.796465],[1.7055797,51.7964869],[1.7484103,51.8327741],[1.8166842,51.8535117],[1.8896796,51.8891788],[1.9488918,51.9335509],[1.9916188,51.984636],[2.015878,52.0401336],[2.0566915,52.198907],[2.1801841,52.3862122],[2.2076208,52.447591],[2.2107435,52.511182],[2.1905324,52.6497145],[2.1795159,52.6899906],[2.1585659,52.7287952],[2.0553511,52.8794308],[2.0160873,52.9240981],[1.9635987,52.9635431],[1.899717,52.9963639],[1.5315668,53.150819],[1.4661965,53.1733995],[1.3953945,53.1890756],[1.3211809,53.1973988],[0.7931015,53.2281532],[0.789679,53.2662874],[0.7700267,53.3146147],[0.6742891,53.4804326],[0.6318851,53.5337243],[0.5904518,53.5653386],[0.5928439,53.5853336],[0.5899505,53.6511978],[0.5802981,53.6998336],[0.5559145,53.7466301],[0.5175605,53.7900368],[0.3179921,53.9720323],[0.3588051,54.0214734],[0.381875,54.0757849],[0.3853819,54.13172],[0.3690971,54.1868727],[0.3336472,54.2388612],[0.2805008,54.285432],[0.2119144,54.3245589],[0.0000482,54.4219805],[-0.1460812,54.5964273],[-0.1987416,54.6450012],[-0.2680839,54.6859952],[-0.3509763,54.7175314],[-0.771477,54.8413971],[-0.7718295,54.8418195],[-0.8239723,54.8824736],[-0.8553992,54.8992006],[-0.9039273,55.0248315],[-0.9344482,55.0773269],[-1.0598916,55.2355574],[-1.1605179,55.6253649],[-1.183056,55.6764493],[-1.2228285,55.7240795],[-1.278367,55.7664264],[-1.3475781,55.8018583],[-1.4278202,55.8290061],[-1.4924351,55.8462309],[-1.5802284,55.9248882],[-1.5807734,55.9253765],[-1.581889,55.926376],[-1.582115,55.9265402],[-1.580824,55.9253808],[-1.5393319,55.8781956],[-1.5150295,55.8273894],[-1.5087766,55.7749041],[-1.5207381,55.7227378],[-1.5503887,55.6728685],[-1.5965435,55.6271795],[-1.6207206,55.6113749],[-1.7028193,55.6276107],[-1.7035877,55.6291027],[-1.708252,55.634033],[-1.7406376,55.6610604],[-1.7465985,55.665113],[-1.7538423,55.6684345],[-1.7620929,55.6708981],[-1.7710354,55.6724098],[-1.7803286,55.6729119],[-1.7896176,55.6723852],[-1.7896176,55.6723852],[-1.7985476,55.6708498],[-1.804537,55.6694462],[-1.947517,55.7966779],[-1.947517,55.7966779],[-1.9475193,55.7966799],[-1.9475721,55.7967269],[-1.9476818,55.7968245],[-1.9477048,55.7968411],[-1.947578,55.7967283],[-1.9433289,55.7919283],[-1.9408521,55.7867509],[-1.9402449,55.7814006],[-1.9415304,55.7760887],[-1.9446571,55.771025],[-1.949501,55.7664093],[-1.9558703,55.7624237],[-1.9625962,55.7596091],[-1.962596,55.759609],[-1.8234182,55.6358009],[-1.962596,55.759609],[-1.9625962,55.7596091],[-1.9625962,55.7596091],[-1.9625962,55.7596091],[-1.9625976,55.7596103],[-1.9625976,55.7596103],[-1.9881767,55.7823647],[-2.05,55.77],[-2.25,55.64],[-2.3,55.55],[-2.2,55.4],[-2.4,55.3],[-2.55,55.15],[-2.45,55],[-2.3,54.75],[-2.17,54.5],[-2.31,54.51],[-2.45,54.52],[-2.75,54.6],[-2.875,54.51],[-3,54.42],[-3.25,54.28],[-3.3660797,54.2428545],[-3.3398898,54.2204796],[-3.3398877,54.2204778],[-3.3066331,54.1920674],[-3.3398877,54.2204778],[-3.3398898,54.2204796],[-3.3660797,54.2428545],[-3.3660797,54.2428545],[-3.3920348,54.2650288],[-3.3920348,54.2650288],[-3.3920352,54.2650291],[-3.3920352,54.2650291],[-3.3920359,54.2650297],[-3.3920359,54.2650297],[-3.3920359,54.2650297],[-3.3920352,54.2650291],[-3.3920352,54.2650291],[-3.3920348,54.2650288],[-3.3920348,54.2650288],[-3.3660797,54.2428545],[-3.3660797,54.2428545],[-3.3398898,54.2204796],[-3.3398877,54.2204778],[-3.3438765,54.2192016],[-3.3516601,54.2172253],[-3.3599305,54.2161154],[-3.3684085,54.2159093],[-3.3768079,54.216614],[-3.3848451,54.2182058],[-3.3922487,54.2206308],[-3.3987686,54.2238072],[-3.4041531,54.2276056],[-3.4041506,54.227603],[-3.3446795,54.1768345],[-3.3387665,54.1727252],[-3.3315809,54.1693828],[-3.3234077,54.1669395],[-3.3145705,54.1654922],[-3.3054191,54.1650979],[-3.2963157,54.1657725],[-3.2943405,54.1660379],[-3.2877417,54.1108323],[-3.286211,54.1055705],[-3.2829439,54.1005881],[-3.278069,54.0960802],[-3.2717773,54.092223],[-3.1745891,54.0432781],[-3.1673206,54.0402753],[-3.1592045,54.0381499],[-3.1505442,54.0369811],[-3.1416631,54.0368128],[-3.1328929,54.0376511],[-3.124561,54.0394647],[-3.1169787,54.042186],[-3.1104295,54.0457132],[-3.1051583,54.0499146],[-3.1013625,54.0546332],[-3.0416453,54.1521353],[-3.0386907,54.1484715],[-3.0340544,54.1439343],[-3.0279974,54.1400135],[-3.0207525,54.1368597],[-3.0125979,54.1345938],[-3.0038464,54.1333027],[-2.9462819,54.1282402],[-2.9371604,54.1279722],[-2.9371604,54.1279722],[-2.928128,54.128764],[-2.9195395,54.1305844],[-2.9117324,54.1333619],[-2.9050136,54.1369875],[-2.8740015,54.1573915],[-2.8581798,54.1383929],[-2.8581477,54.1383544],[-2.8581483,54.1383541],[-2.8581491,54.1383537],[-2.8581507,54.1383529],[-3.071804,54.0353235],[-3.1478084,54.0053101],[-3.232347,53.9846981],[-3.322107,53.9742929],[-3.4135825,53.9745005],[-3.5032048,53.985313],[-3.5874734,54.0063083],[-3.663085,54.0366662],[-3.7270579,54.0751983],[-3.7620772,54.1069864],[-3.7455351,54.0898108],[-3.6858479,54.0392095],[-3.681929,54.0365035],[-3.6527093,53.9918926],[-3.6034756,53.9464107],[-3.5399677,53.9075652],[-3.5154019,53.8952509],[-3.5155433,53.8932752],[-3.5032627,53.7565469],[-3.490227,53.7052158],[-3.4872412,53.7002459],[-3.5242068,53.6582101],[-3.5496653,53.6032739],[-3.5514936,53.5840445],[-3.5514771,53.5840466],[-3.3855754,53.6050331],[-3.2884819,53.6108089],[-3.1915647,53.6040823],[-3.1212474,53.5896571],[-3.1212474,53.5896571],[-3.1391435,53.573893],[-3.1436191,53.5688536],[-3.146212,53.5633682],[-3.146807,53.5576817],[-3.1453786,53.5520477],[-3.1419911,53.5467175],[-3.0699396,53.4615722],[-3.0712997,53.461417],[-3.0799263,53.4592689],[-3.2095779,53.4170309],[-3.2168386,53.414079],[-3.2230041,53.410346],[-3.227842,53.405973],[-3.2311702,53.4011249],[-3.2328636,53.3959848],[-3.2328589,53.3907463],[-3.2311569,53.3856071],[-3.2278225,53.3807608],[-3.1667858,53.3117415],[-3.1667817,53.3117394],[-3.166781,53.311739],[-3.166781,53.311739],[-3.166781,53.311739],[-3.1667759,53.3117364],[-3.1667754,53.3117362],[-3.1667752,53.3117361],[-3.0921524,53.2730634],[-3.0911877,53.2731898],[-3.0836005,53.2732599],[-3.0844209,53.2640251],[-3.0859874,53.2463907],[-3.05,53.22],[-2.95,53.12],[-3.05,53],[-3.08,52.8],[-3.1,52.6],[-3.1,52.4],[-3.05,52.2],[-2.85,51.9],[-2.7,51.75],[-2.6575625,51.6226874],[-2.6214655,51.6475861],[-2.6149987,51.6281305],[-2.6141124,51.6231153],[-2.6147456,51.6180854],[-2.6168759,51.6132167],[-2.6204281,51.6086794],[-2.6252779,51.604632],[-2.6335428,51.5989339],[-2.6383906,51.5960692],[-2.6438886,51.5937008],[-2.6902449,51.5767924],[-2.6902584,51.5767875],[-2.6902584,51.5767875],[-2.6902584,51.5767875],[-2.6902589,51.5767873],[-2.6902595,51.5767871],[-2.6902595,51.5767871],[-2.6902595,51.5767871],[-2.6902596,51.5767871],[-2.7485482,51.5175973],[-3.0005412,51.405924],[-3.0068337,51.4025042],[-3.0119554,51.3983939],[-3.0157157,51.3937462],[-3.0179749,51.3887345],[-3.0291932,51.3496896],[-3.0352177,51.3489035],[-3.04312,51.3467847],[-3.0501929,51.3437297],[-3.0561558,51.3398595],[-3.0607725,51.335328],[-3.0638602,51.3303148],[-3.065297,51.3250188],[-3.0650263,51.31965],[-3.0494149,51.2455845],[-3.3838864,51.2138823],[-3.7753711,51.2734218],[-3.7844364,51.2741594],[-3.7935467,51.2736841],[-3.9536802,51.2541425],[-3.9536804,51.2541425],[-3.9536814,51.254143],[-3.9536827,51.2541436],[-3.9536829,51.2541437],[-3.9536843,51.2541443],[-3.9536843,51.2541443],[-3.9944118,51.2728511],[-4.0168024,51.2859246],[-4.0318792,51.2847334],[-4.2931283,51.2864124],[-4.3767667,51.2919539],[-4.4571421,51.3074838],[-4.5312452,51.3324214],[-4.5725276,51.3536273],[-4.5725357,51.3536315],[-4.5889019,51.3409115],[-4.628206,51.2934854],[-4.6362684,51.2759056],[-4.6376281,51.2742715],[-4.6477531,51.2730574],[-4.7246321,51.2537073],[-4.7940981,51.2254689],[-4.8535637,51.1894007],[-4.9008312,51.1468522],[-4.9341735,51.0994107],[-4.9523953,51.048841],[-4.986278,50.8805023],[-5.0239022,50.8491602],[-5.0419296,50.8469744],[-5.1229794,50.8255486],[-5.1952874,50.7940571],[-5.2313283,50.7701119],[-5.2832463,50.7480939],[-5.3375144,50.7148819],[-5.3816057,50.6761153],[-5.4141508,50.6330225],[-5.426823,50.6038563],[-5.4614237,50.5848056],[-5.5134582,50.5416991],[-5.5507685,50.4928351],[-5.5541663,50.4843729],[-5.8412826,50.412247],[-5.9098302,50.3901044],[-5.9708999,50.3603942],[-6.0224677,50.3241092],[-6.0628382,50.2824597],[-6.0907004,50.236831],[-6.1051676,50.1887365],[-6.1222029,50.0789214],[-6.1224938,50.0275318]]]}}
