{"type":"Feature","properties":{"family":"english","name":"Kingdom of England, 939 – 954"},"geometry":{"type":"Polygon","coordinates":[[[-6.1225973,50.027587],[-6.1077217,49.9770935],[-6.0782652,49.929329],[-6.0353321,49.8860167],[-5.980501,49.8487152],[-5.9157648,49.8187633],[-5.8434584,49.7972341],[-5.7661757,49.7848977],[-5.6866805,49.7821952],[-5.5613865,49.7855484],[-5.5138581,49.7899131],[-5.4992029,49.7773379],[-5.4406993,49.7430611],[-5.3733217,49.7164812],[-5.29946,49.6985363],[-5.2217227,49.6898588],[-5.1428485,49.6907547],[-5.0656142,49.7011927],[-4.992742,49.7208053],[-4.9268077,49.7489017],[-4.8701535,49.78449],[-4.7367525,49.8854327],[-4.6892067,49.929474],[-4.6654692,49.9647216],[-4.5566607,50.011237],[-4.4919736,50.0452013],[-4.4584037,50.0714724],[-4.3885528,50.0832374],[-4.3158173,50.0639229],[-4.2367696,50.0535827],[-4.2253079,50.0535143],[-4.2176806,50.0509164],[-4.1426948,50.0359654],[-4.1052818,50.0332004],[-4.0853418,50.0205457],[-4.0281465,49.9901291],[-3.9635726,49.9666327],[-3.8936203,49.9507811],[-3.8204482,49.9430625],[-3.7463093,49.9437145],[-3.6174295,49.9521072],[-3.5306122,49.9637403],[-3.4494653,49.9868015],[-3.3775744,50.020275],[-3.3181348,50.062684],[-3.2738122,50.1121527],[-3.2466224,50.1664866],[-3.2426373,50.1787841],[-3.1872633,50.2142855],[-3.134049,50.2558989],[-3.094705,50.303419],[-3.0708249,50.3549738],[-3.0634042,50.4085259],[-3.0664579,50.4259167],[-3.0645779,50.4269139],[-2.9329914,50.4465868],[-2.8329554,50.4090177],[-2.8290363,50.4028878],[-2.7839996,50.3591387],[-2.7266549,50.3217331],[-2.6591612,50.292062],[-2.5840394,50.2712265],[-2.5040812,50.2599986],[-2.4222485,50.2587938],[-2.341569,50.2676569],[-2.2650304,50.2862597],[-2.1954741,50.3139135],[-2.1400043,50.3469127],[-2.0313669,50.3358042],[-1.9450535,50.3326206],[-1.8595122,50.3406527],[-1.7782647,50.3595698],[-1.7046648,50.388593],[-1.6873408,50.3990498],[-1.6866983,50.3988842],[-1.6026873,50.3889931],[-1.5900494,50.3891459],[-1.5145528,50.3572587],[-1.437651,50.3315166],[-1.3541931,50.3162885],[-1.2676488,50.3122064],[-1.1816093,50.3194395],[-1.099646,50.3376878],[-1.0251695,50.3661932],[-0.822339,50.4626892],[-0.7811426,50.460756],[-0.7012429,50.4666671],[-0.6244954,50.4820304],[-0.5536249,50.5063015],[-0.5035051,50.532237],[-0.283153,50.5564597],[0.168569,50.4856825],[0.2468334,50.478068],[0.3259533,50.4797916],[0.4032159,50.490794],[0.4759692,50.5106978],[0.5417084,50.5388194],[0.598159,50.5741919],[0.6026586,50.57759],[0.7260972,50.5968047],[0.8175061,50.6182335],[0.8983579,50.6520109],[0.9391403,50.6494718],[1.0245521,50.6495686],[1.1082381,50.6604179],[1.1868797,50.6815894],[1.2573487,50.7122431],[1.3168268,50.7511609],[1.3629161,50.7967929],[1.3937351,50.8473175],[1.3973377,50.8608159],[1.5534236,50.9030597],[1.6222344,50.9264907],[1.6832066,50.9573918],[1.7343132,50.9947444],[1.7738406,51.0373145],[1.8004466,51.0836924],[1.8298427,51.1545048],[1.8436481,51.2159346],[1.8365229,51.2650563],[1.8630666,51.305478],[1.8793482,51.3574775],[1.8790516,51.4104631],[1.8621313,51.4623904],[1.8291873,51.5112488],[1.7814499,51.5551401],[1.7207394,51.5923539],[1.6493985,51.621436],[1.5702029,51.6412474],[1.5614784,51.642265],[1.6023217,51.6659837],[1.6493379,51.7053692],[1.6841566,51.7493643],[1.7056012,51.7965287],[1.7056051,51.7965415],[1.7483977,51.8327981],[1.8166459,51.8535289],[1.8896636,51.8892077],[1.9488934,51.9335932],[1.9916319,51.9846919],[2.0158953,52.0402019],[2.0567005,52.1989715],[2.180182,52.3862746],[2.207619,52.4476601],[2.2107395,52.5112537],[2.1905324,52.6497145],[2.1905221,52.6497853],[2.1795054,52.690056],[2.1585571,52.7288537],[2.055337,52.879486],[2.0160829,52.9241401],[1.9636091,52.963572],[1.899746,52.9963811],[1.5316008,53.1508292],[1.4662427,53.1734053],[1.3954522,53.1890776],[1.3212491,53.1973977],[0.792632,53.2281783],[0.7862569,53.2782269],[0.7551658,53.3370955],[0.5889003,53.5578215],[0.5927858,53.5853894],[0.5923188,53.5960044],[0.5854543,53.5419455],[0.5602948,53.4894633],[0.5179748,53.4410539],[0.4602661,53.3986812],[0.389544,53.3640585],[0.3230216,53.3430986],[0.2892859,53.4006295],[0.2843794,53.4065326],[0.1908211,53.4909904],[0.1855928,53.4948675],[0.1792563,53.4981074],[-0.0912172,53.6116642],[-0.1118151,53.6112519],[-0.12175,53.6116939],[-0.1312849,53.6134079],[-0.1399631,53.6163119],[-0.1473684,53.6202666],[-0.2784096,53.7072006],[-0.2787212,53.707171],[-0.2787223,53.7071721],[-0.2790028,53.7074457],[-0.2907765,53.7060257],[-0.2908217,53.7060202],[-0.2908217,53.7060202],[-0.2908217,53.7060202],[-0.5289825,53.6833702],[-0.5370328,53.6830245],[-0.5450599,53.6835251],[-0.5492724,53.6842485],[-0.5492724,53.6842485],[-0.5492724,53.6842485],[-0.5310053,53.6770513],[-0.5492724,53.6842485],[-0.5492724,53.6842485],[-0.5492724,53.6842485],[-0.5492724,53.6842485],[-0.5492724,53.6842485],[-0.5492816,53.6842521],[-0.61167,53.708833],[-0.7,53.7],[-0.9,53.55],[-1.2,53.48],[-1.5,53.42],[-1.8,53.42],[-1.925,53.4],[-2.05,53.38],[-2.35,53.4],[-2.475,53.395],[-2.6,53.39],[-2.8,53.35],[-2.95,53.38],[-2.9527079,53.3823211],[-2.9250293,53.3494673],[-2.8202925,53.325606],[-2.8202887,53.3256052],[-2.9596313,53.3534719],[-2.9596315,53.3534721],[-3,53.3870907],[-3.0227282,53.4060186],[-3.0227282,53.4060186],[-3.0227282,53.4060186],[-3.0227282,53.4060186],[-3.0227372,53.4060261],[-3.0698307,53.4615843],[-3.0698311,53.4615848],[-3.0712992,53.4614173],[-3.0799245,53.4592696],[-3.2095758,53.4170319],[-3.2168358,53.4140801],[-3.2230008,53.4103473],[-3.2278382,53.4059743],[-3.2311658,53.4011262],[-3.2328588,53.395986],[-3.2328538,53.3907474],[-3.2311516,53.385608],[-3.227817,53.3807615],[-3.1667754,53.3117362],[-3.1667752,53.3117361],[-3.0921524,53.2730634],[-3.0911877,53.2731898],[-3.0836005,53.2732599],[-3.0844209,53.2640251],[-3.0859874,53.2463907],[-3.05,53.22],[-2.95,53.12],[-3.05,53],[-3.08,52.8],[-3.1,52.6],[-3.1,52.4],[-3.05,52.2],[-2.85,51.9],[-2.7,51.75],[-2.6575625,51.6226874],[-2.6214655,51.6475861],[-2.6149987,51.6281305],[-2.6141124,51.6231153],[-2.6147456,51.6180854],[-2.6168759,51.6132167],[-2.6204281,51.6086794],[-2.6252779,51.604632],[-2.6335428,51.5989339],[-2.6383906,51.5960692],[-2.6438886,51.5937008],[-2.6902449,51.5767924],[-2.6902584,51.5767875],[-2.6902584,51.5767875],[-2.6902584,51.5767875],[-2.6902589,51.5767873],[-2.6902595,51.5767871],[-2.6902595,51.5767871],[-2.6902595,51.5767871],[-2.6902596,51.5767871],[-2.6902596,51.5767871],[-2.6902596,51.5767871],[-2.6902613,51.5767865],[-2.6902613,51.5767865],[-2.6902613,51.5767865],[-2.6902648,51.5767852],[-2.7485529,51.5175968],[-3.0005463,51.4059238],[-3.0068386,51.4025043],[-3.0119602,51.3983943],[-3.0157203,51.393747],[-3.0179794,51.3887356],[-3.0311127,51.3430196],[-3.0316005,51.3428124],[-3.0375592,51.3390223],[-3.0422126,51.334576],[-3.0453806,51.3296462],[-3.0469407,51.3244241],[-3.0468447,51.3196926],[-3.0469918,51.319621],[-3.052362,51.3157911],[-3.0564842,51.3113986],[-3.0592119,51.3066001],[-3.0604482,51.3015667],[-3.0601496,51.2964777],[-3.0494226,51.2455838],[-3.3838897,51.2138823],[-3.7753722,51.2734213],[-3.7844409,51.2741593],[-3.7935545,51.2736837],[-3.9536814,51.254143],[-3.9536827,51.2541436],[-3.9536829,51.2541437],[-3.9536843,51.2541443],[-3.9536843,51.2541443],[-3.9944118,51.2728511],[-4.0168024,51.2859246],[-4.0318792,51.2847334],[-4.2931283,51.2864124],[-4.3767667,51.2919539],[-4.4571421,51.3074838],[-4.5312452,51.3324214],[-4.5725276,51.3536273],[-4.5725357,51.3536315],[-4.5725844,51.3536565],[-4.5889545,51.3409353],[-4.6282576,51.2935176],[-4.6363246,51.2759308],[-4.6377052,51.2742718],[-4.6478104,51.2730606],[-4.7246906,51.2537159],[-4.7941572,51.225484],[-4.8536232,51.1894232],[-4.9008911,51.1468821],[-4.9342341,51.0994475],[-4.9524567,51.0488836],[-4.9863505,50.8805248],[-5.0240064,50.8491575],[-5.0420179,50.8469741],[-5.123067,50.8255533],[-5.1953731,50.7940692],[-5.2314448,50.770108],[-5.2833559,50.7480944],[-5.3376144,50.7148913],[-5.3816977,50.6761356],[-5.414237,50.6330547],[-5.4269196,50.603868],[-5.461528,50.5848154],[-5.5135543,50.5417216],[-5.5508591,50.4928717],[-5.5542725,50.4843718],[-5.8414165,50.4122418],[-5.9099565,50.3901046],[-5.9710182,50.3604031],[-6.0225784,50.3241296],[-6.0629429,50.2824931],[-6.0908013,50.2368778],[-6.1052673,50.1887961],[-6.1223072,50.0789818],[-6.1225973,50.027587]],[[-3.0222302,51.3231746],[-3.0039292,51.3221016],[-3,51.3],[-3.0173704,51.3],[-3.00063,51.2201714],[-3.0173704,51.3],[-3.0222302,51.3231746]],[[-2.799028,53.3207615],[-2.7878438,53.3241339],[-2.7878399,53.324135],[-2.7878388,53.3241354],[-2.698227,53.3511559],[-2.7127379,53.3390018],[-2.7127379,53.3390018],[-2.7127379,53.3390018],[-2.7127382,53.3390016],[-2.7127382,53.3390016],[-2.712739,53.3390009],[-2.7486275,53.3089415],[-2.712739,53.3390009],[-2.7127382,53.3390016],[-2.7127382,53.3390016],[-2.7127382,53.3390016],[-2.7855856,53.3244312],[-2.7878399,53.324135],[-2.7878438,53.3241339],[-2.799028,53.3207615]]]}}
