{"type":"Feature","properties":{"family":"english","name":"Kingdom of England, 927 – 938"},"geometry":{"type":"Polygon","coordinates":[[[-6.1224766,50.0275248],[-6.1076103,49.9770396],[-6.0781714,49.9292846],[-6.0352634,49.8859826],[-5.9804637,49.8486909],[-5.9157635,49.8187477],[-5.8434957,49.7972251],[-5.766252,49.7848928],[-5.6867939,49.7821914],[-5.5615039,49.7855447],[-5.513828,49.7899235],[-5.499092,49.7772793],[-5.4406143,49.7430184],[-5.373269,49.7164532],[-5.299444,49.6985209],[-5.2217457,49.6898531],[-5.14291,49.6907552],[-5.0657114,49.7011957],[-4.9928696,49.7208074],[-4.9269584,49.7488996],[-4.8703183,49.7844812],[-4.736917,49.8854198],[-4.6893606,49.9294665],[-4.6656174,49.9647146],[-4.5568253,50.0112206],[-4.4921246,50.0451909],[-4.4585523,50.0714638],[-4.388607,50.0832446],[-4.3157885,50.0639099],[-4.2367605,50.0535771],[-4.2253046,50.0535099],[-4.2176602,50.0509059],[-4.1427112,50.0359614],[-4.1052274,50.0331912],[-4.0852387,50.0205058],[-4.0280702,49.9901035],[-3.9635292,49.9666187],[-3.8936141,49.9507753],[-3.8204812,49.943061],[-3.7463809,49.9437131],[-3.6175053,49.9521054],[-3.5307042,49.9637373],[-3.4495698,49.9867986],[-3.3776876,50.0202735],[-3.3182526,50.0626849],[-3.2739307,50.1121571],[-3.2467384,50.1664953],[-3.2427587,50.1787746],[-3.1873976,50.2142658],[-3.1341782,50.2558802],[-3.0948264,50.3034036],[-3.0709368,50.3549634],[-3.0635057,50.4085216],[-3.0665557,50.4259123],[-3.064678,50.4269082],[-2.9329863,50.4465968],[-2.8328565,50.4089937],[-2.8289352,50.4028603],[-2.7839047,50.3591158],[-2.726571,50.3217154],[-2.6590923,50.2920497],[-2.5839891,50.2712194],[-2.5040518,50.259996],[-2.4222414,50.2587951],[-2.3415844,50.267661],[-2.265067,50.2862657],[-2.1955299,50.3139204],[-2.1400706,50.3469224],[-2.0313495,50.3358039],[-1.9450586,50.3326206],[-1.8595396,50.3406519],[-1.7783128,50.3595675],[-1.7047307,50.3885884],[-1.6873746,50.3990663],[-1.6866857,50.3988886],[-1.6026946,50.3889944],[-1.5899859,50.3891477],[-1.5144533,50.3572455],[-1.4375768,50.3315113],[-1.3541498,50.3162876],[-1.2676394,50.3122061],[-1.181634,50.3194359],[-1.0997023,50.3376772],[-1.0252521,50.3661727],[-0.8223657,50.4626918],[-0.7811133,50.4607556],[-0.7012422,50.4666646],[-0.6245224,50.4820232],[-0.5536766,50.5062873],[-0.5035415,50.5322322],[-0.2830967,50.5564632],[0.1686566,50.4856809],[0.2468915,50.4780672],[0.3259794,50.4797879],[0.40321,50.4907839],[0.4759334,50.5106782],[0.5416468,50.538788],[0.5980774,50.5741471],[0.6026158,50.5775744],[0.7261182,50.5967975],[0.8174874,50.6182154],[0.8983895,50.6520129],[0.9392366,50.6494694],[1.0246216,50.6495656],[1.1082785,50.6604116],[1.1868908,50.6815775],[1.2573323,50.7122237],[1.3167866,50.751133],[1.362857,50.7967564],[1.393663,50.8472729],[1.3972665,50.8607787],[1.5534367,50.9030425],[1.6222211,50.9264629],[1.6831704,50.9573519],[1.7342589,50.9946917],[1.7737741,51.0372492],[1.8003746,51.0836156],[1.829774,51.1544269],[1.8435831,51.2158636],[1.8364608,51.264979],[1.8630146,51.3054193],[1.879293,51.3574207],[1.8789932,51.4104109],[1.8620694,51.4623449],[1.8291215,51.5112116],[1.78138,51.5551119],[1.7206653,51.5923349],[1.649321,51.6214254],[1.5701231,51.6412439],[1.561507,51.6422494],[1.6023121,51.6659452],[1.6493145,51.7053187],[1.6841244,51.7493022],[1.7055658,51.7964563],[1.7055726,51.7964791],[1.7484082,51.8327703],[1.8166863,51.8535091],[1.8896784,51.8891747],[1.948888,51.933545],[1.9916134,51.9846283],[2.0158721,52.0401244],[2.0566866,52.1988981],[2.1801805,52.3862034],[2.2076173,52.4475817],[2.2107403,52.5111729],[2.1905301,52.6497055],[2.1795135,52.6899826],[2.1585633,52.7287882],[2.0553491,52.8794244],[2.016084,52.9240934],[1.9635937,52.96354],[1.8997098,52.9963622],[1.5315589,53.1508183],[1.4661879,53.1733991],[1.3953853,53.1890755],[1.3211714,53.197399],[0.7931026,53.2281533],[0.7896809,53.2662812],[0.7700287,53.3146089],[0.674292,53.4804272],[0.6318878,53.5337197],[0.5904557,53.5653335],[0.5928479,53.5853276],[0.5899549,53.6511918],[0.5803027,53.6998277],[0.5559193,53.7466245],[0.5175652,53.7900317],[0.3179982,53.9720276],[0.3588133,54.021471],[0.3818827,54.0757819],[0.3853892,54.1317165],[0.369104,54.1868689],[0.3336538,54.2388574],[0.2805068,54.2854284],[0.2119198,54.3245558],[0.0000567,54.4219767],[-0.1460706,54.5964224],[-0.1987317,54.6449971],[-0.2680753,54.6859921],[-0.3509695,54.7175293],[-0.7714662,54.8413947],[-0.7718179,54.8418162],[-0.8239609,54.8824704],[-0.855386,54.8991965],[-0.9039133,55.0248277],[-0.9344331,55.0773219],[-1.0598759,55.2355533],[-1.1604997,55.6253618],[-1.1830377,55.676446],[-1.2228105,55.7240761],[-1.2783497,55.7664232],[-1.3475622,55.8018555],[-1.427806,55.829004],[-1.4919885,55.8461138],[-1.7290183,56.0584854],[-1.7953978,56.1051176],[-1.87865,56.1424322],[-1.9746944,56.1685819],[-2.1145521,56.1962294],[-2.1197214,56.1851786],[-2.1609761,56.1376319],[-2.2179528,56.0954488],[-2.2884485,56.0602254],[-2.4153401,56.0080513],[-2.4153404,56.0080512],[-2.4153478,56.0080481],[-2.4801939,56.0329362],[-2.4886089,56.0355079],[-2.4977683,56.0370983],[-2.5073096,56.0376445],[-2.5168554,56.0371249],[-2.5255317,56.0361584],[-2.5294658,56.0399425],[-2.5356841,56.0438912],[-2.6004891,56.0776795],[-2.6074807,56.0807019],[-2.6153424,56.0829621],[-2.6238108,56.0843843],[-2.6326016,56.0849207],[-2.8235355,56.0866102],[-2.8327743,56.0861884],[-2.8416982,56.0847892],[-2.8499781,56.0824641],[-2.8573093,56.0792988],[-2.8634217,56.07541],[-2.9690043,55.9933435],[-3.082103,55.9742973],[-3.3279625,56.0018766],[-3.3381077,56.0006902],[-3.3489266,56.0008019],[-3.3489266,56.0008019],[-3.6109152,56.0197068],[-3.6109152,56.0197068],[-3.6136965,56.0199075],[-3.6163145,56.0236091],[-3.6136965,56.0199075],[-3.6132481,56.0192736],[-3.6059404,56.005542],[-3.6567462,56.0112437],[-3.6594945,56.0115521],[-3.6666367,56.0123537],[-3.6594945,56.0115521],[-3.6567462,56.0112437],[-3.6059404,56.005542],[-3.6021804,56.00512],[-3.6021804,56.00512],[-3.0798308,55.9464992],[-3.6021804,56.00512],[-3.6021804,56.00512],[-3.6059404,56.005542],[-3.6567462,56.0112437],[-3.6594945,56.0115521],[-3.6,55.9],[-3.25,55.55],[-2.65,55.15],[-2.45,55],[-2.3,54.75],[-2.17,54.5],[-2.31,54.51],[-2.45,54.52],[-2.75,54.6],[-2.875,54.51],[-3,54.42],[-3.25,54.28],[-3.3660797,54.2428545],[-3.3920348,54.2650288],[-3.3920348,54.2650288],[-3.3920352,54.2650291],[-3.3920352,54.2650291],[-3.3920359,54.2650297],[-3.3920359,54.2650297],[-3.3920359,54.2650297],[-3.3920359,54.2650297],[-3.3920359,54.2650297],[-3.3920359,54.2650297],[-3.3920359,54.2650297],[-3.3920359,54.2650297],[-3.3920352,54.2650291],[-3.3920352,54.2650291],[-3.3920348,54.2650288],[-3.3920348,54.2650288],[-3.3660797,54.2428545],[-3.3660797,54.2428545],[-3.3398898,54.2204796],[-3.3398877,54.2204778],[-3.3438765,54.2192016],[-3.3516601,54.2172253],[-3.3599305,54.2161154],[-3.3684085,54.2159093],[-3.3768079,54.216614],[-3.3848451,54.2182058],[-3.3922487,54.2206308],[-3.3987686,54.2238072],[-3.4041531,54.2276056],[-3.4041562,54.2276078],[-3.4041516,54.227603],[-3.3446805,54.1768345],[-3.3387674,54.1727252],[-3.3315818,54.1693828],[-3.3234084,54.1669395],[-3.314571,54.1654921],[-3.3054194,54.1650979],[-3.2963159,54.1657725],[-3.2943413,54.1660378],[-3.2877425,54.110832],[-3.2862118,54.1055703],[-3.2829447,54.100588],[-3.2780699,54.0960802],[-3.2717782,54.092223],[-3.1745901,54.0432782],[-3.1673214,54.0402754],[-3.1592052,54.0381499],[-3.1505447,54.0369811],[-3.1416634,54.0368128],[-3.1328929,54.0376511],[-3.1245608,54.0394648],[-3.1169784,54.0421861],[-3.110429,54.0457134],[-3.1051576,54.0499149],[-3.1013618,54.0546336],[-3.0416454,54.1521343],[-3.0386916,54.1484715],[-3.0340552,54.1439343],[-3.0279982,54.1400135],[-3.0207533,54.1368597],[-3.0125986,54.1345939],[-3.003847,54.1333027],[-2.9462825,54.1282402],[-2.9371607,54.1279722],[-2.928128,54.128764],[-2.928128,54.128764],[-2.9195393,54.1305845],[-2.9117319,54.1333621],[-2.9050129,54.1369878],[-2.8740019,54.157391],[-2.8581483,54.1383541],[-2.8581491,54.1383537],[-2.8581507,54.1383529],[-3.071804,54.0353235],[-3.1478084,54.0053101],[-3.232347,53.9846981],[-3.322107,53.9742929],[-3.4135825,53.9745005],[-3.5032048,53.985313],[-3.5874734,54.0063083],[-3.663085,54.0366662],[-3.7270579,54.0751983],[-3.7620772,54.1069864],[-3.7621576,54.1070593],[-3.7455443,54.08981],[-3.6858569,54.0392089],[-3.6819374,54.0365025],[-3.6527168,53.9918908],[-3.6034837,53.9464099],[-3.5399765,53.9075652],[-3.5154078,53.8952495],[-3.5155493,53.8932718],[-3.5032679,53.7565435],[-3.4902319,53.7052129],[-3.4872458,53.7002425],[-3.5242112,53.6582064],[-3.5496694,53.6032703],[-3.5514974,53.5840441],[-3.5514936,53.5840445],[-3.5514771,53.5840466],[-3.3855754,53.6050331],[-3.2884819,53.6108089],[-3.1915647,53.6040823],[-3.1212474,53.5896571],[-3.1391439,53.5738928],[-3.1436195,53.5688533],[-3.1462123,53.5633679],[-3.1468074,53.5576815],[-3.145379,53.5520475],[-3.1419915,53.5467173],[-3.0699399,53.4615721],[-3.0712996,53.461417],[-3.0799263,53.4592688],[-3.2095778,53.4170309],[-3.2168386,53.4140789],[-3.2230042,53.4103459],[-3.2278422,53.4059728],[-3.2311704,53.4011248],[-3.2328638,53.3959846],[-3.2328592,53.3907461],[-3.2311573,53.3856069],[-3.2278228,53.3807607],[-3.1667866,53.3117419],[-3.1667858,53.3117415],[-3.1667817,53.3117394],[-3.166781,53.311739],[-3.166781,53.311739],[-3.166781,53.311739],[-3.1667759,53.3117364],[-3.1667754,53.3117362],[-3.1667752,53.3117361],[-3.0921524,53.2730634],[-3.0911877,53.2731898],[-3.0836005,53.2732599],[-3.0844209,53.2640251],[-3.0859874,53.2463907],[-3.05,53.22],[-2.95,53.12],[-3.05,53],[-3.08,52.8],[-3.1,52.6],[-3.1,52.4],[-3.05,52.2],[-2.85,51.9],[-2.7,51.75],[-2.6575625,51.6226874],[-2.6214655,51.6475861],[-2.6149987,51.6281305],[-2.6141124,51.6231153],[-2.6147456,51.6180854],[-2.6168759,51.6132167],[-2.6204281,51.6086794],[-2.6252779,51.604632],[-2.6335428,51.5989339],[-2.6383906,51.5960692],[-2.6438886,51.5937008],[-2.6902449,51.5767924],[-2.6902584,51.5767875],[-2.6902584,51.5767875],[-2.6902584,51.5767875],[-2.6902589,51.5767873],[-2.6902595,51.5767871],[-2.6902595,51.5767871],[-2.6902595,51.5767871],[-2.6902596,51.5767871],[-2.6902596,51.5767871],[-2.6902596,51.5767871],[-2.6902613,51.5767865],[-2.6902613,51.5767865],[-2.6902613,51.5767865],[-2.6902648,51.5767852],[-2.8382247,51.522817],[-2.6902648,51.5767852],[-2.6902613,51.5767865],[-2.6902613,51.5767865],[-2.6902613,51.5767865],[-2.6902596,51.5767871],[-2.6902596,51.5767871],[-2.6902596,51.5767871],[-2.6902595,51.5767871],[-2.6902595,51.5767871],[-2.6902595,51.5767871],[-2.6902589,51.5767873],[-2.6902584,51.5767875],[-2.7485471,51.5175974],[-3.0005401,51.4059241],[-3.0068327,51.4025043],[-3.0119544,51.3983939],[-3.0157147,51.3937462],[-3.0179739,51.3887343],[-3.0311067,51.3430195],[-3.031596,51.3428116],[-3.0375543,51.3390211],[-3.0422074,51.3345744],[-3.0453752,51.3296443],[-3.0469351,51.3244219],[-3.046839,51.3196922],[-3.0469868,51.3196202],[-3.0523568,51.3157899],[-3.0564788,51.311397],[-3.0592063,51.3065981],[-3.0604425,51.3015644],[-3.0601438,51.2964752],[-3.049417,51.2455842],[-3.383886,51.2138823],[-3.7753711,51.2734219],[-3.7844358,51.2741594],[-3.7935456,51.2736841],[-3.9536801,51.2541424],[-3.9536802,51.2541425],[-3.9536802,51.2541425],[-3.9536804,51.2541425],[-3.9536814,51.254143],[-3.9536827,51.2541436],[-3.9536829,51.2541437],[-3.9536843,51.2541443],[-3.9536843,51.2541443],[-3.9944118,51.2728511],[-4.0168024,51.2859246],[-4.0318792,51.2847334],[-4.2931283,51.2864124],[-4.3767667,51.2919539],[-4.4571421,51.3074838],[-4.5312452,51.3324214],[-4.5725276,51.3536273],[-4.588892,51.3409084],[-4.6281959,51.293481],[-4.6362573,51.275903],[-4.6376145,51.2742717],[-4.6477448,51.273057],[-4.7246229,51.2537062],[-4.794088,51.2254669],[-4.853553,51.1893979],[-4.90082,51.1468485],[-4.9341619,51.0994061],[-4.9523835,51.0488357],[-4.9862646,50.8805002],[-5.0238853,50.8491609],[-5.0419169,50.8469744],[-5.1229663,50.825548],[-5.195274,50.7940554],[-5.2313091,50.7701132],[-5.2832286,50.7480944],[-5.3374978,50.7148812],[-5.38159,50.6761133],[-5.4141357,50.6330188],[-5.4268065,50.6038556],[-5.4614068,50.5848047],[-5.5134422,50.5416965],[-5.550753,50.4928306],[-5.5541486,50.4843737],[-5.8412626,50.412248],[-5.9098108,50.3901048],[-5.9708813,50.3603934],[-6.0224497,50.324107],[-6.0628208,50.2824558],[-6.0906834,50.2368252],[-6.1051508,50.188729],[-6.1221855,50.0789138],[-6.1224766,50.0275248]],[[-3.0222302,51.3231746],[-3.0039292,51.3221016],[-3,51.3],[-3.0173704,51.3],[-3.00063,51.2201714],[-3.0173704,51.3],[-3.0222302,51.3231746]]]}}
