{"type":"Feature","properties":{"family":"danes","name":"Mercia and Northumbria under Cnut, 1016"},"geometry":{"type":"Polygon","coordinates":[[[-3.7622706,54.1071619],[-3.7455806,54.0898335],[-3.6858944,54.0392338],[-3.6819711,54.0365249],[-3.6527422,53.9919038],[-3.6035141,53.9464298],[-3.5400134,53.90759],[-3.515422,53.895263],[-3.5155652,53.8932622],[-3.5032804,53.7565367],[-3.4902451,53.7052124],[-3.4872494,53.7002265],[-3.524223,53.6581798],[-3.5496776,53.6032495],[-3.5515033,53.5840433],[-3.5515029,53.5840434],[-3.5515028,53.5840434],[-3.5514974,53.5840441],[-3.5514936,53.5840445],[-3.5514771,53.5840466],[-3.3855754,53.6050331],[-3.2884819,53.6108089],[-3.1915647,53.6040823],[-3.1212474,53.5896571],[-3.1212474,53.5896571],[-3.1212474,53.5896571],[-3.1212461,53.5896568],[-3.1391451,53.5738902],[-3.1436204,53.5688511],[-3.1462131,53.5633663],[-3.1468081,53.5576805],[-3.1453798,53.5520472],[-3.1419925,53.5467176],[-3.0699368,53.4615703],[-3.0712992,53.4614149],[-3.0799262,53.4592666],[-3.2095776,53.4170285],[-3.2168384,53.4140765],[-3.223004,53.4103437],[-3.227842,53.4059709],[-3.2311704,53.4011232],[-3.232864,53.3959834],[-3.2328595,53.3907455],[-3.2311579,53.3856068],[-3.2278237,53.380761],[-3.1667874,53.3117423],[-3.1667866,53.3117419],[-3.1667858,53.3117415],[-3.1667817,53.3117394],[-3.166781,53.311739],[-3.166781,53.311739],[-3.166781,53.311739],[-3.1667759,53.3117364],[-3.1667754,53.3117362],[-3.1667752,53.3117361],[-3.0921524,53.2730634],[-3.0911877,53.2731898],[-3.0836005,53.2732599],[-3.0844209,53.2640251],[-3.0859874,53.2463907],[-3.05,53.22],[-2.95,53.12],[-3.05,53],[-3.08,52.8],[-3.1,52.6],[-3.1,52.4],[-3.05,52.2],[-2.85,51.9],[-2.7,51.75],[-2.6575625,51.6226874],[-2.6214655,51.6475861],[-2.6149987,51.6281305],[-2.6141124,51.6231153],[-2.6147456,51.6180854],[-2.6168759,51.6132167],[-2.6204281,51.6086794],[-2.6252779,51.604632],[-2.6335428,51.5989339],[-2.6383906,51.5960692],[-2.6438886,51.5937008],[-2.6902449,51.5767924],[-2.7485677,51.5175677],[-2.7516295,51.5162108],[-2.7442143,51.5188331],[-2.7360173,51.5205084],[-2.7274492,51.52114],[-2.7188498,51.5207027],[-2.7105602,51.5192141],[-2.6989279,51.5163057],[-2.6989283,51.5163054],[-2.6989283,51.5163054],[-2.7162272,51.4987866],[-2.72666,51.494165],[-2.55,51.45],[-2.36,51.38],[-2.15,51.45],[-2,51.6],[-1.8,51.68],[-1.5,51.7],[-1.25,51.73],[-1.1,51.6],[-0.97,51.48],[-0.835,51.49],[-0.7,51.5],[-0.5,51.45],[-0.3,51.47],[-0.1,51.5],[0,51.5],[0.1,51.5],[0.4,51.47],[0.4071768,51.4704785],[0.3834038,51.453195],[0.4071768,51.4704785],[0.4071768,51.4704785],[0.4112834,51.473464],[0.4454711,51.4983191],[0.4494504,51.4993399],[0.4612918,51.501216],[0.6114141,51.5112237],[0.6224189,51.5110752],[0.7030918,51.503507],[0.7110168,51.5022759],[0.7184291,51.5001407],[0.7250652,51.4971774],[0.7251367,51.4971306],[0.7769155,51.5006731],[0.7867401,51.5020738],[0.7957797,51.5048491],[0.9469365,51.5656072],[0.9543393,51.5693495],[0.9602484,51.574007],[0.9890629,51.6027036],[0.9929981,51.6077036],[0.9951982,51.6130989],[0.9955689,51.61866],[0.9940938,51.6241502],[0.990835,51.6293359],[0.9859309,51.633996],[0.9795897,51.6379321],[0.9727794,51.6406934],[0.9917942,51.6665898],[0.9946768,51.6719303],[0.9957092,51.677526],[0.9956293,51.6780446],[0.9956365,51.6780418],[0.9956365,51.6780418],[0.9956379,51.6780413],[1.0876655,51.6429547],[1.4322063,51.6517972],[1.514884,51.6488743],[1.5605445,51.6416775],[1.6022568,51.6659087],[1.6492646,51.7052876],[1.6840799,51.7492784],[1.7055261,51.7964412],[1.7055279,51.7964472],[1.7483498,51.832725],[1.8166401,51.853467],[1.8896329,51.8891341],[1.9488452,51.9335083],[1.9915746,51.9845977],[2.015838,52.0401017],[2.0566552,52.1988662],[2.1801499,52.3861624],[2.2075942,52.4475554],[2.2107198,52.5111636],[2.1905121,52.6496993],[2.1794932,52.6899867],[2.1585387,52.7288023],[2.0553235,52.8794424],[2.016052,52.9241188],[1.9635552,52.9635713],[1.8996652,52.9963979],[1.5315032,53.1508557],[1.4661381,53.1734334],[1.3953444,53.1891077],[1.3211418,53.1974302],[0.7930965,53.2281794],[0.7896787,53.26627],[0.7700256,53.3146041],[0.6742888,53.4804267],[0.6318825,53.5337225],[0.5904643,53.5653276],[0.5928548,53.5853042],[0.5899634,53.6511697],[0.5803111,53.6998111],[0.5559261,53.746614],[0.517569,53.7900273],[0.3180254,53.9720062],[0.3588367,54.0214461],[0.3819051,54.07576],[0.385409,54.1316989],[0.3691193,54.1868564],[0.333663,54.2388505],[0.2805085,54.2854271],[0.2119131,54.3245598],[0.0000695,54.4219717],[-0.1460482,54.5964059],[-0.1987177,54.6449869],[-0.2680718,54.6859881],[-0.3509779,54.7175307],[-0.771449,54.8413881],[-0.7717909,54.8417979],[-0.8239413,54.8824561],[-0.8553449,54.8991706],[-0.9038684,55.0247944],[-0.9343841,55.0772829],[-1.0598206,55.2355109],[-1.1604374,55.6253214],[-1.1829807,55.6764104],[-1.2227634,55.7240462],[-1.2783165,55.7663995],[-1.347546,55.801838],[-1.427809,55.828992],[-1.4923719,55.846203],[-1.5818034,55.9263281],[-1.5821905,55.9266081],[-1.582115,55.9265402],[-1.580824,55.9253808],[-1.5393319,55.8781956],[-1.5150295,55.8273894],[-1.5087766,55.7749041],[-1.5207381,55.7227378],[-1.5503887,55.6728685],[-1.5965435,55.6271795],[-1.6207206,55.6113749],[-1.6207206,55.6113749],[-1.6207218,55.6113741],[-1.7028122,55.6276083],[-1.7035798,55.6290984],[-1.7082439,55.6340284],[-1.7406297,55.6610559],[-1.7465924,55.6651097],[-1.7538388,55.6684323],[-1.7620925,55.6708968],[-1.7710384,55.6724091],[-1.780335,55.6729115],[-1.789627,55.6723847],[-1.7985597,55.6708489],[-1.8045358,55.6694484],[-1.9476734,55.7968199],[-1.9477133,55.7968488],[-1.9477048,55.7968411],[-1.9477048,55.7968411],[-1.947578,55.7967283],[-1.9433289,55.7919283],[-1.9408521,55.7867509],[-1.9402449,55.7814006],[-1.9415304,55.7760887],[-1.9446571,55.771025],[-1.949501,55.7664093],[-1.9558703,55.7624237],[-1.9625962,55.7596091],[-1.9625962,55.7596091],[-1.9625976,55.7596103],[-1.9625976,55.7596103],[-1.9881767,55.7823647],[-2.0144575,55.8057432],[-2.0144575,55.8057432],[-2.0144575,55.8057432],[-2.0144587,55.8057443],[-2.0144575,55.8057432],[-2.0144575,55.8057432],[-2.0144575,55.8057432],[-1.9881767,55.7823647],[-1.9625976,55.7596103],[-1.9625976,55.7596103],[-1.9625962,55.7596091],[-1.9625962,55.7596091],[-1.9625962,55.7596091],[-1.962596,55.759609],[-1.8234182,55.6358009],[-1.962596,55.759609],[-1.9625962,55.7596091],[-1.9625962,55.7596091],[-1.9625962,55.7596091],[-1.9625976,55.7596103],[-1.9625976,55.7596103],[-1.9881767,55.7823647],[-2.05,55.77],[-2.25,55.64],[-2.3,55.55],[-2.2,55.4],[-2.4,55.3],[-2.55,55.15],[-2.45,55],[-2.3,54.75],[-2.17,54.5],[-2.31,54.51],[-2.45,54.52],[-2.75,54.6],[-2.875,54.51],[-3,54.42],[-3.25,54.28],[-3.3660797,54.2428545],[-3.3398898,54.2204796],[-3.3398877,54.2204778],[-3.3066331,54.1920674],[-3.3398877,54.2204778],[-3.3398898,54.2204796],[-3.3660797,54.2428545],[-3.3660797,54.2428545],[-3.3920348,54.2650288],[-3.3920348,54.2650288],[-3.3660797,54.2428545],[-3.3660797,54.2428545],[-3.3398898,54.2204796],[-3.3398877,54.2204778],[-3.3438765,54.2192016],[-3.3516601,54.2172253],[-3.3599305,54.2161154],[-3.3684085,54.2159093],[-3.3768079,54.216614],[-3.3848451,54.2182058],[-3.3922487,54.2206308],[-3.3987686,54.2238072],[-3.4041531,54.2276056],[-3.4041562,54.2276078],[-3.4041604,54.2276108],[-3.4041553,54.2276054],[-3.3446843,54.176837],[-3.3387709,54.1727276],[-3.3315846,54.169385],[-3.3234103,54.1669417],[-3.3145718,54.1654942],[-3.3054191,54.1651001],[-3.2963144,54.1657748],[-3.2943438,54.1660395],[-3.2877447,54.1108322],[-3.2862142,54.1055711],[-3.2829475,54.1005896],[-3.278073,54.0960823],[-3.2717818,54.0922255],[-3.1745939,54.0432807],[-3.1673249,54.0402777],[-3.1592081,54.0381521],[-3.1505469,54.0369832],[-3.1416648,54.0368147],[-3.1328934,54.0376529],[-3.1245605,54.0394665],[-3.1169772,54.0421878],[-3.1104272,54.0457151],[-3.1051555,54.0499165],[-3.1013594,54.0546352],[-3.0416447,54.1521317],[-3.0386947,54.1484735],[-3.0340583,54.1439363],[-3.028001,54.1400155],[-3.0207557,54.1368617],[-3.0126004,54.1345957],[-3.003848,54.1333046],[-2.9462837,54.128242],[-2.9371608,54.1279739],[-2.928127,54.1287657],[-2.9195372,54.1305863],[-2.911729,54.1333641],[-2.9050095,54.13699],[-2.8740026,54.1573904],[-2.8581491,54.1383537],[-2.8581507,54.1383529],[-3.071804,54.0353235],[-3.1478084,54.0053101],[-3.232347,53.9846981],[-3.322107,53.9742929],[-3.4135825,53.9745005],[-3.5032048,53.985313],[-3.5874734,54.0063083],[-3.663085,54.0366662],[-3.7270579,54.0751983],[-3.7620772,54.1069864],[-3.7621576,54.1070593],[-3.7622706,54.1071619]]]}}
