{"type":"Feature","properties":{"family":"norse","name":"Faroe Islands, Norse settlers, 985 – 1035"},"geometry":{"type":"Polygon","coordinates":[[[-8.0095182,62.1579721],[-8.0017473,62.1049722],[-7.971993,62.0537074],[-7.9516328,62.0345489],[-7.9504737,62.0257519],[-7.9216422,61.9745101],[-7.8721708,61.926889],[-7.8040374,61.8847052],[-7.7199008,61.8495611],[-7.6229936,61.8227869],[-7.5491301,61.8066802],[-7.5328541,61.8000788],[-7.4376017,61.7744259],[-7.4196408,61.7715512],[-7.4187086,61.76993],[-7.3927888,61.7378131],[-7.4162079,61.7209573],[-7.4583155,61.6714522],[-7.4789556,61.6189807],[-7.4774263,61.5656064],[-7.4539002,61.5134179],[-7.428909,61.4859368],[-7.4219994,61.4501166],[-7.3904839,61.3992989],[-7.3389476,61.3523936],[-7.2694407,61.3111899],[-7.0572718,61.2073572],[-6.9732122,61.1733548],[-6.8771666,61.1478445],[-6.7727691,61.1317851],[-6.7714824,61.1317141],[-6.8760676,61.1476997],[-6.9725413,61.1732604],[-7.0569547,61.2073861],[-7.2691109,61.3112335],[-7.3380955,61.3520655],[-7.3894412,61.398515],[-7.4211416,61.4488398],[-7.4319065,61.5011439],[-7.4212241,61.5534472],[-7.3893958,61.60376],[-7.33754,61.6501592],[-7.2675642,61.690863],[-7.1821016,61.7243019],[-7.0844154,61.7491819],[-6.9782719,61.7645374],[-6.8677891,61.7697711],[-6.7565041,61.7697732],[-6.7565035,61.7697727],[-6.7197204,61.7360899],[-6.7137951,61.7317353],[-6.7062235,61.7279969],[-6.6972846,61.7250122],[-6.6873077,61.7228912],[-6.6766599,61.7217118],[-6.6657329,61.7215173],[-6.6549286,61.7223149],[-6.6446441,61.7240754],[-6.635258,61.7267339],[-6.6271157,61.7301926],[-6.6205173,61.7343244],[-6.6157065,61.738977],[-6.5947934,61.7652815],[-6.5579976,61.8115634],[-6.5947915,61.7652839],[-6.5853073,61.7648482],[-6.4820059,61.7503799],[-6.3864267,61.7268988],[-6.3020423,61.6952631],[-6.2318908,61.6566256],[-6.1789188,61.6127662],[-6.1369482,61.6527835],[-6.0782749,61.7251663],[-6.0487738,61.7754609],[-6.04024,61.8275019],[-6.0530985,61.8793453],[-6.0869729,61.9290447],[-6.1205865,61.9576512],[-6.0974698,61.9630878],[-6.0074133,61.9960704],[-5.9328275,62.036727],[-5.8766779,62.0834773],[-5.8577815,62.1107086],[-5.8018446,62.1479322],[-5.7454057,62.1946236],[-5.7097221,62.2455909],[-5.6962988,62.2988377],[-5.7057822,62.3522681],[-5.7379168,62.4037677],[-5.7915365,62.451288],[-5.8645942,62.4929295],[-5.9542311,62.5270202],[-6.0340081,62.5465881],[-6.0661903,62.5671986],[-6.1489811,62.6028752],[-6.2453319,62.6304799],[-6.3515843,62.6489553],[-6.4636735,62.6575919],[-6.5181609,62.6592959],[-6.6299796,62.6578232],[-6.7390979,62.6465553],[-6.7516195,62.6440356],[-6.8647581,62.6423639],[-6.9782457,62.6299884],[-7.0840239,62.6074601],[-7.1377023,62.5892977],[-7.1565308,62.5880834],[-7.1951342,62.5837083],[-7.1998848,62.583909],[-7.31666,62.5779529],[-7.4284,62.561296],[-7.5305086,62.5346254],[-7.618815,62.4990387],[-7.6897516,62.4559958],[-7.7404996,62.4072558],[-7.7610927,62.3695017],[-7.8254723,62.3468039],[-7.9011255,62.3069586],[-7.9583175,62.2609737],[-7.99489,62.2106557],[-8.0095182,62.1579721]],[[-7.3320369,61.6538599],[-7.3261764,61.6806881],[-7.3180096,61.6745425],[-7.3144903,61.6727904],[-7.3285486,61.6558393],[-7.3320369,61.6538599]],[[-7.0758708,62.3208784],[-7,62.3257311],[-6.9174692,62.3310098],[-7,62.3257311],[-7.0758708,62.3208784]],[[-7.0146701,62.1114948],[-7,62.1007042],[-6.8562686,61.9949829],[-7,62.1007042],[-7.0146701,62.1114948]]]}}
