{"type":"Feature","properties":{"family":"norse","name":"Faroe Islands, Norse settlers, 855 – 970"},"geometry":{"type":"Polygon","coordinates":[[[-8.0095182,62.1579721],[-8.0017473,62.1049722],[-7.971993,62.0537074],[-7.9516328,62.0345489],[-7.9504737,62.0257519],[-7.9216422,61.9745101],[-7.8721708,61.926889],[-7.8040374,61.8847052],[-7.7199008,61.8495611],[-7.6229936,61.8227869],[-7.5491301,61.8066802],[-7.5328541,61.8000788],[-7.439885,61.7750421],[-7.4814442,61.7408739],[-7.5168683,61.6916369],[-7.5316263,61.6400913],[-7.5252711,61.5881598],[-7.4981427,61.5377702],[-7.4026478,61.4114968],[-7.3490896,61.3589379],[-7.2733548,61.3131054],[-7.0572896,61.207366],[-6.9728525,61.1732361],[-6.8763428,61.1476741],[-6.7714424,61.1316486],[-6.6621286,61.1257659],[-6.552533,61.1302482],[-6.4467969,61.1449261],[-6.3489271,61.1692446],[-6.2626533,61.2022822],[-6.1912939,61.242784],[-6.1376312,61.2892062],[-6.1038013,61.339772],[-6.091203,61.3925371],[-6.1004309,61.4454628],[-6.1139585,61.4805832],[-6.1135368,61.5056029],[-6.1346358,61.5579232],[-6.1520031,61.5781544],[-6.1521283,61.5962974],[-6.1648697,61.6261806],[-6.1369482,61.6527835],[-6.0782749,61.7251663],[-6.0487738,61.7754609],[-6.04024,61.8275019],[-6.0530985,61.8793453],[-6.0869729,61.9290447],[-6.1205865,61.9576512],[-6.0974698,61.9630878],[-6.0074133,61.9960704],[-5.9328275,62.036727],[-5.8766779,62.0834773],[-5.8577815,62.1107086],[-5.8018446,62.1479322],[-5.7454057,62.1946236],[-5.7097221,62.2455909],[-5.6962988,62.2988377],[-5.7057822,62.3522681],[-5.7379168,62.4037677],[-5.7915365,62.451288],[-5.8645942,62.4929295],[-5.9542311,62.5270202],[-6.0340081,62.5465881],[-6.0661903,62.5671986],[-6.1489811,62.6028752],[-6.2453319,62.6304799],[-6.3515843,62.6489553],[-6.4636735,62.6575919],[-6.5181609,62.6592959],[-6.6299796,62.6578232],[-6.7390979,62.6465553],[-6.7516195,62.6440356],[-6.8647581,62.6423639],[-6.9782457,62.6299884],[-7.0840239,62.6074601],[-7.1377023,62.5892977],[-7.1565308,62.5880834],[-7.1951342,62.5837083],[-7.1998848,62.583909],[-7.31666,62.5779529],[-7.4284,62.561296],[-7.5305086,62.5346254],[-7.618815,62.4990387],[-7.6897516,62.4559958],[-7.7404996,62.4072558],[-7.7610927,62.3695017],[-7.8254723,62.3468039],[-7.9011255,62.3069586],[-7.9583175,62.2609737],[-7.99489,62.2106557],[-8.0095182,62.1579721]],[[-7.0758708,62.3208784],[-7,62.3257311],[-6.9174692,62.3310098],[-7,62.3257311],[-7.0758708,62.3208784]],[[-7.0146701,62.1114948],[-7,62.1007042],[-6.8562686,61.9949829],[-7,62.1007042],[-7.0146701,62.1114948]]]}}
