{"type":"Feature","properties":{"family":"other","name":"Finnic peoples, 1015 – 1035"},"geometry":{"type":"Polygon","coordinates":[[[20.6355643,60.8410801],[20.6550999,60.7874955],[20.6963987,60.736938],[20.7115101,60.725741],[20.6804284,60.6837276],[20.6643061,60.632398],[20.664353,60.6318482],[20.7619304,60.6369237],[20.8739535,60.6313567],[20.981224,60.6146377],[21.0791541,60.5874841],[21.1635832,60.5510579],[21.177635,60.5435939],[21.1952558,60.4942363],[21.1979311,60.4894231],[21.2023778,60.4849379],[21.2084415,60.4809355],[21.2159125,60.4775542],[21.2245324,60.4749106],[21.2911043,60.4584787],[21.3072713,60.4414267],[21.3224952,60.4095069],[21.3193413,60.4090628],[21.310012,60.4067302],[21.2667947,60.3932117],[21.2582363,60.3899006],[21.2582363,60.3899006],[21.25118,60.385822],[21.2459058,60.3811381],[21.2426225,60.3760351],[21.2414595,60.3707155],[21.242462,60.3653907],[21.245589,60.360272],[21.2507157,60.3555623],[21.2576379,60.3514483],[21.2660808,60.3480932],[21.3236568,60.3295317],[21.3331711,60.3270846],[21.3434785,60.3256054],[21.354179,60.3251515],[21.3648576,60.3257405],[21.3751002,60.3273497],[21.381614,60.3291267],[21.3960219,60.2846047],[21.3931848,60.2343197],[21.3920325,60.2316933],[21.4759309,60.2059571],[21.3822869,60.2346828],[21.3720867,60.237116],[21.3610802,60.2384478],[21.3497478,60.2386202],[21.3385842,60.2376255],[21.3280768,60.2355072],[21.2452351,60.2135388],[21.2363029,60.2105684],[21.2287267,60.2067868],[21.2228034,60.2023428],[21.218765,60.1974107],[21.2167691,60.1921842],[21.2168929,60.1868682],[21.2191306,60.1816714],[21.2233935,60.1767973],[21.2295138,60.1724369],[21.2372511,60.1687609],[21.246302,60.1659133],[21.3507435,60.1397903],[21.3656632,60.1336342],[21.4325814,60.0925316],[21.4819543,60.0456909],[21.5119383,59.9949353],[21.5214624,59.9422318],[21.5211056,59.9202825],[21.5107088,59.8696366],[21.4930725,59.8400998],[21.5004737,59.8393278],[21.6072836,59.8335842],[21.7143166,59.8385159],[21.8173822,59.8539314],[21.8904115,59.8733769],[21.8996285,59.8754153],[21.9008317,59.8753185],[21.9008317,59.8753185],[21.9287626,59.8479268],[21.9933577,59.8068243],[22.0725274,59.7727529],[22.1632794,59.7469843],[22.2622143,59.7304784],[22.365648,59.7238495],[22.3997721,59.7250047],[22.4069336,59.712572],[22.4545463,59.6661875],[22.518989,59.6253096],[22.5978051,59.5914618],[22.6880295,59.5659018],[22.7862986,59.5495773],[22.8889694,59.5430933],[22.9922467,59.5466904],[23.3351995,59.5751265],[23.4340649,59.5881459],[23.5263502,59.6103709],[23.6087178,59.6410032],[23.6781645,59.6789391],[23.6895745,59.6882253],[23.7952147,59.6881077],[23.9161074,59.6948248],[24.0310354,59.7150057],[24.0376718,59.7171095],[24.0067774,59.6810485],[24.0064958,59.6806044],[23.9795352,59.6705059],[23.9606849,59.6601826],[23.8889607,59.6514496],[23.7903415,59.6278815],[23.7034083,59.5946579],[23.6601871,59.574273],[23.598034,59.5387303],[23.5916427,59.5379868],[23.4967901,59.5164401],[23.491337,59.5144786],[23.4006226,59.4963049],[23.2269612,59.4503702],[23.1339819,59.4189093],[23.1339819,59.4189093],[23.0561921,59.3782506],[22.9970329,59.330227],[22.9773597,59.3026589],[22.9675731,59.3068477],[22.8820475,59.3312898],[22.7889539,59.3471814],[22.6915749,59.3539615],[22.6117408,59.3556547],[22.5143724,59.3530867],[22.4195831,59.3414208],[22.3306608,59.3210637],[22.2506751,59.2927225],[22.1823668,59.2573792],[22.1405813,59.2257516],[22.0090787,59.2195851],[21.9067146,59.2094122],[21.8103163,59.1890978],[21.7237232,59.1594558],[21.6503581,59.1216703],[21.5930884,59.0772452],[21.5541148,59.0279418],[21.534892,58.9757061],[21.5360832,58.9225902],[21.5575479,58.8706711],[21.5983618,58.8219696],[21.6568665,58.7783731],[21.680545,58.7665893],[21.6310012,58.7584122],[21.5442341,58.7339155],[21.4680695,58.7013525],[21.4052687,58.66192],[21.3580793,58.6170624],[21.3281572,58.568416],[21.3165137,58.5177478],[21.3234893,58.4668903],[21.3487527,58.4176742],[21.3701455,58.3946719],[21.3692297,58.3929907],[21.3460654,58.3593236],[21.331103,58.3075654],[21.3355964,58.2553174],[21.3592894,58.2045595],[21.4012084,58.1572068],[21.4012084,58.1572068],[21.4597096,58.1150386],[21.500143,58.0954],[21.4677303,58.0470296],[21.4538802,57.9915846],[21.4620509,57.9358822],[21.4917875,57.8823297],[21.5370762,57.8238582],[21.6395871,57.8399099],[21.8381495,57.8586025],[21.9784011,57.8956369],[21.9788581,57.8953243],[21.9857701,57.8920621],[21.9936935,57.8895239],[22.0023632,57.8877948],[22.0114894,57.8869324],[22.0207671,57.8869657],[22.0531433,57.8886526],[22.064292,57.8899121],[22.0746416,57.892456],[22.0836705,57.8961562],[22.1935141,57.9524388],[22.3758603,58.0005885],[22.4740221,58.0198012],[22.577588,58.0278912],[22.6820887,58.0245092],[22.7830118,58.009801],[22.8760093,57.9844012],[22.9570955,57.9494038],[23.0228247,57.9063126],[23.0704401,57.8569733],[23.0979867,57.8034913],[23.1043834,57.7481392],[23.1035115,57.7369122],[23.4560433,57.5742833],[23.502285,57.5479685],[23.5053619,57.5486458],[23.5897414,57.5788765],[23.6612839,57.6174815],[23.7170741,57.6629143],[23.7548028,57.7133483],[23.7728659,57.766747],[23.7704409,57.8209445],[23.7636369,57.8496857],[23.758291,57.8623688],[23.765417,57.8605486],[23.8027394,57.8554541],[23.8063625,57.8946462],[23.8224674,57.9499869],[23.8598251,58.0023623],[23.9169016,58.0494986],[23.9788347,58.0826745],[23.9951167,58.0813267],[24.00532,58.0810263],[24.01544,58.0818044],[24.0250706,58.08363],[24.0338255,58.0864297],[24.041353,58.0900914],[24.0473506,58.094468],[24.051577,58.0993838],[24.0538615,58.1046414],[24.0647269,58.1502296],[24.0555481,58.1117179],[24.0797582,58.1201473],[24.1784844,58.1405654],[24.2831315,58.1496981],[24.4162129,58.1534988],[24.4200261,58.2518686],[24.4134045,58.0810495],[24.357521,58.0387702],[24.353622,58.0352856],[24.3507547,58.0315337],[24.265142,57.889114],[24.2687619,57.893546],[24.2745776,57.8979687],[24.2819338,57.9016875],[24.2905364,57.9045533],[24.3000409,57.9064512],[24.3100663,57.9073053],[24.3296013,57.9078635],[24.3296013,57.9078635],[24.3130374,57.8803725],[24.3130374,57.8803725],[24.3130375,57.8803725],[24.3130375,57.8803725],[24.5333333,57.8866667],[24.7666667,57.8933333],[25,57.9],[25.8,57.85],[26.0333333,57.7666667],[26.2666667,57.6833333],[26.5,57.6],[26.7333333,57.5833333],[26.9666667,57.5666667],[27.2,57.55],[27.5,57.55],[27.55,57.725],[27.6,57.9],[27.55,58.1],[27.5,58.3],[27.5333333,58.5],[27.55,58.6],[27.5666667,58.7],[27.6,58.9],[27.7666667,59],[27.85,59.05],[27.9333333,59.1],[28.1,59.2],[28,59.4],[27.9708006,59.4583989],[28.0172802,59.48238],[28.0172802,59.48238],[28.0172802,59.48238],[27.9273474,59.4359793],[27.9194481,59.4517247],[27.9178326,59.4572004],[27.9184486,59.462727],[27.921271,59.4680717],[27.926182,59.4730091],[27.9324211,59.4769783],[27.8553655,59.4372147],[27.4446186,59.4759949],[27.4486915,59.5068954],[27.4809953,59.5629689],[27.5087675,59.5968704],[27.504589,59.6062802],[27.5018537,59.6587697],[27.5193043,59.7105162],[27.5563665,59.7595511],[27.6117049,59.8040008],[27.6832635,59.8421599],[27.6832635,59.8421599],[27.7683364,59.872559],[27.9579667,59.9268608],[28.060634,59.9493423],[28.063574,59.9496441],[28.0699682,59.9530235],[28.1541823,59.9830482],[28.3833802,60.0486806],[28.4827165,60.0706376],[28.5771771,60.0808505],[28.640733,60.1157022],[28.7299517,60.1479238],[28.9388975,60.2077572],[28.818501,60.2769655],[29.0093336,60.1672681],[29.016962,60.1636452],[29.02586,60.1608255],[29.0356904,60.1589159],[29.046081,60.1579885],[29.4129844,60.142801],[29.4242759,60.1429042],[29.4352823,60.1441673],[29.4455265,60.1465358],[29.5401647,60.1746491],[29.6896518,60.1732146],[29.8150276,60.1445332],[29.8169362,60.143319],[29.8174026,60.1430777],[29.8170982,60.1432713],[29.8115435,60.1475894],[29.8077258,60.1523526],[29.8057837,60.1573891],[29.8057882,60.1625168],[29.80774,60.1675506],[29.8115694,60.1723084],[29.8142317,60.1743686],[29.8496985,60.1662538],[29.8596707,60.1599059],[30,60.2],[30.6428571,60.5428571],[30.8571429,60.6571429],[31.5,61],[32.8,61],[33.5,61],[33.9444444,60.9555556],[34.1666667,60.9333333],[34.8333333,60.8666667],[35.0555556,60.8444444],[35.5,60.8],[35.7142857,60.7571429],[35.9285714,60.7142857],[36.1428571,60.6714286],[36.3571429,60.6285714],[36.5714286,60.5857143],[36.7857143,60.5428571],[37,60.5],[37.2142857,60.4285714],[37.4285714,60.3571429],[37.6428571,60.2857143],[37.6428571,60.2857143],[37.8571429,60.2142857],[37.8571429,60.2142857],[38.0714286,60.1428571],[38.2857143,60.0714286],[38.5,60],[39.5,59],[40.2,58],[40.3625,57.85],[40.525,57.7],[40.6875,57.55],[41.0125,57.25],[41.175,57.1],[41.3375,56.95],[41.5,56.8],[41.6666667,56.6333333],[41.8333333,56.4666667],[42,56.3],[42.1666667,56.1333333],[42.3333333,55.9666667],[42.5,55.8],[42.3,55.7],[42.1,55.6],[41.9,55.5],[41.5,55.3],[41.3571429,55.1142857],[41.2142857,54.9285714],[41.0714286,54.7428571],[40.9285714,54.5571429],[40.7857143,54.3714286],[40.6428571,54.1857143],[40.5,54],[40.5,53.2],[40.5,52.6],[40.5,51.0285714],[40.5,51.0285714],[40.5,51.0285714],[40.5,50.9],[40.5,50.5],[42.5,50.5],[44,50.5],[44.2352941,50.5294118],[44.4705882,50.5588235],[44.7058824,50.5882353],[44.9411765,50.6176471],[45.1764706,50.6470588],[45.6470588,50.7058824],[45.8823529,50.7352941],[46.1176471,50.7647059],[46.3529412,50.7941176],[46.8235294,50.8529412],[47.0588235,50.8823529],[47.2941176,50.9117647],[47.5294118,50.9411765],[47.7647059,50.9705882],[48,51],[48.2222222,51.0833333],[48.4444444,51.1666667],[48.6666667,51.25],[48.8888889,51.3333333],[49.1111111,51.4166667],[49.3333333,51.5],[49.5555556,51.5833333],[49.7777778,51.6666667],[50.0246914,51.7592593],[50.2105263,51.8289473],[50.2222222,51.8333333],[50.4444444,51.9166667],[50.6666667,52],[50.8888889,52.0833333],[51.1111111,52.1666667],[51.3333333,52.25],[51.5555556,52.3333333],[51.7777778,52.4166667],[52,52.5],[54,54.5],[54.2333333,54.5666667],[54.4666667,54.6333333],[54.7,54.7],[54.9333333,54.7666667],[55.1666667,54.8333333],[55.4,54.9],[55.6333333,54.9666667],[55.8666667,55.0333333],[56.1,55.1],[56.3333333,55.1666667],[56.5666667,55.2333333],[56.8,55.3],[57.0333333,55.3666667],[57.2666667,55.4333333],[57.5,55.5],[57.7391304,55.5434783],[57.9782609,55.5869565],[58.4565217,55.673913],[58.6956522,55.7173913],[58.9347826,55.7608696],[59.173913,55.8043478],[59.4130435,55.8478261],[59.6521739,55.8913043],[59.8913043,55.9347826],[59.8913043,55.9347826],[60.1304348,55.9782609],[60.3695652,56.0217391],[60.6086957,56.0652174],[60.6086957,56.0652174],[60.8478261,56.1086957],[61.0869565,56.1521739],[61.326087,56.1956522],[61.5652174,56.2391304],[61.8043478,56.2826087],[62.0434783,56.326087],[62.5217391,56.4130435],[62.7608696,56.4565217],[63,56.5],[63,56.2171541],[63,56.2171541],[63.1331187,56.2413392],[63.2173046,56.2590779],[63.2940893,56.2851269],[63.3608401,56.3185985],[63.4152498,56.3583495],[63.4554147,56.4030192],[63.4799028,56.451073],[63.4878088,56.5008544],[63.7759943,69.7051904],[63.7636654,69.7601574],[63.7188682,69.8130088],[63.6432813,69.8614901],[63.5399538,69.9035182],[63.413202,69.9372751],[63.413202,69.9372751],[63.268437,69.9612921],[63.1119276,69.9745187],[61.960102,70.0254439],[61.1922249,70.1204657],[61.0265455,70.1338141],[61.0250349,70.133822],[60.936268,70.1660123],[60.8166363,70.1954686],[60.799582,70.1981796],[60.6877567,70.2531369],[60.5861082,70.2935214],[60.4623515,70.3262426],[60.2697133,70.3671548],[60.2427117,70.3900499],[60.1638385,70.4318688],[59.6589175,70.6480085],[59.5489132,70.6859431],[59.4181044,70.7159018],[59.2716092,70.7366932],[59.1152327,70.7474866],[58.9552183,70.7478486],[58.7979722,70.737763],[58.6497782,70.7176312],[58.4349611,70.6796484],[58.4526501,70.7260357],[58.4415129,70.7784156],[58.399543,70.8290089],[58.3281339,70.875867],[58.1571566,70.9642837],[58.0497265,71.0083171],[57.9158527,71.0439252],[57.7614857,71.0694915],[57.5512408,71.0953941],[56.8837602,71.3771032],[56.8381945,71.445985],[56.778091,71.5033157],[56.4793859,71.7049451],[56.3830398,71.8277022],[56.3703675,71.9144461],[56.3463525,71.9661959],[56.2902958,72.0154439],[56.2354183,72.0440341],[56.2328612,72.0529135],[56.1869739,72.1020902],[56.1113161,72.1476041],[56.0084795,72.1877734],[55.8821296,72.2211035],[55.7368841,72.2463466],[55.5781409,72.2625528],[55.4914183,72.2659724],[55.5107551,72.2598442],[55.5755558,72.1990554],[55.3415534,72.0656578],[55.4531545,72.0589035],[55.4104365,72.0250485],[55.4104365,72.0250485],[55.3788305,72],[51.5047118,72],[51.6083161,72.0909864],[51.8675187,72.1585295],[52.0547205,72.1078722],[52.0655207,72.0741007],[52.1879219,72.1298237],[52.2095221,72.1281351],[52.198722,72.0825435],[52.3679237,72.0757892],[52.4111241,72.0859207],[52.3823238,72.1044951],[52.4111241,72.1281351],[52.3679237,72.1619067],[52.4903249,72.1635953],[52.400324,72.2226955],[52.4831248,72.2091868],[52.4651247,72.2311383],[52.4903249,72.244647],[52.4478393,72.2693193],[51.4819484,72.2693877],[51.3191658,72.2631043],[51.1630877,72.2475777],[51.0193237,72.2233667],[50.8929899,72.1913409],[50.7885126,72.1526462],[50.7094698,72.1086596],[50.6584745,72.060937],[50.5623199,71.930294],[50.5425806,71.8529846],[50.5701153,71.7196762],[50.6134278,71.6506267],[50.6885955,71.5801642],[50.6885325,71.5381645],[50.7259457,71.4825466],[50.7988962,71.4307011],[50.9039179,71.3849037],[51.2106588,71.2761199],[51.332797,71.240268],[51.4174905,71.2238424],[51.4181384,71.2228934],[51.4896776,71.1718573],[51.5919713,71.1267236],[51.7204937,71.0894059],[52.004766,71.0222015],[52.0284835,70.9948691],[52.1025708,70.9475998],[52.2032813,70.9060127],[52.2116047,70.9037028],[52.2492351,70.8641107],[52.3232012,70.8188677],[52.4216473,70.7790768],[52.5409357,70.7461556],[52.5795518,70.7390959],[52.5816031,70.7374943],[52.6749697,70.6926548],[52.7933649,70.6549459],[53.0300979,70.5931022],[53.1660121,70.5641824],[53.3162876,70.5447699],[53.4750969,70.5356128],[53.5364279,70.5361805],[53.5853078,70.5318973],[53.6182991,70.5225442],[53.7536819,70.4971796],[53.9009869,70.4809024],[54.0752812,70.4675734],[54.161853,70.4639448],[54.2579744,70.4379878],[54.3863667,70.4095566],[54.4804213,70.3965072],[54.6090771,70.356191],[54.7394535,70.3228845],[54.8870415,70.2991797],[55.0457841,70.286041],[55.2092213,70.2840011],[55.3707248,70.2931409],[55.5237369,70.3130879],[55.6484706,70.3401063],[55.8489355,70.323526],[56.0093108,70.3158182],[56.074212,70.3171369],[56.1390277,70.3057624],[56.2944299,70.2850617],[56.459205,70.2756527],[56.6263522,70.277933],[56.6543951,70.2803393],[56.7426905,70.2703289],[57.0166399,70.2486702],[57.1685413,70.2416221],[57.321796,70.2444519],[57.4709161,70.2570568],[57.6105459,70.2789831],[57.6221143,70.2818073],[57.6166771,70.251113],[57.6363051,70.2004867],[57.6642493,70.1719756],[57.6663831,70.156412],[57.7025809,70.1060713],[57.7663263,70.0590723],[57.7868788,70.0493829],[57.7870309,70.0463271],[57.822153,69.9929246],[57.887987,69.9431109],[58.0156627,69.8675856],[58.0800342,69.8350743],[58.4021146,69.6943054],[58.5130425,69.6545789],[58.644838,69.6235658],[58.7596778,69.6071741],[58.7480379,69.6074653],[58.6025053,69.6013778],[58.4629048,69.5857212],[58.3344215,69.5610773],[58.2217864,69.5283606],[58.1290913,69.4887813],[58.0596366,69.4437969],[58.0158187,69.3950549],[57.9990592,69.3443296],[58.0097775,69.2934555],[58.0474018,69.2442599],[58.1104161,69.1984984],[58.1538028,69.177991],[57.9737537,69.1476268],[57.9360406,69.144501],[57.8039153,69.1234318],[57.5863283,69.0790863],[57.4608059,69.0467951],[57.3565953,69.0060075],[57.3326333,68.9915326],[57.2669536,68.9823005],[57.1423693,68.953534],[57.0361596,68.9165154],[56.9674119,68.8805591],[56.8698909,68.8964047],[56.7289942,68.9081434],[56.5842671,68.9097615],[56.4746641,68.9032039],[56.2527899,68.9172251],[56.2462811,68.9574645],[56.2100477,69.0078461],[56.1471729,69.054718],[56.0598869,69.0962988],[55.9514002,69.1309983],[55.8139961,69.1668053],[55.6811999,69.1943039],[55.5351187,69.2115389],[55.381978,69.2177718],[55.2283369,69.2127341],[55.1666483,69.2060236],[55.1107244,69.2225754],[55.1002218,69.2250497],[55.0603668,69.2344395],[54.9232465,69.2598768],[54.7740539,69.2747647],[54.6192062,69.2784599],[54.4653913,69.2708014],[54.4517272,69.269061],[54.1115496,69.2702264],[53.9848633,69.2667327],[53.8615996,69.2557257],[53.1887907,69.1720926],[53.0069237,69.1384722],[51.89263,68.8503936],[51.7654558,68.8075074],[51.763288,68.8063266],[51.4873025,68.7501183],[51.3571055,68.7622788],[51.2164991,68.7701808],[51.0742269,68.7680902],[50.9356964,68.7560857],[50.8061587,68.7346219],[50.6904911,68.7045112],[50.3650413,68.6002986],[50.3364557,68.5937065],[50.2370127,68.5599932],[49.6945641,68.3354086],[49.681314,68.3337804],[49.5562179,68.3073116],[48.990486,68.1561214],[48.8750359,68.1806617],[48.735544,68.1974823],[48.5896378,68.203368],[48.4435033,68.1980684],[48.303338,68.1818076],[48.1750619,68.1552735],[48.0640463,68.1195861],[47.9748756,68.0762465],[47.911155,68.0270688],[47.8753724,67.9740998],[47.8688175,67.9195306],[47.8722501,67.9114063],[47.8722501,67.9114063],[47.7869458,67.9019102],[47.6646977,67.8778141],[47.4583551,67.8266867],[47.4131682,67.8128163],[47.4230644,67.8480308],[47.4205222,67.9129749],[47.3767185,67.9757746],[47.2714445,68.0749952],[47.2714445,68.0749952],[47.2678193,68.1112518],[47.2582496,68.1375767],[47.2584954,68.1387253],[47.2439271,68.1888904],[47.2043986,68.2371439],[47.1411578,68.2817798],[47.0563246,68.321211],[46.6910312,68.4601526],[46.6583362,68.5110075],[46.6060492,68.5652623],[46.5232128,68.6141615],[46.4134874,68.6554373],[46.2818622,68.6871642],[45.915427,68.7554126],[45.7811346,68.7744322],[45.6390734,68.7835531],[44.1704627,68.818328],[43.6329206,68.9109113],[43.5027605,68.927867],[43.3660318,68.9357747],[43.2275788,68.9343541],[43.092313,68.9236553],[42.9650216,68.9040573],[42.9214978,68.8955276],[42.8072071,68.8678283],[42.7092185,68.8329628],[42.6308622,68.7921446],[42.5747414,68.7467875],[42.5426521,68.698454],[42.5355387,68.6487991],[42.5534813,68.5995122],[42.595715,68.5522601],[42.6471803,68.5085547],[42.7223213,68.4593522],[42.8232924,68.4169254],[43.4828869,68.1882258],[43.4688287,68.0935167],[43.4307306,68.0426393],[43.4200392,67.9895993],[43.4218517,67.9840486],[43.4155729,67.9741992],[43.3885416,67.9424059],[43.3728309,67.8894161],[43.3850586,67.8363013],[43.3999103,67.8063598],[43.3873791,67.7898094],[43.3823378,67.779427],[43.3733718,67.7723531],[43.3383044,67.7174056],[43.3105889,67.6380701],[43.1289015,67.428638],[43.0965227,67.3688583],[43.0675601,67.2471501],[43.067572,67.197808],[43.0906845,67.1492929],[43.1359959,67.1032182],[43.2018889,67.0611075],[43.2860976,67.0243463],[43.385791,66.9941382],[43.7265222,66.9083346],[43.7464107,66.8961947],[43.7371401,66.8896239],[43.6957671,66.8377712],[43.6817262,66.7837096],[43.6954122,66.7296397],[43.7343959,66.6799214],[43.7185032,66.6507603],[43.715546,66.6394165],[43.6079868,66.6667138],[43.4830814,66.6859135],[43.3594131,66.694358],[43.3435349,66.7443407],[43.3090217,66.8035844],[43.2691519,66.8510668],[43.2075226,66.8948104],[43.1261768,66.9332887],[43.0278836,66.965152],[42.8867911,67.0026315],[42.7724818,67.027025],[42.6483084,67.0424886],[42.5188199,67.0484543],[42.3887795,67.0447025],[42.2629721,67.0313712],[42.1460126,67.0089505],[42.0421624,66.9782624],[41.9664582,66.9510311],[41.8751983,66.9107562],[41.8064294,66.8641312],[41.7628078,66.8130463],[41.7459342,66.759561],[41.7490573,66.743414],[41.7463465,66.7427599],[41.6465688,66.7060594],[41.5675076,66.662196],[41.115207,66.343932],[40.9925268,66.2991443],[40.4837517,66.2251668],[40.3500204,66.1981801],[40.2348469,66.1597651],[40.1440435,66.1118917],[39.9620378,65.9887127],[39.3155468,65.7545904],[39.2205826,65.7111044],[39.1509247,65.6601801],[39.1097395,65.6042453],[39.0720741,65.5213492],[39.0611738,65.4791961],[39.066318,65.4368508],[39.1014124,65.3238602],[39.1293931,65.2728308],[39.1293931,65.2728308],[39.1802435,65.225003],[39.5550798,64.9443773],[39.5550798,64.9443773],[39.5615373,64.9404419],[39.5158577,64.915802],[39.5149104,64.9150171],[39.5082392,64.9133712],[39.4871679,64.9069194],[38.8128536,65.043375],[38.7781542,65.0575323],[38.6702168,65.0865244],[38.5505815,65.1057923],[38.4241479,65.1145443],[38.2862402,65.1180738],[38.2569785,65.1459893],[38.2569785,65.1459893],[38.2039285,65.1866071],[38.1349488,65.2227896],[38.0520518,65.2534499],[37.9576941,65.2776641],[37.2870492,65.4156561],[37.1720143,65.4335178],[37.0508731,65.4419457],[36.9280962,65.440629],[36.8082192,65.4296168],[36.6194051,65.4040405],[36.5389128,65.3893759],[36.4341311,65.4106063],[36.2127047,65.4446899],[36.0871049,65.4581125],[35.9575688,65.4607844],[35.8294243,65.4525963],[35.7079363,65.4338854],[35.5980727,65.4054202],[35.5042871,65.3683663],[35.43033,65.3242352],[35.3804698,65.2869057],[35.3295895,65.2377225],[35.3279295,65.234442],[35.3166316,65.229722],[35.2489041,65.1880952],[35.1735219,65.1306595],[35.121518,65.0785638],[35.0965959,65.0230287],[35.0996887,64.966508],[35.111074,64.9290442],[35.1394334,64.8769415],[35.1912896,64.8282095],[35.2645106,64.7847406],[35.3561741,64.7482146],[35.4626886,64.7200372],[35.5799326,64.7012894],[35.7034059,64.6926888],[35.8283903,64.6945647],[35.9214688,64.7039654],[35.9393578,64.6687919],[35.8956858,64.6719707],[35.768237,64.6700349],[35.756577,64.6688177],[35.7099366,64.6751865],[35.5851926,64.6809911],[35.4602775,64.676013],[35.4304817,64.6721605],[35.387418,64.6905369],[35.2824441,64.7201655],[35.1656401,64.7402333],[35.0709986,64.747635],[35.0714741,64.7465822],[35.0715075,64.7415336],[35.0693349,64.7365714],[35.0650336,64.7318695],[35.0587552,64.7275924],[35.0507204,64.7238899],[35.0412109,64.7208915],[34.9231118,64.6904185],[35.0273711,64.6279281],[35.033742,64.6231231],[35.033742,64.6231231],[35.037693,64.6178631],[35.0390596,64.6123693],[35.0377859,64.6068721],[35.033927,64.6016023],[35.0276461,64.5967808],[35.0192077,64.5926097],[34.9091334,64.5481995],[35.03865,64.5177202],[35.0485243,64.5148314],[35.0569459,64.5111896],[35.0636092,64.5069272],[35.0682732,64.5021989],[35.0707695,64.4971766],[35.071009,64.4920423],[35.068984,64.4869822],[35.0647693,64.4821799],[35.0585187,64.4778091],[35.0522878,64.4742098],[35.0517189,64.473034],[35.0542631,64.4782925],[35.0543367,64.483665],[35.0519354,64.4889382],[35.0471532,64.4939027],[35.0401789,64.4983611],[35.031289,64.5021362],[35.031289,64.5021362],[35.0208363,64.5050777],[35.0092365,64.5070687],[34.9969511,64.5080298],[34.9844693,64.5079228],[34.972288,64.506752],[34.9625104,64.5048746],[35,64.4960825],[35.0085501,64.4940773],[35,64.4873933],[34.9545496,64.4518629],[34.9545495,64.4518629],[34.9920162,64.4811521],[34.9920163,64.4811522],[34.85,64.4],[34.5,64.2],[34.2857143,64.1428571],[34.0982143,64.0928571],[34.0714286,64.0857143],[34.0408164,64.077551],[33.8571429,64.0285714],[33.75,64],[33.6428571,63.9714286],[33.4591836,63.922449],[33.4285714,63.9142857],[33.4017857,63.9071429],[33.2142857,63.8571429],[33,63.8],[32.3571429,63.7571429],[32.25,63.75],[32.1428571,63.7428571],[31.5,63.7],[30.8571429,63.7428571],[30.75,63.75],[30.6428571,63.7571429],[30.2142857,63.7857143],[30.1798656,63.788009],[30.1798655,63.788009],[30,63.8],[29.7857143,63.8428571],[29.6428572,63.8714286],[29.5714286,63.8857143],[29.4642857,63.9071429],[29.3571429,63.9285714],[29.25,63.95],[29.1428571,63.9714286],[29.0357142,63.9928572],[28.9285714,64.0142857],[28.8571429,64.0285714],[28.7142857,64.0571429],[28.5,64.1],[28.2857143,64.1714286],[28.1785714,64.2071429],[28.0714286,64.2428571],[27.857143,64.3142857],[27.8571429,64.3142857],[27.6904762,64.3698413],[27.6428571,64.3857143],[27.6428571,64.3857143],[27.6428571,64.3857143],[27.4285714,64.4571429],[27.3214285,64.4928572],[27.2142857,64.5285714],[27,64.6],[26.3571429,64.7928571],[26.25,64.825],[26.1428571,64.8571429],[25.5,65.05],[25.4046624,65.0480932],[25.3803614,65.0729012],[25.3778228,65.072529],[25.3672783,65.0699486],[25.3580992,65.0665713],[25.3506201,65.0625207],[25.3451131,65.0579444],[25.3417782,65.0530096],[25.3407356,65.047896],[25.342022,65.0427901],[25.3455894,65.0378778],[25.3555778,65.0277053],[25.3460172,65.0374421],[25.3455708,65.0377917],[25.3074364,65.0766492],[25.1868285,65.09926],[25.1753996,65.1020196],[25.1655505,65.1057046],[25.1576976,65.1101595],[25.1521734,65.1151963],[25.1492127,65.1206023],[25.1489421,65.1261489],[25.1513746,65.1316017],[25.2195703,65.2278786],[25.2241437,65.2326152],[25.2307682,65.2369055],[25.2363519,65.2393471],[25.2255401,65.2471281],[25.220252,65.2519797],[25.2173453,65.2571721],[25.2169351,65.2625025],[25.2190388,65.2677627],[25.2449798,65.3076765],[25.1979802,65.301805],[25.1531623,65.3067357],[25.0226945,65.3096862],[25.013504,65.3095016],[24.8944507,65.3071081],[24.833073,65.303254],[24.7724023,65.304654],[24.5345384,65.2998717],[24.4113943,65.2922358],[24.2942561,65.2747919],[24.1875926,65.2482095],[24.0954397,65.213505],[24.0212407,65.1720001],[23.9677172,65.1252684],[23.936774,65.0750722],[23.9294428,65.0232942],[23.9458613,64.9718654],[23.9789924,64.9305591],[23.9724916,64.9261826],[23.9283657,64.8772739],[23.9111715,64.8344859],[23.8942404,64.8233566],[23.8425741,64.7816899],[23.8089885,64.7368126],[23.7734574,64.6690266],[23.5651532,64.581767],[23.4776554,64.5356094],[23.4163095,64.4822974],[23.3773813,64.4359991],[23.3702552,64.4327692],[23.1327382,64.2992792],[23.1044431,64.2942478],[23.0028254,64.264916],[22.916714,64.2274919],[22.8494365,64.1834532],[22.8035402,64.1345305],[22.7853919,64.0933065],[22.7042603,64.0721559],[22.607605,64.0323183],[22.5976751,64.0272196],[22.5940551,64.0263946],[22.5113841,64.0159514],[22.3949903,63.9953218],[22.2908663,63.9647236],[22.2034049,63.9254637],[22.1533625,63.8910168],[22.0955784,63.8626535],[22.0339295,63.8161728],[22.0075695,63.7818699],[22.007042,63.7816123],[21.977146,63.7587967],[21.8789382,63.727409],[21.79634,63.6875127],[21.7337523,63.6410963],[21.7227049,63.6270597],[21.7093972,63.6203363],[21.7093972,63.6203363],[21.7003947,63.6185353],[21.6093542,63.5904458],[21.5316013,63.55544],[21.4697337,63.5147129],[21.4257806,63.4696488],[21.4129563,63.4522543],[21.3820585,63.4452401],[21.2835735,63.417139],[21.1993464,63.381049],[21.1325479,63.3383557],[21.1089003,63.3143234],[21.1825943,63.3112685],[21.1776647,63.3139656],[21.1721143,63.3186293],[21.1686968,63.3236906],[21.1675446,63.3289551],[21.1687033,63.3342202],[21.1721296,63.3392833],[21.1776928,63.3439495],[21.1851795,63.348039],[21.1943019,63.3513942],[21.3131545,63.3868827],[21.323498,63.3893495],[21.3347114,63.3908715],[21.3463692,63.3913909],[21.3580287,63.390888],[21.3692472,63.3893819],[21.3795988,63.3869299],[21.3886908,63.3836248],[21.3961788,63.3795923],[21.4017793,63.3749852],[21.4305315,63.3445793],[21.4338833,63.3398665],[21.4352591,63.3349574],[21.4346138,63.3300173],[21.4319699,63.3252125],[21.4274175,63.3207046],[21.4274175,63.3207046],[21.3705543,63.2757634],[21.4283273,63.273043],[21.4400178,63.2719515],[21.4509921,63.2698379],[21.4608138,63.2667866],[21.4690926,63.2629187],[21.4755001,63.258388],[21.4797827,63.2533747],[21.4817713,63.2480778],[21.4826059,63.2425298],[21.4927904,63.2439307],[21.5038699,63.2444814],[21.5149822,63.2440971],[21.6458713,63.2338649],[21.6447016,63.2321967],[21.6405153,63.2319477],[21.6290865,63.2301673],[21.6186919,63.2273927],[21.6097564,63.2237374],[21.6026446,63.2193509],[21.5976464,63.2144124],[21.5976464,63.2144124],[21.594709,63.2104855],[21.7190745,63.2007633],[21.6543664,63.2058218],[21.5681941,63.0909254],[21.5681941,63.0909254],[21.5681941,63.0909254],[21.5588156,63.0959353],[21.5732157,63.1229526],[21.5311976,63.1255803],[21.5116771,63.0994843],[21.5089977,63.0941145],[21.5088065,63.0886111],[21.5111102,63.0832055],[21.511858,63.0823974],[21.5082047,63.0813312],[21.5000027,63.0777742],[21.4934541,63.0735788],[21.4891502,63.0692529],[21.4940149,63.0722952],[21.5452156,63.0602875],[21.5,63],[21.4285714,62.7857143],[21.3571429,62.5714286],[21.3333334,62.5000001],[21.2857143,62.3571429],[21.2836162,62.3508485],[21.3392134,62.3563385],[21.2708127,62.3495842],[21.2708127,62.4103729],[21.2353366,62.3826398],[21.2261241,62.3548377],[21.2255344,62.3496673],[21.2271045,62.3445413],[21.230775,62.3396502],[21.2364084,62.3351758],[21.2437949,62.3312843],[21.2526594,62.32812],[21.2626728,62.3258006],[21.2708856,62.3247436],[21.2705676,62.3242483],[21.2653452,62.3196253],[21.2583081,62.315555],[21.24972,62.3121898],[21.2399023,62.3096552],[21.2292221,62.3080462],[21.2180785,62.3074226],[21.2068876,62.3078078],[21.1960674,62.3091875],[21.186022,62.31151],[21.177127,62.3146887],[21.1697152,62.3186047],[21.1697152,62.3186047],[21.140901,62.337169],[21.1355343,62.3413842],[21.1318975,62.3459816],[21.1301113,62.3508097],[21.1302356,62.3557092],[21.1348886,62.3766537],[21.1348258,62.3766505],[21.1235938,62.3770782],[21.1127523,62.3785029],[21.1027081,62.380871],[21.093838,62.3840938],[21.0864753,62.3880503],[21.0808968,62.392592],[21.077313,62.3975486],[21.0758593,62.4027337],[21.0765917,62.4079526],[21.0920479,62.4517153],[21.079746,62.455558],[21.0710204,62.4588973],[21.0638555,62.4629548],[21.0585222,62.4675776],[21.0552228,62.4725913],[21.0540827,62.4778065],[21.0551463,62.4830263],[21.0583744,62.4880535],[21.0916049,62.5258154],[21.0743578,62.541961],[21.0703037,62.54694],[21.0684472,62.5521904],[21.0688616,62.5575079],[21.0715321,62.5626855],[21.0763557,62.5675216],[21.08056,62.5701882],[21.0754315,62.5695326],[21.0636515,62.5691595],[21.0519509,62.5698831],[21.0408052,62.5716741],[21.0306671,62.5744595],[21.0219488,62.5781264],[21.0150052,62.5825257],[21.0101194,62.5874784],[21.0074913,62.5927833],[21.007229,62.5982244],[21.0214647,62.6809702],[21.0238368,62.68671],[21.0288455,62.6920819],[21.0362572,62.6968337],[21.0923635,62.7255811],[21.056687,62.773061],[21.0540634,62.7780394],[21.0535436,62.7831561],[21.0551475,62.7882264],[21.0588183,62.7930675],[21.0644244,62.7975046],[21.0717641,62.8013773],[21.080573,62.8045457],[21.0905329,62.8068954],[21.1012841,62.8083413],[21.1124377,62.8088311],[21.140514,62.8088357],[21.1853796,62.8773864],[21.1895543,62.882087],[21.1955849,62.8863489],[21.2032587,62.8900213],[21.2123046,62.8929742],[21.2224028,62.8951029],[21.2331956,62.8963321],[21.3412322,62.9037646],[21.3643296,62.9484477],[21.3676999,62.9530532],[21.3728302,62.9573099],[21.379555,62.9610801],[21.3876568,62.9642413],[21.3968733,62.9666911],[21.3979468,62.9669202],[21.3809275,63.0354862],[21.3807074,63.0404584],[21.382504,63.0453652],[21.3862572,63.0500398],[21.3918403,63.054323],[21.4458134,63.0881133],[21.4538467,63.0921917],[21.4635308,63.0954539],[21.4744683,63.0977655],[21.4862095,63.0990316],[21.4982719,63.0992002],[21.499889,63.0990729],[21.5004185,63.1007527],[21.4998161,63.1008176],[21.4893292,63.1029791],[21.4799579,63.1060135],[21.4720522,63.1098078],[21.465908,63.1142201],[21.4617558,63.1190857],[21.4597516,63.1242226],[21.4524646,63.1664337],[21.45265,63.1715168],[21.4540449,63.1745428],[21.4486775,63.1734444],[21.4378506,63.172253],[21.4267241,63.171989],[21.4156839,63.1726614],[21.3833359,63.1760372],[21.2843933,63.1309998],[21.2749955,63.127507],[21.2642301,63.124947],[21.252544,63.1234261],[21.2404213,63.1230072],[21.2283647,63.1237077],[21.2168737,63.1254985],[21.2064247,63.1283054],[21.1974512,63.1320121],[21.190326,63.1364649],[21.1650315,63.1562292],[21.1552206,63.1552601],[21.1432687,63.1551795],[21.1315224,63.156175],[21.1204513,63.1582068],[21.1104981,63.1611938],[21.1020613,63.1650164],[21.0954791,63.1695218],[21.0910158,63.1745296],[21.048715,63.2401134],[21.0015217,63.1754816],[20.9943075,63.1604977],[20.9795274,63.1453653],[20.9795274,63.1453653],[20.9353758,63.0849138],[20.9117807,63.0395095],[20.7080157,62.3896587],[20.7030174,62.3379473],[20.7195716,62.2867594],[20.738324,62.2623208],[20.7369812,62.254939],[20.7386161,62.2021712],[20.738776,62.2018252],[20.7205113,62.1689507],[20.6690188,62.0319946],[20.6606735,61.9780736],[20.6606735,61.9780736],[20.6755895,61.9244749],[20.7130453,61.8733638],[20.7714288,61.8267945],[20.8483171,61.7866305],[20.9001271,61.7644543],[20.8987909,61.7551017],[20.9102036,61.7073241],[20.9394408,61.6612774],[20.9480481,61.65328],[20.9276666,61.6213603],[20.9254133,61.6110161],[20.896133,61.583974],[20.8656789,61.5328988],[20.8570473,61.4799959],[20.8704646,61.4273348],[20.8859416,61.404979],[20.8843531,61.3893524],[20.8958063,61.3533228],[20.8884588,61.3484459],[20.8318395,61.3014232],[20.7962635,61.2499333],[20.7830847,61.1960912],[20.7884256,61.1662129],[20.7845355,61.1627088],[20.7529278,61.1126444],[20.7438996,61.0690194],[20.7107983,61.0305676],[20.6965213,60.9967301],[20.6698004,60.9640974],[20.6605558,60.9404218],[20.6387016,60.8954987],[20.6355643,60.8410801]],[[21.0710437,63.0020196],[21.0724737,63.0072803],[21.0761423,63.0123134],[21.0819088,63.0169244],[21.0895512,63.0209349],[21.0895512,63.0209349],[21.0987746,63.0241898],[21.1092225,63.0265632],[21.1204908,63.0279632],[21.1321432,63.0283355],[21.1437286,63.0276658],[21.2085854,63.0209054],[21.2199176,63.019159],[21.2302447,63.0164159],[21.2391469,63.0127878],[21.2462627,63.0084223],[21.2513037,63.0034967],[21.2540662,62.9982112],[21.2683687,62.949236],[21.2687458,62.9438554],[21.2667673,62.9385468],[21.2625135,62.9335216],[21.2561545,62.92898],[21.2479445,62.9251025],[21.2479445,62.9251025],[21.2382104,62.9220433],[21.2273398,62.9199241],[21.2157647,62.9188291],[21.2039452,62.9188017],[21.1923509,62.919843],[21.1312001,62.9282784],[21.1211114,62.9301435],[21.1119435,62.9328177],[21.1040059,62.936211],[21.0975669,62.9402088],[21.0928445,62.9446762],[21.0899991,62.9494622],[21.0719064,62.9967345],[21.0710437,63.0020196]],[[21.202412,60.8889648],[21.2024122,60.8889648],[21.299613,60.8957191],[21.2024122,60.8889648],[21.202412,60.8889648]],[[21.2276123,60.5596922],[21.2276123,60.5596923],[21.2276123,60.5596922],[21.2492125,60.4989035],[21.2276123,60.5596922]],[[21.2708127,60.1898938],[21.2708128,60.1898938],[21.3536135,60.2118453],[21.2708128,60.1898938],[21.2708127,60.1898938]],[[21.2708127,60.6424325],[21.299613,60.5681352],[21.299613,60.5681351],[21.299613,60.5681352],[21.2708127,60.6424325]],[[21.3140131,62.2313838],[21.3140132,62.2313838],[21.3688685,62.2631674],[21.3140132,62.2313838],[21.3140131,62.2313838]],[[21.3428134,61.1912202],[21.3428135,61.1912202],[21.4220142,61.176023],[21.4220142,61.176023],[21.4220142,61.176023],[21.3428135,61.1912202],[21.3428134,61.1912202]],[[21.3536135,60.2118453],[21.4472144,60.1831395],[21.4472145,60.1831395],[21.4472144,60.1831395],[21.3536135,60.2118453]],[[21.3673468,62.2539291],[21.3752137,62.2668439],[21.3752138,62.2668439],[21.3673468,62.2539291]],[[21.3860139,60.7521901],[21.386014,60.7521901],[21.4285868,60.7417717],[21.386014,60.7521901],[21.3860139,60.7521901]],[[21.4220142,60.7251728],[21.4220142,60.7251728],[21.4688146,60.7319271],[21.4688147,60.7319271],[21.4220142,60.7251728],[21.4220142,60.7251728]],[[21.4436144,61.1692687],[21.4436145,61.1692687],[21.4557518,61.1595093],[21.4436145,61.1692687],[21.4436144,61.1692687]],[[21.4472145,61.4022923],[21.4472145,61.4022923],[21.5732156,61.4158009],[21.5732157,61.4158009],[21.4472145,61.4022923],[21.4472145,61.4022923]],[[21.4832148,60.1155964],[21.4832149,60.1155964],[21.5588154,60.1223507],[21.5588156,60.1223507],[21.4832149,60.1155964],[21.4832148,60.1155964]],[[21.5115823,61.5628601],[21.7172172,61.527247],[21.7172171,61.527247],[21.5115823,61.5628601]],[[21.5569761,61.7038445],[21.5876158,61.6977934],[21.5876159,61.6977933],[21.5569761,61.7038445]],[[21.594076,63.0770996],[21.6884169,63.0267037],[21.6884167,63.0267037],[21.594076,63.0770996]],[[21.7424174,60.1898938],[21.8864188,60.1763852],[21.8864189,60.1763852],[21.8864188,60.1763852],[21.7424174,60.1898938]],[[21.7928179,60.3739488],[21.792818,60.3739488],[21.89928,60.3273423],[21.792818,60.3739488],[21.7928179,60.3739488]],[[21.8324183,58.511448],[21.8324184,58.511448],[21.9944199,58.5131366],[21.8324184,58.511448],[21.8324184,58.511448],[21.8324183,58.511448]],[[21.8720187,58.3409017],[21.8720188,58.3409017],[21.9440194,58.3189502],[21.8720188,58.3409017],[21.8720187,58.3409017]],[[21.9584196,63.3323361],[21.9584196,63.3323362],[21.99802,63.384682],[21.9584196,63.3323362],[21.9584196,63.3323361]],[[21.9728197,63.2867446],[21.9728198,63.2867446],[22.02751,63.28308],[21.9728198,63.2867446],[21.9728197,63.2867446]],[[22.0424867,63.363466],[22.0952209,63.3829935],[22.095221,63.3829935],[22.0952209,63.3829935],[22.0424867,63.363466]],[[22.0556206,58.9521667],[22.4624245,58.970741],[22.4624246,58.970741],[22.0556206,58.9521667]],[[22.1949035,60.3028979],[22.3400233,60.2861427],[22.3400234,60.2861427],[22.3400233,60.2861427],[22.1949035,60.3028979]],[[22.2104221,60.205091],[22.2104222,60.205091],[22.2541935,60.2265144],[22.2104222,60.205091],[22.2104221,60.205091]],[[22.3184232,60.1645652],[22.3868238,60.1949596],[22.3868239,60.1949596],[22.3868238,60.1949596],[22.3184232,60.1645652]],[[22.3672728,63.4376568],[22.401224,63.4184536],[22.4012239,63.4184536],[22.3672728,63.4376568]],[[22.3940239,60.2928971],[22.4768247,60.3216029],[22.4768248,60.3216029],[22.4768247,60.3216029],[22.3940239,60.2928971]],[[22.4156242,60.149368],[22.599226,60.1426137],[22.5992259,60.1426137],[22.4156242,60.149368]],[[22.4228242,60.1155964],[22.4228243,60.1155964],[22.5251651,60.1312707],[22.4228243,60.1155964],[22.4228242,60.1155964]],[[22.4408244,58.9842497],[22.4408245,58.9842497],[22.4473132,58.9801916],[22.4408245,58.9842497],[22.4408244,58.9842497]],[[22.5041402,63.6169977],[22.5452255,63.5754913],[22.5452254,63.5754913],[22.5041402,63.6169977]],[[22.5236252,60.205091],[22.5236253,60.205091],[22.6496264,60.2793884],[22.6496265,60.2793884],[22.5236253,60.205091],[22.5236252,60.205091]],[[22.5242293,60.0192415],[22.5920259,60.0463648],[22.5920259,60.0463647],[22.5242293,60.0192415]],[[22.8332283,63.7257746],[22.8332284,63.7257746],[22.9268293,63.7426604],[22.8332284,63.7257746],[22.8332283,63.7257746]],[[22.8440284,60.0818249],[22.8440285,60.0818249],[22.8600115,60.0823419],[22.8440285,60.0818249],[22.8440284,60.0818249]],[[22.8548285,60.041299],[22.8548286,60.041299],[22.8836287,60.0480533],[22.8836288,60.0480533],[22.8548286,60.041299],[22.8548285,60.041299]],[[22.8548285,60.0548077],[22.8548286,60.0548077],[22.8653925,60.0523302],[22.8548286,60.0548077],[22.8548285,60.0548077]],[[22.8578503,60.0157871],[22.8584286,60.0109047],[22.8584286,60.0109046],[22.8584286,60.0109047],[22.8578503,60.0157871]],[[22.9116689,60.066232],[22.9268292,60.0649391],[22.9268293,60.0649391],[22.9268292,60.0649391],[22.9116689,60.066232]],[[23.0009311,63.7634004],[23.00243,63.7629234],[23.00243,63.7629233],[23.0009311,63.7634004]],[[23.0155057,60.096917],[23.0456304,60.1223507],[23.0456305,60.1223507],[23.0155057,60.096917]],[[23.0348303,60.0446762],[23.0348303,60.0446762],[23.2580326,60.0396105],[23.2580325,60.0396105],[23.0348303,60.0446762],[23.0348303,60.0446762]],[[23.1927549,58.0918925],[23.1928299,58.0919147],[23.2676203,58.1251553],[23.2827222,58.1349944],[23.2898955,58.136657],[23.361329,58.1621837],[23.3710654,58.1556673],[23.4350112,58.1274718],[23.4322355,58.1017382],[23.4415728,58.0668221],[23.3763266,58.0811339],[23.2816194,58.0913831],[23.1927549,58.0918925]],[[23.2591597,58.4459532],[23.2796327,58.4371506],[23.2796328,58.4371506],[23.2796327,58.4371506],[23.2591597,58.4459532]],[[23.2628373,59.9662796],[23.3336333,60.029479],[23.3336332,60.0294789],[23.2628373,59.9662796]],[[23.3696337,63.9469783],[23.3696337,63.9469783],[23.4164342,63.9250268],[23.4164341,63.9250268],[23.3696337,63.9469783],[23.3696337,63.9469783]],[[23.4308343,59.9568702],[23.4308344,59.9568702],[23.5748357,59.9771331],[23.4308344,59.9568702],[23.4308343,59.9568702]],[[23.4745668,59.1999825],[23.5172352,59.0737443],[23.5172351,59.0737443],[23.4745668,59.1999825]],[[23.5604356,59.0534813],[23.5604357,59.0534813],[23.6144361,59.0112669],[23.5604356,59.0534813]],[[23.6513221,59.2552708],[23.7296373,59.230782],[23.7296373,59.2307819],[23.6513221,59.2552708]],[[23.798038,58.7849975],[23.8736384,58.771489],[23.8736387,58.7714889],[23.798038,58.7849975]],[[24.00324,58.1078781],[24.0140401,58.1534696],[24.0140401,58.1534697],[24.0140401,58.1534696],[24.00324,58.1078781]],[[24.4172442,59.9906417],[24.4172442,59.9906417],[24.4460444,60.0480533],[24.4460445,60.0480533],[24.4172442,59.9906417],[24.4172442,59.9906417]],[[24.497348,65.0370953],[24.4982231,65.0423118],[24.4982231,65.0423118],[24.5014675,65.0473592],[24.5069604,65.0520477],[24.5144964,65.0562009],[24.6080875,65.0984448],[24.6180478,65.1020914],[24.6295733,65.1048007],[24.6421742,65.1064574],[24.8223484,65.12167],[24.8351055,65.1221888],[24.8478523,65.1216288],[24.8600781,65.1200124],[24.9069144,65.1115616],[24.9178081,65.1090408],[24.9273379,65.1056815],[24.9273379,65.1056815],[24.9351452,65.1016104],[24.9409364,65.0969809],[24.9444945,65.0919674],[24.9456869,65.0867588],[24.9456802,65.0839897],[25.000168,65.0815057],[25.0174919,65.0796541],[25.0859463,65.067823],[25.096753,65.0654196],[25.1062765,65.0621933],[25.1141693,65.058262],[25.1201439,65.0537693],[25.1239832,65.0488792],[25.1255482,65.0437703],[25.1247831,65.0386289],[25.1217172,65.0336423],[25.1164635,65.0289924],[25.1164635,65.0289924],[25.1092142,65.0248483],[25.1002342,65.0213611],[25.0901774,65.0187424],[25.0987989,65.021532],[25.1072383,65.0256435],[25.1135379,65.0303875],[25.1174391,65.0355701],[25.118781,65.0409794],[25.1175071,65.046394],[25.113668,65.0515924],[25.1074195,65.0563615],[25.0990167,65.0605059],[25.0888031,65.0638556],[25.0771972,65.0662733],[25.0646749,65.0676597],[25.05175,65.0679579],[24.9240286,65.0654023],[24.9114088,65.0646079],[24.8994225,65.0627749],[24.8885481,65.0599765],[24.8873144,65.0594935],[24.9932499,65.054685],[25,65.0535185],[25.0616506,65.0428649],[25.0548672,65.0410973],[25.0454545,65.0409091],[24.9272731,65.0385455],[25,65.0356048],[24.8204482,65.0428649],[24.7593846,65.0184666],[24.803439,65.0360688],[24.5679435,65.0313589],[24.5771367,65.0225192],[24.5612456,65.0377992],[24.6084471,65.0590873],[24.5646461,65.0582108],[24.552438,65.0574551],[24.552438,65.0574551],[24.5408091,65.0557264],[24.5301938,65.0530892],[24.5209881,65.0496421],[24.5135351,65.0455137],[24.508112,65.0408581],[24.5049201,65.035849],[24.504077,65.0306731],[24.5056127,65.0255232],[24.5094688,65.0205912],[24.5099571,65.0201226],[24.5094509,65.0205004],[24.5027415,65.0269381],[24.4988737,65.0319057],[24.497348,65.0370953]],[[24.5396454,60.0868906],[24.608046,60.1003992],[24.6080461,60.1003992],[24.608046,60.1003992],[24.5396454,60.0868906]],[[24.5436735,64.7597358],[24.5864458,64.7811354],[24.5864459,64.7811354],[24.5436735,64.7597358]],[[24.5540455,60.1561223],[24.5683302,60.1466304],[24.5540456,60.1561222],[24.5540455,60.1561223]],[[24.7232472,65.0040276],[24.7232473,65.0040276],[24.7346444,65.0007096],[24.7232472,65.0040276]],[[24.7555173,64.9946328],[24.8276482,64.9736332],[24.8276483,64.9736332],[24.8276482,64.9736332],[24.7555173,64.9946328]],[[24.8432115,65.0148499],[24.8474227,65.0165292],[24.8558414,65.020641],[24.8621228,65.0253831],[24.8660094,65.0305621],[24.8660994,65.0309273],[24.8705725,65.0262043],[24.8775507,65.0217082],[24.8865048,65.0178824],[24.8970785,65.0148788],[24.9088513,65.0128168],[24.9213555,65.0117783],[24.9237488,65.0116815],[24.9211174,65.0116922],[24.8432115,65.0148499]],[[24.8973884,59.8346259],[24.956198,59.8613402],[24.9843765,59.8772328],[25.0270161,59.8793811],[25.1138457,59.8821839],[25.1847845,59.8913427],[25.1077068,59.8595762],[25.0401102,59.8177882],[25.0401102,59.8177882],[25.0335655,59.8114969],[24.9919241,59.8218134],[24.8973884,59.8346259]],[[25.2236522,64.8233499],[25.2539637,64.8333021],[25.2236524,64.8233499],[25.2236522,64.8233499]],[[25.3136531,60.2726341],[25.3136532,60.2726341],[25.3208532,60.2506826],[25.3208532,60.2506826],[25.3208532,60.2506826],[25.3136531,60.2726341]],[[25.3284387,59.9252753],[25.387025,59.9465171],[25.417924,59.9600956],[25.4362504,59.9553196],[25.5421629,59.9402858],[25.6250096,59.9372429],[25.6031145,59.9363685],[25.5832466,59.9336119],[25.4961442,59.938719],[25.3889293,59.9341659],[25.3284387,59.9252753]],[[25.6700567,60.3638173],[25.7060571,60.3418658],[25.706057,60.3418658],[25.706057,60.3418658],[25.6700567,60.3638173]],[[25.7111403,59.9401032],[25.7612186,59.9433512],[25.8654132,59.9613279],[25.9216404,59.9780001],[25.9856045,59.9781358],[26.0927139,59.989307],[26.1932545,60.0109505],[26.2831606,60.0421964],[26.3587673,60.0817846],[26.3601225,60.0828653],[26.4063612,60.1025527],[26.4049362,60.0729333],[26.422731,60.0214525],[26.4634082,59.9473288],[26.502361,59.8967633],[26.560657,59.8511218],[26.6093258,59.8259795],[26.32153,59.8429918],[26.2668121,59.8639127],[26.1698156,59.8873413],[26.0652976,59.900521],[25.9657012,59.9027328],[25.9052347,59.9191855],[25.8074331,59.9346247],[25.7111403,59.9401032]],[[25.8428584,60.4026546],[25.9413214,60.362244],[25.8428585,60.4026545],[25.8428584,60.4026546]],[[25.9184592,60.4853949],[26.1416614,60.3959003],[25.9184599,60.4853946],[25.9184592,60.4853949]],[[27.0305739,59.7499714],[27.0380514,59.7499744],[27.1438081,59.7608432],[27.2432298,59.7820656],[27.3323499,59.8127995],[27.3757834,59.8353434],[27.3878884,59.8265053],[27.4615136,59.790213],[27.4827455,59.783166],[27.4747758,59.7722286],[27.4585213,59.7215608],[27.4599866,59.6978289],[27.1324935,59.7121659],[27.0305739,59.7499714]],[[27.8397117,60.0247781],[27.8840787,60.0109046],[27.8840788,60.0109046],[27.8840787,60.0109046],[27.8397117,60.0247781]],[[28.3232832,60.620481],[28.3232833,60.620481],[28.3448834,60.5934638],[28.3448834,60.5934638],[28.3448834,60.5934638],[28.3232832,60.620481]],[[28.4240842,60.3604401],[28.4240844,60.3604401],[28.5176852,60.3384886],[28.5176852,60.3384886],[28.5176852,60.3384886],[28.4240844,60.3604401],[28.4240842,60.3604401]],[[35.4412825,65.1215816],[35.4428623,65.1266005],[35.4466467,65.1314062],[35.4466467,65.1314062],[35.4525034,65.1358291],[35.4602266,65.1397129],[35.4695441,65.1429205],[35.6496318,65.1936208],[35.6601616,65.1960097],[35.6715676,65.1975374],[35.6834533,65.1981505],[35.6954053,65.1978277],[35.7963052,65.1910662],[35.8093055,65.1895908],[35.8212873,65.187011],[35.8317239,65.1834404],[35.840157,65.179036],[35.840157,65.179036],[35.8462172,65.1739914],[35.9132296,65.0995096],[35.9167091,65.0938174],[35.9171762,65.0879439],[35.9146108,65.0821681],[35.9091365,65.0767641],[35.9038641,65.072816],[35.8979838,65.0692784],[35.8781215,65.0676342],[35.8729971,65.0669737],[35.8552059,65.0749542],[35.8462273,65.0782912],[35.8359316,65.0808654],[35.8246792,65.0825864],[35.8128648,65.0833939],[35.8009025,65.0832596],[35.7892119,65.0821883],[35.7868442,65.0817644],[35.7825578,65.0681936],[35.8086498,65.0564874],[35.8086498,65.0564874],[35.7324342,64.9993257],[35.7324342,64.9993257],[35.7324342,64.9993257],[35.7322451,65],[35.7249572,65.0259791],[35.6998839,65.0298993],[35.6767897,65.0125517],[35.6715052,65.0073599],[35.6689014,65.0018153],[35.6690912,64.9961619],[35.6797009,64.9586541],[35.6691312,64.9960204],[35.6691048,64.9960715],[35.6690596,64.9961588],[35.6661513,65.0064441],[35.5408637,65.0260099],[35.5408637,65.0260099],[35.5282956,65.0286594],[35.5173983,65.0324027],[35.5086978,65.0370592],[35.5026151,65.0424043],[35.5026151,65.0424043],[35.4448751,65.111613],[35.4419618,65.1165263],[35.4412825,65.1215816]],[[35.8545585,64.4028941],[35.8545586,64.4028941],[35.9445594,64.4045827],[35.8545586,64.4028941],[35.8545585,64.4028941]],[[35.8905589,65.0411763],[35.8905591,65.0411763],[35.998575,65.0501171],[35.8905591,65.0411763],[35.8905589,65.0411763]],[[36.0831565,65.1292136],[36.2109619,65.1576882],[36.2109621,65.1576882],[36.2109619,65.1576882],[36.0831565,65.1292136]],[[36.495365,64.8503671],[36.5709657,64.8301042],[36.5709656,64.8301042],[36.495365,64.8503671]],[[37.902979,64.2391021],[37.9029791,64.2391021],[37.9289465,64.2482371],[37.9029791,64.2391021],[37.902979,64.2391021]],[[37.9101791,64.3437939],[37.9101791,64.3437939],[37.9569794,64.3640568],[37.9569796,64.3640568],[37.9101791,64.3437939],[37.9101791,64.3437939]],[[38.0469805,64.6460493],[38.1261813,64.6967066],[38.1261813,64.6967066],[38.1261813,64.6967066],[38.0469806,64.6460493],[38.0469805,64.6460493]],[[38.3673837,64.8098412],[38.4033839,64.7743811],[38.403384,64.7743811],[38.4033839,64.7743811],[38.3673837,64.8098412]],[[40.1458015,64.7338553],[40.2265715,64.6906667],[40.2265708,64.690667],[40.1458015,64.7338553]],[[42.5470255,66.3852838],[42.5470256,66.3852839],[42.8672942,66.4024519],[42.5470255,66.3852838]],[[43.2742327,68.6581088],[43.2742328,68.6581088],[43.3174332,68.6665517],[43.2742328,68.6581088],[43.2742327,68.6581088]],[[44.1382414,67.9759236],[44.2138419,67.9894322],[44.2138421,67.9894322],[44.1382414,67.9759236]],[[44.1382414,67.994498],[44.1382415,67.994498],[44.1611832,67.9929607],[44.1382415,67.994498],[44.1382414,67.994498]],[[44.2134478,68.013528],[44.4118438,68.0637296],[44.4118441,68.0637296],[44.2134478,68.013528]],[[44.2858429,67.087732],[44.3794438,67.1046178],[44.3794437,67.1046177],[44.2858429,67.087732]],[[44.5253626,66.6706377],[44.5630456,66.6655877],[44.5630455,66.6655877],[44.5253626,66.6706377]],[[45.8416026,67.4160116],[45.8823575,67.4328981],[45.9601912,67.4839474],[45.9725312,67.4986712],[46.8069248,67.5507397],[46.9358193,67.5632375],[47.0565253,67.5846678],[47.1300385,67.6047859],[47.1192432,67.5602005],[47.1332586,67.5080463],[47.1636502,67.469967],[47.1119169,67.428721],[47.077104,67.3721231],[47.0749713,67.3214448],[47.0525049,67.3058918],[47.011589,67.2588218],[46.9937547,67.2096579],[46.9994696,67.1600729],[47.0001298,67.1589722],[46.7841819,67.1296427],[46.7170114,67.1376282],[46.5867886,67.1430016],[46.4562804,67.1386467],[46.3499328,67.1310315],[46.2502582,67.2463003],[46.2022721,67.2888712],[46.1359115,67.3275916],[46.0530984,67.3612921],[45.9562829,67.3889502],[45.8416026,67.4160116]],[[46.4062641,66.7466394],[46.4271304,66.7564266],[46.4062642,66.7466394],[46.4062641,66.7466394]],[[48.699487,67.7158827],[48.7426873,67.7006855],[48.7426874,67.7006855],[48.7426873,67.7006855],[48.699487,67.7158827]],[[48.703087,67.6939312],[48.7030871,67.6939312],[48.9262893,67.6871769],[48.703087,67.6939312]],[[48.9622896,67.6534054],[48.99829,67.666914],[48.99829,67.666914],[48.99829,67.666914],[48.9622897,67.6534054],[48.9622896,67.6534054]],[[49.0446366,67.6646176],[49.1062911,67.6398968],[49.1062909,67.6398968],[49.0446366,67.6646176]],[[49.8478985,68.0164495],[49.9810998,68.0620411],[49.8478986,68.0164495],[49.8478985,68.0164495]],[[51.1622122,68.3680799],[51.5687156,68.4352166],[51.5687157,68.4352166],[51.1622122,68.3680799]],[[51.298713,68.4960054],[51.4607145,68.4740539],[51.4607146,68.4740539],[51.4607145,68.4740539],[51.298713,68.4960054]],[[52.7711277,71.3784068],[52.7711284,71.3784065],[52.8755287,71.3328152],[52.8755288,71.3328152],[52.8755287,71.3328152],[52.7711277,71.3784068]],[[52.8101774,71.4450362],[52.8215282,71.4290642],[52.8215282,71.4290641],[52.8215282,71.4290642],[52.8101774,71.4450362]],[[53,71.2958987],[53.0195301,71.2821579],[53.0195302,71.2821579],[53.0195301,71.2821579],[53,71.2958987]],[[53.0627306,71.2382549],[53.1563314,71.2433206],[53.1563316,71.2433206],[53.0627306,71.2382549]],[[53.0807308,71.2568293],[53.0807309,71.2568293],[53.1154084,71.2506329],[53.0807309,71.2568293],[53.0807308,71.2568293]],[[53.3141334,71.3086268],[53.3687336,71.2922894],[53.3687337,71.2922894],[53.3687336,71.2922894],[53.3141334,71.3086268]],[[53.5739357,68.3997565],[53.5739358,68.3997565],[53.6650304,68.3570291],[53.5739357,68.3997565]],[[53.6927369,68.8860668],[53.6927369,68.8860668],[53.7323373,68.8658039],[53.7323372,68.8658039],[53.7323372,68.8658039],[53.6927369,68.8860668],[53.6927369,68.8860668]],[[53.7287373,68.8978868],[54.0275402,68.8455409],[54.0275403,68.8455409],[54.0275402,68.8455409],[53.7287373,68.8978868]],[[53.8331383,70.814422],[53.8907388,70.7840276],[53.8907389,70.7840276],[53.8907388,70.7840276],[53.8331383,70.814422]],[[53.9915399,71.1605804],[53.99154,71.1605804],[54.2435424,71.1234317],[54.2435422,71.1234317],[53.99154,71.1605804],[53.9915399,71.1605804]],[[54.0563406,71.2095491],[54.095941,71.1892862],[54.0959409,71.1892862],[54.0563406,71.2095491]],[[54.1931419,68.813458],[54.193142,68.813458],[54.2291423,68.7965722],[54.193142,68.813458],[54.1931419,68.813458]],[[54.2291423,68.7965722],[54.3947438,68.7830636],[54.3947439,68.7830636],[54.3947438,68.7830636],[54.2291423,68.7965722]],[[54.5711457,68.9637413],[54.5711458,68.9637413],[54.6284074,69],[54.5711458,68.9637413],[54.5711457,68.9637413]],[[54.6127988,70.6685866],[54.7691475,70.6472529],[54.7691477,70.6472529],[54.7691475,70.6472529],[54.6127988,70.6685866]],[[54.9131491,68.9316584],[54.9131492,68.9316584],[55,68.9180794],[54.9131492,68.9316584],[54.9131491,68.9316584]],[[55.2263523,68.913084],[55.2263524,68.913084],[55.3703537,68.9485441],[55.2263524,68.913084],[55.2263523,68.913084]],[[55.3639534,71.9642807],[55.3919538,71.9423916],[55.3919539,71.9423916],[55.3919538,71.9423916],[55.3639534,71.9642807]],[[55.3703537,68.9485441],[55.507155,68.913084],[55.5071551,68.913084],[55.507155,68.913084],[55.3703537,68.9485441]],[[55.3788306,72],[55.3788306,72],[55.3905437,72.0092829],[55.3788306,72],[55.3788306,72],[55.3788306,72],[55.3788306,72],[55.3788306,72],[55.3788306,72]],[[55.4063541,70.7502561],[55.7483574,70.6472529],[55.7483575,70.6472529],[55.7483574,70.6472529],[55.4063541,70.7502561]],[[55.600756,70.7215503],[55.6007562,70.7215503],[55.7375574,70.7080417],[55.600756,70.7215503]],[[55.604356,70.6472529],[55.6043569,70.6472526],[55.6342964,70.6380369],[55.6043569,70.6472526],[55.604356,70.6472529]],[[55.697957,70.6202356],[55.7267572,70.6269899],[55.7267573,70.6269899],[55.697957,70.6202356]],[[55.697957,70.6472529],[55.6979571,70.6472529],[55.7176772,70.6333784],[55.6979571,70.6472529],[55.697957,70.6472529]],[[56.198362,70.7097302],[56.1983621,70.7097302],[56.302763,70.6810244],[56.302763,70.6810244],[56.302763,70.6810244],[56.198362,70.7097302]],[[56.2235622,70.7418132],[56.3207631,70.7029759],[56.3207632,70.7029759],[56.3207631,70.7029759],[56.2235622,70.7418132]],[[56.399964,70.5645126],[56.3999641,70.5645126],[56.5151652,70.5442497],[56.3999641,70.5645126],[56.399964,70.5645126]],[[56.4539645,70.6269899],[56.4539646,70.6269899],[56.6555665,70.5898412],[56.6555666,70.5898412],[56.6555665,70.5898412],[56.4539645,70.6269899]],[[56.492377,70.6341968],[56.5259652,70.6404986],[56.5259653,70.6404986],[56.5259652,70.6404986],[56.492377,70.6341968]],[[56.4935649,70.694533],[56.493565,70.694533],[56.5799658,70.738436],[56.493565,70.694533],[56.4935649,70.694533]],[[56.6362986,70.6383224],[56.6987668,70.6337443],[56.698767,70.6337443],[56.6987668,70.6337443],[56.6362986,70.6383224]],[[56.7419674,70.7029759],[56.7419675,70.7029759],[56.822015,70.6630077],[56.7419674,70.7029759]],[[56.8427684,70.606727],[56.8427685,70.606727],[56.9863282,70.581033],[56.8427685,70.606727],[56.8427684,70.606727]],[[57.0371704,70.5442497],[57.1928682,70.5131734],[57.0371706,70.5442496],[57.0371704,70.5442497]],[[57.397174,70.6269899],[57.3971741,70.6269899],[57.4511744,70.606727],[57.4511745,70.606727],[57.4511744,70.606727],[57.397174,70.6269899]],[[57.4331743,70.7435018],[57.4331744,70.7435018],[57.6383763,70.7299932],[57.6383764,70.7299932],[57.6383763,70.7299932],[57.4331743,70.7435018]],[[58.2751504,68.7790219],[58.3763837,68.7560463],[58.3763838,68.7560463],[58.3763837,68.7560463],[58.2751504,68.7790219]],[[58.4123841,70.2605687],[58.4123842,70.2605687],[58.502385,70.2301743],[58.4123842,70.2605687],[58.4123841,70.2605687]],[[58.4519845,70.1947142],[58.4519846,70.1947142],[58.5136023,70.1887857],[58.4519846,70.1947142],[58.4519845,70.1947142]],[[58.7615876,69.3386055],[58.7615877,69.3386055],[59,69.2618093],[58.7615877,69.3386055],[58.7615876,69.3386055]],[[58.8911889,68.9350355],[58.891189,68.9350355],[59,68.9188737],[58.8911889,68.9350355]],[[58.9379894,69.9414276],[58.9379895,69.9414276],[58.9715697,69.9378635],[58.9379894,69.9414276]],[[59.0662675,68.9689545],[59.222392,68.9992015],[59.2223922,68.9992015],[59.222392,68.9992015],[59.0662675,68.9689545]],[[59.6774934,69.7007374],[59.9351993,69.6678781],[59.9351994,69.6678781],[59.9351993,69.6678781],[59.6774934,69.7007374]],[[59.9649959,68.9679812],[59.9706494,68.9786275],[59.9707194,68.9785828],[59.9927769,68.9694202],[59.9649959,68.9679812]],[[60.4140041,69.9633791],[60.4140041,69.9633791],[60.4752047,69.9211646],[60.4752048,69.9211646],[60.4752047,69.9211646],[60.4140041,69.9633791],[60.4140041,69.9633791]],[[60.6410304,69.7072981],[60.6552066,69.6729438],[60.6552065,69.6729438],[60.6410304,69.7072981]]]}}
