{"type":"Feature","properties":{"family":"other","name":"Finnic peoples, 985 – 1014"},"geometry":{"type":"Polygon","coordinates":[[[20.6356179,60.8410108],[20.6551332,60.787415],[20.6964143,60.7368502],[20.7115618,60.7256233],[20.6805263,60.6836883],[20.6643793,60.6323377],[20.6644206,60.6318517],[20.7619304,60.6369237],[20.8739535,60.6313567],[20.981224,60.6146377],[21.0791541,60.5874841],[21.1635832,60.5510579],[21.1776378,60.5435924],[21.1952629,60.4942232],[21.1979372,60.4894112],[21.2023816,60.4849274],[21.2084421,60.4809265],[21.2159089,60.4775467],[21.2245242,60.4749044],[21.2911144,60.458468],[21.3072713,60.4414267],[21.322495,60.4095074],[21.3193636,60.4090663],[21.3100359,60.4067338],[21.2668186,60.3932153],[21.2582573,60.3899032],[21.2511977,60.3858233],[21.24592,60.3811379],[21.2426332,60.3760332],[21.2414668,60.3707121],[21.2424661,60.3653858],[21.2455904,60.3602658],[21.2507149,60.3555552],[21.2576354,60.3514409],[21.2660771,60.3480859],[21.323653,60.3295244],[21.3331661,60.3270779],[21.3434726,60.3255998],[21.3541725,60.3251474],[21.3648508,60.3257383],[21.3750933,60.3273496],[21.381613,60.3291298],[21.3960219,60.2846047],[21.3931848,60.2343197],[21.3920358,60.2317007],[21.4759352,60.2059641],[21.3822911,60.2346899],[21.3720961,60.2371217],[21.3610947,60.2384525],[21.349767,60.2386242],[21.3386072,60.2376293],[21.3281022,60.2355112],[21.2452604,60.2135428],[21.2363258,60.2105717],[21.2287466,60.2067891],[21.22282,60.2023438],[21.2187779,60.1974103],[21.2187779,60.1974103],[21.2167783,60.1921823],[21.2168985,60.186865],[21.2191328,60.1816669],[21.2233927,60.1767918],[21.2295103,60.1724307],[21.2372455,60.1687545],[21.2462948,60.165907],[21.2462948,60.165907],[21.3507932,60.1397698],[21.3656632,60.1336342],[21.4325814,60.0925316],[21.4819543,60.0456909],[21.5119383,59.9949353],[21.5214624,59.9422318],[21.5211056,59.9202825],[21.5107088,59.8696366],[21.4930379,59.8400419],[21.500311,59.8392833],[21.6071151,59.8335433],[21.7141489,59.8384828],[21.8172211,59.85391],[21.8900587,59.8733139],[21.8993839,59.8753765],[21.9008441,59.8752591],[21.928808,59.8478301],[21.9933655,59.8067443],[22.0724882,59.7726884],[22.1631872,59.7469327],[22.2620674,59.7304359],[22.365449,59.7238115],[22.3997902,59.7249744],[22.4069302,59.7125586],[22.4544986,59.6661683],[22.5188984,59.6252854],[22.5976744,59.5914333],[22.6878631,59.56587],[22.7861022,59.5495431],[22.8887501,59.5430576],[22.9920126,59.5466541],[23.3349601,59.5750907],[23.4338498,59.5881151],[23.5261636,59.6103515],[23.6085609,59.6410006],[23.6780358,59.6789576],[23.6893816,59.6881926],[23.7950075,59.6880751],[23.9158943,59.6947935],[24.030827,59.7149786],[24.0379072,59.7172232],[24.0068704,59.6809905],[24.0066207,59.6805967],[23.9796566,59.670493],[23.9608949,59.6602151],[23.8891322,59.651472],[23.790527,59.6279005],[23.7035972,59.594675],[23.6603756,59.5742897],[23.5982417,59.5387583],[23.5918099,59.5380097],[23.4969443,59.5164508],[23.4915528,59.5145108],[23.400862,59.4963402],[23.227198,59.450405],[23.1341771,59.4189284],[23.0563483,59.3782463],[22.9971572,59.3301941],[22.977512,59.3026653],[22.9675935,59.3069111],[22.8821257,59.3313392],[22.7890927,59.3472217],[22.6917727,59.3539983],[22.6119375,59.3556917],[22.5145714,59.353122],[22.4197784,59.3414506],[22.3308473,59.3210845],[22.250849,59.2927314],[22.1825257,59.2573739],[22.1825257,59.2573739],[22.1408019,59.2257907],[22.0093069,59.2196245],[21.9069434,59.2094497],[21.8105381,59.1891298],[21.7239313,59.1594789],[21.6505474,59.1216819],[21.5932549,59.0772435],[21.5542561,59.0279258],[21.5350067,58.9756759],[21.536171,58.922547],[21.5576093,58.8706169],[21.5983982,58.8219073],[21.6568794,58.7783063],[21.6804484,58.7665735],[21.631195,58.7584407],[21.544413,58.7339303],[21.4682319,58.7013493],[21.405415,58.6618959],[21.3582114,58.6170157],[21.3282781,58.5683468],[21.3166274,58.5176579],[21.3235999,58.4667827],[21.3488641,58.4175538],[21.3702472,58.3945609],[21.3693599,58.3929319],[21.3462092,58.3592937],[21.3312261,58.3075178],[21.3357005,58.2552538],[21.3593769,58.204483],[21.4012816,58.1571215],[21.459771,58.1149495],[21.5002444,58.0952898],[21.4678685,58.0469781],[21.454005,57.9915013],[21.462174,57.9357705],[21.4919202,57.8821963],[21.5371036,57.8238624],[21.6395871,57.8399099],[21.8381495,57.8586025],[21.9783967,57.8956357],[21.9788651,57.8953153],[21.9857721,57.8920549],[21.9936897,57.8895183],[22.0023531,57.8877902],[22.0114731,57.8869284],[22.0207449,57.8869617],[22.053121,57.8886486],[22.0642685,57.8899082],[22.074618,57.8924525],[22.0836478,57.8961534],[22.2384495,57.9754719],[22.1934789,57.9524295],[22.3758603,58.0005885],[22.4740221,58.0198012],[22.577588,58.0278912],[22.6820887,58.0245092],[22.7830118,58.009801],[22.8760093,57.9844012],[22.9570955,57.9494038],[23.0228247,57.9063126],[23.0704401,57.8569733],[23.0979867,57.8034913],[23.1043834,57.7481392],[23.1035115,57.7369122],[23.4560433,57.5742833],[23.5022513,57.5479878],[23.5052836,57.5486559],[23.58965,57.5789069],[23.58965,57.5789069],[23.6611817,57.6175318],[23.7169635,57.6629835],[23.7546861,57.7134342],[23.7727454,57.7668466],[23.7703186,57.821054],[23.7635153,57.8497952],[23.7582366,57.8623218],[23.7653188,57.8605121],[23.8027348,57.855404],[23.8063625,57.8946462],[23.8224674,57.9499869],[23.8598251,58.0023623],[23.9169016,58.0494986],[23.9788275,58.0826706],[23.9951037,58.0813233],[24.0053061,58.0810232],[24.0154257,58.0818021],[24.0250564,58.0836289],[24.0338116,58.0864302],[24.0413397,58.0900936],[24.047338,58.0944721],[24.0515649,58.0993898],[24.0538499,58.1046492],[24.0555334,58.1117127],[24.0797582,58.1201473],[24.1784844,58.1405654],[24.2831315,58.1496981],[24.4162245,58.1534992],[24.413416,58.0810452],[24.3575383,58.0387702],[24.3536369,58.0352834],[24.3507677,58.0315291],[24.2652028,57.8891885],[24.2687619,57.893546],[24.2745776,57.8979687],[24.2819338,57.9016875],[24.2905364,57.9045533],[24.3000409,57.9064512],[24.3100663,57.9073053],[24.3296013,57.9078635],[24.3296013,57.9078635],[24.3130374,57.8803725],[24.3130374,57.8803725],[24.3130375,57.8803725],[24.3130375,57.8803725],[24.5333333,57.8866667],[24.7666667,57.8933333],[25,57.9],[25.8,57.85],[26.0333333,57.7666667],[26.2666667,57.6833333],[26.5,57.6],[26.7333333,57.5833333],[26.9666667,57.5666667],[27.2,57.55],[27.5,57.55],[27.55,57.725],[27.6,57.9],[27.55,58.1],[27.5,58.3],[27.5333333,58.5],[27.55,58.6],[27.5666667,58.7],[27.6,58.9],[27.7666667,59],[27.85,59.05],[27.9333333,59.1],[28.1,59.2],[28,59.4],[27.9708006,59.4583989],[28.0172802,59.48238],[28.0172802,59.48238],[28.0172802,59.48238],[27.9273474,59.4359793],[27.9194481,59.4517247],[27.9178326,59.4572004],[27.9184486,59.462727],[27.921271,59.4680717],[27.926182,59.4730091],[27.9323621,59.4769408],[27.8553828,59.4372166],[27.4446191,59.4759983],[27.4486915,59.5068954],[27.4809953,59.5629689],[27.5087675,59.5968704],[27.504589,59.6062802],[27.5018537,59.6587697],[27.5193043,59.7105162],[27.5563665,59.7595511],[27.6117049,59.8040008],[27.6832635,59.8421599],[27.6832635,59.8421599],[27.7683364,59.872559],[27.9579667,59.9268608],[28.060634,59.9493423],[28.063574,59.9496441],[28.0699682,59.9530235],[28.1541823,59.9830482],[28.3833802,60.0486806],[28.4827165,60.0706376],[28.5771771,60.0808505],[28.640733,60.1157022],[28.7299517,60.1479238],[28.938892,60.2077556],[29.0093359,60.167262],[29.0169609,60.1636407],[29.0258549,60.1608224],[29.0356809,60.1589137],[29.0460671,60.1579868],[29.41297,60.1427994],[29.4242606,60.1429026],[29.4352666,60.1441659],[29.4455111,60.1465346],[29.5401484,60.1746476],[29.6896411,60.173213],[29.8150271,60.1445294],[29.8169392,60.143313],[29.8174405,60.1430537],[29.8170982,60.1432713],[29.8115435,60.1475894],[29.8077258,60.1523526],[29.8057837,60.1573891],[29.8057882,60.1625168],[29.80774,60.1675506],[29.8115694,60.1723084],[29.8142317,60.1743686],[29.8496985,60.1662538],[29.8596707,60.1599059],[30,60.2],[30.6428571,60.5428571],[30.8571429,60.6571429],[31.5,61],[32.8,61],[33.5,61],[33.9444444,60.9555556],[34.1666667,60.9333333],[34.8333333,60.8666667],[35.0555556,60.8444444],[35.5,60.8],[35.7142857,60.7571429],[35.9285714,60.7142857],[36.1428571,60.6714286],[36.3571429,60.6285714],[36.5714286,60.5857143],[36.7857143,60.5428571],[37,60.5],[37.2142857,60.4285714],[37.4285714,60.3571429],[37.6428571,60.2857143],[37.6428571,60.2857143],[37.8571429,60.2142857],[37.8571429,60.2142857],[38.0714286,60.1428571],[38.2857143,60.0714286],[38.5,60],[39.5,59],[40.2,58],[40.3625,57.85],[40.525,57.7],[40.6875,57.55],[41.0125,57.25],[41.175,57.1],[41.3375,56.95],[41.5,56.8],[41.6666667,56.6333333],[41.8333333,56.4666667],[42,56.3],[42.1666667,56.1333333],[42.3333333,55.9666667],[42.5,55.8],[42.3,55.7],[42.1,55.6],[41.9,55.5],[41.5,55.3],[41.3571429,55.1142857],[41.2142857,54.9285714],[41.0714286,54.7428571],[40.9285714,54.5571429],[40.7857143,54.3714286],[40.6428571,54.1857143],[40.5,54],[40.5,53.2],[40.5,52.6],[40.7333333,52.56],[40.9666667,52.52],[41.2,52.48],[41.4333333,52.44],[41.6666667,52.4],[41.9,52.36],[42.1333333,52.32],[42.3666667,52.28],[42.6,52.24],[42.8333333,52.2],[43.0666667,52.16],[43.3,52.12],[43.5333333,52.08],[43.7666667,52.04],[44,52],[44.4615385,51.9230769],[44.6923077,51.8846154],[45.1538462,51.8076923],[45.1538462,51.8076923],[45.3846154,51.7692308],[45.6153846,51.7307692],[45.8461538,51.6923077],[45.8461538,51.6923077],[46.3076923,51.6153846],[46.5384615,51.5769231],[47,51.5],[47.2333333,51.52],[47.4666667,51.54],[47.9333333,51.58],[48.1666667,51.6],[48.4,51.62],[48.6333333,51.64],[48.8666667,51.66],[49.1,51.68],[49.3333333,51.7],[49.5666667,51.72],[49.8,51.74],[50.0246914,51.7592593],[50.2222222,51.8333333],[50.4444444,51.9166667],[50.6666667,52],[50.8888889,52.0833333],[51.1111111,52.1666667],[51.3333333,52.25],[51.5555556,52.3333333],[51.7777778,52.4166667],[52,52.5],[54,54.5],[54.2333333,54.5666667],[54.4666667,54.6333333],[54.7,54.7],[54.9333333,54.7666667],[55.1666667,54.8333333],[55.4,54.9],[55.6333333,54.9666667],[55.8666667,55.0333333],[56.1,55.1],[56.3333333,55.1666667],[56.5666667,55.2333333],[56.8,55.3],[57.0333333,55.3666667],[57.2666667,55.4333333],[57.5,55.5],[57.7391304,55.5434783],[57.9782609,55.5869565],[58.4565217,55.673913],[58.6956522,55.7173913],[58.9347826,55.7608696],[59.173913,55.8043478],[59.4130435,55.8478261],[59.6521739,55.8913043],[59.8913043,55.9347826],[59.8913043,55.9347826],[60.1304348,55.9782609],[60.3695652,56.0217391],[60.6086957,56.0652174],[60.6086957,56.0652174],[60.8478261,56.1086957],[61.0869565,56.1521739],[61.326087,56.1956522],[61.5652174,56.2391304],[61.8043478,56.2826087],[62.0434783,56.326087],[62.5217391,56.4130435],[62.7608696,56.4565217],[63,56.5],[63,56.5266095],[63,56.5266095],[63,56.5268152],[63,56.5268152],[63.0067574,56.5266967],[63.0164539,56.5253994],[63.0254578,56.5230344],[63.0333904,56.5197013],[63.0399181,56.5155403],[63.0447668,56.5107265],[63.0477333,56.5054622],[63.0486937,56.4999687],[63.0486937,56.4999687],[63.0486934,56.4996798],[63.0487642,56.50016],[63.049348,56.7672759],[63.0680554,56.7669464],[63.1655632,56.7538904],[63.25598,56.7301081],[63.3354548,56.6966169],[63.3354548,56.6966169],[63.4006286,56.6548463],[63.4487784,56.6065735],[63.4779289,56.5538451],[63.4869273,56.498888],[63.4868995,56.4959566],[63.4876535,56.500695],[63.7762361,69.7050873],[63.7638649,69.7600775],[63.7190023,69.8129545],[63.64333,69.8614619],[63.5399018,69.9035144],[63.4130404,69.937292],[63.2681639,69.9613244],[63.1115491,69.9745599],[61.9597941,70.0254794],[61.1919969,70.1204896],[61.0262291,70.1338463],[61.0249255,70.1338532],[60.9363347,70.1659785],[60.8165954,70.1954623],[60.7996686,70.1981534],[60.6879605,70.2530539],[60.5862139,70.2934776],[60.4623328,70.3262321],[60.269911,70.3670994],[60.2429632,70.3899475],[60.1640447,70.4317906],[59.6591273,70.6479347],[59.5490346,70.6859008],[59.5490346,70.6859008],[59.4181186,70.7158875],[59.2715049,70.7367014],[59.1150074,70.7475102],[58.9548781,70.7478799],[58.7975324,70.7377939],[58.6492621,70.717654],[58.4354111,70.6798414],[58.4529795,70.7259286],[58.4418304,70.7783067],[58.3998464,70.8289031],[58.3284209,70.8757696],[58.1574464,70.964188],[58.0499163,71.008262],[57.9159081,71.0439051],[57.7613839,71.0694975],[57.5513839,71.0953704],[56.8841233,71.3769946],[56.8385748,71.4458565],[56.778463,71.503198],[56.4797812,71.7048222],[56.3834468,71.8275749],[56.3707795,71.9143226],[56.3467498,71.9660917],[56.2906484,72.0153618],[56.2358203,72.0439174],[56.233236,72.0528655],[56.1872847,72.1020526],[56.1115461,72.1475779],[56.0086149,72.1877586],[55.8821608,72.2210994],[55.736806,72.2463517],[55.5779536,72.2625652],[55.4913986,72.2659787],[55.5107551,72.2598442],[55.5755558,72.1990554],[55.3415534,72.0656578],[55.4531545,72.0589035],[55.4104365,72.0250485],[55.4104363,72.0250483],[55.3905437,72.0092829],[55.3788306,72],[55.3788306,72],[55.3788305,72],[51.5047118,72],[51.5047118,72],[51.5047118,72],[51.5353871,72.0269394],[51.6083161,72.0909864],[51.8675187,72.1585295],[52.0547205,72.1078722],[52.0655207,72.0741007],[52.1879219,72.1298237],[52.2095221,72.1281351],[52.198722,72.0825435],[52.3679237,72.0757892],[52.4111241,72.0859207],[52.3823238,72.1044951],[52.4111241,72.1281351],[52.3679237,72.1619067],[52.4903249,72.1635953],[52.400324,72.2226955],[52.4831248,72.2091868],[52.4651247,72.2311383],[52.4903249,72.244647],[52.4478211,72.2693299],[51.4816009,72.2693961],[51.3187716,72.2631103],[51.1626586,72.2475842],[51.0188706,72.2233768],[50.8925227,72.1913571],[50.7880399,72.1526704],[50.708999,72.1086931],[50.6580115,72.0609802],[50.5618656,71.9303364],[50.5421424,71.8530651],[50.5696859,71.7197573],[50.6129958,71.6507224],[50.6881757,71.5802535],[50.6881198,71.5382331],[50.7255481,71.48262],[50.7985186,71.4307747],[50.9035655,71.3849724],[51.2103091,71.2761912],[51.3325585,71.2403084],[51.417128,71.2239081],[51.4177857,71.2229456],[51.4893635,71.1719089],[51.5917012,71.126771],[51.7202719,71.089445],[52.0044067,71.0222754],[52.0281196,70.9949539],[52.1022474,70.9476694],[52.2030164,70.9060656],[52.2112521,70.9037803],[52.2488884,70.8641905],[52.3229098,70.8189267],[52.4214336,70.7791156],[52.4214336,70.7791156],[52.5408174,70.7461762],[52.5408174,70.7461762],[52.5792677,70.7391482],[52.5813235,70.737544],[52.6747268,70.6927031],[52.7931585,70.6549883],[53.0298909,70.5931461],[53.1658659,70.5642107],[53.316207,70.5447811],[53.4750845,70.5356061],[53.5366042,70.5361685],[53.5852378,70.5319069],[53.6181516,70.522576],[53.7536687,70.4971873],[53.9011196,70.4808943],[54.0754113,70.4675654],[54.1618459,70.4639406],[54.2577879,70.438032],[54.3862369,70.4095854],[54.4803181,70.3965266],[54.6088643,70.3562453],[54.7393236,70.3229159],[54.8870055,70.2991901],[55.0458471,70.2860337],[55.2093819,70.2839799],[55.3709757,70.2931107],[55.5240647,70.3130535],[55.6488646,70.3400757],[55.8490951,70.3235144],[56.0095196,70.3158002],[56.0743895,70.3171144],[56.1390185,70.3057727],[56.2945189,70.2850564],[56.4593907,70.2756348],[56.6266269,70.2779065],[56.6546889,70.2803125],[56.7428907,70.2703131],[57.016836,70.2486543],[57.1687904,70.2416005],[57.3220886,70.2444233],[57.4712424,70.2570202],[57.6108961,70.278938],[57.6217433,70.2815852],[57.6163756,70.2511888],[57.6360366,70.200561],[57.6639581,70.1720925],[57.6661135,70.1564636],[57.7023702,70.1061108],[57.7661871,70.0590992],[57.7865908,70.0494858],[57.7867436,70.0464318],[57.8218838,69.9930267],[57.887738,69.9432054],[58.0154161,69.8676813],[58.0798419,69.8351439],[58.4019244,69.6943777],[58.5129442,69.654618],[58.6448502,69.6235762],[58.7595474,69.6072013],[58.7478563,69.6074946],[58.6022843,69.6014193],[58.4626522,69.5857741],[58.3341456,69.5611404],[58.2214963,69.5284324],[58.128796,69.4888598],[58.059345,69.44388],[58.015539,69.39514],[57.9987989,69.3444141],[58.0095431,69.2935365],[58.0471986,69.2443346],[58.1102482,69.1985636],[58.1536377,69.1780579],[57.9733343,69.1476493],[57.9356448,69.1445259],[57.8035038,69.1234548],[57.5859164,69.0791075],[57.4604373,69.0468266],[57.3562704,69.0060544],[57.3322795,68.9915605],[57.2666036,68.9823306],[57.1420391,68.9535731],[57.035853,68.9165664],[56.9670849,68.8806001],[56.869846,68.896404],[56.7288816,68.9081569],[56.58409,68.9097862],[56.4743446,68.9032285],[56.253029,68.9172142],[56.2465023,68.9574146],[56.2102347,69.0077978],[56.1473235,69.0546739],[56.0599995,69.0962615],[55.9514741,69.1309706],[55.8140691,69.1667784],[55.6811874,69.1942965],[55.5350149,69.2115465],[55.3817839,69.2177892],[55.2280605,69.2127554],[55.1665093,69.2060622],[55.1107892,69.2225525],[55.100287,69.2250268],[55.0604322,69.2344166],[54.923247,69.2598688],[54.7739874,69.2747705],[54.6190747,69.2784778],[54.4652004,69.270829],[54.4514339,69.2690768],[54.1112782,69.270241],[53.9845362,69.2667456],[53.861227,69.2557348],[53.1884128,69.1720976],[53.0065531,69.1384783],[51.8922611,68.8503908],[51.7651278,68.8075167],[51.7629488,68.8063298],[51.4870471,68.7501386],[51.3570367,68.7622813],[51.2163599,68.7701883],[51.0740222,68.7680996],[50.9354347,68.7560939],[50.8058524,68.7346262],[50.6901554,68.7045092],[50.3647131,68.6002958],[50.3361617,68.5937127],[50.2367004,68.5599951],[49.6942503,68.3354043],[49.6810327,68.3337801],[49.5559123,68.3073068],[48.9903342,68.1561553],[48.8751402,68.180643],[48.7356063,68.1974748],[48.5896552,68.203372],[48.4434752,68.1980839],[48.3032654,68.181834],[48.1749477,68.1553098],[48.0638951,68.1196312],[47.9746935,68.0762987],[47.910949,68.0271262],[47.8751502,67.9741605],[47.8685874,67.9195922],[47.8720461,67.9114058],[47.7867235,67.9019091],[47.6644242,67.8778038],[47.4580812,67.8266748],[47.4134471,67.8129743],[47.4232913,67.8479978],[47.4207514,67.9129264],[47.3769574,67.9757145],[47.271682,68.0749417],[47.2680575,68.1112079],[47.2584857,68.1375359],[47.2587343,68.1386977],[47.2441623,68.1888538],[47.204632,68.2371004],[47.204632,68.2371004],[47.1413904,68.2817326],[47.0565564,68.3211639],[46.6912916,68.4600994],[46.6585988,68.5109545],[46.6063046,68.565215],[46.5234475,68.6141219],[46.4136888,68.6554069],[46.2820193,68.6871439],[45.9155812,68.7553942],[45.7812079,68.7744256],[45.6390588,68.7835532],[44.1705486,68.8183276],[43.6331042,68.9108954],[43.50286,68.9278617],[43.3660396,68.9357745],[43.2274934,68.9343531],[43.0921396,68.9236477],[42.9647712,68.904038],[42.9212471,68.895508],[42.8069501,68.8678083],[42.7089579,68.8329459],[42.6305995,68.7921337],[42.5744769,68.746785],[42.5423855,68.6984613],[42.5352689,68.6488166],[42.5532072,68.5995394],[42.5954358,68.5522952],[42.6469029,68.5085904],[42.7220517,68.4593865],[42.8230394,68.4169562],[43.4826449,68.1882612],[43.4685862,68.0935177],[43.430479,68.0426154],[43.4198046,67.9895792],[43.4216148,67.9840431],[43.4153455,67.9742053],[43.3883087,67.9424094],[43.3725991,67.8894304],[43.3848257,67.8363262],[43.3996881,67.8063659],[43.3871432,67.7897964],[43.3821037,67.7794162],[43.3731485,67.7723521],[43.3380784,67.7174043],[43.310364,67.6380615],[43.1286798,67.4286211],[43.0963133,67.3688589],[43.067356,67.2471503],[43.0673723,67.1978135],[43.0904908,67.1493034],[43.1358096,67.103233],[43.2017114,67.0611253],[43.2859304,67.0243653],[43.3856357,66.9941563],[43.7263328,66.908364],[43.7462481,66.8962082],[43.7369434,66.8896133],[43.6955784,66.8377697],[43.6815432,66.7837182],[43.6952316,66.7296583],[43.7342231,66.6799375],[43.7183248,66.6507656],[43.7153827,66.6394778],[43.6080673,66.6667088],[43.4831184,66.6859121],[43.3595894,66.6943456],[43.3437205,66.7443164],[43.3092096,66.8035606],[43.2693416,66.8510411],[43.2077106,66.8947846],[43.1263589,66.9332643],[43.0280556,66.9651308],[42.8869625,67.0026113],[42.7726061,67.0270149],[42.6483767,67.0424854],[42.5188277,67.0484542],[42.3887261,67.0447015],[42.2628613,67.0313655],[42.1458523,67.0089364],[42.0419636,66.9782372],[41.9662596,66.9510053],[41.8750014,66.910731],[41.8062364,66.8641094],[41.7626198,66.8130301],[41.7457515,66.7595517],[41.7488786,66.7433941],[41.7462097,66.7427502],[41.7462097,66.7427502],[41.6464001,66.7060417],[41.5673194,66.6621694],[41.1150315,66.3439038],[40.9923955,66.2991312],[40.4836652,66.2251583],[40.3498996,66.1981642],[40.2347005,66.1597413],[40.1438819,66.1118602],[39.9618874,65.988685],[39.3154148,65.7545632],[39.2204456,65.7110737],[39.1507864,65.6601485],[39.109603,65.604215],[39.0719407,65.5213183],[39.0610438,65.4791726],[39.0661886,65.4368355],[39.1012871,65.3238452],[39.1292652,65.2728248],[39.1801099,65.2250053],[39.5549533,64.9443837],[39.5614483,64.9404255],[39.5157898,64.9158027],[39.5148203,64.9149997],[39.5081703,64.913359],[39.4871889,64.9069348],[38.8129844,65.0433706],[38.7782619,65.0575358],[38.7782619,65.0575358],[38.6703188,65.086526],[38.550675,65.105793],[38.4242297,65.1145453],[38.2863732,65.118074],[38.257106,65.1459958],[38.2040639,65.1866083],[38.1350921,65.2227866],[38.0522022,65.2534444],[37.9578499,65.2776579],[37.2872002,65.4156541],[37.1721369,65.4335194],[37.0509613,65.4419485],[36.9281461,65.4406304],[36.9281461,65.4406304],[36.80823,65.4296142],[36.6194136,65.4040373],[36.5390058,65.3893886],[36.4342947,65.4106051],[36.2128663,65.4446899],[36.0872282,65.4581161],[35.9576474,65.4607877],[35.8294555,65.4525954],[35.7079213,65.4338766],[35.5980163,65.4054006],[35.5041972,65.3683337],[35.4302172,65.3241887],[35.3803579,65.2868585],[35.3294789,65.237677],[35.3278197,65.2343985],[35.3165408,65.2296862],[35.2487973,65.1880488],[35.1734164,65.1306122],[35.1214112,65.0785147],[35.096489,65.0229806],[35.0995822,64.9664633],[35.1109688,64.9289996],[35.1393326,64.8768974],[35.1911976,64.8281678],[35.2644311,64.7847031],[35.3561103,64.748183],[35.462643,64.7200129],[35.5799069,64.7012734],[35.703401,64.6926818],[35.8284064,64.6945669],[35.9213539,64.7039599],[35.9392305,64.6688133],[35.8957974,64.6719745],[35.768325,64.6700387],[35.7566861,64.6688239],[35.7100473,64.6751917],[35.5852791,64.6809954],[35.4603364,64.6760147],[35.4306095,64.6721711],[35.3874822,64.6905695],[35.2824944,64.7201911],[35.1656742,64.7402508],[35.0709928,64.7476479],[35.0714741,64.7465822],[35.0715075,64.7415336],[35.0693349,64.7365714],[35.0650336,64.7318695],[35.0587552,64.7275924],[35.0507204,64.7238899],[35.0412109,64.7208915],[34.9231118,64.6904185],[35.0273711,64.6279281],[35.033742,64.6231231],[35.033742,64.6231231],[35.037693,64.6178631],[35.0390596,64.6123693],[35.0377859,64.6068721],[35.033927,64.6016023],[35.0276461,64.5967808],[35.0192077,64.5926097],[34.9091334,64.5481995],[35.03865,64.5177202],[35.0485243,64.5148314],[35.0569459,64.5111896],[35.0636092,64.5069272],[35.0682732,64.5021989],[35.0707695,64.4971766],[35.071009,64.4920423],[35.068984,64.4869822],[35.0647693,64.4821799],[35.0585187,64.4778091],[35.0522965,64.4742148],[35.0517274,64.4730388],[35.0542719,64.4782975],[35.0543455,64.48367],[35.0519439,64.4889431],[35.0471611,64.4939073],[35.040186,64.4983652],[35.0312949,64.5021396],[35.0208409,64.5050804],[35.0092396,64.5070705],[34.9969526,64.5080307],[34.9844691,64.5079227],[34.9722862,64.506751],[34.9625129,64.504874],[35,64.4960825],[35.0085501,64.4940773],[35,64.4873933],[34.9545496,64.4518629],[34.9545495,64.4518629],[34.9920162,64.4811521],[34.9920163,64.4811522],[34.85,64.4],[34.5,64.2],[34.2857143,64.1428571],[34.0982143,64.0928571],[34.0714286,64.0857143],[34.0408164,64.077551],[33.8571429,64.0285714],[33.75,64],[33.6428571,63.9714286],[33.4591836,63.922449],[33.4285714,63.9142857],[33.4017857,63.9071429],[33.2142857,63.8571429],[33,63.8],[32.3571429,63.7571429],[32.25,63.75],[32.1428571,63.7428571],[31.5,63.7],[30.8571429,63.7428571],[30.75,63.75],[30.6428571,63.7571429],[30.2142857,63.7857143],[30.1798656,63.788009],[30.1798655,63.788009],[30,63.8],[29.7857143,63.8428571],[29.6428572,63.8714286],[29.5714286,63.8857143],[29.4642857,63.9071429],[29.3571429,63.9285714],[29.25,63.95],[29.1428571,63.9714286],[29.0357142,63.9928572],[28.9285714,64.0142857],[28.8571429,64.0285714],[28.7142857,64.0571429],[28.5,64.1],[28.2857143,64.1714286],[28.1785714,64.2071429],[28.0714286,64.2428571],[27.857143,64.3142857],[27.8571429,64.3142857],[27.6904762,64.3698413],[27.6428571,64.3857143],[27.6428571,64.3857143],[27.6428571,64.3857143],[27.4285714,64.4571429],[27.3214285,64.4928572],[27.2142857,64.5285714],[27,64.6],[26.3571429,64.7928571],[26.25,64.825],[26.1428571,64.8571429],[25.5,65.05],[25.4046624,65.0480932],[25.380362,65.0729005],[25.3778396,65.0725307],[25.3672899,65.0699491],[25.3581056,65.0665704],[25.3506217,65.0625181],[25.3451106,65.0579401],[25.3417724,65.0530035],[25.3407276,65.0478883],[25.342013,65.0427811],[25.3455805,65.037868],[25.3459369,65.037505],[25.3455708,65.0377917],[25.3074364,65.0766492],[25.1868285,65.09926],[25.1753996,65.1020196],[25.1655505,65.1057046],[25.1576976,65.1101595],[25.1521734,65.1151963],[25.1492127,65.1206023],[25.1489421,65.1261489],[25.1513746,65.1316017],[25.2195703,65.2278786],[25.2241437,65.2326152],[25.2307682,65.2369055],[25.2363519,65.2393471],[25.2255401,65.2471281],[25.220252,65.2519797],[25.2173453,65.2571721],[25.2169351,65.2625025],[25.2190388,65.2677627],[25.2449791,65.3076755],[25.1982537,65.301834],[25.153444,65.3067642],[25.0229676,65.309715],[25.0137779,65.3095304],[24.8947238,65.3071372],[24.8333486,65.3032837],[24.7726824,65.3046837],[24.5348149,65.299902],[24.411624,65.2922628],[24.2944328,65.2748106],[24.187714,65.2482155],[24.0955073,65.2134947],[24.0212593,65.1719714],[23.9676943,65.1252202],[23.9367196,65.0750052],[23.9367196,65.0750052],[23.9293679,65.0232104],[23.9457778,64.9717681],[23.9789059,64.9304612],[23.9725102,64.9261568],[23.9283455,64.8772343],[23.9111077,64.8343964],[23.8942327,64.8233036],[23.8425363,64.7816118],[23.8089328,64.73671],[23.7734285,64.6689717],[23.5652215,64.581751],[23.4776627,64.5355602],[23.4162761,64.4822121],[23.377378,64.4359481],[23.377378,64.4359481],[23.3702925,64.4327364],[23.1328459,64.2992844],[23.1045448,64.2942495],[23.0028852,64.2648963],[22.9167367,64.2274479],[22.8494297,64.1833838],[22.8035137,64.1344364],[22.7853957,64.0932793],[22.7043958,64.0721622],[22.6076741,64.0322963],[22.597791,64.0272216],[22.5943242,64.026431],[22.51164,64.0159863],[22.3952034,63.9953494],[22.2910316,63.96474],[22.2035206,63.9254654],[22.1534156,63.8909877],[22.0955814,63.8625891],[22.0339188,63.8160854],[22.0075956,63.781824],[22.0071177,63.7815906],[21.9772542,63.7588034],[21.878946,63.7273629],[21.7963379,63.6874428],[21.7337429,63.6410048],[21.7227305,63.6270092],[21.7095523,63.6203503],[21.7005456,63.6185479],[21.6094591,63.5904379],[21.5316648,63.5554078],[21.4697635,63.5146541],[21.4257862,63.4695628],[21.4130222,63.4522496],[21.3822836,63.4452714],[21.2837308,63.4171501],[21.1994428,63.3810324],[21.1325948,63.3383063],[21.1089925,63.3143196],[21.1825943,63.3112685],[21.1776647,63.3139656],[21.1721143,63.3186293],[21.1686968,63.3236906],[21.1675446,63.3289551],[21.1687033,63.3342202],[21.1721296,63.3392833],[21.1776928,63.3439495],[21.1851795,63.348039],[21.1943019,63.3513942],[21.3131545,63.3868827],[21.323498,63.3893495],[21.3347114,63.3908715],[21.3463692,63.3913909],[21.3580287,63.390888],[21.3692472,63.3893819],[21.3795988,63.3869299],[21.3886908,63.3836248],[21.3961788,63.3795923],[21.4017793,63.3749852],[21.4305315,63.3445793],[21.4338833,63.3398665],[21.4352591,63.3349574],[21.4346138,63.3300173],[21.4319699,63.3252125],[21.4274175,63.3207046],[21.4274175,63.3207046],[21.3705543,63.2757634],[21.4283273,63.273043],[21.4400178,63.2719515],[21.4509921,63.2698379],[21.4608138,63.2667866],[21.4690926,63.2629187],[21.4755001,63.258388],[21.4797827,63.2533747],[21.4817713,63.2480778],[21.4826059,63.2425298],[21.4927904,63.2439307],[21.5038699,63.2444814],[21.5149822,63.2440971],[21.645878,63.2338644],[21.6447098,63.2321994],[21.6405346,63.2319508],[21.6291018,63.2301689],[21.6187031,63.2273923],[21.6097636,63.2237346],[21.6026485,63.2193454],[21.5976477,63.2144042],[21.5947161,63.210485],[21.7313684,63.1998022],[21.7190745,63.2007633],[21.6543664,63.2058218],[21.5681941,63.0909254],[21.5681941,63.0909254],[21.5681941,63.0909254],[21.5588156,63.0959353],[21.5732157,63.1229526],[21.531205,63.1255799],[21.5116787,63.099476],[21.5089982,63.094105],[21.5088059,63.088601],[21.5111083,63.083195],[21.5118512,63.0823919],[21.5082124,63.0813294],[21.5000082,63.0777703],[21.4934576,63.0735727],[21.4891764,63.0692692],[21.4940149,63.0722952],[21.5452156,63.0602875],[21.5,63],[21.4285714,62.7857143],[21.3571429,62.5714286],[21.3333334,62.5000001],[21.2857143,62.3571429],[21.2836162,62.3508485],[21.3392134,62.3563385],[21.2708127,62.3495842],[21.2708127,62.4103729],[21.2353445,62.382646],[21.2261264,62.3548266],[21.2255363,62.3496566],[21.227105,62.3445312],[21.230773,62.3396411],[21.2364032,62.3351678],[21.2437857,62.3312773],[21.252646,62.3281141],[21.262655,62.3257955],[21.2708812,62.3247369],[21.2705676,62.3242483],[21.2653452,62.3196253],[21.2583081,62.315555],[21.24972,62.3121898],[21.2399023,62.3096552],[21.2292221,62.3080462],[21.2180785,62.3074226],[21.2068876,62.3078078],[21.1960674,62.3091875],[21.186022,62.31151],[21.177127,62.3146887],[21.1697152,62.3186047],[21.1697152,62.3186047],[21.140901,62.337169],[21.1355343,62.3413842],[21.1318975,62.3459816],[21.1301113,62.3508097],[21.1302356,62.3557092],[21.1348886,62.3766537],[21.1348258,62.3766505],[21.1235938,62.3770782],[21.1127523,62.3785029],[21.1027081,62.380871],[21.093838,62.3840938],[21.0864753,62.3880503],[21.0808968,62.392592],[21.077313,62.3975486],[21.0758593,62.4027337],[21.0765917,62.4079526],[21.0920479,62.4517153],[21.079746,62.455558],[21.0710204,62.4588973],[21.0638555,62.4629548],[21.0585222,62.4675776],[21.0552228,62.4725913],[21.0540827,62.4778065],[21.0551463,62.4830263],[21.0583744,62.4880535],[21.0916049,62.5258154],[21.0743578,62.541961],[21.0703037,62.54694],[21.0684472,62.5521904],[21.0688616,62.5575079],[21.0715321,62.5626855],[21.0763557,62.5675216],[21.08056,62.5701882],[21.0754315,62.5695326],[21.0636515,62.5691595],[21.0519509,62.5698831],[21.0408052,62.5716741],[21.0306671,62.5744595],[21.0219488,62.5781264],[21.0150052,62.5825257],[21.0101194,62.5874784],[21.0074913,62.5927833],[21.007229,62.5982244],[21.0214647,62.6809702],[21.0238368,62.68671],[21.0288455,62.6920819],[21.0362572,62.6968337],[21.0923635,62.7255811],[21.056687,62.773061],[21.0540634,62.7780394],[21.0535436,62.7831561],[21.0551475,62.7882264],[21.0588183,62.7930675],[21.0644244,62.7975046],[21.0717641,62.8013773],[21.080573,62.8045457],[21.0905329,62.8068954],[21.1012841,62.8083413],[21.1124377,62.8088311],[21.140514,62.8088357],[21.1853796,62.8773864],[21.1895543,62.882087],[21.1955849,62.8863489],[21.2032587,62.8900213],[21.2123046,62.8929742],[21.2224028,62.8951029],[21.2331956,62.8963321],[21.3412322,62.9037646],[21.3643296,62.9484477],[21.3676999,62.9530532],[21.3728302,62.9573099],[21.379555,62.9610801],[21.3876568,62.9642413],[21.3968733,62.9666911],[21.3979468,62.9669202],[21.3809275,63.0354862],[21.3807074,63.0404584],[21.382504,63.0453652],[21.3862572,63.0500398],[21.3918403,63.054323],[21.4458134,63.0881133],[21.4538467,63.0921917],[21.4635308,63.0954539],[21.4744683,63.0977655],[21.4862095,63.0990316],[21.4982719,63.0992002],[21.499889,63.0990729],[21.5004185,63.1007527],[21.4998161,63.1008176],[21.4893292,63.1029791],[21.4799579,63.1060135],[21.4720522,63.1098078],[21.465908,63.1142201],[21.4617558,63.1190857],[21.4597516,63.1242226],[21.4524646,63.1664337],[21.45265,63.1715168],[21.4540449,63.1745428],[21.4486775,63.1734444],[21.4378506,63.172253],[21.4267241,63.171989],[21.4156839,63.1726614],[21.3833359,63.1760372],[21.2843933,63.1309998],[21.2749955,63.127507],[21.2642301,63.124947],[21.252544,63.1234261],[21.2404213,63.1230072],[21.2283647,63.1237077],[21.2168737,63.1254985],[21.2064247,63.1283054],[21.1974512,63.1320121],[21.190326,63.1364649],[21.1650315,63.1562292],[21.1552206,63.1552601],[21.1432687,63.1551795],[21.1315224,63.156175],[21.1204513,63.1582068],[21.1104981,63.1611938],[21.1020613,63.1650164],[21.0954791,63.1695218],[21.0910158,63.1745296],[21.0487508,63.2400578],[21.0015372,63.1753957],[20.9943224,63.1604125],[20.9795452,63.1452814],[20.9353948,63.0848292],[20.9117878,63.0394016],[20.7080393,62.3895456],[20.7030386,62.3378368],[20.7195797,62.2866555],[20.7383469,62.2621872],[20.7370074,62.2548222],[20.7386403,62.2020512],[20.7387993,62.2017072],[20.720544,62.1688489],[20.6690546,62.0318916],[20.6607055,61.9779648],[20.6756122,61.9243649],[20.7130538,61.8732566],[20.7714187,61.8266939],[20.8482852,61.7865395],[20.9001633,61.7643347],[20.8988281,61.7549919],[20.9102349,61.7072113],[20.9394634,61.661165],[20.9480775,61.65316],[20.9277196,61.6212782],[20.9254663,61.6109409],[20.8962301,61.5839455],[20.8657468,61.532852],[20.8570898,61.4799324],[20.8704862,61.4272571],[20.8859814,61.4048603],[20.8843911,61.3893159],[20.8958331,61.3532414],[20.888587,61.3484318],[20.8319475,61.301397],[20.7963468,61.2498962],[20.7831398,61.1960449],[20.7884706,61.1661229],[20.7846188,61.162653],[20.7529937,61.1125636],[20.7439597,61.0689307],[20.7108849,61.0305156],[20.6965851,60.9966395],[20.669924,60.9641058],[20.6606022,60.9402788],[20.6387776,60.8954438],[20.6356179,60.8410108]],[[21.0710437,63.0020196],[21.0724737,63.0072803],[21.0761423,63.0123134],[21.0819088,63.0169244],[21.0895512,63.0209349],[21.0895512,63.0209349],[21.0987746,63.0241898],[21.1092225,63.0265632],[21.1204908,63.0279632],[21.1321432,63.0283355],[21.1437286,63.0276658],[21.2085854,63.0209054],[21.2199176,63.019159],[21.2302447,63.0164159],[21.2391469,63.0127878],[21.2462627,63.0084223],[21.2513037,63.0034967],[21.2540662,62.9982112],[21.2683687,62.949236],[21.2687458,62.9438554],[21.2667673,62.9385468],[21.2625135,62.9335216],[21.2561545,62.92898],[21.2479445,62.9251025],[21.2479445,62.9251025],[21.2382104,62.9220433],[21.2273398,62.9199241],[21.2157647,62.9188291],[21.2039452,62.9188017],[21.1923509,62.919843],[21.1312001,62.9282784],[21.1211114,62.9301435],[21.1119435,62.9328177],[21.1040059,62.936211],[21.0975669,62.9402088],[21.0928445,62.9446762],[21.0899991,62.9494622],[21.0719064,62.9967345],[21.0710437,63.0020196]],[[21.202412,60.8889648],[21.2024122,60.8889648],[21.299613,60.8957191],[21.2024122,60.8889648],[21.202412,60.8889648]],[[21.2276123,60.5596922],[21.2276123,60.5596923],[21.2276123,60.5596922],[21.2492125,60.4989035],[21.2276123,60.5596922]],[[21.2708127,60.1898938],[21.2708128,60.1898938],[21.3536135,60.2118453],[21.2708128,60.1898938],[21.2708127,60.1898938]],[[21.2708127,60.6424325],[21.299613,60.5681352],[21.299613,60.5681351],[21.299613,60.5681352],[21.2708127,60.6424325]],[[21.3140131,62.2313838],[21.3140132,62.2313838],[21.3688685,62.2631674],[21.3140132,62.2313838],[21.3140131,62.2313838]],[[21.3428134,61.1912202],[21.3428135,61.1912202],[21.4220142,61.176023],[21.4220142,61.176023],[21.4220142,61.176023],[21.3428135,61.1912202],[21.3428134,61.1912202]],[[21.3536135,60.2118453],[21.4472144,60.1831395],[21.4472145,60.1831395],[21.4472144,60.1831395],[21.3536135,60.2118453]],[[21.3673468,62.2539291],[21.3752137,62.2668439],[21.3752138,62.2668439],[21.3673468,62.2539291]],[[21.3860139,60.7521901],[21.386014,60.7521901],[21.4285868,60.7417717],[21.386014,60.7521901],[21.3860139,60.7521901]],[[21.4220142,60.7251728],[21.4220142,60.7251728],[21.4688146,60.7319271],[21.4688147,60.7319271],[21.4220142,60.7251728],[21.4220142,60.7251728]],[[21.4436144,61.1692687],[21.4436145,61.1692687],[21.4557518,61.1595093],[21.4436145,61.1692687],[21.4436144,61.1692687]],[[21.4472145,61.4022923],[21.4472145,61.4022923],[21.5732156,61.4158009],[21.5732157,61.4158009],[21.4472145,61.4022923],[21.4472145,61.4022923]],[[21.4832148,60.1155964],[21.4832149,60.1155964],[21.5588154,60.1223507],[21.5588156,60.1223507],[21.4832149,60.1155964],[21.4832148,60.1155964]],[[21.5115823,61.5628601],[21.7172172,61.527247],[21.7172171,61.527247],[21.5115823,61.5628601]],[[21.5569761,61.7038445],[21.5876158,61.6977934],[21.5876159,61.6977933],[21.5569761,61.7038445]],[[21.594076,63.0770996],[21.6884169,63.0267037],[21.6884167,63.0267037],[21.594076,63.0770996]],[[21.7424174,60.1898938],[21.8864188,60.1763852],[21.8864189,60.1763852],[21.8864188,60.1763852],[21.7424174,60.1898938]],[[21.7928179,60.3739488],[21.792818,60.3739488],[21.89928,60.3273423],[21.792818,60.3739488],[21.7928179,60.3739488]],[[21.8324183,58.511448],[21.8324184,58.511448],[21.9944199,58.5131366],[21.8324184,58.511448],[21.8324184,58.511448],[21.8324183,58.511448]],[[21.8720187,58.3409017],[21.8720188,58.3409017],[21.9440194,58.3189502],[21.8720188,58.3409017],[21.8720187,58.3409017]],[[21.9584196,63.3323361],[21.9584196,63.3323362],[21.99802,63.384682],[21.9584196,63.3323362],[21.9584196,63.3323361]],[[21.9728197,63.2867446],[21.9728198,63.2867446],[22.02751,63.28308],[21.9728198,63.2867446],[21.9728197,63.2867446]],[[22.0424867,63.363466],[22.0952209,63.3829935],[22.095221,63.3829935],[22.0952209,63.3829935],[22.0424867,63.363466]],[[22.0556206,58.9521667],[22.4624245,58.970741],[22.4624246,58.970741],[22.0556206,58.9521667]],[[22.1949035,60.3028979],[22.3400233,60.2861427],[22.3400234,60.2861427],[22.3400233,60.2861427],[22.1949035,60.3028979]],[[22.2104221,60.205091],[22.2104222,60.205091],[22.2541935,60.2265144],[22.2104222,60.205091],[22.2104221,60.205091]],[[22.3184232,60.1645652],[22.3868238,60.1949596],[22.3868239,60.1949596],[22.3868238,60.1949596],[22.3184232,60.1645652]],[[22.3672728,63.4376568],[22.401224,63.4184536],[22.4012239,63.4184536],[22.3672728,63.4376568]],[[22.3940239,60.2928971],[22.4768247,60.3216029],[22.4768248,60.3216029],[22.4768247,60.3216029],[22.3940239,60.2928971]],[[22.4156242,60.149368],[22.599226,60.1426137],[22.5992259,60.1426137],[22.4156242,60.149368]],[[22.4228242,60.1155964],[22.4228243,60.1155964],[22.5251651,60.1312707],[22.4228243,60.1155964],[22.4228242,60.1155964]],[[22.4408244,58.9842497],[22.4408245,58.9842497],[22.4473132,58.9801916],[22.4408245,58.9842497],[22.4408244,58.9842497]],[[22.5041402,63.6169977],[22.5452255,63.5754913],[22.5452254,63.5754913],[22.5041402,63.6169977]],[[22.5236252,60.205091],[22.5236253,60.205091],[22.6496264,60.2793884],[22.6496265,60.2793884],[22.5236253,60.205091],[22.5236252,60.205091]],[[22.5242293,60.0192415],[22.5920259,60.0463648],[22.5920259,60.0463647],[22.5242293,60.0192415]],[[22.8332283,63.7257746],[22.8332284,63.7257746],[22.9268293,63.7426604],[22.8332284,63.7257746],[22.8332283,63.7257746]],[[22.8440284,60.0818249],[22.8440285,60.0818249],[22.8600115,60.0823419],[22.8440285,60.0818249],[22.8440284,60.0818249]],[[22.8548285,60.041299],[22.8548286,60.041299],[22.8836287,60.0480533],[22.8836288,60.0480533],[22.8548286,60.041299],[22.8548285,60.041299]],[[22.8548285,60.0548077],[22.8548286,60.0548077],[22.8653925,60.0523302],[22.8548286,60.0548077],[22.8548285,60.0548077]],[[22.8578503,60.0157871],[22.8584286,60.0109047],[22.8584286,60.0109046],[22.8584286,60.0109047],[22.8578503,60.0157871]],[[22.9116689,60.066232],[22.9268292,60.0649391],[22.9268293,60.0649391],[22.9268292,60.0649391],[22.9116689,60.066232]],[[23.0009311,63.7634004],[23.00243,63.7629234],[23.00243,63.7629233],[23.0009311,63.7634004]],[[23.0155057,60.096917],[23.0456304,60.1223507],[23.0456305,60.1223507],[23.0155057,60.096917]],[[23.0348303,60.0446762],[23.0348303,60.0446762],[23.2580326,60.0396105],[23.2580325,60.0396105],[23.0348303,60.0446762],[23.0348303,60.0446762]],[[23.1926913,58.0919231],[23.2674262,58.125142],[23.282506,58.1349675],[23.2897264,58.1366417],[23.3612357,58.1622045],[23.3711227,58.1555866],[23.4351239,58.1273635],[23.4323443,58.101724],[23.4416428,58.066866],[23.3763548,58.0811852],[23.2816685,58.0914244],[23.1926913,58.0919231]],[[23.2591597,58.4459532],[23.2796327,58.4371506],[23.2796328,58.4371506],[23.2796327,58.4371506],[23.2591597,58.4459532]],[[23.2628373,59.9662796],[23.3336333,60.029479],[23.3336332,60.0294789],[23.2628373,59.9662796]],[[23.3696337,63.9469783],[23.3696337,63.9469783],[23.4164342,63.9250268],[23.4164341,63.9250268],[23.3696337,63.9469783],[23.3696337,63.9469783]],[[23.4308343,59.9568702],[23.4308344,59.9568702],[23.5748357,59.9771331],[23.4308344,59.9568702],[23.4308343,59.9568702]],[[23.4745668,59.1999825],[23.5172352,59.0737443],[23.5172351,59.0737443],[23.4745668,59.1999825]],[[23.5604356,59.0534813],[23.5604357,59.0534813],[23.6144361,59.0112669],[23.5604356,59.0534813]],[[23.6513221,59.2552708],[23.7296373,59.230782],[23.7296373,59.2307819],[23.6513221,59.2552708]],[[23.798038,58.7849975],[23.8736384,58.771489],[23.8736387,58.7714889],[23.798038,58.7849975]],[[24.00324,58.1078781],[24.0140401,58.1534696],[24.0140401,58.1534697],[24.0140401,58.1534696],[24.00324,58.1078781]],[[24.4172442,59.9906417],[24.4172442,59.9906417],[24.4460444,60.0480533],[24.4460445,60.0480533],[24.4172442,59.9906417],[24.4172442,59.9906417]],[[24.497348,65.0370953],[24.4982231,65.0423118],[24.4982231,65.0423118],[24.5014675,65.0473592],[24.5069604,65.0520477],[24.5144964,65.0562009],[24.6080875,65.0984448],[24.6180478,65.1020914],[24.6295733,65.1048007],[24.6421742,65.1064574],[24.8223484,65.12167],[24.8351055,65.1221888],[24.8478523,65.1216288],[24.8600781,65.1200124],[24.9069144,65.1115616],[24.9178081,65.1090408],[24.9273379,65.1056815],[24.9273379,65.1056815],[24.9351452,65.1016104],[24.9409364,65.0969809],[24.9444945,65.0919674],[24.9456869,65.0867588],[24.9456802,65.0839897],[25.000168,65.0815057],[25.0174919,65.0796541],[25.0859463,65.067823],[25.096753,65.0654196],[25.1062765,65.0621933],[25.1141693,65.058262],[25.1201439,65.0537693],[25.1239832,65.0488792],[25.1255482,65.0437703],[25.1247831,65.0386289],[25.1217172,65.0336423],[25.1164635,65.0289924],[25.1164635,65.0289924],[25.1092142,65.0248483],[25.1002342,65.0213611],[25.0901256,65.018729],[25.0987896,65.021532],[25.1072327,65.0256441],[25.1135365,65.0303886],[25.1174422,65.0355717],[25.1187886,65.0409814],[25.1175192,65.0463963],[25.1136844,65.0515949],[25.1074398,65.0563641],[25.0990401,65.0605086],[25.0888289,65.0638584],[25.0772245,65.0662761],[25.0647026,65.0676625],[25.0517771,65.0679608],[24.9240555,65.0654052],[24.9114333,65.0646107],[24.8994437,65.0627775],[24.8994437,65.0627775],[24.8885651,65.0599787],[24.8873241,65.0594931],[24.9932499,65.054685],[25,65.0535185],[25.0616506,65.0428649],[25.0548672,65.0410973],[25.0454545,65.0409091],[24.9272731,65.0385455],[25,65.0356048],[24.8204482,65.0428649],[24.7593846,65.0184666],[24.803439,65.0360688],[24.5679435,65.0313589],[24.5771367,65.0225192],[24.5612456,65.0377992],[24.6084528,65.0590898],[24.5646734,65.0582138],[24.5524607,65.0574578],[24.5408268,65.0557282],[24.5302061,65.0530898],[24.5209951,65.0496411],[24.5135372,65.045511],[24.5081099,65.0408536],[24.5049146,65.0358426],[24.5040693,65.0306651],[24.505604,65.0255139],[24.5094602,65.0205809],[24.5098701,65.0201876],[24.5094509,65.0205004],[24.5027415,65.0269381],[24.4988737,65.0319057],[24.497348,65.0370953]],[[24.5396454,60.0868906],[24.608046,60.1003992],[24.6080461,60.1003992],[24.608046,60.1003992],[24.5396454,60.0868906]],[[24.5436735,64.7597358],[24.5864458,64.7811354],[24.5864459,64.7811354],[24.5436735,64.7597358]],[[24.5540455,60.1561223],[24.5683302,60.1466304],[24.5540456,60.1561222],[24.5540455,60.1561223]],[[24.7232472,65.0040276],[24.7232473,65.0040276],[24.7346444,65.0007096],[24.7232472,65.0040276]],[[24.7555173,64.9946328],[24.8276482,64.9736332],[24.8276483,64.9736332],[24.8276482,64.9736332],[24.7555173,64.9946328]],[[24.843203,65.0148503],[24.8474174,65.0165309],[24.8558386,65.0206435],[24.8621231,65.0253861],[24.8660132,65.0305655],[24.8660987,65.0309112],[24.8705532,65.0262028],[24.8775277,65.0217062],[24.8864791,65.01788],[24.897051,65.0148762],[24.9088231,65.012814],[24.9213278,65.0117754],[24.923637,65.011682],[24.9211174,65.0116922],[24.843203,65.0148503]],[[24.8973583,59.8346787],[24.9560214,59.8613261],[24.9841751,59.8772046],[24.9841751,59.8772046],[25.0265399,59.87934],[25.1137224,59.8821623],[25.1849568,59.8913656],[25.1077557,59.8595266],[25.0401674,59.8177203],[25.0337197,59.8115193],[24.991976,59.8218599],[24.8973583,59.8346787]],[[25.2236522,64.8233499],[25.2539637,64.8333021],[25.2236524,64.8233499],[25.2236522,64.8233499]],[[25.3136531,60.2726341],[25.3136532,60.2726341],[25.3208532,60.2506826],[25.3208532,60.2506826],[25.3208532,60.2506826],[25.3136531,60.2726341]],[[25.3281936,59.9252338],[25.3868567,59.9465056],[25.4177524,59.9600828],[25.4362475,59.9552646],[25.5421362,59.9402462],[25.6244507,59.9372337],[25.6031219,59.9363779],[25.5834379,59.9336426],[25.4961547,59.9387474],[25.38895,59.9341758],[25.3281936,59.9252338]],[[25.6700567,60.3638173],[25.7060571,60.3418658],[25.706057,60.3418658],[25.706057,60.3418658],[25.6700567,60.3638173]],[[25.7114822,59.9401126],[25.7611473,59.9433406],[25.8653247,59.9613298],[25.9214274,59.9779733],[25.9855641,59.9781185],[26.092667,59.9893066],[26.1932026,60.0109679],[26.2831053,60.0422315],[26.35871,60.0818367],[26.3600093,60.0828732],[26.4064305,60.1026399],[26.4049988,60.0728341],[26.422796,60.0213509],[26.422796,60.0213509],[26.4634748,59.9472274],[26.5024217,59.8966702],[26.5607047,59.8510397],[26.6091296,59.8260256],[26.3216037,59.8430227],[26.2668144,59.8639698],[26.1698408,59.8873872],[26.0653453,59.9005552],[25.965841,59.9027543],[25.9052071,59.9192459],[25.8074168,59.9346699],[25.7114822,59.9401126]],[[25.8428584,60.4026546],[25.9413214,60.362244],[25.8428585,60.4026545],[25.8428584,60.4026546]],[[25.9184592,60.4853949],[26.1416614,60.3959003],[25.9184599,60.4853946],[25.9184592,60.4853949]],[[27.0307692,59.7499539],[27.0379774,59.7499576],[27.143712,59.7608361],[27.243117,59.7820658],[27.3322276,59.8128047],[27.3756882,59.8353646],[27.3878738,59.8264647],[27.4614672,59.7901789],[27.4828085,59.7830943],[27.4748525,59.7721756],[27.4585906,59.7214911],[27.4600487,59.6978572],[27.1325655,59.7121933],[27.0307692,59.7499539]],[[27.8397117,60.0247781],[27.8840787,60.0109046],[27.8840788,60.0109046],[27.8840787,60.0109046],[27.8397117,60.0247781]],[[28.3232832,60.620481],[28.3232833,60.620481],[28.3448834,60.5934638],[28.3448834,60.5934638],[28.3448834,60.5934638],[28.3232832,60.620481]],[[28.4240842,60.3604401],[28.4240844,60.3604401],[28.5176852,60.3384886],[28.5176852,60.3384886],[28.5176852,60.3384886],[28.4240844,60.3604401],[28.4240842,60.3604401]],[[35.4412825,65.1215816],[35.4428623,65.1266005],[35.4466467,65.1314062],[35.4466467,65.1314062],[35.4525034,65.1358291],[35.4602266,65.1397129],[35.4695441,65.1429205],[35.6496318,65.1936208],[35.6601616,65.1960097],[35.6715676,65.1975374],[35.6834533,65.1981505],[35.6954053,65.1978277],[35.7963052,65.1910662],[35.8093055,65.1895908],[35.8212873,65.187011],[35.8317239,65.1834404],[35.840157,65.179036],[35.840157,65.179036],[35.8462172,65.1739914],[35.9132296,65.0995096],[35.9167091,65.0938174],[35.9171762,65.0879439],[35.9146108,65.0821681],[35.9091365,65.0767641],[35.9038641,65.072816],[35.8979833,65.069278],[35.8781274,65.0676344],[35.8730104,65.0669749],[35.8552209,65.0749547],[35.846241,65.078292],[35.8359433,65.0808663],[35.8246884,65.0825872],[35.8128709,65.0833944],[35.8009054,65.0832597],[35.7892115,65.0821877],[35.786844,65.0817638],[35.7825578,65.0681936],[35.8086498,65.0564874],[35.8086498,65.0564874],[35.7324342,64.9993257],[35.7324342,64.9993257],[35.7324342,64.9993257],[35.7322451,65],[35.7249572,65.0259791],[35.6998802,65.0298999],[35.6767794,65.0125473],[35.6714947,65.0073553],[35.6688907,65.0018109],[35.6690804,64.9961578],[35.6691048,64.9960715],[35.6690596,64.9961588],[35.6661513,65.0064441],[35.5408637,65.0260099],[35.5408637,65.0260099],[35.5282956,65.0286594],[35.5173983,65.0324027],[35.5086978,65.0370592],[35.5026151,65.0424043],[35.5026151,65.0424043],[35.4448751,65.111613],[35.4419618,65.1165263],[35.4412825,65.1215816]],[[35.8545585,64.4028941],[35.8545586,64.4028941],[35.9445594,64.4045827],[35.8545586,64.4028941],[35.8545585,64.4028941]],[[35.8905589,65.0411763],[35.8905591,65.0411763],[35.998575,65.0501171],[35.8905591,65.0411763],[35.8905589,65.0411763]],[[36.0831565,65.1292136],[36.2109619,65.1576882],[36.2109621,65.1576882],[36.2109619,65.1576882],[36.0831565,65.1292136]],[[36.495365,64.8503671],[36.5709657,64.8301042],[36.5709656,64.8301042],[36.495365,64.8503671]],[[37.902979,64.2391021],[37.9029791,64.2391021],[37.9289465,64.2482371],[37.9029791,64.2391021],[37.902979,64.2391021]],[[37.9101791,64.3437939],[37.9101791,64.3437939],[37.9569794,64.3640568],[37.9569796,64.3640568],[37.9101791,64.3437939],[37.9101791,64.3437939]],[[38.0469805,64.6460493],[38.1261813,64.6967066],[38.1261813,64.6967066],[38.1261813,64.6967066],[38.0469806,64.6460493],[38.0469805,64.6460493]],[[38.3673837,64.8098412],[38.4033839,64.7743811],[38.403384,64.7743811],[38.4033839,64.7743811],[38.3673837,64.8098412]],[[40.1458015,64.7338553],[40.2265715,64.6906667],[40.2265708,64.690667],[40.1458015,64.7338553]],[[42.5470255,66.3852838],[42.5470256,66.3852839],[42.8672942,66.4024519],[42.5470255,66.3852838]],[[43.2742327,68.6581088],[43.2742328,68.6581088],[43.3174332,68.6665517],[43.2742328,68.6581088],[43.2742327,68.6581088]],[[44.1382414,67.9759236],[44.2138419,67.9894322],[44.2138421,67.9894322],[44.1382414,67.9759236]],[[44.1382414,67.994498],[44.1382415,67.994498],[44.1611832,67.9929607],[44.1382415,67.994498],[44.1382414,67.994498]],[[44.2134478,68.013528],[44.4118438,68.0637296],[44.4118441,68.0637296],[44.2134478,68.013528]],[[44.2858429,67.087732],[44.3794438,67.1046178],[44.3794437,67.1046177],[44.2858429,67.087732]],[[44.5253626,66.6706377],[44.5630456,66.6655877],[44.5630455,66.6655877],[44.5253626,66.6706377]],[[45.8417543,67.4159881],[45.8825797,67.4329016],[45.9604119,67.483943],[45.9727649,67.4986807],[46.8070637,67.5507382],[46.9359808,67.5632348],[47.0567055,67.5846622],[47.1297821,67.6046552],[47.1190302,67.5602359],[47.1330476,67.5080926],[47.1634542,67.4699987],[47.1116963,67.4287312],[47.0768971,67.3721506],[47.0747668,67.3214611],[47.0522833,67.3058958],[47.0522833,67.3058958],[47.0113813,67.2588381],[46.993556,67.2096871],[46.9992742,67.1601144],[46.9999586,67.1589735],[46.7840793,67.1296531],[46.7169778,67.137629],[46.5866985,67.1430036],[46.4561371,67.1386469],[46.3500747,67.1310524],[46.2504632,67.2462531],[46.2024718,67.2888285],[46.1360989,67.3275547],[46.0532671,67.3612619],[45.9564268,67.3889274],[45.8417543,67.4159881]],[[46.4062641,66.7466394],[46.4271304,66.7564266],[46.4062642,66.7466394],[46.4062641,66.7466394]],[[46.8,55],[47.0666667,55.4],[47.2,55.6],[47.3333333,55.8],[47.4666667,56],[47.6,56.2],[47.8375,56.25],[48.075,56.3],[48.3125,56.35],[48.55,56.4],[48.7875,56.45],[49.025,56.5],[49.2625,56.55],[49.5,56.6],[49.9444444,56.5777778],[50.1666667,56.5666667],[50.3888889,56.5555556],[50.6111111,56.5444444],[50.8333333,56.5333333],[51.0555556,56.5222222],[51.5,56.5],[52.5625,56.0625],[52.775,55.975],[52.9875,55.8875],[53.2,55.8],[53.2333333,55.5833333],[53.2666667,55.3666667],[53.3,55.15],[53.3333333,54.9333333],[53.3666667,54.7166667],[53.4,54.5],[53.25,54.3166667],[52.95,53.95],[52.8,53.7666667],[52.65,53.5833333],[52.5,53.4],[52.2777778,53.3444444],[52.0555556,53.2888889],[52.0555556,53.2888889],[51.8333333,53.2333333],[51.6111111,53.1777778],[51.3888889,53.1222222],[51.1666667,53.0666667],[50.9444444,53.0111111],[50.9444444,53.0111111],[50.7222222,52.9555556],[50.5,52.9],[50.0555556,52.9444444],[49.8333333,52.9666667],[49.1666667,53.0333333],[48.9444444,53.0555556],[48.5,53.1],[48.3,53.2166667],[48.1,53.3333333],[47.9,53.45],[47.7,53.5666667],[47.5,53.6833333],[47.3,53.8],[47.2166667,54],[47.1333333,54.2],[47.05,54.4],[46.9666667,54.6],[46.8,55]],[[48.699487,67.7158827],[48.7426873,67.7006855],[48.7426874,67.7006855],[48.7426873,67.7006855],[48.699487,67.7158827]],[[48.703087,67.6939312],[48.7030871,67.6939312],[48.9262893,67.6871769],[48.703087,67.6939312]],[[48.9622896,67.6534054],[48.99829,67.666914],[48.99829,67.666914],[48.99829,67.666914],[48.9622897,67.6534054],[48.9622896,67.6534054]],[[49.0446366,67.6646176],[49.1062911,67.6398968],[49.1062909,67.6398968],[49.0446366,67.6646176]],[[49.8478985,68.0164495],[49.9810998,68.0620411],[49.8478986,68.0164495],[49.8478985,68.0164495]],[[51.1622122,68.3680799],[51.5687156,68.4352166],[51.5687157,68.4352166],[51.1622122,68.3680799]],[[51.298713,68.4960054],[51.4607145,68.4740539],[51.4607146,68.4740539],[51.4607145,68.4740539],[51.298713,68.4960054]],[[52.7711277,71.3784068],[52.7711284,71.3784065],[52.8755287,71.3328152],[52.8755288,71.3328152],[52.8755287,71.3328152],[52.7711277,71.3784068]],[[52.8101774,71.4450362],[52.8215282,71.4290642],[52.8215282,71.4290641],[52.8215282,71.4290642],[52.8101774,71.4450362]],[[53,71.2958987],[53.0195301,71.2821579],[53.0195302,71.2821579],[53.0195301,71.2821579],[53,71.2958987]],[[53.0627306,71.2382549],[53.1563314,71.2433206],[53.1563316,71.2433206],[53.0627306,71.2382549]],[[53.0807308,71.2568293],[53.0807309,71.2568293],[53.1154084,71.2506329],[53.0807309,71.2568293],[53.0807308,71.2568293]],[[53.3141334,71.3086268],[53.3687336,71.2922894],[53.3687337,71.2922894],[53.3687336,71.2922894],[53.3141334,71.3086268]],[[53.5739357,68.3997565],[53.5739358,68.3997565],[53.6650304,68.3570291],[53.5739357,68.3997565]],[[53.6927369,68.8860668],[53.6927369,68.8860668],[53.7323373,68.8658039],[53.7323372,68.8658039],[53.7323372,68.8658039],[53.6927369,68.8860668],[53.6927369,68.8860668]],[[53.7287373,68.8978868],[54.0275402,68.8455409],[54.0275403,68.8455409],[54.0275402,68.8455409],[53.7287373,68.8978868]],[[53.8331383,70.814422],[53.8907388,70.7840276],[53.8907389,70.7840276],[53.8907388,70.7840276],[53.8331383,70.814422]],[[53.9915399,71.1605804],[53.99154,71.1605804],[54.2435424,71.1234317],[54.2435422,71.1234317],[53.99154,71.1605804],[53.9915399,71.1605804]],[[54.0563406,71.2095491],[54.095941,71.1892862],[54.0959409,71.1892862],[54.0563406,71.2095491]],[[54.1931419,68.813458],[54.193142,68.813458],[54.2291423,68.7965722],[54.193142,68.813458],[54.1931419,68.813458]],[[54.2291423,68.7965722],[54.3947438,68.7830636],[54.3947439,68.7830636],[54.3947438,68.7830636],[54.2291423,68.7965722]],[[54.5711457,68.9637413],[54.5711458,68.9637413],[54.6284074,69],[54.5711458,68.9637413],[54.5711457,68.9637413]],[[54.6127988,70.6685866],[54.7691475,70.6472529],[54.7691477,70.6472529],[54.7691475,70.6472529],[54.6127988,70.6685866]],[[54.9131491,68.9316584],[54.9131492,68.9316584],[55,68.9180794],[54.9131492,68.9316584],[54.9131491,68.9316584]],[[55.2263523,68.913084],[55.2263524,68.913084],[55.3703537,68.9485441],[55.2263524,68.913084],[55.2263523,68.913084]],[[55.3639534,71.9642807],[55.3919538,71.9423916],[55.3919539,71.9423916],[55.3919538,71.9423916],[55.3639534,71.9642807]],[[55.3703537,68.9485441],[55.507155,68.913084],[55.5071551,68.913084],[55.507155,68.913084],[55.3703537,68.9485441]],[[55.3788306,72],[55.4104361,72.0250481],[55.3788306,72],[55.3788306,72],[55.3788306,72],[55.3788306,72]],[[55.4063541,70.7502561],[55.7483574,70.6472529],[55.7483575,70.6472529],[55.7483574,70.6472529],[55.4063541,70.7502561]],[[55.600756,70.7215503],[55.6007562,70.7215503],[55.7375574,70.7080417],[55.600756,70.7215503]],[[55.604356,70.6472529],[55.6043569,70.6472526],[55.6342964,70.6380369],[55.6043569,70.6472526],[55.604356,70.6472529]],[[55.697957,70.6202356],[55.7267572,70.6269899],[55.7267573,70.6269899],[55.697957,70.6202356]],[[55.697957,70.6472529],[55.6979571,70.6472529],[55.7176772,70.6333784],[55.6979571,70.6472529],[55.697957,70.6472529]],[[56.198362,70.7097302],[56.1983621,70.7097302],[56.302763,70.6810244],[56.302763,70.6810244],[56.302763,70.6810244],[56.198362,70.7097302]],[[56.2235622,70.7418132],[56.3207631,70.7029759],[56.3207632,70.7029759],[56.3207631,70.7029759],[56.2235622,70.7418132]],[[56.399964,70.5645126],[56.3999641,70.5645126],[56.5151652,70.5442497],[56.3999641,70.5645126],[56.399964,70.5645126]],[[56.4539645,70.6269899],[56.4539646,70.6269899],[56.6555665,70.5898412],[56.6555666,70.5898412],[56.6555665,70.5898412],[56.4539645,70.6269899]],[[56.492377,70.6341968],[56.5259652,70.6404986],[56.5259653,70.6404986],[56.5259652,70.6404986],[56.492377,70.6341968]],[[56.4935649,70.694533],[56.493565,70.694533],[56.5799658,70.738436],[56.493565,70.694533],[56.4935649,70.694533]],[[56.6362986,70.6383224],[56.6987668,70.6337443],[56.698767,70.6337443],[56.6987668,70.6337443],[56.6362986,70.6383224]],[[56.7419674,70.7029759],[56.7419675,70.7029759],[56.822015,70.6630077],[56.7419674,70.7029759]],[[56.8427684,70.606727],[56.8427685,70.606727],[56.9863282,70.581033],[56.8427685,70.606727],[56.8427684,70.606727]],[[57.0371704,70.5442497],[57.1928682,70.5131734],[57.0371706,70.5442496],[57.0371704,70.5442497]],[[57.397174,70.6269899],[57.3971741,70.6269899],[57.4511744,70.606727],[57.4511745,70.606727],[57.4511744,70.606727],[57.397174,70.6269899]],[[57.4331743,70.7435018],[57.4331744,70.7435018],[57.6383763,70.7299932],[57.6383764,70.7299932],[57.6383763,70.7299932],[57.4331743,70.7435018]],[[58.2751504,68.7790219],[58.3763837,68.7560463],[58.3763838,68.7560463],[58.3763837,68.7560463],[58.2751504,68.7790219]],[[58.4123841,70.2605687],[58.4123842,70.2605687],[58.502385,70.2301743],[58.4123842,70.2605687],[58.4123841,70.2605687]],[[58.4519845,70.1947142],[58.4519846,70.1947142],[58.5136023,70.1887857],[58.4519846,70.1947142],[58.4519845,70.1947142]],[[58.7615876,69.3386055],[58.7615877,69.3386055],[59,69.2618093],[58.7615877,69.3386055],[58.7615876,69.3386055]],[[58.8911889,68.9350355],[58.891189,68.9350355],[59,68.9188737],[58.8911889,68.9350355]],[[58.9379894,69.9414276],[58.9379895,69.9414276],[58.9715697,69.9378635],[58.9379894,69.9414276]],[[59.0662675,68.9689545],[59.222392,68.9992015],[59.2223922,68.9992015],[59.222392,68.9992015],[59.0662675,68.9689545]],[[59.6774934,69.7007374],[59.9351993,69.6678781],[59.9351994,69.6678781],[59.9351993,69.6678781],[59.6774934,69.7007374]],[[59.9653102,68.9680506],[59.9708632,68.9785301],[59.9926813,68.9694684],[59.9653102,68.9680506]],[[60.4140041,69.9633791],[60.4140041,69.9633791],[60.4752047,69.9211646],[60.4752048,69.9211646],[60.4752047,69.9211646],[60.4140041,69.9633791],[60.4140041,69.9633791]],[[60.6410304,69.7072981],[60.6552066,69.6729438],[60.6552065,69.6729438],[60.6410304,69.7072981]]]}}
