{"type":"Feature","properties":{"family":"danes","name":"Five Boroughs, 902 – 916"},"geometry":{"type":"Polygon","coordinates":[[[-2.05,53.38],[-1.95,53.25],[-1.85,53.1],[-1.7,52.65],[-1.6,52.6],[-1.45,52.53],[-1.3,52.42],[-1,52.45],[-0.6,52.52],[-0.45,52.55],[-0.3,52.58],[0,52.75],[0.1265018,52.8765018],[0.1576944,52.8554936],[0.1647265,52.8625196],[0.1687541,52.8676995],[0.170882,52.8732757],[0.1710139,52.8789973],[0.1691431,52.8846071],[0.165353,52.8898524],[0.1598136,52.8944973],[0.263955,52.8243463],[0.3195911,52.8290854],[0.3276886,52.8293238],[0.3357239,52.8286732],[0.3434315,52.827155],[0.3505571,52.8248193],[0.3568655,52.8217433],[0.3651735,52.8168751],[0.4421979,52.9434019],[0.4462574,52.9483917],[0.4519284,52.9527742],[0.4589706,52.9563634],[0.5453953,52.9918416],[0.5523913,52.9941874],[0.5599697,52.9957459],[0.6752365,53.0126418],[0.6854268,53.0134017],[0.6956371,53.0127462],[0.7586605,53.004156],[0.7748715,53.034261],[0.7855428,53.0832496],[0.7941371,53.2166143],[0.7911875,53.2494872],[0.7896804,53.2662829],[0.7700265,53.3146157],[0.6742866,53.4804366],[0.6318792,53.533732],[0.5900712,53.5656327],[0.5928483,53.585327],[0.5923636,53.5963575],[0.5923616,53.5964039],[0.5809525,53.6497955],[0.5518415,53.7007764],[0.5061328,53.7473055],[0.445611,53.7875139],[0.3726761,53.8197813],[0.2902496,53.8428042],[0.2016549,53.8556504],[0.1874961,53.8568306],[0.110335,53.8585963],[0.0453699,53.8974264],[-0.026438,53.9323027],[-0.1088401,53.9578567],[-0.1358251,53.9624245],[-0.1077568,53.9117372],[0.1731376,53.658008],[0.1770005,53.6536781],[0.1794782,53.6490057],[0.1804894,53.6441449],[0.183425,53.5893645],[0.1834249,53.5893638],[0.1834247,53.5893678],[0.1822336,53.5947032],[0.1792814,53.5997919],[0.1746849,53.6044315],[0.1686268,53.6084371],[0.1613479,53.6116491],[0.1531383,53.6139395],[0.144325,53.6152169],[0.1364998,53.615869],[0.1375858,53.5960038],[0.1379959,53.5885003],[0.1239248,53.5896729],[0.1350014,53.6111968],[0.1209561,53.6165868],[0.1120366,53.6157133],[0.1034743,53.6137684],[0.0957444,53.6108439],[0.0891615,53.6070586],[0.0839932,53.6025666],[0.0804491,53.5975508],[0.0804419,53.597537],[0.080444,53.5975431],[0.081504,53.5996079],[0.0430609,53.6143525],[-0.0912167,53.6116642],[-0.1550367,53.6384588],[-0.240047,53.7214594],[-0.2456488,53.7258386],[-0.2526345,53.7294554],[-0.2607146,53.7321598],[-0.2695538,53.7338395],[-0.2787854,53.7344248],[-0.279788,53.734367],[-0.279788,53.734367],[-0.279788,53.734367],[-0.3000503,53.7324421],[-0.5215573,53.7057438],[-0.5331246,53.7103009],[-0.5331264,53.7103007],[-0.5331264,53.7103007],[-0.5331267,53.7103007],[-0.5362922,53.71],[-0.5362922,53.71],[-0.5362922,53.71],[-0.5454055,53.7091343],[-0.5362922,53.71],[-0.5487014,53.71],[-0.6354064,53.7327744],[-0.7254073,53.7006914],[-0.6210062,53.7125114],[-0.61167,53.708833],[-0.5492816,53.6842521],[-0.5492724,53.6842485],[-0.5492724,53.6842485],[-0.5492724,53.6842485],[-0.5492724,53.6842485],[-0.5492724,53.6842485],[-0.5310053,53.6770513],[-0.5492724,53.6842485],[-0.5492724,53.6842485],[-0.5492724,53.6842485],[-0.5492724,53.6842485],[-0.5492724,53.6842485],[-0.5492816,53.6842521],[-0.61167,53.708833],[-0.7,53.7],[-0.9,53.55],[-1.2,53.48],[-1.5,53.42],[-1.8,53.42],[-1.925,53.4],[-2.05,53.38]]]}}
