{"type":"Feature","properties":{"family":"franks","name":"Kingdom of France, 985 – 1066"},"geometry":{"type":"Polygon","coordinates":[[[-2.7660353,46.706753],[-2.7622418,46.6797505],[-2.7472442,46.6275606],[-2.7176569,46.578399],[-2.6746619,46.5341676],[-2.6199481,46.4965732],[-2.5556433,46.4670635],[-2.4842322,46.446773],[-2.4084616,46.436481],[-2.3081547,46.4297549],[-2.2295503,46.4298858],[-2.1770144,46.437326],[-2.1557452,46.389645],[-2.1180652,46.3420031],[-2.067397,46.3005095],[-2.0057994,46.2668287],[-1.9466379,46.2461228],[-1.9391424,46.1985129],[-1.9174244,46.149607],[-1.8828098,46.1044119],[-1.8365653,46.0645429],[-1.7925811,46.0331808],[-1.7818159,45.9851875],[-1.7525265,45.9076128],[-1.7192786,45.8486446],[-1.6672795,45.7966818],[-1.6266012,45.7647304],[-1.6296771,45.7501118],[-1.6335205,45.7012173],[-1.6246464,45.6526446],[-1.6033791,45.6059916],[-1.5704461,45.5627889],[-1.5269506,45.5244507],[-1.4960754,45.5055512],[-1.6382339,44.6601003],[-1.6398276,44.60873],[-1.6336497,44.5829005],[-1.6361694,44.5710368],[-1.6546879,44.3359194],[-1.8274797,43.6908037],[-1.8778042,43.641527],[-1.9372856,43.6203477],[-1.9959756,43.5875636],[-2.0444848,43.5469961],[-2.0808996,43.5002653],[-2.1037996,43.4492331],[-2.1123104,43.3959275],[-2.1061336,43.3424614],[-2.0998012,43.3266124],[-1.9754898,43.3675474],[-1.9682228,43.3693029],[-1.9606146,43.3699362],[-1.9529896,43.3694204],[-1.9456728,43.3677775],[-1.9422402,43.3663936],[-1.9394201,43.3675701],[-1.809777,43.4098016],[-1.8003905,43.4118244],[-1.7470103,43.4179147],[-1.7468548,43.417922],[-1.7470109,43.4179041],[-1.7543393,43.416496],[-1.761122,43.4140358],[-1.7670759,43.4106262],[-1.771953,43.4064093],[-1.7755501,43.4015612],[-1.7777174,43.3962839],[-1.778365,43.3907975],[-1.7777566,43.3870966],[-1.7412605,43.3912605],[-1.7412605,43.3912605],[-1.7946179,43.3851728],[-1.7412605,43.3912605],[-1.7,43.35],[-1.6,43.25],[-1.35,43.1],[-1,43],[-0.7,42.9],[-0.5,42.85],[-0.3,42.8],[0.1,42.7],[0.225,42.575],[0.35,42.45],[0.6,42.25],[0.9,42.1],[1.2,42],[1.5,41.95],[1.8,41.75],[1.95,41.5],[2.1170048,41.3035238],[2.0875828,41.288245],[2.0912198,41.2847767],[2.0967155,41.2812805],[2.1030276,41.27868],[2.1099021,41.2770798],[2.1170623,41.2765444],[2.1242201,41.2770952],[2.1310878,41.27871],[2.1372268,41.2812568],[2.0814318,41.2522865],[2.0753492,41.2497397],[2.0687279,41.2481227],[1.7839642,41.200224],[1.8007057,41.1767948],[1.8396955,41.1327898],[1.8892691,41.0953489],[1.9475195,41.0658993],[2.0122183,41.0455621],[2.0809001,41.0351103],[2.1509535,41.034941],[2.2197169,41.0450605],[2.2845761,41.0650843],[2.3430597,41.0942513],[2.3929311,41.1314512],[2.5248865,41.2509635],[3.0961768,41.4714963],[3.1597796,41.5024996],[3.3791222,41.635439],[3.4319978,41.6747406],[3.4729961,41.7213214],[3.5562458,41.8409626],[3.5830404,41.8910293],[3.5959691,41.9440715],[3.5944809,41.9979759],[3.5785983,42.0505891],[3.5620452,42.0875729],[3.5907075,42.1224344],[3.6450409,42.2050104],[3.6697159,42.2539545],[3.6812164,42.3055093],[3.6790785,42.3577447],[3.663348,42.4086999],[3.634584,42.4564572],[3.5938423,42.499215],[3.5426397,42.5353565],[3.5032181,42.5539423],[3.4955897,42.5810127],[3.4753928,42.629321],[3.4432755,42.6740041],[3.4071285,42.7072518],[3.4082993,42.8998152],[3.4372072,42.9647386],[3.4928169,43.0071775],[3.5552196,43.0125602],[3.6230073,43.0231655],[3.6869156,43.0428263],[3.744709,43.0708563],[4.0098604,43.2267008],[4.0290196,43.218686],[4.0976455,43.2017958],[4.1694396,43.194929],[4.3324001,43.1909043],[4.3374466,43.1864323],[4.386828,43.1502329],[4.4446113,43.1214389],[4.508738,43.1010705],[4.5769332,43.0898482],[4.6467834,43.0881684],[4.7158191,43.0960902],[4.7815988,43.1133334],[4.8417916,43.1392878],[4.8942575,43.1730341],[4.9371215,43.2133755],[4.9688403,43.2588789],[4.9882583,43.3079241],[4.9921492,43.3388627],[4.9721333,43.3705203],[4.9697986,43.3753884],[4.9687801,43.3804907],[4.9691156,43.3856409],[4.9707931,43.3906508],[4.9737516,43.3953375],[4.9763346,43.398572],[4.9061706,43.3953319],[4.9061693,43.3933562],[4.9132942,43.3921674],[4.9199806,43.3899753],[4.9259423,43.3868699],[4.9309465,43.3829726],[4.9347976,43.3784358],[4.9373455,43.3734367],[4.9384909,43.3681707],[4.9381894,43.3628435],[4.9364532,43.3576632],[4.9333504,43.3528321],[4.9290025,43.3485387],[4.9235794,43.3449506],[4.8767863,43.3196312],[4.8708771,43.317016],[4.8644041,43.3152443],[4.857592,43.3143778],[4.8506776,43.3144465],[4.8439012,43.3154481],[4.8374983,43.3173478],[4.8316914,43.3200796],[4.8266825,43.3235484],[4.8206036,43.3286244],[4.815124,43.3249112],[4.8087811,43.3214541],[4.8015745,43.3190561],[4.7938329,43.3178264],[4.7859096,43.3178212],[4.619903,43.330563],[4.619816,43.3305758],[4.5879859,43.3330187],[4.6198934,43.3305699],[4.6272785,43.3305399],[4.6345243,43.3315752],[4.6413439,43.3336347],[4.6474667,43.3366367],[4.6526501,43.3404623],[4.6566882,43.3449597],[4.6594206,43.3499507],[4.6605722,43.3545693],[4.6605722,43.3545693],[4.6237676,43.3573941],[4.6,43.5],[4.62,43.7],[4.7,43.95],[4.69,44.075],[4.68,44.2],[4.75,44.55],[4.79,44.725],[4.83,44.9],[4.85,45.2],[4.82,45.5],[4.83,45.75],[4.83,46],[4.85,46.4],[4.88,46.78],[5.1,46.95],[5.10625,46.9552083],[5.4,47.2],[5.6,47.45],[5.45,47.7],[5.2,48],[5.1,48.3],[4.95,48.6],[4.925,48.75],[4.9,48.9],[4.85,49.2],[4.7,49.5],[4.3,49.7],[4.1,49.775],[3.9,49.85],[3.5,50],[3.25,50.18],[3.3,50.35],[3.38,50.55],[3.45,50.7],[3.6,50.85],[3.72,51.05],[3.75,51.2],[3.6153864,51.3974334],[3.6487089,51.3891361],[3.6719218,51.3833562],[3.6551042,51.4080525],[3.6510259,51.4126914],[3.645574,51.4167428],[3.6389583,51.4200506],[3.6319748,51.4223119],[3.751517,51.3926088],[3.6731085,51.4284064],[3.5975186,51.4309355],[3.5722689,51.4372252],[3.5767192,51.4392026],[3.5824388,51.4429578],[3.5869047,51.4473253],[3.5899521,51.4521442],[3.5899521,51.4521442],[3.5914682,51.457237],[3.591456,51.4581261],[3.5483883,51.459569],[3.4932698,51.5018265],[3.4802304,51.5143033],[3.4697384,51.5243425],[3.4643449,51.5218875],[3.4584597,51.5178509],[3.4539973,51.5131599],[3.4511399,51.5080062],[3.4500034,51.5026005],[3.4506338,51.4971634],[3.4530048,51.4919171],[3.4568632,51.4872634],[3.4107121,51.5313908],[3.4068723,51.5359589],[3.4044984,51.5408963],[3.4036778,51.5460228],[3.4044407,51.5511512],[3.40676,51.5560941],[3.4105512,51.560671],[3.4156762,51.5647144],[3.4219481,51.5680766],[3.5335742,51.6170687],[3.5401692,51.619447],[3.5473356,51.6210708],[3.5548516,51.6218898],[3.8466225,51.637098],[3.854965,51.6370236],[3.8631329,51.6359605],[3.8708244,51.6339479],[3.8777554,51.6310602],[3.8836702,51.6274041],[3.9014259,51.6140719],[3.8893059,51.6255391],[3.800564,51.6701389],[3.710401,51.6551248],[3.7023987,51.6542761],[3.6942792,51.6543653],[3.6863256,51.6553893],[3.678815,51.6573124],[3.6720095,51.6600675],[3.6661463,51.6635585],[3.6614302,51.6676639],[3.6580261,51.6722402],[3.656053,51.6771279],[3.656053,51.6771279],[3.6452131,51.7210266],[3.6447647,51.726439],[3.6460736,51.7317958],[3.6490875,51.7368804],[3.653685,51.7414872],[3.6596807,51.7454299],[3.6657163,51.7480622],[3.6138398,51.7610345],[3.5273031,51.7707834],[3.4393522,51.7694884],[3.4393522,51.7694884],[3.3536404,51.757203],[3.2737234,51.7344369],[3.2029049,51.7021338],[3.1440955,51.6616304],[3.0996901,51.6145992],[3.096132,51.6080967],[3.0200019,51.5921378],[3.0199969,51.5921367],[3.0198624,51.5921085],[3.0198542,51.5921068],[2.9887885,51.5855946],[2.8943612,51.5573939],[2.3509527,51.3387814],[1.8368931,51.2620789],[1.8435939,51.2158718],[1.8297853,51.1544363],[1.8003863,51.0836249],[1.7737852,51.0372572],[1.7342684,50.9946982],[1.6831776,50.957357],[1.6222255,50.9264665],[1.5534376,50.9030448],[1.397278,50.8607836],[1.3936745,50.8472778],[1.3628666,50.7967604],[1.3167936,50.751136],[1.2573361,50.7122258],[1.1868908,50.6815787],[1.1407147,50.6691464],[1.1500989,50.6172288],[1.1745515,50.5509699],[1.1430311,50.4706149],[1.1306305,50.4131049],[1.1337316,50.388137],[1.1280852,50.3656177],[1.1226101,50.3066488],[1.1055587,50.2824011],[1.0607915,50.254486],[1.0799312,50.2663906],[1.1474926,50.300481],[1.2245538,50.3250598],[1.3078754,50.3390902],[1.3939417,50.3419797],[1.4791152,50.3336064],[1.5053144,50.3273452],[1.5005171,50.279684],[1.5008662,50.2740846],[1.5030159,50.2686521],[1.5068732,50.2636206],[1.512271,50.2592073],[1.5410813,50.2401095],[1.5309701,50.2416838],[1.5227462,50.2424247],[1.5144549,50.2421187],[1.5064187,50.2407777],[1.4989499,50.2384538],[1.4923388,50.2352374],[1.4868421,50.2312535],[1.4826732,50.2266568],[1.4212516,50.1401421],[1.3246341,50.0801545],[1.3436495,50.0919578],[1.3501959,50.0952722],[1.3576337,50.0976924],[1.3656702,50.0991231],[1.3739888,50.0995079],[1.3822619,50.0988316],[1.3901637,50.097121],[1.397383,50.0944434],[1.4030028,50.0912625],[1.2222122,49.9790671],[1.3728341,50.0725403],[1.38,50.06],[1.49,49.98],[1.6,49.9],[1.75,49.7],[1.735,49.575],[1.72,49.45],[1.62,49.2],[1.5,49.05],[1.3,48.9],[1,48.75],[0.75,48.65],[0.575,48.6],[0.4,48.55],[0.1,48.45],[-0.3,48.5],[-1.25,48.5],[-1.05,48.35],[-1.05,48.05],[-1.2,47.8],[-1.05,47.6],[-1,47.4],[-1.25,47.2],[-1.6,47.05],[-2,46.95],[-2.1177242,46.9058534],[-2.1294213,46.8940364],[-2.12734,46.8797186],[-2.1278338,46.8797744],[-2.1348755,46.8815541],[-2.1412975,46.8842126],[-2.1468677,46.8876539],[-2.1492858,46.8898487],[-2.1529961,46.8892459],[-2.1609348,46.8890727],[-2.1685012,46.8899579],[-2.1685012,46.8899579],[-2.1578529,46.8170703],[-2.1564584,46.8121671],[-2.1537666,46.8075239],[-2.1498702,46.8032997],[-2.1449028,46.7996394],[-1.940318,46.6739457],[-1.9341219,46.6670482],[-1.9406218,46.6648472],[-2.0148268,46.6454249],[-2.0931733,46.6365864],[-2.1725076,46.6386873],[-2.2496382,46.6516432],[-2.2675248,46.6574496],[-2.2783265,46.6590415],[-2.3335169,46.6753316],[-2.2736704,46.6713212],[-2.2657749,46.6713347],[-2.2580424,46.6724295],[-2.2507843,46.6745614],[-2.2442929,46.6776446],[-2.2388298,46.681555],[-2.2346153,46.686135],[-2.2318197,46.6912001],[-2.2305559,46.6965461],[-2.2308754,46.7019575],[-2.2327659,46.7072161],[-2.2361513,46.7121097],[-2.2408956,46.716441],[-2.2468076,46.7200349],[-2.3152222,46.75382],[-2.3223131,46.7566015],[-2.3300899,46.7583203],[-2.3382175,46.7589024],[-2.3742359,46.7589023],[-2.3823565,46.758321],[-2.390127,46.756605],[-2.397213,46.7538281],[-2.4033096,46.7501097],[-2.4081547,46.74561],[-2.4115403,46.7405224],[-2.4133212,46.7350658],[-2.4134212,46.7294749],[-2.4134212,46.7294749],[-2.4106678,46.7089228],[-2.4119691,46.7095342],[-2.4656894,46.7470732],[-2.6027301,46.8632147],[-2.6456263,46.9078208],[-2.6534366,46.9210294],[-2.665978,46.9133591],[-2.7143147,46.8682433],[-2.7479252,46.8172761],[-2.7654,46.7626612],[-2.7660353,46.706753]],[[3.6719218,51.3833562],[3.6153863,51.3974334],[3.6153863,51.3974335],[3.6719218,51.3833562]]]}}
