{"type":"Feature","properties":{"family":"franks","name":"Empire of Charles the Fat, 885 – 887"},"geometry":{"type":"Polygon","coordinates":[[[-2.7659878,46.7065113],[-2.7621933,46.6795122],[-2.7472343,46.6275001],[-2.7177154,46.5785126],[-2.6748133,46.5344409],[-2.6202093,46.496982],[-2.5560224,46.4675756],[-2.484727,46.44735],[-2.40906,46.437081],[-2.3087593,46.430348],[-2.2301793,46.4304607],[-2.1772958,46.4379189],[-2.1557457,46.3896452],[-2.1180959,46.3421181],[-2.0674536,46.3007357],[-2.0058763,46.2671583],[-1.9466284,46.246496],[-1.9391621,46.1986071],[-1.9175522,46.1498195],[-1.8830526,46.1047318],[-1.8369242,46.0649537],[-1.7925772,46.0333309],[-1.7817669,45.9850713],[-1.7524794,45.9075071],[-1.7193649,45.8487779],[-1.6675642,45.7970204],[-1.6263933,45.7646839],[-1.629572,45.749573],[-1.6334029,45.7008491],[-1.6245636,45.6524585],[-1.6033764,45.6059873],[-1.5705634,45.5629547],[-1.5272199,45.5247643],[-1.4958176,45.5055483],[-1.6380338,44.6595579],[-1.6396412,44.6082811],[-1.6334378,44.5823596],[-1.6359775,44.5703966],[-1.6544812,44.335205],[-1.8272199,43.68998],[-1.8774262,43.6408064],[-1.9364675,43.6198123],[-1.9952227,43.5870642],[-2.0438211,43.5465496],[-2.0803456,43.4998876],[-2.1033717,43.4489383],[-2.1120203,43.3957273],[-2.1059879,43.3423641],[-2.0893216,43.3004414],[-2.0885744,43.3006874],[-1.9602196,43.3429584],[-1.9170192,43.3210069],[-1.9242192,43.3429584],[-1.7946179,43.3851728],[-1.7777566,43.3870966],[-1.7777565,43.3870966],[-1.7777419,43.3870983],[-1.7777419,43.3870983],[-1.7777412,43.3870983],[-1.7727335,43.3876697],[-1.7412605,43.3912605],[-1.7000677,43.3959603],[-1.7000677,43.3959603],[-1.7000672,43.3959603],[-1.7000672,43.3959603],[-1.6614166,43.40037],[-1.7000672,43.3959603],[-1.7000672,43.3959603],[-1.7000677,43.3959603],[-1.7000677,43.3959603],[-1.7412605,43.3912605],[-1.7412605,43.3912605],[-1.7412605,43.3912605],[-1.7412605,43.3912605],[-1.7,43.35],[-1.6,43.25],[-1.35,43.1],[-1,43],[-0.7,42.9],[-0.5,42.85],[-0.3,42.8],[0.1,42.7],[0.225,42.575],[0.35,42.45],[0.6,42.25],[0.9,42.1],[1.2,42],[1.5,41.95],[1.8,41.75],[1.95,41.5],[2.1170048,41.3035238],[2.0875836,41.2882454],[2.0875836,41.2882454],[2.0875828,41.288245],[2.0875734,41.2882401],[2.0875671,41.2882368],[2.0875666,41.2882366],[2.0875666,41.2882366],[2.0610206,41.2744513],[1.7664355,41.2248994],[1.7662356,41.2248658],[1.8008657,41.176397],[1.8397494,41.1325074],[1.889208,41.0951877],[1.9473407,41.0658598],[2.0119258,41.0456394],[2.0805042,41.0352953],[2.1504705,41.0352205],[2.2191678,41.0454186],[2.2839855,41.0655029],[2.3424547,41.094711],[2.3923394,41.131932],[2.5241552,41.2512885],[3.0952766,41.4716921],[3.1590445,41.5027689],[3.3784183,41.6356955],[3.4314612,41.6751135],[3.4725926,41.7218314],[3.555865,41.8414779],[3.5826955,41.8915807],[3.5956603,41.9446407],[3.5942058,41.9985416],[3.5783528,42.0511274],[3.5617752,42.0881789],[3.5903453,42.1229248],[3.644694,42.2055049],[3.6693759,42.2544138],[3.6809183,42.3059125],[3.6788562,42.358076],[3.6632321,42.4089492],[3.6346003,42.4566205],[3.5940103,42.4992942],[3.542971,42.5353593],[3.503055,42.5541884],[3.4953277,42.581601],[3.4751951,42.6297574],[3.4431946,42.6742873],[3.413651,42.7014685],[3.4092605,42.9030855],[3.4368945,42.9651272],[3.492183,43.0073107],[3.55443,43.012674],[3.6222792,43.0232851],[3.6862677,43.0429678],[3.7441518,43.0710342],[4.0092586,43.2268063],[4.0286681,43.2186875],[4.0971229,43.2018432],[4.1687582,43.1949918],[4.3029688,43.1916858],[4.3070518,43.1873141],[4.3578582,43.1506982],[4.4173217,43.1218818],[4.4832334,43.1019304],[4.5531546,43.0915807],[4.7502694,43.0764453],[4.7919594,43.0764739],[4.8149465,43.0730757],[4.8837157,43.0724053],[4.9280138,43.0780526],[4.9974588,43.0678148],[5.0412459,43.067817],[5.0568964,43.0500001],[5.1048012,43.0131113],[5.1612779,42.9834459],[5.2243255,42.9620491],[5.2917194,42.9496741],[5.4972447,42.9264869],[5.5917156,42.8557104],[5.6511464,42.8195809],[5.7194956,42.7933301],[5.7937726,42.7781031],[5.8707374,42.7745633],[5.9470376,42.7828654],[5.9473838,42.7829602],[6.002846,42.7579905],[6.0676868,42.7399911],[6.0685649,42.7398147],[6.1180044,42.7298795],[6.1801531,42.7215061],[6.2433365,42.721068],[6.3057039,42.728578],[6.3654275,42.7438163],[6.3956464,42.753728],[6.4013983,42.7556146],[6.462581,42.7810692],[6.5161064,42.8145979],[6.560017,42.8549839],[6.5650447,42.8620319],[6.5802986,42.8680307],[6.6379363,42.9033495],[6.6469295,42.9116582],[6.7442574,42.9280557],[6.8183939,42.9467567],[6.8855161,42.9764956],[6.942601,43.0159389],[6.9870618,43.0633154],[7.0168647,43.1164923],[7.0429641,43.182153],[7.0899874,43.1993111],[7.1476321,43.2319888],[7.1954259,43.2722648],[7.2048346,43.2843531],[7.2169419,43.2856898],[7.2840468,43.3031225],[7.3453841,43.3295577],[7.3987004,43.3640286],[7.4420269,43.4052726],[7.4625816,43.4354128],[7.5003112,43.4453696],[7.575454,43.4820771],[7.6376524,43.521151],[7.6900827,43.5206613],[7.7623187,43.5250757],[7.8320319,43.539536],[8.2050791,43.6454486],[8.2600822,43.6648247],[8.3100085,43.6904329],[8.4071089,43.7493193],[8.4522204,43.7817114],[8.4891186,43.8191543],[8.5167246,43.8605701],[8.5615719,43.9455475],[8.6018582,43.963032],[8.6678927,43.9993838],[8.7212553,44.0452975],[8.7593096,44.0985334],[8.7714228,44.1213862],[8.8244959,44.1444314],[8.9233546,44.1278146],[8.9600353,44.1043384],[9.0205451,44.0727233],[9.0885166,44.0503195],[9.1612767,44.0380053],[9.2036869,44.0370224],[9.6132716,43.823931],[9.6741236,43.7979744],[9.7406074,43.7807177],[9.8103706,43.77277],[9.8743042,43.7742591],[9.8915218,43.7539792],[9.947814,43.4573238],[9.967009,43.4011874],[10.0021667,43.3493007],[10.1513586,43.1774674],[10.1321678,42.9591305],[10.1345614,42.9066501],[10.1507574,42.8554962],[10.174382,42.8169471],[10.1743919,42.8169466],[10.1745171,42.8169402],[10.3555036,42.8076794],[10.4131041,42.8735339],[10.4419044,42.8448281],[10.4311043,42.7874165],[10.3879039,42.7637764],[10.4239042,42.7401363],[10.4167042,42.7080534],[10.3375034,42.765465],[10.2414475,42.7510135],[10.2412529,42.7509843],[10.241238,42.750982],[10.2732973,42.7286089],[10.3335916,42.7004789],[10.4000966,42.6814316],[10.40554,42.6807161],[10.4309387,42.648211],[10.4778263,42.6085601],[10.5341938,42.5763284],[10.5979093,42.5527269],[10.7278623,42.5156303],[10.7382562,42.5070654],[10.7278499,42.4809988],[10.7213444,42.4287993],[10.7286231,42.3766468],[10.7493766,42.3265086],[10.7711573,42.2877379],[10.80794,42.2377767],[10.8579669,42.1946145],[10.9190056,42.1601542],[10.9883528,42.1359125],[11.0629518,42.1229542],[11.1395238,42.1218479],[11.2895235,42.1313171],[11.382117,42.0890585],[11.5058283,41.9112087],[11.5464785,41.8648832],[11.5988739,41.8256821],[11.6608095,41.7952393],[11.729695,41.7748212],[11.8282335,41.753955],[11.856708,41.7323997],[11.8988297,41.6449542],[11.9324126,41.5931749],[11.9798193,41.5478726],[12.0388816,41.5110918],[12.1979954,41.4315298],[12.3493997,41.2832605],[12.4060957,41.2390099],[12.4745193,41.2055131],[12.5511408,41.184489],[12.6825937,41.160615],[12.7328534,41.1091644],[12.780536,41.0692638],[12.837663,41.0372432],[12.9019797,41.0143586],[12.9709588,41.001506],[13.0418974,40.9991878],[13.1120187,41.0074945],[13.1785772,41.0261004],[13.2389621,41.0542767],[13.2907964,41.0909188],[13.4618282,41.2356716],[13.2859329,41.2964028],[13.0447304,41.2271711],[13.035217,41.2437452],[13.0352168,41.2437454],[13.0352168,41.2437454],[13.0352168,41.2437454],[13.0352168,41.2437455],[13.0352167,41.2437457],[13.0352163,41.2437464],[13.0352151,41.2437484],[13.0269665,41.2581188],[13.0210529,41.2684213],[13.015465,41.2781563],[13.0052307,41.2959862],[13.0052303,41.295987],[13.0052302,41.2959871],[13,41.3050989],[13.0052302,41.2959871],[13.0052303,41.295987],[13.0052307,41.2959862],[13.015465,41.2781563],[13.0210529,41.2684213],[13.1333333,41.3666667],[13.2666667,41.4833333],[13.4,41.6],[14,42.1],[14.2448925,42.4673388],[14.2196244,42.4867408],[14.2196244,42.4867408],[14.0743407,42.5982958],[14.2196244,42.4867408],[14.2196244,42.4867408],[14.2448925,42.4673388],[14.2448925,42.4673388],[14.2718268,42.4466575],[14.2718277,42.4466568],[14.2718313,42.4466541],[14.2718316,42.4466538],[14.2718334,42.4466524],[14.2718351,42.4466512],[14.2718351,42.4466512],[14.2718454,42.4466432],[14.2718454,42.4466432],[14.5137737,42.2608802],[14.5137829,42.2608731],[14.5138189,42.2608455],[14.5715064,42.3466929],[14.5978047,42.3980291],[14.6094956,42.4522637],[14.6060556,42.5071493],[14.587587,42.5604054],[14.5548205,42.6098128],[14.5090914,42.6533074],[14.3797529,42.7530545],[14.2879347,42.895399],[13.9723636,43.6408499],[13.9446419,43.6886773],[13.904738,43.7317861],[13.8541123,43.7685707],[13.7946348,43.7976581],[13.4711892,43.9241136],[13.1814767,44.1148236],[13.0917584,44.1583603],[12.8886339,44.2284047],[12.7284816,44.3561423],[12.6613861,44.5292375],[12.6581869,44.5983526],[12.7108657,44.6288635],[12.7577337,44.6688766],[12.7929623,44.7145502],[12.8837087,44.8645387],[12.9053778,44.9118182],[12.9144455,44.9611195],[12.9105712,45.0107699],[12.8938528,45.0590804],[12.8648284,45.1044031],[12.8244618,45.1451883],[12.774113,45.180038],[12.6987243,45.2232685],[12.7129191,45.2350277],[13.1460256,45.3662262],[13.1642383,45.2972806],[13.1830668,45.2501795],[13.2001011,45.2256986],[13.2150175,45.1191206],[13.2295398,45.0674768],[13.2448741,45.0412171],[13.2483967,45.0272717],[13.2658494,44.981659],[13.2942531,44.9388863],[13.3327173,44.9002587],[13.4110816,44.8344602],[13.411807,44.8277242],[13.4330707,44.7751172],[13.4688055,44.7266184],[13.5175145,44.6842118],[13.5590909,44.6601214],[13.5708574,44.6412851],[13.6125866,44.5987991],[13.6648884,44.5627467],[13.7258324,44.5344455],[13.7931829,44.5149278],[13.8644794,44.5049044],[13.9371237,44.5047398],[14.0084708,44.5144395],[14.0759215,44.5336497],[14.1370129,44.5616701],[14.1402361,44.5638709],[14.146075,44.5651527],[14.2112162,44.5901734],[14.2580029,44.6176602],[14.2579041,44.6176939],[14.2327423,44.6262771],[14.2435424,44.6617373],[14.2795428,44.6769345],[14.2795319,44.6768373],[14.2741401,44.6287864],[14.3152087,44.6645262],[14.3433951,44.7021219],[14.3371434,44.7174603],[14.3371434,44.7174603],[14.3371434,44.7174603],[14.3376078,44.7172169],[14.3381772,44.7169184],[14.3382518,44.7168793],[14.3386855,44.7166519],[14.3498864,44.7107801],[14.3500819,44.7110409],[14.3715835,44.7614973],[14.3715967,44.7615929],[14.2939429,44.9082695],[14.301143,44.9437297],[14.3386128,44.9283515],[14.3386128,44.9283515],[14.3386128,44.9283515],[14.3875439,44.9082695],[14.3902887,44.9481802],[14.3911439,44.9606154],[14.3911439,44.9606154],[14.4127441,44.9555497],[14.4127441,44.9555497],[14.3750408,45],[14.3750408,45],[14.3314101,45.0514384],[14.3314091,45.0514396],[14.3314069,45.0514422],[14.3314062,45.0514431],[14.3314032,45.0514465],[14.3314006,45.0514497],[14.3314006,45.0514497],[14.3211207,45.0635691],[14.3179694,45.0672843],[14.3153139,45.0704151],[14.3142175,45.0717077],[14.3118132,45.0745422],[14.3107527,45.0757925],[14.3107524,45.0757928],[14.3013891,45.0868317],[14.3011998,45.0870549],[14.300651,45.0877018],[14.3004679,45.0879178],[14.2989517,45.0897052],[14.2989517,45.0897053],[14.2989517,45.0897053],[14.2989517,45.0897053],[14.2989517,45.0897053],[14.2989517,45.0897053],[14.2863663,45.1045429],[14.2853777,45.1057084],[14.2853777,45.1057084],[14.2853777,45.1057084],[14.2853777,45.1057084],[14.2853777,45.1057084],[14.2853777,45.1057084],[14.2795583,45.1125691],[14.2795428,45.1125874],[14.2795583,45.1125691],[14.2853777,45.1057084],[14.2853777,45.1057084],[14.2853777,45.1057084],[14.2853777,45.1057084],[14.2853777,45.1057084],[14.2853777,45.1057084],[14.2863663,45.1045429],[14.2989517,45.0897053],[14.2989517,45.0897053],[14.2989517,45.0897053],[14.2989517,45.0897053],[14.2989517,45.0897053],[14.2989517,45.0897052],[14.3004679,45.0879178],[14.300651,45.0877018],[14.3011998,45.0870549],[14.3013891,45.0868317],[14.3107524,45.0757928],[14.3107527,45.0757925],[14.3118132,45.0745422],[14.3692124,45.1128083],[14.3551436,45.169999],[14.3692124,45.1128083],[14.3770535,45.080934],[14.3770543,45.0809305],[14.3770543,45.0809305],[14.3770547,45.0809291],[14.3770547,45.0809289],[14.3875439,45.03829],[14.4365243,45],[14.4365243,45],[14.4425616,44.9952804],[14.4739447,44.9707469],[14.4555556,44.8241166],[14.4580212,44.8263227],[14.5136074,44.8456843],[14.5734519,44.8782554],[14.6308196,44.9163862],[14.6801503,44.9562605],[14.6818457,44.9583428],[14.6548925,44.9680676],[14.6287463,44.9775012],[14.6287463,44.9775012],[14.627988,44.984615],[14.6263479,45],[14.6215462,45.0450443],[14.6043519,45.042963],[14.5099451,45.0315357],[14.4932336,45.0423135],[14.4932336,45.0423135],[14.4932336,45.0423135],[14.4932336,45.0423135],[14.4235443,45.0872587],[14.4235442,45.0872587],[14.5038924,45.1224331],[14.5038924,45.1224332],[14.5315453,45.1345389],[14.5495455,45.2493622],[14.5927613,45.2384475],[14.596346,45.2375421],[14.596346,45.2375421],[14.6251462,45.1750648],[14.6251463,45.1750648],[14.5963461,45.1666219],[14.596346,45.1666219],[14.6284302,45.1642457],[14.6284302,45.1642457],[14.6647466,45.1615561],[14.6647466,45.0872587],[14.7403474,45.0737501],[14.7445755,45.0689672],[14.7510705,45.1044157],[14.7998376,45.1216239],[14.7720825,45.1363298],[14.7537014,45.1460689],[14.6575466,45.1970163],[14.5583109,45.2914771],[14.5581663,45.2916148],[14.5577439,45.2920169],[14.5575479,45.2922034],[14.5575328,45.2922178],[14.5575075,45.2922419],[14.5575073,45.2922421],[14.5574886,45.2922599],[14.5542756,45.2953183],[14.5542756,45.2953183],[14.5542756,45.2953183],[14.5315453,45.2831337],[14.5315453,45.2831337],[14.5315453,45.2831337],[14.5308135,45.2833363],[14.4960433,45.2929611],[14.4960433,45.2929611],[14.4960423,45.2929614],[14.4960419,45.2929615],[14.4960417,45.2929616],[14.4960417,45.2929616],[14.4960401,45.292962],[14.4960397,45.2929621],[14.4960328,45.292964],[14.484235,45.2962298],[14.484235,45.2962298],[14.484235,45.2962298],[14.484235,45.2962298],[14.484235,45.2962298],[14.484235,45.2962298],[14.460457,45.3028119],[14.4593215,45.3031262],[14.4179013,45.3145918],[14.4159763,45.3151247],[14.4159763,45.3151247],[14.4159763,45.3151247],[14.3669014,45.3287093],[14.3669014,45.3287093],[14.3669014,45.3287093],[14.3669014,45.3287093],[14.3669014,45.3287093],[14.3669014,45.3287093],[14.3669014,45.3287093],[14.3669014,45.3287093],[14.3669014,45.3287093],[14.3669014,45.3287093],[14.3669014,45.3287093],[14.3457726,45.334558],[14.317432,45.3424031],[14.3119431,45.3439225],[14.317432,45.3424031],[14.3457726,45.334558],[14.3669014,45.3287093],[14.3669014,45.3287093],[14.3669014,45.3287093],[14.3669014,45.3287093],[14.3669014,45.3287093],[14.3669014,45.3287093],[14.3669014,45.3287093],[14.3669014,45.3287093],[14.3669014,45.3287093],[14.3669014,45.3287093],[14.3669014,45.3287093],[14.4159763,45.3151247],[14.4159763,45.3151247],[14.4159763,45.3151247],[14.4179013,45.3145918],[14.4593215,45.3031262],[14.460457,45.3028119],[14.460457,45.3028119],[14.45,45.33],[14.8,45.45],[14.9666667,45.5],[15.1333333,45.55],[15.3,45.6],[15.6,45.85],[15.75,45.9875],[15.9,46.125],[16.05,46.2625],[16.2,46.4],[16.6,46.35],[16.8,46.2833333],[17,46.2166667],[17.2,46.15],[17.4,46.0666667],[17.6,45.9833333],[17.8,45.9],[18.4,45.75],[18.5666667,45.6833333],[18.7333333,45.6166667],[18.9,45.55],[18.85,46],[18.8666667,46.1666667],[18.8833333,46.3333333],[18.9,46.5],[18.9166667,46.6666667],[18.9333333,46.8333333],[18.95,47],[18.9666667,47.1666667],[18.9833333,47.3333333],[19,47.5],[18.9,47.8],[18.6666667,47.7833333],[18.4333333,47.7666667],[18.2,47.75],[17.6,47.9],[17.3933333,47.99],[16.98,48.17],[16.965,48.385],[16.95,48.6],[16.2,48.65],[16,48.6333333],[15.8,48.6166667],[15.6,48.6],[15.4,48.5833333],[15.2,48.5666667],[15,48.55],[14.8,48.5666667],[14.6,48.5833333],[14.4,48.6],[14.356,48.612],[14.2166667,48.65],[14.0333333,48.7],[13.85,48.75],[13.5,48.95],[13.1,49.2],[12.75,49.45],[12.5,49.8],[12.4,50.1],[12.1,50.3],[11.95,50.35],[11.8,50.4],[11.7,50.6],[11.8,50.85],[11.95,51.1],[11.95,51.35],[11.9,51.6],[11.85,51.725],[11.8,51.85],[11.7,52.05],[11.8,52.2],[11.95,52.4],[12,52.65],[11.85,52.85],[11.55,53],[11.2,53.1],[11.05,53.15],[10.9,53.2],[10.6,53.37],[10.6,53.5],[10.5,53.7],[10.35,53.9],[10.25,54.1],[10.2,54.3],[10.2327761,54.417994],[10.2327761,54.417994],[10.1978837,54.381334],[10.1680568,54.3538259],[10.1680568,54.3538259],[10.159173,54.3456329],[10.1591554,54.3456167],[10.1535724,54.3414322],[10.146695,54.3379645],[10.1431014,54.3367749],[10.1431014,54.3727451],[10.1899019,54.3963852],[10.197867,54.4318773],[10.204302,54.4605512],[10.197867,54.4318773],[10.12,54.36],[10,54.3436364],[9.9,54.33],[9.67,54.3],[9.4,54.27],[9.25,54.26],[9.1,54.25],[8.975,54.26],[8.8877832,54.2669773],[8.844839,54.2573439],[8.8426876,54.2611405],[8.8415986,54.2665717],[8.8419698,54.2690722],[8.7945531,54.2611595],[8.7945455,54.2611582],[8.7945448,54.2611581],[8.7661671,54.1860775],[8.7651198,54.1813576],[8.7655033,54.1766034],[8.7673051,54.1719629],[8.7704688,54.1675803],[8.8209075,54.1118733],[8.8259855,54.1073989],[8.8324724,54.103605],[8.8401107,54.100642],[8.848597,54.0986275],[8.8575946,54.0976415],[8.8667466,54.0977229],[8.8756901,54.0988687],[8.9538112,54.1137679],[8.971843,54.0933439],[8.9607519,54.0585598],[8.8358202,54.0636351],[8.8270986,54.0634959],[8.8185796,54.0623878],[8.8105716,54.0603509],[8.8033647,54.0574591],[8.7972197,54.053817],[8.7923587,54.0495566],[8.7889575,54.044832],[8.7871385,54.0398142],[8.7869669,54.0346848],[8.7884484,54.0296292],[8.7915289,54.0248301],[8.8107172,54.0017693],[8.8107158,54.0017695],[8.8106998,54.0017717],[8.8106992,54.0017718],[8.8106877,54.0017734],[8.8106872,54.0017734],[8.8106763,54.001775],[8.7722776,54.0070865],[8.7103148,54.0006712],[8.6148801,54.0025197],[8.5221222,54.0158626],[8.4359862,54.0401327],[8.3601508,54.0742974],[8.3366291,54.0903892],[8.3365072,54.0904726],[8.3364979,54.090479],[8.2960914,54.0723364],[8.2304504,54.0362659],[8.1781286,53.9933383],[8.1564878,53.96522],[8.1024008,53.9738099],[8.0086439,53.9769506],[7.8805054,53.9733672],[7.8737339,53.9765295],[7.7951377,54.0004125],[7.7101521,54.0148991],[7.6015036,54.0267894],[7.5155056,54.0312665],[7.4296222,54.0261181],[7.3861653,54.0210215],[7.3028059,54.0062331],[7.2257883,53.9823801],[7.1579256,53.9503375],[7.1348979,53.9343577],[7.1084133,53.9286244],[7.0322493,53.9011924],[6.9408251,53.8604083],[6.859544,53.8717817],[6.7711346,53.8737405],[6.6298573,53.8686412],[6.5429659,53.860406],[6.4604345,53.8424214],[6.3853744,53.815367],[6.3206007,53.7802632],[6.3123841,53.7736697],[6.2519501,53.7768913],[6.1677746,53.7767105],[6.0851314,53.7673154],[6.006889,53.7490322],[5.9472334,53.7311108],[5.8702946,53.7329505],[5.784494,53.7301378],[5.7011687,53.717766],[5.6233373,53.6962839],[5.5538088,53.6664696],[5.5200328,53.6488438],[5.4581734,53.609292],[5.410939,53.5631854],[5.4006993,53.5462824],[5.3404183,53.5261774],[5.2826717,53.4986333],[5.1386103,53.4172256],[5.0892529,53.3842092],[5.0496876,53.3467967],[5.0209644,53.3060061],[5.0147962,53.2947118],[5.0148045,53.2947131],[5.0148612,53.2947223],[5.0149027,53.294729],[5.015221,53.2947803],[5.103051,53.3089415],[5.0010334,53.2688085],[5.0006667,53.2686643],[5.0006195,53.2686457],[5.0005538,53.2686199],[5.0005443,53.2686161],[4.9955703,53.2595085],[4.8860211,53.2073394],[4.734222,53.1902484],[4.658713,53.1774908],[4.5881294,53.1570075],[4.5246481,53.1294326],[4.4109149,53.0700871],[4.3463061,53.0282163],[4.2979475,52.979058],[4.2679743,52.9248412],[4.0959158,52.4452278],[3.8717396,52.2419215],[3.8373967,52.2349968],[3.7607487,52.2080958],[3.6945394,52.1723049],[3.6414466,52.1290869],[3.603594,52.0802031],[3.5824686,52.02764],[3.5821194,52.0223972],[3.5501014,52.0059636],[3.4987775,51.9668083],[3.4733103,51.9599011],[3.4016121,51.9285491],[3.3416594,51.8889456],[3.2958717,51.8427112],[3.2703806,51.7991107],[3.1952529,51.7660416],[3.132412,51.7322483],[3.081217,51.6916338],[3.0435267,51.6456994],[3.0206882,51.5961379],[3.0201365,51.5922034],[2.9878627,51.5854225],[2.8934979,51.5572304],[2.3501158,51.3385584],[1.8369895,51.261946],[1.843656,51.2159974],[1.8298531,51.1545696],[1.8004599,51.0837566],[1.7738499,51.0373692],[1.734314,50.9947888],[1.683195,50.957426],[1.6222072,50.9265155],[1.5533788,50.9030768],[1.3973515,50.8608461],[1.3937522,50.8473615],[1.3629263,50.7968305],[1.3168267,50.7511913],[1.2573351,50.7122664],[1.1868507,50.6816062],[1.1405552,50.6691423],[1.1405192,50.6691326],[1.1498337,50.6176574],[1.1743493,50.5512438],[1.1427622,50.4707013],[1.1303974,50.4132938],[1.1335076,50.3883718],[1.1278559,50.365825],[1.1223721,50.3067],[1.105132,50.282177],[1.0026346,50.2183382],[0.472251,50.1150428],[0.3853739,50.0906803],[-0.0262675,49.9362643],[-0.1026305,49.8991931],[-0.1637778,49.8519022],[-0.2065338,49.7968863],[-0.3131966,49.6074329],[-0.3147735,49.6034029],[-0.3586365,49.6095279],[-0.8148678,49.6468994],[-0.8146174,49.601214],[-0.8238386,49.5687129],[-0.7719921,49.5326531],[-0.7307107,49.4902593],[-0.7022905,49.4436266],[-0.687936,49.3952327],[-0.6879346,49.3952282],[-0.6879218,49.3951849],[-0.9357383,49.4181135],[-0.9389139,49.4183193],[-1.0685858,49.4233863],[-1.0773131,49.4231237],[-1.0857602,49.4216793],[-1.0935518,49.4191174],[-1.1003417,49.4155518],[-1.1058285,49.411141],[-1.1347229,49.3820782],[-1.129678,49.3861945],[-1.1234294,49.3896199],[-1.1162694,49.3921806],[-1.1084764,49.3937771],[-1.1003536,49.3943472],[-1.0922171,49.3938689],[-1.0843834,49.3923606],[-1.0774903,49.3899953],[-1.1,49.3673709],[-1.1214112,49.3458506],[-1.1,49.3673709],[-1.1,49.3673709],[-1.1,49.25],[-1.05,49.05],[-0.95,48.8],[-1,48.6],[-1.25,48.5],[-1.05,48.35],[-1.05,48.05],[-1.2,47.8],[-1.05,47.6],[-1,47.4],[-1.25,47.2],[-1.6,47.05],[-2,46.95],[-2.1177242,46.9058534],[-2.1294213,46.8940364],[-2.12734,46.8797188],[-2.12734,46.8797188],[-2.12734,46.8797186],[-2.12734,46.8797186],[-2.1186212,46.819739],[-2.12734,46.8797186],[-2.12734,46.8797186],[-2.12734,46.8797188],[-2.1278334,46.8797746],[-2.1348748,46.8815544],[-2.1412965,46.8842131],[-2.1468663,46.8876544],[-2.1492838,46.8898489],[-2.152996,46.8892458],[-2.1609343,46.8890727],[-2.168501,46.889958],[-2.1578496,46.8170512],[-2.1564606,46.812168],[-2.153779,46.8075438],[-2.1498965,46.8033364],[-2.1449462,46.7996896],[-1.9403491,46.6739876],[-1.9341167,46.6670497],[-1.9341218,46.667048],[-1.9341239,46.6670473],[-1.940625,46.664846],[-2.0148259,46.645424],[-2.0931683,46.6365858],[-2.1724988,46.6386872],[-2.2496258,46.6516438],[-2.2675063,46.6574486],[-2.2783092,46.6590407],[-2.3334968,46.6753302],[-2.3335234,46.6753381],[-2.3337409,46.6754023],[-2.2737271,46.6713802],[-2.2658338,46.6713925],[-2.258101,46.6724833],[-2.2508401,46.6746089],[-2.2443434,46.6776836],[-2.2388727,46.6815837],[-2.2346486,46.686152],[-2.2318416,46.6912047],[-2.2305652,46.696538],[-2.2308713,46.701937],[-2.232748,46.7071841],[-2.2361202,46.7120676],[-2.2408521,46.7163905],[-2.246753,46.7199784],[-2.3151686,46.7537636],[-2.3222578,46.7565434],[-2.3300365,46.7582613],[-2.3381688,46.7588432],[-2.3741873,46.7588427],[-2.382313,46.7582619],[-2.39009,46.7565474],[-2.3971832,46.7537732],[-2.4032871,46.7500587],[-2.4081389,46.745564],[-2.4115299,46.7404828],[-2.4133146,46.7350338],[-2.4134167,46.7294516],[-2.4106674,46.7089314],[-2.4106689,46.7089321],[-2.410669,46.7089322],[-2.4119451,46.7095317],[-2.4656639,46.7470697],[-2.602705,46.8632095],[-2.6456019,46.9078147],[-2.6531313,46.9205473],[-2.6657783,46.9128279],[-2.7141717,46.8677622],[-2.747828,46.8168603],[-2.7653351,46.7623255],[-2.7659878,46.7065113]],[[4.6748521,52.886532],[4.7168165,52.9083609],[4.7168166,52.9083611],[4.7168168,52.9083618],[4.7168174,52.908364],[4.7168174,52.908364],[4.7168177,52.9083648],[4.7168178,52.908365],[4.7322473,52.959406],[4.8186482,52.9678489],[4.8142315,52.9519666],[4.8142315,52.9519666],[4.8142304,52.9519623],[4.8142304,52.9519623],[4.8142296,52.9519597],[4.8142296,52.9519597],[4.8142289,52.9519571],[4.8142289,52.9519571],[4.8142278,52.9519531],[4.8142278,52.9519531],[4.814226,52.9519465],[4.8078481,52.9290116],[4.8176525,52.9251793],[4.8726487,52.9036829],[4.8176525,52.9251793],[4.7040417,52.8661017],[4.7168049,52.9083223],[4.716814,52.9083527],[4.716814,52.9083527],[4.7168163,52.9083603],[4.7168163,52.9083603],[4.7168164,52.9083604],[4.7168165,52.9083609],[4.6748521,52.886532]],[[4.7070471,53.0286376],[4.8546485,53.1873639],[4.8906489,53.1806096],[4.8942489,53.1113779],[4.8942489,53.0759178],[4.7971352,53],[4.797048,52.9999318],[4.7968342,53],[4.7968342,53],[4.7070471,53.0286376]],[[5.1678517,53.3680417],[5.4234542,53.430519],[5.5854559,53.4541591],[5.4702547,53.4085675],[5.2074521,53.3528445],[5.1678517,53.3680417]],[[5.6358564,53.4490934],[5.6754568,53.4676677],[5.7872641,53.4649784],[5.787267,53.4649783],[5.7872766,53.4649781],[5.7872803,53.464978],[5.7872864,53.4649778],[5.7872897,53.4649777],[5.7872897,53.4649777],[5.7872903,53.4649777],[5.7872909,53.4649777],[5.7873078,53.4649773],[5.7873623,53.464976],[5.8527007,53.4634044],[5.8189594,53.4458589],[5.7746208,53.4409973],[5.7746076,53.4409959],[5.7746076,53.4409959],[5.7746072,53.4409958],[5.7746019,53.4409952],[5.7745679,53.4409915],[5.7745654,53.4409912],[5.6790568,53.430519],[5.6358564,53.4490934]],[[10.8631086,42.3669608],[10.895509,42.3872237],[10.9243092,42.317992],[10.8631086,42.3669608]]]}}
