{"type":"Feature","properties":{"family":"franks","name":"Kingdom of the Franks, 789 – 803"},"geometry":{"type":"Polygon","coordinates":[[[-3.0878287,49.4312105],[-3.0785124,49.3777081],[-3.0530428,49.3264666],[-3.0124801,49.279524],[-2.9584721,49.238742],[-2.8931843,49.2057342],[-2.8192124,49.1818042],[-2.7394811,49.167896],[-2.657132,49.1645581],[-2.6451857,49.1648507],[-2.63158,49.1126559],[-2.6011758,49.061672],[-2.5557226,49.0157356],[-2.4971174,48.9767261],[-2.4454651,48.9540133],[-2.4452035,48.9540705],[-2.4092917,48.9619224],[-2.3343121,48.9686604],[-2.2587233,48.9662087],[-2.1851297,48.9546517],[-2.1239414,48.9367019],[-2.0510053,48.9525807],[-1.9735499,48.9591639],[-1.8956004,48.9559523],[-1.820018,48.9430638],[-1.7495729,48.9209716],[-1.6868388,48.8904854],[-1.6422034,48.8585264],[-1.6436108,48.855907],[-1.6447631,48.8507813],[-1.6444005,48.8456051],[-1.6425368,48.8405698],[-1.6392414,48.8358617],[-1.6346366,48.8316548],[-1.6069118,48.810861],[-1.5940142,48.7430775],[-1.5921805,48.7378021],[-1.5887836,48.732874],[-1.5839608,48.7284919],[-1.5527016,48.7053374],[-1.552702,48.7053244],[-1.5540914,48.659278],[-1.5542433,48.6584082],[-1.5542433,48.6584082],[-1.5542488,48.6583765],[-1.7859333,48.6439986],[-1.8153154,48.6547215],[-1.8044789,48.709125],[-1.8042031,48.7142353],[-1.8053983,48.7192883],[-1.8080218,48.7241016],[-1.8119794,48.7285018],[-1.8171287,48.7323302],[-1.8232842,48.7354486],[-1.830224,48.7377446],[-1.8376976,48.7391353],[-1.8454355,48.7395706],[-1.8531582,48.7390346],[-1.9540092,48.725518],[-1.9617349,48.7239409],[-1.968837,48.7213926],[-1.9750376,48.717973],[-1.9890581,48.7085336],[-1.9889363,48.7086013],[-1.9832981,48.7117318],[-1.9765111,48.7142313],[-1.9691294,48.7158377],[-1.9614201,48.7164931],[-1.9536623,48.7161736],[-1.9461367,48.7148908],[-1.9391156,48.7126912],[-1.9328531,48.7096543],[-1.9275755,48.7058901],[-1.9239631,48.7020545],[-1.9458195,48.6991255],[-1.9600784,48.6895296],[-1.9756532,48.5960807],[-2.0286203,48.6434025],[-1.9756532,48.5960807],[-1.9530195,48.5758594],[-1.977138,48.587172],[-1.9776652,48.584009],[-1.9751108,48.5807142],[-1.9666902,48.5698528],[-1.96825,48.5696823],[-1.949122,48.5332266],[-1.9477931,48.5293421],[-1.9818198,48.513382],[-1.9876048,48.5243713],[-2.0538205,48.6501568],[-1.9876048,48.5243713],[-2.05,48.15],[-2.05,47.8],[-2.1,47.62],[-2.35,47.5],[-2.4430533,47.43021],[-2.3966058,47.4247635],[-2.3994896,47.4226014],[-2.3997466,47.4224087],[-2.3997466,47.4224087],[-2.4794672,47.4028996],[-2.5578256,47.3837238],[-2.5362451,47.3603162],[-2.5362451,47.3603162],[-2.5211926,47.3439893],[-2.5152507,47.3375444],[-2.5198018,47.3357445],[-2.5275465,47.3339886],[-2.5356567,47.3333401],[-2.5437917,47.3338264],[-2.5516095,47.3354271],[-2.5587816,47.3380747],[-2.5650064,47.3416581],[-2.5699284,47.345945],[-2.5699605,47.345973],[-2.5511407,47.3255828],[-2.5556396,47.3249206],[-2.562809,47.3228066],[-2.5692292,47.3197847],[-2.5746524,47.3159719],[-2.5788692,47.3115154],[-2.5817172,47.3065874],[-2.5830867,47.3013781],[-2.5829253,47.2960887],[-2.5812397,47.2909233],[-2.5780954,47.2860812],[-2.573614,47.2817491],[-2.5679686,47.2780941],[-2.5613771,47.2752571],[-2.4678093,47.2431882],[-2.4603818,47.2412439],[-2.4525308,47.240342],[-2.4445713,47.2405188],[-2.4368225,47.2417672],[-2.3753832,47.2561803],[-2.2978063,47.2239863],[-2.2906987,47.2216564],[-2.2830516,47.2203254],[-2.2751665,47.2200459],[-2.2673546,47.220829],[-2.2599242,47.2226437],[-2.2531686,47.2254185],[-2.2022504,47.2513209],[-2.2037514,47.2074277],[-2.2037537,47.2074259],[-2.2415271,47.1792139],[-2.3021451,47.1422801],[-2.3724953,47.1144944],[-2.4496428,47.097011],[-2.5303819,47.0905555],[-2.6113643,47.0953955],[-2.6892322,47.1113306],[-2.760751,47.1376998],[-2.7674193,47.1415327],[-2.811365,47.1118482],[-2.8201497,47.1079321],[-2.8202525,47.1078863],[-2.788007,47.0870684],[-2.7222543,47.0588055],[-2.6886488,47.0473101],[-2.6893751,47.009888],[-2.6749983,46.957527],[-2.6532427,46.9207035],[-2.6658294,46.9130079],[-2.7142087,46.8679148],[-2.7478526,46.8169799],[-2.7653496,46.7624078],[-2.7659953,46.7065528],[-2.7622006,46.6795527],[-2.7472293,46.6274819],[-2.7176912,46.578438],[-2.6747641,46.5343153],[-2.6201317,46.4968137],[-2.5559151,46.4673751],[-2.4845913,46.4471297],[-2.4088996,46.436854],[-2.3085983,46.4301231],[-2.2300103,46.4302423],[-2.1835224,46.4368101],[-2.1578924,46.3932078],[-2.1209918,46.3450211],[-2.0708374,46.3029286],[-2.0094904,46.2686376],[-1.946576,46.2460928],[-1.9391401,46.198544],[-1.9174933,46.1497098],[-1.8829534,46.1045812],[-1.8367836,46.0647701],[-1.7925564,46.0332337],[-1.7817598,45.9850644],[-1.7524708,45.9074976],[-1.719309,45.848684],[-1.6674401,45.7968565],[-1.626442,45.7646559],[-1.6295809,45.7497342],[-1.6334166,45.7009448],[-1.6245659,45.6524859],[-1.6033517,45.6059479],[-1.570498,45.5628542],[-1.527103,45.5246122],[-1.4958765,45.5055019],[-1.6380549,44.6597168],[-1.6396599,44.6084042],[-1.6334644,44.5824998],[-1.6359958,44.5705765],[-1.6544997,44.335416],[-1.8272351,43.6902585],[-1.877448,43.6410815],[-1.9366612,43.6200119],[-1.9421838,43.6169308],[-1.995398,43.5872422],[-2.0439701,43.5466979],[-2.0804611,43.4999995],[-2.1034473,43.4490086],[-2.1120513,43.3957527],[-2.1059709,43.3423437],[-2.0997164,43.3266351],[-1.9754667,43.3675494],[-1.9682074,43.3693033],[-1.960608,43.3699362],[-1.952992,43.3694212],[-1.9456838,43.3677802],[-1.9422326,43.3663888],[-1.939395,43.3675726],[-1.8097524,43.4098033],[-1.8003907,43.4118225],[-1.6820562,43.4253234],[-1.6821079,43.4252729],[-1.7469422,43.4178704],[-1.7542723,43.4164624],[-1.7610589,43.4140027],[-1.7670187,43.4105942],[-1.7719031,43.4063791],[-1.7755084,43.4015335],[-1.7776844,43.3962595],[-1.7783408,43.3907772],[-1.7777412,43.3870983],[-1.7727335,43.3876697],[-1.7412605,43.3912605],[-1.7000677,43.3959603],[-1.7000677,43.3959603],[-1.7000672,43.3959603],[-1.7000672,43.3959603],[-1.6614166,43.40037],[-1.7000672,43.3959603],[-1.7000672,43.3959603],[-1.7000677,43.3959603],[-1.7000677,43.3959603],[-1.7412605,43.3912605],[-1.7412605,43.3912605],[-1.7412605,43.3912605],[-1.7412605,43.3912605],[-1.7,43.35],[-1.6,43.25],[-1.35,43.1],[-1,43],[-0.7,42.9],[-0.5,42.85],[-0.3,42.8],[0.1,42.7],[0.225,42.575],[0.35,42.45],[0.6,42.25],[0.9,42.1],[1.2,42],[1.5,41.95],[1.8,41.75],[1.95,41.5],[2.1170048,41.3035238],[2.1186677,41.3043874],[2.1170048,41.3035238],[2.1170048,41.3035238],[2.1170048,41.3035238],[2.0875836,41.2882454],[2.0875836,41.2882454],[2.0875828,41.288245],[2.0875734,41.2882401],[2.0912277,41.2847554],[2.096711,41.2812692],[2.1030097,41.2786778],[2.1098706,41.2770853],[2.117018,41.2765557],[2.124165,41.2771102],[2.1310243,41.2787266],[2.1373204,41.2813401],[2.1821293,41.3046047],[2.1821932,41.3046443],[2.1822204,41.3046148],[2.0814382,41.252286],[2.0753558,41.2497393],[2.0687344,41.2481224],[1.7839375,41.2002182],[1.8009215,41.1764483],[1.8398288,41.132529],[1.8893059,41.0951777],[1.9474512,41.0658172],[2.0120429,41.0455641],[2.0806221,41.0351881],[2.1283288,41.0351165],[2.1505838,41.0350832],[2.219272,41.0452539],[2.2840772,41.0653146],[2.3425315,41.0945036],[2.3924006,41.1317111],[2.5242639,41.2511178],[3.0954502,41.4715617],[3.1591579,41.5026108],[3.3785219,41.6355391],[3.431518,41.6749248],[3.4726155,41.7216089],[3.5558824,41.8412528],[3.5827154,41.8913695],[3.5956763,41.9444529],[3.5942114,41.998385],[3.5783419,42.0510078],[3.5618022,42.0879724],[3.590363,42.1227103],[3.6447081,42.2052885],[3.6693967,42.2542223],[3.6809344,42.3057551],[3.6788559,42.357959],[3.6632045,42.408876],[3.6345358,42.4565914],[3.5939013,42.4993062],[3.5428128,42.5354068],[3.5030206,42.5541795],[3.4953343,42.5814502],[3.4751793,42.629665],[3.4431412,42.6742517],[3.4136545,42.701384],[3.4092697,42.9028841],[3.4369093,42.9649415],[3.4923069,43.0072107],[3.5546534,43.0125841],[3.6224579,43.0231894],[3.6863995,43.0428594],[3.7442387,43.070907],[4.0094357,43.2267449],[4.0288341,43.2186291],[4.0973245,43.2017721],[4.1689895,43.1949169],[4.3031182,43.191616],[4.3071182,43.1873331],[4.3579658,43.1506829],[4.4174737,43.1218399],[4.4834294,43.1018713],[4.5533904,43.0915148],[4.7505066,43.0763839],[4.7921864,43.0764125],[4.8150793,43.073024],[4.8838466,43.0723415],[4.9282653,43.0779976],[4.9976561,43.0677621],[5.0413886,43.0677635],[5.0569751,43.0500228],[5.1049191,43.0131064],[5.1614371,42.983419],[5.2245248,42.9620075],[5.2919544,42.9496259],[5.4974128,42.9264509],[5.5918167,42.8557289],[5.6512737,42.8195823],[5.7196445,42.7933162],[5.7939368,42.7780761],[5.8709096,42.7745262],[5.9472096,42.782821],[5.9475948,42.7829266],[6.0030538,42.7579654],[6.0679146,42.7399633],[6.0687927,42.7397868],[6.1182327,42.7298527],[6.1803788,42.7214798],[6.2435524,42.7210402],[6.3059034,42.7285467],[6.3656053,42.7437797],[6.3958234,42.7536919],[6.4015755,42.7555787],[6.4627308,42.781026],[6.5162256,42.814546],[6.5601042,42.8549226],[6.56512,42.8619591],[6.5803986,42.8679664],[6.6379996,42.9032596],[6.6470528,42.9116239],[6.7444704,42.9280386],[6.8185569,42.9467279],[6.8856282,42.9764451],[6.9426669,43.0158592],[6.9870911,43.0632017],[7.0168709,43.1163437],[7.0430015,43.1820859],[7.090112,43.1992758],[7.1477135,43.2319296],[7.1954701,43.2721765],[7.2049324,43.2843349],[7.2171267,43.2856812],[7.2841933,43.3031031],[7.3454911,43.3295207],[7.3987703,43.3639686],[7.4420652,43.4051861],[7.4626535,43.4353798],[7.5004587,43.4453569],[7.575551,43.4820417],[7.6378124,43.5211579],[7.6902919,43.5206689],[7.7625154,43.5250837],[7.8322087,43.5395414],[8.2052466,43.6454608],[8.2602172,43.6648262],[8.3101107,43.6904188],[8.4072068,43.7493057],[8.4522842,43.7816747],[8.4891535,43.819091],[8.5167378,43.8604784],[8.5616162,43.9455206],[8.6019877,43.963043],[8.6679749,43.99937],[8.7212969,44.0452511],[8.7593219,44.0984499],[8.7714689,44.1213682],[8.824661,44.1444665],[8.9234622,44.1278619],[8.9600989,44.1044154],[9.0206159,44.0727954],[9.0885908,44.0503834],[9.1613506,44.0380579],[9.203816,44.0370654],[9.6133659,43.8240102],[9.6742218,43.7980524],[9.7407045,43.78079],[9.810462,43.7728322],[9.8743975,43.7743085],[9.891524,43.7541369],[9.9478221,43.4574799],[9.9670201,43.4013483],[10.0021814,43.3494595],[10.1513639,43.1776415],[10.1321744,42.9592856],[10.1345757,42.9067978],[10.15079,42.8556319],[10.1745171,42.8169402],[10.3555036,42.8076794],[10.4131041,42.8735339],[10.4419044,42.8448281],[10.4311043,42.7874165],[10.3879039,42.7637764],[10.4239042,42.7401363],[10.4167042,42.7080534],[10.3375034,42.765465],[10.2414475,42.7510135],[10.2734306,42.728702],[10.3337648,42.7005612],[10.4003077,42.6815071],[10.4056238,42.6808085],[10.43103,42.648318],[10.4779493,42.6086611],[10.5343475,42.5764231],[10.5980909,42.5528154],[10.7279677,42.5157438],[10.7382741,42.5072512],[10.727842,42.4811035],[10.7213553,42.4289461],[10.7286403,42.3768303],[10.7493878,42.32672],[10.7711701,42.2879483],[10.8079803,42.2379552],[10.858049,42.1947616],[10.9191392,42.1602743],[10.9885414,42.1360126],[11.0631929,42.1230436],[11.1398084,42.1219366],[11.289744,42.1314054],[11.3821682,42.0892269],[11.505852,41.9114283],[11.5465395,41.8650677],[11.5989865,41.8258343],[11.6609825,41.7953656],[11.7299306,41.7749308],[11.828375,41.754087],[11.8567335,41.7326207],[11.8988449,41.6452022],[11.9324533,41.5933926],[11.9799012,41.5480587],[12.0390158,41.5112489],[12.1980763,41.4317181],[12.3494509,41.2834865],[12.4062093,41.239192],[12.4747095,41.2056607],[12.5514112,41.1846161],[12.6827221,41.1607711],[12.7060175,41.1369253],[12.7329001,41.1094076],[12.7806066,41.0694867],[12.8377611,41.0374427],[12.902106,41.0145332],[12.9711111,41.0016556],[13.0420703,40.9993137],[13.1122044,41.0075984],[13.1787655,41.0261848],[13.2391413,41.0543442],[13.2909538,41.0909717],[13.4369889,41.2145733],[13.4369359,41.2145916],[13.4369314,41.2145931],[13.2846584,41.2671776],[13.0575715,41.2019844],[13.0509739,41.2006085],[13.0441489,41.2002005],[13.0373452,41.2007754],[13.0308103,41.2023122],[13.0247824,41.204755],[13.019481,41.2080147],[13.0150993,41.2119728],[13.0117971,41.2164849],[12.9881029,41.2577282],[12.9878247,41.2583698],[12.9877732,41.2584886],[12.9877225,41.2586055],[12.9637687,41.3003005],[12.9877225,41.2586055],[12.9877225,41.2586055],[12.9881865,41.2577977],[12.9917244,41.253026],[12.9964639,41.2488856],[13.0022106,41.245546],[13.008729,41.243144],[13.0157521,41.2417779],[13.0229922,41.2415038],[13.0301529,41.2423329],[13.0352151,41.2437484],[13.0269665,41.2581188],[13.0352151,41.2437484],[13.0352163,41.2437464],[13.0352167,41.2437457],[13.0352168,41.2437455],[13.0352168,41.2437454],[13.0352168,41.2437454],[13.0352168,41.2437454],[13.035217,41.2437452],[13.0447304,41.2271711],[13.035217,41.2437452],[13.0352168,41.2437454],[13.0352168,41.2437454],[13.0352168,41.2437454],[13.0352168,41.2437455],[13.0352167,41.2437457],[13.0352163,41.2437464],[13.0352151,41.2437484],[13.0210529,41.2684213],[13.015465,41.2781563],[13.0052307,41.2959862],[13.0052303,41.295987],[13.0052302,41.2959871],[13,41.3050989],[13.0052302,41.2959871],[13.0052303,41.295987],[13.0052307,41.2959862],[13.015465,41.2781563],[13.0210529,41.2684213],[13.1333333,41.3666667],[13.2666667,41.4833333],[13.4,41.6],[14,42.1],[14.2448925,42.4673388],[14.2196244,42.4867408],[14.2196244,42.4867408],[14.0743407,42.5982958],[14.2196244,42.4867408],[14.2196244,42.4867408],[14.2448925,42.4673388],[14.2448925,42.4673388],[14.2718268,42.4466575],[14.2718277,42.4466568],[14.2718313,42.4466541],[14.2718316,42.4466538],[14.2718334,42.4466524],[14.2718351,42.4466512],[14.2776149,42.455314],[14.2802203,42.4604507],[14.2813592,42.4658736],[14.2809839,42.4713576],[14.2791096,42.4766749],[14.2758137,42.4816048],[14.2712329,42.4859422],[14.2703981,42.4865836],[14.2705821,42.4864676],[14.2707001,42.4863932],[14.2711977,42.4860795],[14.5310627,42.2864993],[14.5310815,42.2864849],[14.531098,42.2864721],[14.5715398,42.3466572],[14.5978096,42.3979439],[14.6094776,42.4521313],[14.6060213,42.506975],[14.5875436,42.560197],[14.5547755,42.6095807],[14.5090512,42.6530637],[14.5007268,42.6594839],[14.3797373,42.7527967],[14.2879207,42.8951467],[13.9723683,43.6405965],[13.9446412,43.6884409],[13.9047177,43.7315702],[13.8540605,43.7683761],[13.7945428,43.7974831],[13.4711346,43.9239332],[13.1814576,44.1146317],[13.091664,44.1582081],[12.8885892,44.2282408],[12.7284784,44.3559518],[12.6613743,44.5290796],[12.6581649,44.5983681],[12.7109192,44.6289073],[12.7577757,44.6688983],[12.7929898,44.7145495],[12.8837307,44.8645337],[12.9053831,44.911782],[12.9144375,44.9610528],[12.9105536,45.0106747],[12.89383,45.0589604],[12.8648045,45.1042635],[12.8244407,45.1450351],[12.7740978,45.1798781],[12.6985962,45.2231753],[12.7130492,45.2351446],[13.1460425,45.3663184],[13.1642442,45.2974218],[13.1830737,45.2503313],[13.2001035,45.2258649],[13.2150271,45.11925],[13.2295543,45.0676142],[13.2448746,45.0413925],[13.248403,45.0274252],[13.2658507,44.9818325],[13.2942487,44.9390745],[13.3327066,44.9004557],[13.4110999,44.8346344],[13.4118427,44.8277739],[13.4331292,44.7752008],[13.4688809,44.7267317],[13.5176003,44.6843488],[13.5590861,44.6603238],[13.5708621,44.641477],[13.6125897,44.5989989],[13.6648905,44.5629477],[13.7258336,44.5346408],[13.793183,44.5151108],[13.8644781,44.5050688],[13.9371205,44.5048797],[14.0084654,44.5145498],[14.0759135,44.5337261],[14.1370023,44.5617095],[14.1403578,44.5639983],[14.1461199,44.5652614],[14.2112442,44.590248],[14.2257588,44.5987675],[14.216274,44.6020028],[14.2101203,44.6046407],[14.2047844,44.6080615],[14.2004595,44.6121415],[14.1973022,44.6167332],[14.195427,44.6216704],[14.194902,44.6267746],[14.1957467,44.6318611],[14.2065241,44.6673243],[14.2089442,44.6725905],[14.212828,44.677398],[14.2180115,44.6815433],[14.2242758,44.6848511],[14.260285,44.700055],[14.2670993,44.7023164],[14.2744029,44.7035807],[14.2819086,44.7037981],[14.2893214,44.7029601],[14.2963496,44.7010996],[14.3027171,44.6982897],[14.3065059,44.6957562],[14.3007339,44.7098651],[14.2993883,44.7149201],[14.2994242,44.7200683],[14.3008409,44.7251213],[14.3035867,44.7298941],[14.3075615,44.7342119],[14.31262,44.7379166],[14.318577,44.7408724],[14.3252144,44.742971],[14.332289,44.7441356],[14.3395416,44.7443233],[14.3403868,44.7442294],[14.2583417,44.8986976],[14.2566059,44.9030224],[14.2559142,44.9074941],[14.256286,44.9119877],[14.2634623,44.9474497],[14.2652299,44.9525593],[14.2683681,44.9573323],[14.2727573,44.9615865],[14.2782303,44.9651595],[14.2845783,44.9679148],[14.291559,44.9697473],[14.2989057,44.970587],[14.306338,44.9704016],[14.3135719,44.9691984],[14.3135719,44.9691984],[14.320331,44.9670232],[14.3525657,44.953806],[14.3531112,44.9618154],[14.3542812,44.9672655],[14.3558564,44.9702654],[14.2467915,45.0986761],[14.2468373,45.0986955],[14.2790559,45.0607384],[14.2835778,45.0564399],[14.2892119,45.0528549],[14.2957359,45.0501248],[14.302893,45.048357],[14.3104012,45.047621],[14.317965,45.0479458],[14.3252866,45.0493187],[14.3314006,45.0514497],[14.3314006,45.0514497],[14.3211207,45.0635691],[14.3179694,45.0672843],[14.3153139,45.0704151],[14.3142175,45.0717077],[14.3118132,45.0745422],[14.3107527,45.0757925],[14.3107524,45.0757928],[14.3013891,45.0868317],[14.3011998,45.0870549],[14.300651,45.0877018],[14.3004679,45.0879178],[14.2989517,45.0897052],[14.2989517,45.0897053],[14.2989517,45.0897053],[14.2989517,45.0897053],[14.2989517,45.0897053],[14.2989517,45.0897053],[14.2863663,45.1045429],[14.2853777,45.1057084],[14.2853777,45.1057084],[14.2853777,45.1057084],[14.2853777,45.1057084],[14.2853777,45.1057084],[14.2853777,45.1057084],[14.2795583,45.1125691],[14.2795428,45.1125874],[14.2795583,45.1125691],[14.2853777,45.1057084],[14.2853777,45.1057084],[14.2853777,45.1057084],[14.2853777,45.1057084],[14.2853777,45.1057084],[14.2853777,45.1057084],[14.2863663,45.1045429],[14.2989517,45.0897053],[14.2989517,45.0897053],[14.2989517,45.0897053],[14.2989517,45.0897053],[14.2989517,45.0897053],[14.2989517,45.0897052],[14.3004679,45.0879178],[14.300651,45.0877018],[14.3011998,45.0870549],[14.3013891,45.0868317],[14.3107524,45.0757928],[14.3107527,45.0757925],[14.3118132,45.0745422],[14.3692124,45.1128083],[14.3551436,45.169999],[14.3692124,45.1128083],[14.3770535,45.080934],[14.3954667,45.0932059],[14.4003905,45.0972001],[14.40411,45.1017977],[14.4064813,45.106821],[14.4074123,45.112076],[14.4068667,45.1173596],[14.3928355,45.1745543],[14.3908968,45.1795411],[14.3876416,45.1841769],[14.3831896,45.188291],[14.3780274,45.1915292],[14.3828327,45.1886224],[14.3874415,45.1844744],[14.3908083,45.1797703],[14.392804,45.1746909],[14.4081689,45.1121581],[14.4956141,45.1504549],[14.5114989,45.2522165],[14.5130992,45.2575003],[14.5140423,45.2590244],[14.3373635,45.3079261],[14.3373787,45.3079638],[14.4464194,45.2777586],[14.4538178,45.2762865],[14.4614828,45.2758806],[14.4691065,45.2765574],[14.4763829,45.2782896],[14.4830195,45.2810077],[14.4887498,45.2846024],[14.4933432,45.2889294],[14.4960433,45.2929611],[14.4960433,45.2929611],[14.5308135,45.2833363],[14.5315453,45.2831337],[14.5315453,45.2831337],[14.5315453,45.2831337],[14.5315453,45.2831337],[14.5315453,45.2831337],[14.5308135,45.2833363],[14.4960423,45.2929614],[14.4960419,45.2929615],[14.4960417,45.2929616],[14.4960401,45.292962],[14.4960397,45.2929621],[14.4960328,45.292964],[14.484235,45.2962298],[14.484235,45.2962298],[14.484235,45.2962298],[14.484235,45.2962298],[14.484235,45.2962298],[14.484235,45.2962298],[14.460457,45.3028119],[14.4593215,45.3031262],[14.4179013,45.3145918],[14.4159763,45.3151247],[14.4159763,45.3151247],[14.4159763,45.3151247],[14.3669014,45.3287093],[14.3669014,45.3287093],[14.3669014,45.3287093],[14.3669014,45.3287093],[14.3669014,45.3287093],[14.3669014,45.3287093],[14.3669014,45.3287093],[14.3669014,45.3287093],[14.3669014,45.3287093],[14.3669014,45.3287093],[14.3669014,45.3287093],[14.3457726,45.334558],[14.317432,45.3424031],[14.3119431,45.3439225],[14.317432,45.3424031],[14.3457726,45.334558],[14.3669014,45.3287093],[14.3669014,45.3287093],[14.3669014,45.3287093],[14.3669014,45.3287093],[14.3669014,45.3287093],[14.3669014,45.3287093],[14.3669014,45.3287093],[14.3669014,45.3287093],[14.3669014,45.3287093],[14.3669014,45.3287093],[14.3669014,45.3287093],[14.4159763,45.3151247],[14.4159763,45.3151247],[14.4159763,45.3151247],[14.4179013,45.3145918],[14.4593215,45.3031262],[14.460457,45.3028119],[14.460457,45.3028119],[14.45,45.33],[14.9,45.6],[15.0333333,45.7333333],[15.1666667,45.8666667],[15.3,46],[15.3666667,46.1666667],[15.4333333,46.3333333],[15.5,46.5],[15.4333333,46.6666667],[15.3666667,46.8333333],[15.3,47],[15.1666667,47.1333333],[15.0333333,47.2666667],[14.9,47.4],[14.75,47.6],[14.6,47.8],[14.5,48.2],[14.4,48.4],[14.2166667,48.5166667],[14.0333333,48.6333333],[13.85,48.75],[13.5,48.95],[13.1,49.2],[12.75,49.45],[12.5,49.8],[12.4,50.1],[12.1,50.3],[11.95,50.35],[11.8,50.4],[11.7,50.6],[11.8,50.85],[11.95,51.1],[11.95,51.35],[11.9,51.6],[11.85,51.725],[11.8,51.85],[11.7,52.05],[11.8,52.2],[11.95,52.4],[12,52.65],[11.85,52.85],[11.55,53],[11.2,53.1],[11.05,53.15],[10.9,53.2],[10.6,53.37],[10.6,53.5],[10.5,53.7],[10.35,53.9],[10.25,54.1],[10.2,54.3],[10.2327761,54.417994],[10.2327761,54.417994],[10.1978837,54.381334],[10.1680568,54.3538259],[10.1680568,54.3538259],[10.159173,54.3456329],[10.1591554,54.3456167],[10.1535724,54.3414322],[10.146695,54.3379645],[10.1431014,54.3367749],[10.1431014,54.3727451],[10.1899019,54.3963852],[10.197867,54.4318773],[10.204302,54.4605512],[10.197867,54.4318773],[10.12,54.36],[10,54.3436364],[9.9,54.33],[9.67,54.3],[9.4,54.27],[9.25,54.26],[9.1,54.25],[8.975,54.26],[8.8877832,54.2669773],[8.844839,54.2573439],[8.8426876,54.2611405],[8.8415986,54.2665717],[8.8419698,54.2690722],[8.7945531,54.2611595],[8.7661664,54.1860553],[8.7651192,54.1813371],[8.7655018,54.1765853],[8.7673018,54.1719477],[8.7704628,54.1675683],[8.8209019,54.1118612],[8.8259763,54.1073905],[8.8324592,54.1036001],[8.8400932,54.1006403],[8.8485753,54.0986285],[8.8575693,54.0976444],[8.8667186,54.097727],[8.8756607,54.0988731],[8.9537894,54.113774],[8.9718431,54.0933253],[8.9607571,54.0585574],[8.8358572,54.0636317],[8.8271329,54.0634923],[8.8186099,54.0623837],[8.8105973,54.060346],[8.8033852,54.057453],[8.7972349,54.0538095],[8.7923688,54.0495476],[8.7889628,54.0448217],[8.7871397,54.0398027],[8.786965,54.0346725],[8.7884444,54.0296165],[8.7915238,54.0248178],[8.8106998,54.0017717],[8.8106992,54.0017718],[8.8106877,54.0017734],[8.8106872,54.0017734],[8.8106763,54.001775],[8.7722776,54.0070865],[8.7103148,54.0006712],[8.6148801,54.0025197],[8.5221222,54.0158626],[8.4359862,54.0401327],[8.3601508,54.0742974],[8.3366291,54.0903892],[8.2962553,54.0722624],[8.2305474,54.0361579],[8.1781719,53.9931912],[8.1566517,53.9652335],[8.1027123,53.9737972],[8.0090049,53.9769355],[7.8808127,53.9733537],[7.8740297,53.9765232],[7.7954665,54.0004054],[7.7105014,54.0148922],[7.6018544,54.0267849],[7.51586,54.0312629],[7.4299672,54.026115],[7.3865096,54.0210193],[7.3030925,54.0062221],[7.2260123,53.9823519],[7.1580874,53.950285],[7.1350887,53.9343296],[7.1086666,53.9286097],[7.0324424,53.9011571],[6.9411232,53.8604231],[6.8598948,53.8717935],[6.7714901,53.8737544],[6.6302121,53.8686583],[6.5433017,53.8604234],[6.4607392,53.8424363],[6.3856378,53.8153765],[6.320815,53.7802648],[6.3126272,53.7736998],[6.2522896,53.7769176],[6.1681021,53.7767373],[6.0854355,53.7673388],[6.0071603,53.7490486],[5.9475568,53.7311445],[5.8706354,53.7329856],[5.7848064,53.7301718],[5.7014426,53.7177918],[5.6235657,53.6962948],[5.5539886,53.6664595],[5.520211,53.648834],[5.4583225,53.6092719],[5.4110511,53.5631565],[5.4008013,53.5462585],[5.3406404,53.5261944],[5.28284,53.4986261],[5.1387714,53.417219],[5.08936,53.3841678],[5.0497503,53.346716],[5.0209952,53.3058836],[5.0149027,53.294729],[5.015221,53.2947803],[5.103051,53.3089415],[5.0010334,53.2688085],[5.0006667,53.2686643],[4.9956452,53.2594704],[4.886279,53.2073915],[4.7345318,53.1903099],[4.6589859,53.1775467],[4.5883598,53.157051],[4.5248333,53.1294575],[4.4110946,53.0701127],[4.3464212,53.0282025],[4.29801,52.9789974],[4.2680016,52.9247307],[4.0959478,52.4451662],[3.871893,52.2419821],[3.8376075,52.2350689],[3.7609117,52.2081483],[3.6946555,52.1723288],[3.6415209,52.1290753],[3.6036352,52.080152],[3.582488,52.0275483],[3.5821435,52.0223853],[3.5502721,52.0060297],[3.4989293,51.9668737],[3.4734683,51.9599666],[3.401728,51.9285888],[3.3417364,51.8889518],[3.2959169,51.8426787],[3.2704693,51.7991499],[3.1954345,51.7661239],[3.1325487,51.7323083],[3.0813114,51.6916645],[3.0435846,51.6456957],[3.0207178,51.5960973],[3.0201801,51.5922694],[2.9880783,51.5855253],[2.893698,51.5573312],[2.3503146,51.3386766],[1.8449138,51.2632298],[1.8437091,51.2596066],[1.8384523,51.2516717],[1.8436347,51.2159287],[1.8298249,51.1544833],[1.8004267,51.0836701],[1.7738164,51.0372861],[1.7342849,50.9947112],[1.6831747,50.9573553],[1.6221997,50.9264526],[1.5533872,50.9030217],[1.3973112,50.860783],[1.3937171,50.847315],[1.3628976,50.7967834],[1.3168079,50.7511451],[1.2573296,50.7122223],[1.1868611,50.6815649],[1.1405254,50.6690891],[1.1498543,50.6175243],[1.1743464,50.5511729],[1.1427862,50.4707001],[1.1304091,50.4132479],[1.1335169,50.388315],[1.1278675,50.3657767],[1.1223884,50.3067093],[1.1052167,50.2822849],[1.0027852,50.2184911],[0.4723958,50.1152076],[0.385539,50.0908529],[-0.026118,49.9364435],[-0.1025167,49.8993537],[-0.1636999,49.8520315],[-0.2064884,49.796974],[-0.3131593,49.6075157],[-0.3146947,49.6035923],[-0.3524356,49.609153],[-0.8152555,49.6520843],[-0.8293997,49.6998728],[-0.8612779,49.7709106],[-0.889486,49.8171589],[-0.9304468,49.8592758],[-0.9827859,49.895817],[-1.0447268,49.9255265],[-1.1141506,49.9473814],[-1.1886702,49.9606284],[-1.3370588,49.9775923],[-1.4243819,49.9815275],[-1.5110401,49.973675],[-1.5932007,49.9543831],[-1.6341003,49.9414979],[-1.7973095,49.9783725],[-1.8766174,49.9907904],[-1.9581694,49.9930606],[-2.0388288,49.9850965],[-2.1154949,49.9672055],[-2.1852286,49.9400756],[-2.2453689,49.9047485],[-2.2936366,49.8625772],[-2.3282218,49.8151728],[-2.3478488,49.7643412],[-2.3497669,49.755949],[-2.4013884,49.7678336],[-2.4853652,49.7753951],[-2.5699617,49.7718087],[-2.6516364,49.7572255],[-2.7269767,49.7322569],[-2.900206,49.6593052],[-2.9649686,49.6254765],[-3.0179241,49.5839653],[-3.056967,49.5364483],[-3.0805678,49.4848393],[-3.0878287,49.4312105]],[[-2.5578256,47.3837238],[-2.4794672,47.4028996],[-2.5362451,47.3603162],[-2.5578256,47.3837238]],[[4.6748692,52.8865341],[4.716814,52.9083527],[4.7168163,52.9083603],[4.7168163,52.9083603],[4.7168164,52.9083604],[4.7168165,52.9083609],[4.7168165,52.9083609],[4.7168166,52.9083611],[4.7168168,52.9083618],[4.7168174,52.908364],[4.7168174,52.908364],[4.7168177,52.9083648],[4.7168178,52.908365],[4.7322473,52.959406],[4.8186482,52.9678489],[4.8142315,52.9519666],[4.8142315,52.9519666],[4.8142304,52.9519623],[4.8142304,52.9519623],[4.8142296,52.9519597],[4.8142296,52.9519597],[4.8142289,52.9519571],[4.8142289,52.9519571],[4.8142278,52.9519531],[4.8142278,52.9519531],[4.814226,52.9519465],[4.8078481,52.9290116],[4.8176525,52.9251793],[4.8726487,52.9036829],[4.8176525,52.9251793],[4.7040417,52.8661017],[4.7168049,52.9083223],[4.716814,52.9083527],[4.6748692,52.8865341]],[[4.7070471,53.0286376],[4.8546485,53.1873639],[4.8906489,53.1806096],[4.8942489,53.1113779],[4.8942489,53.0759178],[4.7971352,53],[4.797048,52.9999318],[4.7968342,53],[4.7968342,53],[4.7070471,53.0286376]],[[5.1678517,53.3680417],[5.4234542,53.430519],[5.5854559,53.4541591],[5.4702547,53.4085675],[5.2074521,53.3528445],[5.1678517,53.3680417]],[[5.6358564,53.4490934],[5.6754568,53.4676677],[5.7872641,53.4649784],[5.787267,53.4649783],[5.7872766,53.4649781],[5.7872803,53.464978],[5.7872864,53.4649778],[5.7872897,53.4649777],[5.7872903,53.4649777],[5.7872909,53.4649777],[5.7873623,53.464976],[5.8527007,53.4634044],[5.8189594,53.4458589],[5.7746208,53.4409973],[5.7746076,53.4409959],[5.7746072,53.4409958],[5.7746019,53.4409952],[5.7746019,53.4409952],[5.7745679,53.4409915],[5.7745654,53.4409912],[5.6790568,53.430519],[5.6358564,53.4490934]],[[5.7873078,53.4649773],[5.7873623,53.464976],[5.8527007,53.4634044],[5.8527007,53.4634044],[5.8527007,53.4634044],[5.8527007,53.4634044],[5.8527007,53.4634044],[5.8527007,53.4634044],[5.8527007,53.4634044],[5.8527007,53.4634044],[5.8527007,53.4634044],[5.7873623,53.464976],[5.7873078,53.4649773]],[[10.8631086,42.3669608],[10.895509,42.3872237],[10.9243092,42.317992],[10.8631086,42.3669608]],[[14.3610478,45.1964851],[14.3635215,45.1962765],[14.3639947,45.1961677],[14.3644732,45.1961161],[14.3610478,45.1964851]],[[14.367127,45.195447],[14.3706383,45.1946391],[14.3711753,45.1944263],[14.3671642,45.1954376],[14.367127,45.195447]],[[14.3728004,45.1937821],[14.3771589,45.1920546],[14.3776658,45.191748],[14.3746816,45.1929956],[14.3728004,45.1937821]]]}}
