{"type":"Feature","properties":{"family":"franks","name":"Carolingian Empire, 804 – 842"},"geometry":{"type":"Polygon","coordinates":[[[-3.0878348,49.4311491],[-3.0784998,49.3776986],[-3.0530169,49.3265085],[-3.0124466,49.2796142],[-2.9584361,49.2388749],[-2.8931503,49.2059021],[-2.8191838,49.1819977],[-2.7394601,49.1681043],[-2.6571196,49.1647702],[-2.6452396,49.1650609],[-2.6315924,49.112728],[-2.6011936,49.0617824],[-2.5557457,49.0158794],[-2.497145,48.976897],[-2.4452035,48.9540705],[-2.4092917,48.9619224],[-2.3343121,48.9686604],[-2.2587233,48.9662087],[-2.1851297,48.9546517],[-2.1239414,48.9367019],[-2.0510053,48.9525807],[-1.9735499,48.9591639],[-1.8956004,48.9559523],[-1.820018,48.9430638],[-1.7495729,48.9209716],[-1.6868388,48.8904854],[-1.6422034,48.8585264],[-1.6422012,48.8585249],[-1.6436127,48.8558981],[-1.6447635,48.8507786],[-1.6444011,48.8456088],[-1.6425391,48.8405796],[-1.639247,48.835877],[-1.6346465,48.8316744],[-1.6069143,48.810875],[-1.594015,48.7430819],[-1.5921832,48.7378123],[-1.5887893,48.7328893],[-1.5839705,48.7285112],[-1.5527012,48.7053491],[-1.5527016,48.7053374],[-1.552702,48.7053244],[-1.5540914,48.659278],[-1.5542433,48.6584082],[-1.5542433,48.6584082],[-1.5542488,48.6583765],[-1.5542522,48.6583575],[-1.7859264,48.6439797],[-1.8153187,48.6547062],[-1.8044781,48.709131],[-1.8042031,48.7142378],[-1.8053991,48.719287],[-1.8080234,48.7240966],[-1.8119818,48.7284933],[-1.8171319,48.7323185],[-1.823288,48.7354341],[-1.8302282,48.7377278],[-1.8377022,48.7391168],[-1.8454402,48.739551],[-1.853163,48.7390147],[-1.9540138,48.7254979],[-1.9617423,48.7239203],[-1.9688465,48.7213716],[-1.9750479,48.7179517],[-1.9889363,48.7086013],[-1.9832981,48.7117318],[-1.9765111,48.7142313],[-1.9691294,48.7158377],[-1.9614201,48.7164931],[-1.9536623,48.7161736],[-1.9461367,48.7148908],[-1.9391156,48.7126912],[-1.9328531,48.7096543],[-1.9275755,48.7058901],[-1.9239631,48.7020545],[-1.9458195,48.6991255],[-1.9600784,48.6895296],[-1.9756532,48.5960807],[-2.0286203,48.6434025],[-1.9756532,48.5960807],[-1.9530195,48.5758594],[-1.977138,48.587172],[-1.9776652,48.584009],[-1.9751108,48.5807142],[-1.9666902,48.5698528],[-1.96825,48.5696823],[-1.949122,48.5332266],[-1.9477931,48.5293421],[-1.9818198,48.513382],[-1.9876048,48.5243713],[-2.0538205,48.6501568],[-1.9876048,48.5243713],[-2.05,48.15],[-2.05,47.8],[-2.1,47.62],[-2.35,47.5],[-2.4430533,47.43021],[-2.3966058,47.4247635],[-2.3994896,47.4226014],[-2.3997466,47.4224087],[-2.3997466,47.4224087],[-2.4794672,47.4028996],[-2.5578256,47.3837238],[-2.5362451,47.3603162],[-2.5362451,47.3603162],[-2.5211926,47.3439893],[-2.5152507,47.3375444],[-2.5198018,47.3357445],[-2.5275465,47.3339886],[-2.5356567,47.3333401],[-2.5437917,47.3338264],[-2.5516095,47.3354271],[-2.5587816,47.3380747],[-2.5650064,47.3416581],[-2.5699284,47.345945],[-2.5511175,47.3255646],[-2.5556338,47.3249001],[-2.5628026,47.3227878],[-2.5692226,47.3197686],[-2.5746462,47.3159593],[-2.578864,47.3115069],[-2.5817135,47.3065835],[-2.5830851,47.3013791],[-2.5829263,47.2960945],[-2.5812437,47.2909337],[-2.5781026,47.2860956],[-2.5736245,47.2817669],[-2.5679823,47.2781144],[-2.5613937,47.275279],[-2.4678262,47.24321],[-2.4603952,47.2412649],[-2.4525397,47.2403628],[-2.4445751,47.2405399],[-2.4368213,47.241789],[-2.3753935,47.2561993],[-2.2978227,47.2240077],[-2.2907126,47.221677],[-2.2830617,47.2203457],[-2.2751722,47.2200664],[-2.2673557,47.22085],[-2.2599212,47.2226657],[-2.2531622,47.2254417],[-2.2022486,47.2513414],[-2.2037503,47.2074285],[-2.2037514,47.2074277],[-2.2037537,47.2074259],[-2.2415271,47.1792139],[-2.3021451,47.1422801],[-2.3724953,47.1144944],[-2.4496428,47.097011],[-2.5303819,47.0905555],[-2.6113643,47.0953955],[-2.6892322,47.1113306],[-2.760751,47.1376998],[-2.7674193,47.1415327],[-2.811365,47.1118482],[-2.8201497,47.1079321],[-2.7881509,47.0872753],[-2.7224293,47.0590269],[-2.6886304,47.0474647],[-2.6893816,47.0099506],[-2.6750386,46.9576316],[-2.6531474,46.9205628],[-2.6657827,46.9128433],[-2.7141749,46.8677753],[-2.7478302,46.8168705],[-2.7653364,46.7623326],[-2.7659885,46.7065149],[-2.7621939,46.6795157],[-2.7472339,46.6274986],[-2.7177134,46.5785063],[-2.6748091,46.5344302],[-2.6202027,46.4969677],[-2.5560133,46.4675585],[-2.4847155,46.4473312],[-2.4090463,46.4370616],[-2.3087456,46.4303287],[-2.2301649,46.430442],[-2.1836279,46.4370074],[-2.1579295,46.3932856],[-2.1210468,46.3451278],[-2.0709046,46.3030612],[-2.0095642,46.2687923],[-1.9465897,46.2462419],[-1.9391603,46.1986017],[-1.9175473,46.14981],[-1.8830441,46.1047188],[-1.8369122,46.0649379],[-1.7925754,46.0333225],[-1.7817663,45.9850705],[-1.7524787,45.9075061],[-1.7193601,45.8487696],[-1.6675536,45.7970062],[-1.6263975,45.7646813],[-1.6295728,45.7495867],[-1.6334041,45.7008571],[-1.6245639,45.6524607],[-1.6033743,45.6059837],[-1.5705579,45.5629459],[-1.52721,45.5247511],[-1.4958226,45.505544],[-1.6380356,44.6595713],[-1.6396429,44.6082914],[-1.6334401,44.5823711],[-1.6359791,44.5704114],[-1.6544829,44.3352225],[-1.8272211,43.6900034],[-1.8774276,43.6408298],[-1.9364834,43.6198294],[-1.9952371,43.5870793],[-2.0438335,43.5465621],[-2.0803553,43.499897],[-2.103378,43.4489441],[-2.112023,43.3957292],[-2.1059866,43.342362],[-2.0997316,43.3266301],[-2.0997164,43.3266351],[-1.9754667,43.3675494],[-1.9682074,43.3693033],[-1.960608,43.3699362],[-1.952992,43.3694212],[-1.9456838,43.3677802],[-1.9422326,43.3663888],[-1.939395,43.3675726],[-1.8097524,43.4098033],[-1.8003907,43.4118225],[-1.6820562,43.4253234],[-1.6820242,43.425327],[-1.5126948,43.5904759],[-1.6821011,43.425252],[-1.7469223,43.4178508],[-1.754253,43.4164431],[-1.761041,43.4139847],[-1.767003,43.410578],[-1.7718901,43.4063655],[-1.7754987,43.401523],[-1.7776784,43.3962525],[-1.7783387,43.3907741],[-1.7777419,43.3870983],[-1.7777412,43.3870983],[-1.7727335,43.3876697],[-1.7412605,43.3912605],[-1.7000677,43.3959603],[-1.7000677,43.3959603],[-1.7000672,43.3959603],[-1.7000672,43.3959603],[-1.6614166,43.40037],[-1.7000672,43.3959603],[-1.7000672,43.3959603],[-1.7000677,43.3959603],[-1.7000677,43.3959603],[-1.7412605,43.3912605],[-1.7412605,43.3912605],[-1.7412605,43.3912605],[-1.7412605,43.3912605],[-1.7,43.35],[-1.6,43.25],[-1.35,43.1],[-1,43],[-0.7,42.9],[-0.5,42.85],[-0.3,42.8],[0.1,42.7],[0.225,42.575],[0.35,42.45],[0.6,42.25],[0.9,42.1],[1.2,42],[1.5,41.95],[1.8,41.75],[1.95,41.5],[2.1170048,41.3035238],[2.1186677,41.3043874],[2.1365226,41.3136594],[2.1415129,41.3162509],[2.1365226,41.3136594],[2.1186677,41.3043874],[2.1170048,41.3035238],[2.1170048,41.3035238],[2.1170048,41.3035238],[2.0875836,41.2882454],[2.0875836,41.2882454],[2.0875828,41.288245],[2.0875734,41.2882401],[2.0875671,41.2882368],[2.0912184,41.2847555],[2.0966996,41.2812723],[2.1029967,41.2786838],[2.1098565,41.277094],[2.1170035,41.2765668],[2.1241505,41.2771234],[2.1310106,41.2787414],[2.1373079,41.2813558],[2.182117,41.3046205],[2.1821795,41.3046592],[2.1821932,41.3046443],[2.1822204,41.3046148],[2.0814382,41.252286],[2.0753558,41.2497393],[2.0687344,41.2481224],[1.7839375,41.2002182],[1.7839375,41.2002182],[1.7838617,41.2002054],[1.8008703,41.1764],[1.8397559,41.1325079],[1.889216,41.0951856],[1.9473496,41.065855],[2.0119351,41.045632],[2.0805135,41.0352853],[2.1504793,41.0352081],[2.2191758,41.0454039],[2.2839925,41.0654864],[2.3424604,41.094693],[2.3923439,41.1319129],[2.5241634,41.2512734],[3.0952899,41.4716801],[3.159053,41.5027547],[3.378426,41.6356814],[3.4314654,41.6750971],[3.4725943,41.7218125],[3.5558663,41.8414588],[3.5826972,41.8915632],[3.5956618,41.9446256],[3.5942064,41.9985294],[3.578352,42.0511187],[3.561778,42.0881621],[3.5903466,42.1229065],[3.644695,42.2054865],[3.6693776,42.2543977],[3.6809198,42.3058995],[3.6788564,42.3580666],[3.6632302,42.4089437],[3.6345954,42.4566189],[3.5940017,42.4992962],[3.5429584,42.5353644],[3.5030521,42.554189],[3.4953284,42.5815895],[3.4751939,42.6297509],[3.4431903,42.6742856],[3.4136515,42.7014627],[3.4092614,42.9030689],[3.4368955,42.965111],[3.4921924,43.0073012],[3.5544477,43.0126654],[3.6222931,43.0232759],[3.6862777,43.0429576],[3.7441581,43.0710224],[4.0092727,43.2268001],[4.0286816,43.2186813],[4.0971391,43.2018361],[4.1687768,43.1949843],[4.3029811,43.1916787],[4.3070571,43.1873146],[4.3578668,43.1506957],[4.4173339,43.1218771],[4.4832491,43.1019242],[4.5531736,43.0915739],[4.7502885,43.0764388],[4.7919776,43.0764675],[4.8149571,43.07307],[4.8837259,43.0723987],[4.928034,43.0780467],[4.9974743,43.0678091],[5.0412577,43.0678112],[5.0569025,43.050001],[5.1048104,43.0131097],[5.1612906,42.9834424],[5.2243415,42.9620443],[5.2917383,42.9496687],[5.4972586,42.9264824],[5.5917242,42.8557103],[5.651157,42.8195794],[5.7195077,42.7933274],[5.7937856,42.7780993],[5.8707508,42.7745588],[5.9470508,42.7828602],[5.9474007,42.7829561],[6.0028628,42.757987],[6.0677052,42.7399873],[6.0685833,42.7398108],[6.1180229,42.7298757],[6.1801711,42.7215024],[6.2433535,42.7210642],[6.3057194,42.7285739],[6.365441,42.7438117],[6.3956598,42.7537234],[6.4014117,42.75561],[6.4625925,42.7810642],[6.5161157,42.8145925],[6.5600239,42.8549781],[6.5650503,42.8620246],[6.5803065,42.8680242],[6.6379412,42.9033411],[6.6469387,42.9116538],[6.7442739,42.9280527],[6.8184064,42.9467529],[6.8855247,42.9764901],[6.942606,43.0159313],[6.9870641,43.0633053],[7.0168652,43.1164798],[7.0429668,43.1821461],[7.0899969,43.1993067],[7.1476383,43.2319827],[7.1954292,43.2722565],[7.2048418,43.2843501],[7.2169563,43.2856875],[7.2840583,43.3031194],[7.3453924,43.3295534],[7.3987059,43.3640226],[7.4420299,43.4052648],[7.4625868,43.4354086],[7.5003222,43.4453669],[7.5754609,43.4820726],[7.6376645,43.52115],[7.6900992,43.5206602],[7.7623339,43.5250747],[7.8320452,43.5395348],[8.2050917,43.6454478],[8.2600922,43.6648231],[8.3100159,43.6904301],[8.4071159,43.7493166],[8.4522249,43.781707],[8.4891211,43.819148],[8.5167255,43.8605619],[8.561575,43.9455438],[8.6018676,43.9630311],[8.6678987,43.9993811],[8.7212583,44.0452926],[8.7593105,44.0985258],[8.7714261,44.1213833],[8.8245085,44.1444326],[8.9233637,44.1278166],[8.9600409,44.1043428],[9.0205513,44.0727273],[9.088523,44.0503228],[9.161283,44.0380078],[9.2036974,44.0370242],[9.6132796,43.8239355],[9.674132,43.7979788],[9.7406157,43.7807216],[9.8103784,43.7727733],[9.8743119,43.7742615],[9.891522,43.7539905],[9.9478145,43.4573355],[9.9670099,43.4011989],[10.0021681,43.3493116],[10.1513588,43.1774802],[10.1321681,42.9591428],[10.1345623,42.9066615],[10.1507597,42.8555063],[10.1743919,42.8169466],[10.1745171,42.8169402],[10.3555036,42.8076794],[10.4131041,42.8735339],[10.4419044,42.8448281],[10.4311043,42.7874165],[10.3879039,42.7637764],[10.4239042,42.7401363],[10.4167042,42.7080534],[10.3375034,42.765465],[10.2414475,42.7510135],[10.2412529,42.7509843],[10.2733076,42.7286149],[10.333605,42.7004839],[10.4001131,42.681436],[10.405547,42.6807217],[10.4309457,42.6482183],[10.477836,42.6085666],[10.534206,42.5763343],[10.597924,42.5527321],[10.727871,42.5156375],[10.738257,42.5070792],[10.7278491,42.4810072],[10.7213451,42.4288105],[10.7286243,42.3766605],[10.7493775,42.326524],[10.7711583,42.2877532],[10.8079433,42.2377894],[10.8579734,42.1946246],[10.9190161,42.1601622],[10.9883675,42.1359188],[11.0629705,42.1229596],[11.1395458,42.1218533],[11.289541,42.1313225],[11.3821213,42.0890701],[11.5058303,41.9112245],[11.5464835,41.8648962],[11.598883,41.8256925],[11.6608233,41.7952475],[11.7297136,41.7748281],[11.828245,41.7539637],[11.8567102,41.7324156],[11.8988308,41.6449725],[11.9324159,41.5931906],[11.979826,41.5478857],[12.0388926,41.5111025],[12.1980021,41.4315429],[12.349404,41.2832767],[12.4061049,41.2390226],[12.4745344,41.2055231],[12.551162,41.1844974],[12.6826041,41.1606256],[12.7328573,41.1091819],[12.7805418,41.0692796],[12.8376709,41.0372573],[12.9019896,41.0143707],[12.9709707,41.0015161],[13.0419107,40.9991961],[13.1120329,41.0075011],[13.1785916,41.0261055],[13.2389757,41.0542805],[13.2908083,41.0909215],[13.4369314,41.2145931],[13.2846584,41.2671776],[13.0575715,41.2019844],[13.0509739,41.2006085],[13.0441489,41.2002005],[13.0373452,41.2007754],[13.0308103,41.2023122],[13.0247824,41.204755],[13.019481,41.2080147],[13.0150993,41.2119728],[13.0117971,41.2164849],[12.9881029,41.2577282],[12.9878247,41.2583698],[12.9877732,41.2584886],[12.963766,41.3002768],[12.9881849,41.2577719],[12.9917218,41.2530016],[12.9964597,41.2488632],[13.0022043,41.245526],[13.0087205,41.2431267],[13.0157414,41.2417635],[13.0229796,41.2414922],[13.030139,41.2423237],[13.0352168,41.2437455],[13.0352167,41.2437457],[13.0352163,41.2437464],[13.0352151,41.2437484],[13.0269665,41.2581188],[13.0210529,41.2684213],[13.015465,41.2781563],[13.0052307,41.2959862],[13.0052303,41.295987],[13.0052302,41.2959871],[13,41.3050989],[13.0052302,41.2959871],[13.0052303,41.295987],[13.0052307,41.2959862],[13.015465,41.2781563],[13.0210529,41.2684213],[13.1333333,41.3666667],[13.2666667,41.4833333],[13.4,41.6],[14,42.1],[14.2448925,42.4673388],[14.2196244,42.4867408],[14.0743407,42.5982958],[14.2196244,42.4867408],[14.2448925,42.4673388],[14.2448925,42.4673388],[14.2718268,42.4466575],[14.2718277,42.4466568],[14.2718313,42.4466541],[14.2718334,42.4466524],[14.2718351,42.4466512],[14.2718351,42.4466512],[14.2718454,42.4466432],[14.2718454,42.4466432],[14.5137737,42.2608802],[14.5137829,42.2608731],[14.5138189,42.2608455],[14.5138222,42.2608429],[14.5138189,42.2608455],[14.5137829,42.2608731],[14.5137737,42.2608802],[14.2718454,42.4466432],[14.2718454,42.4466432],[14.2718351,42.4466512],[14.2718351,42.4466512],[14.2718334,42.4466524],[14.2718313,42.4466541],[14.2718277,42.4466568],[14.2718268,42.4466575],[14.2448925,42.4673388],[14.2448925,42.4673388],[14.2196244,42.4867408],[14.2196244,42.4867408],[14.2448925,42.4673388],[14.2448925,42.4673388],[14.2718268,42.4466575],[14.2718277,42.4466568],[14.2718313,42.4466541],[14.2718316,42.4466538],[14.277612,42.4553175],[14.2802199,42.4604586],[14.2813608,42.4658858],[14.280987,42.4713735],[14.2791136,42.4766939],[14.2758181,42.4816259],[14.271237,42.4859644],[14.2705821,42.4864676],[14.2707001,42.4863932],[14.2711977,42.4860795],[14.5310627,42.2864993],[14.5715088,42.3466891],[14.5978051,42.3980219],[14.6094944,42.4522533],[14.6060532,42.5071362],[14.5875837,42.56039],[14.5548169,42.609796],[14.5090879,42.65329],[14.3797515,42.7530359],[14.2879336,42.8953805],[13.972364,43.6408312],[13.9446418,43.6886601],[13.9047363,43.7317707],[13.854108,43.7685571],[13.7946273,43.7976461],[13.4711845,43.9241012],[13.1814748,44.1148103],[13.0917507,44.15835],[12.8886299,44.2283936],[12.7284812,44.3561288],[12.6613853,44.5292258],[12.6581854,44.5983528],[12.7108695,44.6288656],[12.7577367,44.6688772],[12.7929643,44.7145493],[12.8837102,44.8645374],[12.9053782,44.9118149],[12.914445,44.9611143],[12.91057,45.0107629],[12.8938511,45.0590718],[12.8648265,45.1043934],[12.8244599,45.1451779],[12.7741113,45.1800272],[12.698716,45.2232616],[12.7129285,45.2350353],[13.146027,45.3662321],[13.1642387,45.2972908],[13.1830674,45.2501903],[13.2001012,45.2257105],[13.2150182,45.1191301],[13.2295409,45.0674867],[13.2448741,45.0412297],[13.2483971,45.0272829],[13.2658495,44.9816714],[13.294253,44.9388996],[13.3327168,44.9002725],[13.4110829,44.8344726],[13.4118096,44.8277277],[13.4330751,44.775123],[13.4688113,44.7266262],[13.5175212,44.6842212],[13.5590909,44.6601357],[13.5708578,44.641299],[13.6125869,44.5988134],[13.6648886,44.5627609],[13.7258326,44.5344592],[13.7931831,44.5149405],[13.8644795,44.5049157],[13.8965185,44.5048423],[13.9371236,44.5047493],[14.0084706,44.5144468],[14.0759211,44.5336545],[14.1370123,44.5616723],[14.1402451,44.5638795],[14.1460789,44.56516],[14.2112187,44.5901783],[14.2258126,44.5987515],[14.2162682,44.6020071],[14.2101161,44.6046443],[14.2047818,44.6080639],[14.2004582,44.6121425],[14.197302,44.6167326],[14.1954274,44.6216681],[14.1949027,44.6267707],[14.1957472,44.6318556],[14.2065246,44.6673187],[14.2089447,44.6725848],[14.2128287,44.6773924],[14.2180128,44.6815378],[14.2242776,44.6848458],[14.2602868,44.7000497],[14.2671009,44.7023112],[14.2744042,44.7035759],[14.2819097,44.7037939],[14.2893221,44.7029566],[14.29635,44.7010971],[14.3027171,44.6982884],[14.3065057,44.6957557],[14.3007341,44.7098638],[14.2993887,44.7149181],[14.2994252,44.7200657],[14.3008424,44.7251181],[14.3035888,44.7298905],[14.3075643,44.734208],[14.3126234,44.7379124],[14.318581,44.7408681],[14.3252189,44.7429666],[14.3322939,44.7441311],[14.3395467,44.7443189],[14.340389,44.7442254],[14.2583414,44.8986971],[14.2566063,44.9030204],[14.2559148,44.9074906],[14.2562865,44.9119828],[14.2634628,44.9474447],[14.2652305,44.9525542],[14.268369,44.9573271],[14.2727587,44.9615814],[14.2782324,44.9651545],[14.2845811,44.96791],[14.2915626,44.9697427],[14.2989101,44.9705825],[14.3063429,44.9703973],[14.3135771,44.9691941],[14.3203363,44.967019],[14.3525665,44.9538036],[14.3531118,44.9618112],[14.3542819,44.967261],[14.3558584,44.9702629],[14.2467901,45.0986775],[14.2468159,45.0986884],[14.2468248,45.0986922],[14.2790573,45.0607185],[14.2835783,45.0564206],[14.2892107,45.0528366],[14.2957325,45.0501075],[14.3028871,45.0483407],[14.3103929,45.0476057],[14.3179545,45.0479315],[14.3252744,45.0493052],[14.3314062,45.0514431],[14.3314069,45.0514422],[14.3314091,45.0514396],[14.3314101,45.0514384],[14.3750408,45],[14.3314101,45.0514384],[14.3314091,45.0514396],[14.3314069,45.0514422],[14.3314062,45.0514431],[14.3314032,45.0514465],[14.3314006,45.0514497],[14.3314006,45.0514497],[14.3211207,45.0635691],[14.3179694,45.0672843],[14.3153139,45.0704151],[14.3142175,45.0717077],[14.3118132,45.0745422],[14.3107527,45.0757925],[14.3107524,45.0757928],[14.3013891,45.0868317],[14.3011998,45.0870549],[14.300651,45.0877018],[14.3004679,45.0879178],[14.2989517,45.0897052],[14.2989517,45.0897053],[14.2989517,45.0897053],[14.2989517,45.0897053],[14.2989517,45.0897053],[14.2989517,45.0897053],[14.2863663,45.1045429],[14.2853777,45.1057084],[14.2853777,45.1057084],[14.2853777,45.1057084],[14.2853777,45.1057084],[14.2853777,45.1057084],[14.2853777,45.1057084],[14.2795583,45.1125691],[14.2795428,45.1125874],[14.2795583,45.1125691],[14.2853777,45.1057084],[14.2853777,45.1057084],[14.2853777,45.1057084],[14.2853777,45.1057084],[14.2853777,45.1057084],[14.2853777,45.1057084],[14.2863663,45.1045429],[14.2989517,45.0897053],[14.2989517,45.0897053],[14.2989517,45.0897053],[14.2989517,45.0897053],[14.2989517,45.0897053],[14.2989517,45.0897052],[14.3004679,45.0879178],[14.300651,45.0877018],[14.3011998,45.0870549],[14.3013891,45.0868317],[14.3107524,45.0757928],[14.3107527,45.0757925],[14.3118132,45.0745422],[14.3692124,45.1128083],[14.3551436,45.169999],[14.3692124,45.1128083],[14.3770535,45.080934],[14.3770543,45.0809305],[14.3770543,45.0809305],[14.3954543,45.0931935],[14.4003834,45.0971921],[14.4041071,45.1017951],[14.4064812,45.1068244],[14.4074135,45.1120855],[14.4068674,45.1173748],[14.3942138,45.1689539],[14.3985477,45.1513158],[14.4081705,45.1121529],[14.4956146,45.1504492],[14.5114994,45.252212],[14.5130998,45.2574956],[14.5140469,45.2590259],[14.4465501,45.2777079],[14.44646,45.2777328],[14.4538127,45.2762701],[14.4614787,45.2758654],[14.4691037,45.2765442],[14.4763813,45.2782792],[14.4830191,45.2810007],[14.4887503,45.2845994],[14.4933445,45.2889306],[14.4960419,45.2929615],[14.4960417,45.2929616],[14.4960401,45.292962],[14.4960397,45.2929621],[14.4960328,45.292964],[14.484235,45.2962298],[14.484235,45.2962298],[14.484235,45.2962298],[14.484235,45.2962298],[14.484235,45.2962298],[14.484235,45.2962298],[14.460457,45.3028119],[14.4593215,45.3031262],[14.4179013,45.3145918],[14.4159763,45.3151247],[14.4159763,45.3151247],[14.4159763,45.3151247],[14.3669014,45.3287093],[14.3669014,45.3287093],[14.3669014,45.3287093],[14.3669014,45.3287093],[14.3669014,45.3287093],[14.3669014,45.3287093],[14.3669014,45.3287093],[14.3669014,45.3287093],[14.3669014,45.3287093],[14.3669014,45.3287093],[14.3669014,45.3287093],[14.3457726,45.334558],[14.317432,45.3424031],[14.3119431,45.3439225],[14.317432,45.3424031],[14.3457726,45.334558],[14.3669014,45.3287093],[14.3669014,45.3287093],[14.3669014,45.3287093],[14.3669014,45.3287093],[14.3669014,45.3287093],[14.3669014,45.3287093],[14.3669014,45.3287093],[14.3669014,45.3287093],[14.3669014,45.3287093],[14.3669014,45.3287093],[14.3669014,45.3287093],[14.4159763,45.3151247],[14.4159763,45.3151247],[14.4159763,45.3151247],[14.4179013,45.3145918],[14.4593215,45.3031262],[14.460457,45.3028119],[14.460457,45.3028119],[14.45,45.33],[14.8,45.45],[14.9666667,45.5],[15.1333333,45.55],[15.3,45.6],[15.6,45.85],[15.75,45.9875],[15.9,46.125],[16.05,46.2625],[16.2,46.4],[16.6,46.35],[16.8,46.2833333],[17,46.2166667],[17.2,46.15],[17.4,46.0666667],[17.6,45.9833333],[17.8,45.9],[18.4,45.75],[18.5666667,45.6833333],[18.7333333,45.6166667],[18.9,45.55],[18.85,46],[18.8666667,46.1666667],[18.8833333,46.3333333],[18.9,46.5],[18.9166667,46.6666667],[18.9333333,46.8333333],[18.95,47],[18.9666667,47.1666667],[18.9833333,47.3333333],[19,47.5],[18.9,47.8],[18.6666667,47.7833333],[18.4333333,47.7666667],[18.2,47.75],[17.6,47.9],[17.3933333,47.99],[16.98,48.17],[16.965,48.385],[16.95,48.6],[16.2,48.65],[16,48.6333333],[15.8,48.6166667],[15.6,48.6],[15.4,48.5833333],[15.2,48.5666667],[15,48.55],[14.8,48.5666667],[14.6,48.5833333],[14.4,48.6],[14.356,48.612],[14.2166667,48.65],[14.0333333,48.7],[13.85,48.75],[13.5,48.95],[13.1,49.2],[12.75,49.45],[12.5,49.8],[12.4,50.1],[12.1,50.3],[11.95,50.35],[11.8,50.4],[11.7,50.6],[11.8,50.85],[11.95,51.1],[11.95,51.35],[11.9,51.6],[11.85,51.725],[11.8,51.85],[11.7,52.05],[11.8,52.2],[11.95,52.4],[12,52.65],[11.85,52.85],[11.55,53],[11.2,53.1],[11.05,53.15],[10.9,53.2],[10.6,53.37],[10.6,53.5],[10.5,53.7],[10.35,53.9],[10.25,54.1],[10.2,54.3],[10.2327761,54.417994],[10.1978837,54.381334],[10.1978837,54.381334],[10.1978519,54.3813006],[10.1665629,54.3484264],[10.1431014,54.3237764],[10.1665629,54.3484264],[10.1668455,54.349448],[10.16689,54.3496088],[10.1668455,54.349448],[10.16689,54.3496088],[10.1669687,54.3498932],[10.1669865,54.3499576],[10.1671997,54.3507281],[10.1672236,54.3508145],[10.1672666,54.35097],[10.1672236,54.3508145],[10.1672666,54.35097],[10.1672746,54.350999],[10.1673023,54.3510988],[10.1673215,54.3511684],[10.1673282,54.3511925],[10.167359,54.3513038],[10.1673282,54.3511925],[10.167359,54.3513038],[10.1675526,54.3520035],[10.1675638,54.352044],[10.1676629,54.3524024],[10.1676749,54.3524458],[10.1679568,54.3534648],[10.1676749,54.3524458],[10.1676629,54.3524024],[10.1676749,54.3524458],[10.1679568,54.3534648],[10.1680568,54.3538259],[10.159173,54.3456329],[10.1591554,54.3456167],[10.1535724,54.3414322],[10.146695,54.3379645],[10.1431014,54.3367749],[10.1431014,54.3727451],[10.1899019,54.3963852],[10.197867,54.4318773],[10.204302,54.4605512],[10.197867,54.4318773],[10.12,54.36],[10,54.3436364],[9.9,54.33],[9.67,54.3],[9.4,54.27],[9.25,54.26],[9.1,54.25],[8.975,54.26],[8.8877832,54.2669773],[8.844839,54.2573439],[8.8426876,54.2611405],[8.8415986,54.2665717],[8.8419698,54.2690722],[8.7945531,54.2611595],[8.7945455,54.2611582],[8.7661671,54.1860758],[8.7651198,54.181356],[8.7655033,54.1766019],[8.7673049,54.1719616],[8.7704684,54.1675792],[8.8209072,54.1118722],[8.8259848,54.1073981],[8.8324715,54.1036044],[8.8401093,54.1006417],[8.8485953,54.0986274],[8.8575925,54.0976415],[8.8667443,54.0977231],[8.8756877,54.0988689],[8.9538095,54.1137682],[8.971843,54.0933424],[8.9607524,54.0585598],[8.8358231,54.063635],[8.8271013,54.0634958],[8.8185819,54.0623876],[8.8105736,54.0603506],[8.8033663,54.0574587],[8.7972208,54.0538165],[8.7923595,54.0495559],[8.7889579,54.0448312],[8.7871386,54.0398133],[8.7869668,54.0346837],[8.7884482,54.0296281],[8.7915286,54.024829],[8.8107158,54.0017695],[8.8106998,54.0017717],[8.8106992,54.0017718],[8.8106877,54.0017734],[8.8106872,54.0017734],[8.8106763,54.001775],[8.7722776,54.0070865],[8.7103148,54.0006712],[8.6148801,54.0025197],[8.5221222,54.0158626],[8.4359862,54.0401327],[8.3601508,54.0742974],[8.3366291,54.0903892],[8.3365072,54.0904726],[8.2961057,54.0723324],[8.2304592,54.0362591],[8.1781329,53.9933281],[8.1565016,53.9652224],[8.1024253,53.9738105],[8.0086724,53.976951],[7.8805288,53.9733677],[7.8737567,53.9765305],[7.7951631,54.0004135],[7.710179,54.0149002],[7.6015306,54.0267907],[7.5155335,54.0312678],[7.42965,54.0261195],[7.386193,54.021023],[7.302829,54.0062339],[7.2258064,53.9823793],[7.1579387,53.9503346],[7.1349142,53.9343573],[7.1084343,53.928625],[7.0322659,53.9011914],[6.940849,53.8604108],[6.8595717,53.8717842],[6.7711627,53.8737432],[6.6298853,53.8686441],[6.5429924,53.8604089],[6.4604585,53.8424241],[6.3853951,53.815369],[6.3206176,53.7802643],[6.312404,53.7736736],[6.2519763,53.7768949],[6.1678005,53.7767143],[6.085156,53.7673189],[6.0069115,53.7490352],[5.9472594,53.731115],[5.870321,53.7329549],[5.7845187,53.7301421],[5.7011909,53.7177697],[5.6233563,53.6962865],[5.5538241,53.6664706],[5.520048,53.6488449],[5.4581861,53.6092921],[5.4109486,53.5631846],[5.4007083,53.5462823],[5.3404369,53.5261806],[5.2826862,53.4986345],[5.1386242,53.417227],[5.0892623,53.3842076],[5.0496933,53.3467918],[5.0209674,53.3059976],[5.0148045,53.2947131],[5.0148612,53.2947223],[5.0149027,53.294729],[5.015221,53.2947803],[5.103051,53.3089415],[5.0010334,53.2688085],[5.0006667,53.2686643],[5.0006195,53.2686457],[5.0005538,53.2686199],[4.995577,53.2595072],[4.8860423,53.2073452],[4.7342466,53.1902548],[4.6587351,53.1774969],[4.5881485,53.1570127],[4.5246638,53.1294364],[4.4109301,53.0700909],[4.346316,53.0282168],[4.297953,52.9790546],[4.2679768,52.9248334],[4.0959188,52.4452244],[3.8717526,52.241928],[3.8374135,52.2350041],[3.7607616,52.2081014],[3.6945486,52.172308],[3.6414525,52.1290869],[3.6035973,52.0801997],[3.5824702,52.0276329],[3.5821215,52.0223978],[3.5501149,52.0059701],[3.4987905,51.9668153],[3.4733226,51.9599078],[3.4016211,51.9285535],[3.3416654,51.8889471],[3.2958753,51.8427095],[3.2703885,51.7991155],[3.1952681,51.7660499],[3.1324234,51.7322546],[3.0812247,51.6916376],[3.0435315,51.6457],[3.0206906,51.5961352],[3.0201402,51.5922102],[2.9878801,51.5854323],[2.8935144,51.5572401],[2.3501319,51.3385694],[1.8448814,51.2631338],[1.8437087,51.259607],[1.8384527,51.2516732],[1.8436348,51.2159313],[1.8298246,51.1544843],[1.8004263,51.0836709],[1.7738152,51.0372856],[1.7342825,50.9947094],[1.683171,50.9573525],[1.6221946,50.9264491],[1.5533807,50.9030177],[1.3973099,50.8607806],[1.3937169,50.847317],[1.3628968,50.7967841],[1.3168062,50.7511447],[1.2573267,50.7122208],[1.186857,50.6815626],[1.1405273,50.6690882],[1.1498356,50.6176466],[1.174349,50.5512386],[1.1427643,50.4707023],[1.1303985,50.4132907],[1.1335084,50.3883679],[1.1278569,50.3658218],[1.1223735,50.3067019],[1.1051393,50.2821872],[1.002647,50.218352],[0.4722625,50.1150574],[0.3853874,50.0906956],[-0.0262552,49.9362802],[-0.1026211,49.8992075],[-0.1637713,49.851914],[-0.2065299,49.7968946],[-0.3131934,49.6074409],[-0.3147603,49.6034362],[-0.3524396,49.6089871],[-0.8152108,49.651905],[-0.8293713,49.6997494],[-0.8612509,49.7707893],[-0.8894534,49.8170185],[-0.9304137,49.8591197],[-0.9827568,49.8956485],[-1.0447054,49.9253491],[-1.1141395,49.9471987],[-1.188671,49.9604439],[-1.3370612,49.977405],[-1.4244405,49.9813414],[-1.5111509,49.9734835],[-1.5933529,49.9541808],[-1.6341619,49.9413228],[-1.7972607,49.9781685],[-1.8765808,49.990589],[-1.9581468,49.992866],[-2.0388202,49.9849131],[-2.1154991,49.9670373],[-2.1852432,49.9399265],[-2.2453903,49.9046221],[-2.293661,49.8624767],[-2.3282445,49.8151009],[-2.3478654,49.7642998],[-2.3498158,49.7557659],[-2.4015384,49.7676521],[-2.4855273,49.77519],[-2.5701287,49.7715867],[-2.6518004,49.7569945],[-2.7271297,49.7320251],[-2.9003524,49.659071],[-2.9650861,49.6252581],[-3.0180111,49.5837738],[-3.0570241,49.5362934],[-3.0805974,49.4847286],[-3.0878348,49.4311491]],[[-2.5578256,47.3837238],[-2.4794672,47.4028996],[-2.5362451,47.3603162],[-2.5578256,47.3837238]],[[4.7040417,52.8661017],[4.7168049,52.9083223],[4.716814,52.9083527],[4.716814,52.9083527],[4.7168163,52.9083603],[4.7168163,52.9083603],[4.7168164,52.9083604],[4.7168163,52.9083603],[4.7168163,52.9083603],[4.716814,52.9083527],[4.716814,52.9083527],[4.7168049,52.9083223],[4.7040417,52.8661017],[4.7040417,52.8661017]],[[4.7040417,52.8661017],[4.7168049,52.9083223],[4.716814,52.9083527],[4.716814,52.9083527],[4.7168163,52.9083603],[4.7168163,52.9083603],[4.7168165,52.9083609],[4.7168165,52.9083609],[4.7168166,52.9083611],[4.7168168,52.9083618],[4.7168174,52.908364],[4.7168174,52.908364],[4.7168177,52.9083648],[4.7168178,52.908365],[4.7322473,52.959406],[4.8186482,52.9678489],[4.8142315,52.9519666],[4.8142315,52.9519666],[4.8142304,52.9519623],[4.8142304,52.9519623],[4.8142296,52.9519597],[4.8142296,52.9519597],[4.8142289,52.9519571],[4.8142289,52.9519571],[4.8142278,52.9519531],[4.8142278,52.9519531],[4.814226,52.9519465],[4.8078481,52.9290116],[4.8176525,52.9251793],[4.8726487,52.9036829],[4.8176525,52.9251793],[4.7040417,52.8661017]],[[4.7070471,53.0286376],[4.8546485,53.1873639],[4.8906489,53.1806096],[4.8942489,53.1113779],[4.8942489,53.0759178],[4.7971352,53],[4.797048,52.9999318],[4.7968342,53],[4.7968342,53],[4.7070471,53.0286376]],[[5.1678517,53.3680417],[5.4234542,53.430519],[5.5854559,53.4541591],[5.4702547,53.4085675],[5.2074521,53.3528445],[5.1678517,53.3680417]],[[5.6358564,53.4490934],[5.6754568,53.4676677],[5.7872641,53.4649784],[5.787267,53.4649783],[5.7872766,53.4649781],[5.7872803,53.464978],[5.7872864,53.4649778],[5.7872897,53.4649777],[5.7872903,53.4649777],[5.7873078,53.4649773],[5.7873623,53.464976],[5.8527007,53.4634044],[5.8189594,53.4458589],[5.7746208,53.4409973],[5.7746076,53.4409959],[5.7746072,53.4409958],[5.7746072,53.4409958],[5.7746019,53.4409952],[5.7745679,53.4409915],[5.7745654,53.4409912],[5.6790568,53.430519],[5.6358564,53.4490934]],[[5.7872909,53.4649777],[5.7873078,53.4649773],[5.7873623,53.464976],[5.8527007,53.4634044],[5.8527007,53.4634044],[5.7873623,53.464976],[5.7873078,53.4649773],[5.7872909,53.4649777]],[[10.1673023,54.3510988],[10.1673215,54.3511684],[10.1673282,54.3511925],[10.167359,54.3513038],[10.1675526,54.3520035],[10.167359,54.3513038],[10.1673282,54.3511925],[10.1673215,54.3511684],[10.1673023,54.3510988]],[[10.8631086,42.3669608],[10.895509,42.3872237],[10.9243092,42.317992],[10.8631086,42.3669608]],[[14.2919828,45.1946318],[14.3373719,45.3079478],[14.4464135,45.2777421],[14.4305379,45.2821398],[14.3964029,45.2915878],[14.3373662,45.3079282],[14.3373642,45.3079287],[14.2919828,45.1946318]],[[14.3619177,45.196408],[14.3621706,45.1963867],[14.3635224,45.1962728],[14.3637822,45.1962131],[14.363831,45.1962019],[14.3644845,45.1961315],[14.3619177,45.196408]],[[14.3680763,45.1952256],[14.3684156,45.1951476],[14.3706389,45.1946363],[14.3709819,45.1945004],[14.3710346,45.1944795],[14.3680763,45.1952256]],[[14.3737678,45.1933966],[14.374184,45.1932316],[14.3771594,45.1920527],[14.37751,45.1918407],[14.3775593,45.1918108],[14.3737678,45.1933966]],[[14.3789496,45.19097],[14.3794264,45.1906816],[14.3828329,45.1886215],[14.3831176,45.1883653],[14.3831574,45.1883295],[14.381205,45.1895547],[14.3831932,45.188307],[14.3789496,45.19097]],[[14.3835897,45.1879405],[14.3841091,45.1874732],[14.3874415,45.1844746],[14.3876154,45.1842316],[14.3876422,45.1841942],[14.3860968,45.1856228],[14.3835897,45.1879405]],[[14.387665,45.1841624],[14.3882234,45.1833823],[14.3908081,45.1797715],[14.3908721,45.1796085],[14.3908857,45.1795739],[14.3878201,45.1839414],[14.3908976,45.179557],[14.387665,45.1841624]],[[14.3913738,45.1783318],[14.3921209,45.1764306],[14.3928036,45.1746931],[14.3928164,45.1746413],[14.3928302,45.1745849],[14.3915496,45.1778797],[14.3913738,45.1783318]]]}}
