{"type":"Feature","properties":{"family":"celts","name":"Gaelic kingdoms of Ireland, 1261 – 1349"},"geometry":{"type":"Polygon","coordinates":[[[-10.9172641,52.1426673],[-10.9056439,52.0905406],[-10.8778214,52.0407875],[-10.8378376,51.9868908],[-10.8137373,51.9609262],[-10.8155568,51.9580918],[-10.8308962,51.9048775],[-10.8287213,51.8508484],[-10.821167,51.8137285],[-10.8030107,51.7635805],[-10.7698728,51.7164673],[-10.7511286,51.6995342],[-10.743612,51.6843483],[-10.7036595,51.6381248],[-10.6501351,51.5975517],[-10.5896759,51.5665118],[-10.5897555,51.5589857],[-10.5733703,51.5065011],[-10.5407325,51.4570533],[-10.493166,51.4125714],[-10.4325614,51.3747857],[-10.3612989,51.3451618],[-10.2821545,51.3248466],[-10.1981953,51.3146253],[-10.1937527,51.3146407],[-10.170283,51.2892457],[-10.1130197,51.2487433],[-10.0440951,51.2161663],[-9.9662623,51.1928059],[-9.8826115,51.1795861],[-9.7964515,51.1770296],[-9.7111855,51.1852373],[-9.6301831,51.2038853],[-9.5522462,51.2275497],[-9.5150677,51.2172138],[-9.4306099,51.2055306],[-9.3441406,51.2045964],[-9.2590888,51.2144481],[-9.2446809,51.2180828],[-9.2572409,51.2179313],[-9.3368498,51.2263576],[-9.4118174,51.2388575],[-9.4951529,51.2586583],[-9.5702867,51.2887191],[-9.6340317,51.3277724],[-9.683662,51.3741679],[-9.7170289,51.4259396],[-9.7211923,51.440578],[-9.6886902,51.4481998],[-9.6802155,51.4508752],[-9.6728797,51.4546379],[-9.6670359,51.4593068],[-9.6478961,51.4786409],[-9.6397562,51.4739399],[-9.6332935,51.4708566],[-9.6260194,51.468581],[-9.6181905,51.4671933],[-9.6100832,51.4667424],[-9.6019834,51.4672444],[-9.5941768,51.4686814],[-9.5869389,51.4710028],[-9.444852,51.5275202],[-9.4448261,51.5004638],[-9.443995,51.4952212],[-9.441544,51.4901791],[-9.4375668,51.4855298],[-9.4322156,51.4814504],[-9.4256943,51.4780963],[-9.422722,51.4770975],[-9.4231566,51.4722552],[-9.4218965,51.4668928],[-9.4189421,51.4617956],[-9.4144132,51.4571692],[-9.4084927,51.4532],[-9.4014197,51.4500482],[-9.3934794,51.4478406],[-9.3849917,51.4466662],[-9.3762987,51.4465723],[-9.3677505,51.4475628],[-9.3596915,51.4495977],[-9.28029,51.4756636],[-9.2802547,51.4756778],[-9.2802577,51.4756768],[-9.2883094,51.4736451],[-9.2968492,51.4726546],[-9.3055341,51.4727449],[-9.3140153,51.4739126],[-9.3219521,51.4761106],[-9.3290257,51.4792507],[-9.3349517,51.4832068],[-9.3386759,51.4869911],[-9.3004621,51.4995379],[-9.2,51.6],[-9,52],[-9.3,52.3],[-9.1,52.6],[-8.875,52.63],[-8.65,52.66],[-8.6,52.9],[-8.775,53.02],[-8.95,53.14],[-8.9997882,53.1765114],[-9,53.176499],[-9.0444949,53.1738902],[-9.0450905,53.1738553],[-9.0444949,53.1738902],[-9,53.176499],[-9.0444949,53.1738902],[-9.0446662,53.1786191],[-9.0430847,53.183901],[-9.0397892,53.1888908],[-9.0349098,53.1933909],[-9.0336451,53.1941639],[-9.0450437,53.1941572],[-9.0538229,53.1946688],[-9.0622676,53.1961952],[-9.0665441,53.1975587],[-9.0736896,53.1946922],[-9.0799352,53.1909389],[-9.0848346,53.1865264],[-9.0881363,53.1817163],[-9.1197797,53.1851957],[-9.1288399,53.1856314],[-9.1378613,53.1849671],[-9.1464757,53.18323],[-9.1543314,53.1804909],[-9.1611079,53.1768617],[-9.1665289,53.1724906],[-9.1703739,53.1675557],[-9.1724864,53.1622585],[-9.1725954,53.1602441],[-9.2613805,53.1730708],[-9.2707763,53.1738089],[-9.2802217,53.1733509],[-9.2892973,53.1717171],[-9.2976001,53.16898],[-9.3047617,53.1652611],[-9.3104647,53.1607255],[-9.4078155,53.062905],[-9.417984,53.0702465],[-9.4600424,53.1166599],[-9.4651588,53.126499],[-9.4751431,53.1348834],[-9.5110531,53.18206],[-9.5187606,53.2012529],[-9.5144989,53.2009239],[-9.5057861,53.2012683],[-9.0775344,53.2426226],[-9.0774466,53.2426362],[-9.0862619,53.2423107],[-9.0950805,53.2430329],[-9.1034907,53.2447771],[-9.1111652,53.2474755],[-9.1178052,53.2510231],[-9.123152,53.2552817],[-9.1269969,53.2600857],[-9.1290734,53.264974],[-9.1215555,53.2657],[-9.0845838,53.2692702],[-9.0303769,53.2745049],[-9.0845838,53.2692702],[-9.1215555,53.2657],[-9.1290734,53.264974],[-9.5130951,53.2278898],[-9.1290734,53.264974],[-9.1215555,53.2657],[-9.0845838,53.2692702],[-8.9,53.5],[-8.7333333,53.6333333],[-8.5666667,53.7666667],[-8.4,53.9],[-7.8,53.9],[-7.6333333,54],[-7.4666667,54.1],[-7.3,54.2],[-7.1666667,54.3333333],[-7.0333333,54.4666667],[-6.9,54.6],[-6.8,54.8],[-6.7,55],[-6.5,55.15],[-6.3826612,55.2380041],[-6.3626289,55.2363933],[-6.3359893,55.2342513],[-6.3359893,55.2342513],[-6.3626289,55.2363933],[-6.3826612,55.2380041],[-6.3826612,55.2380041],[-6.4363331,55.2423197],[-6.42023,55.2544054],[-6.4133688,55.25853],[-6.4051427,55.2617432],[-6.3959171,55.2639025],[-6.3861021,55.2649116],[-6.3761493,55.2647261],[-6.4932817,55.2741447],[-6.502425,55.2743664],[-6.5114726,55.2735812],[-6.5200857,55.2718185],[-6.7629096,55.2060582],[-6.9097713,55.217956],[-6.9048236,55.2203784],[-6.8990109,55.2246403],[-6.8948012,55.2294769],[-6.8923634,55.2346946],[-6.8917958,55.2400844],[-6.8931221,55.2454306],[-6.8962896,55.250519],[-6.9011723,55.2551454],[-6.9075748,55.2591246],[-6.9152407,55.2622967],[-6.935304,55.2689006],[-6.7597345,55.4015056],[-6.7011596,55.4368796],[-6.7646164,55.4555921],[-6.7890413,55.4666768],[-6.7890413,55.4666768],[-6.8376215,55.4887239],[-6.8979132,55.5292748],[-6.9094474,55.5411113],[-7.1476526,55.6196562],[-7.2320817,55.6413258],[-7.3224019,55.6533131],[-7.4151467,55.6551577],[-7.506751,55.6467884],[-7.5936961,55.6285269],[-7.6726522,55.601074],[-7.7406127,55.565482],[-7.787827,55.528714],[-7.8068304,55.5254722],[-7.8098308,55.5256013],[-7.902191,55.5192763],[-7.9905585,55.5028464],[-8.0347916,55.4887064],[-8.065152,55.4870751],[-8.1519691,55.4726182],[-8.2323032,55.4490562],[-8.2723455,55.4311101],[-8.2787385,55.4311067],[-8.3710931,55.4258792],[-8.4598398,55.4105019],[-8.541537,55.3855721],[-8.6130312,55.3520569],[-8.6715841,55.3112533],[-8.714978,55.2647365],[-8.7201471,55.2549523],[-8.791897,55.2324633],[-8.8613479,55.1994102],[-8.9183834,55.1593876],[-8.9578016,55.1254911],[-9.0011867,55.0786953],[-9.0276786,55.0279427],[-9.0363149,54.975201],[-9.029208,54.9357244],[-9.0803537,54.913254],[-9.1471324,54.877399],[-9.2004455,54.8347533],[-9.2382928,54.786953],[-9.2592836,54.7358257],[-9.2626823,54.6833192],[-9.2586407,54.6444969],[-9.2441633,54.5920696],[-9.2316018,54.5724591],[-9.8112247,54.5979399],[-9.9045608,54.5963467],[-9.9954264,54.5839292],[-10.0433821,54.5710649],[-10.1053333,54.5661308],[-10.1887167,54.5497245],[-10.2651856,54.5244512],[-10.3319697,54.4912318],[-10.4471296,54.4216858],[-10.503817,54.3796884],[-10.5450766,54.3319957],[-10.5693326,54.2804935],[-10.5756941,54.2272107],[-10.5660319,54.183528],[-10.6070973,54.1615858],[-10.6611529,54.1182399],[-10.6993898,54.0694676],[-10.7203396,54.0172153],[-10.723235,53.963561],[-10.7080299,53.9106302],[-10.6753911,53.8605121],[-10.6266613,53.8151775],[-10.5637984,53.7764034],[-10.4965381,53.748694],[-10.5355975,53.7285929],[-10.5915608,53.6851222],[-10.6314733,53.635852],[-10.6537423,53.5828207],[-10.657517,53.5282145],[-10.642713,53.474276],[-10.6232433,53.4438962],[-10.6281322,53.411308],[-10.619588,53.3605762],[-10.5952387,53.3117058],[-10.5560016,53.2664331],[-10.5033104,53.2263613],[-10.4390601,53.1929055],[-10.3655376,53.167244],[-10.285341,53.150279],[-10.2600534,53.1464826],[-10.2616103,53.1358292],[-10.2515225,53.0822787],[-10.2239607,53.0309961],[-10.1800779,52.9840161],[-10.121659,52.9431965],[-10.0510444,52.9101467],[-9.9924423,52.8925905],[-10.2382389,52.7564914],[-10.2965471,52.7169215],[-10.3408492,52.6711922],[-10.3694643,52.6210867],[-10.3813357,52.5685521],[-10.3813353,52.5685481],[-10.3770197,52.5252288],[-10.4302385,52.5062671],[-10.7369545,52.3705026],[-10.8012523,52.3354803],[-10.8530987,52.2934771],[-10.8905382,52.2461082],[-10.9121839,52.1951898],[-10.9172641,52.1426673]],[[-9.6678367,51.6431323],[-9.6609448,51.6500872],[-9.6319545,51.6556393],[-9.6678367,51.6431323]],[[-9.5700925,52.6001023],[-9.5301288,52.6153224],[-9.4938266,52.6020254],[-9.5700925,52.6001023]],[[-9.5653585,51.6787107],[-9.5207789,51.6977833],[-9.5204913,51.697934],[-9.5114765,51.6973322],[-9.5653585,51.6787107]],[[-9.2358924,52.5811647],[-9,52.6254223],[-9.1496873,52.5973383],[-9.1411382,52.6101799],[-9.1371637,52.6147799],[-9.1318101,52.618832],[-9.1252758,52.6221859],[-9.1178029,52.6247169],[-9.109669,52.6263311],[-8.7583642,52.6732239],[-8.7498875,52.6723478],[-8.8483854,52.6538679],[-8.891298,52.6458167],[-9,52.6254223],[-9.2358924,52.5811647]],[[-9.0783042,52.6392408],[-9.0025326,52.7154548],[-9.0064115,52.6978828],[-9.0067263,52.692711],[-9.0054062,52.687598],[-9.0025003,52.6827318],[-8.9981159,52.6782914],[-8.9924148,52.67444],[-8.9856066,52.6713191],[-8.9779417,52.6690435],[-8.969702,52.6676967],[-8.9418767,52.664844],[-9.0783042,52.6392408]],[[-9.0444776,53.173411],[-9.0325503,53.1647651],[-9.0054901,53.1451495],[-9.0155985,53.1462651],[-9.0155985,53.1462651],[-9.0336635,53.1587493],[-9.038859,53.1631188],[-9.0425101,53.1680184],[-9.0444719,53.1732541],[-9.0444776,53.173411]],[[-8.4582846,55.0025845],[-8.4539798,55],[-8.4539798,55],[-8.4582846,55.0025845]],[[-7.6806768,54.9536157],[-7.5902622,55],[-7.5902622,55],[-7.6806768,54.9536157]],[[-7.6202434,55],[-7.5618756,55.0447989],[-7.6202434,55],[-7.6202434,55]],[[-7.1586716,55.1511793],[-7,55.2146227],[-7,55.2146227],[-7.1586716,55.1511793]],[[-7.1530366,55.0732832],[-7.152562,55.074253],[-7.121492,55.1204139],[-7.097398,55.1427872],[-7.0153139,55.1756623],[-7.0210146,55.1442524],[-7.0918438,55.0711081],[-7.1530366,55.0732832]],[[-7.0650707,55.0431103],[-7,55.1102566],[-6.9750698,55.1359821],[-7,55.1102566],[-7.0650707,55.0431103]]]}}
