{"type":"Feature","properties":{"family":"other","name":"Georgian kingdoms, 882 – 957"},"geometry":{"type":"Polygon","coordinates":[[[39.8400984,43.1417295],[39.8475949,43.1388119],[39.9464762,43.1091891],[40.0042619,43.0226746],[40.0423717,42.9774223],[40.0918122,42.93849],[40.1506624,42.9073756],[40.2166498,42.8852747],[40.2872373,42.8730354],[40.3553926,42.8712424],[40.4026197,42.8521056],[40.4671444,42.8315459],[40.5357958,42.8203244],[40.6551707,42.8093506],[40.6884633,42.7824487],[40.7505568,42.7495355],[40.7792159,42.7402085],[40.8186405,42.679794],[40.8554418,42.6350262],[40.9032419,42.5963039],[40.9602409,42.5650706],[41.0243054,42.5424891],[41.1577088,42.5065593],[41.1928905,42.3477149],[41.207893,42.3035749],[41.4014639,41.8833415],[41.3953491,41.852874],[41.2306472,41.6744995],[41.2262499,41.6685601],[41.2700247,41.7059772],[41.3252044,41.7378628],[41.387635,41.761234],[41.4549655,41.7752092],[41.524654,41.779262],[41.5940668,41.7732403],[41.660582,41.7573731],[41.6911883,41.7447958],[41.4979757,41.5366784],[41.4943241,41.5316664],[41.4939697,41.5307686],[41.4982887,41.5332586],[41.5045262,41.5355888],[41.5112478,41.5369794],[41.5182014,41.5373784],[41.5251264,41.5367708],[41.5317634,41.5351794],[41.5384675,41.5330165],[41.5384431,41.5329903],[41.5384377,41.5329844],[41.5384211,41.5329666],[41.5323841,41.5264678],[41.5276077,41.521326],[41.55,41.5],[41.6,41.2],[41.5,41.0333333],[41.3,40.7],[41.54,40.76],[41.6,40.775],[41.78,40.82],[42.02,40.88],[42.26,40.94],[42.5,41],[43.254386,41.0754386],[43.254386,41.0754386],[43.5,41.1],[44.8,41.1],[45.0333333,41.0666667],[45.2666667,41.0333333],[45.5,41],[45.9,41.08],[46.1,41.12],[46.3,41.16],[46.5,41.2],[46.5666667,41.3666667],[46.6333333,41.5333333],[46.7,41.7],[46.5333333,41.7833333],[46.2,41.95],[46.0333333,42.0333333],[45.7,42.2],[45.5333333,42.3333333],[45.3666667,42.4666667],[45.2,42.6],[45,42.65],[44.8,42.7],[44.6,42.75],[44.5104588,42.75],[43.9,42.75],[43.6666667,42.8166667],[43.5290898,42.8559743],[43.6529773,42.8060604],[43.6735415,42.7977752],[43.7241457,42.7773869],[43.7273997,42.7760758],[43.7760526,42.7564737],[43.7760526,42.7564737],[43.7761234,42.7564452],[43.7761234,42.7564452],[43.799838,42.7468906],[43.7761234,42.7564452],[43.7761234,42.7564452],[43.7760526,42.7564737],[43.7760526,42.7564737],[43.7273997,42.7760758],[43.7241457,42.7773869],[43.6735415,42.7977752],[43.6529773,42.8060604],[43.5290898,42.8559743],[43.5023784,42.8636062],[43.3938171,42.8869445],[43.390409,42.8876772],[43.3903337,42.8876934],[43.3882136,42.8881492],[43.3878462,42.8882282],[43.3882136,42.8881492],[43.3903337,42.8876934],[43.390409,42.8876772],[43.3938171,42.8869445],[43.5023784,42.8636062],[43.5023784,42.8636062],[43.5190352,42.8600253],[43.5023784,42.8636062],[43.5023784,42.8636062],[43.4333333,42.8833333],[43.2,42.95],[42.9666667,43.0333333],[42.7333333,43.1166667],[42.6585852,43.1433624],[42.6154262,43.136952],[42.6154262,43.136952],[42.6585852,43.1433624],[42.5,43.2],[41.6,43.3],[40.8,43.45],[40.6,43.4375],[40.4,43.425],[40,43.4],[39.9882843,43.3882843],[40.0324575,43.375011],[40.0324637,43.3750092],[40.2178022,43.3193183],[40.0324637,43.3750092],[40.0324575,43.375011],[40.0201278,43.374241],[40.0183125,43.3724263],[40.0135974,43.3685547],[40.0079533,43.3654078],[40.0015875,43.363101],[39.9947335,43.361719],[39.987643,43.3613125],[39.9805759,43.3618964],[39.9740431,43.3633917],[39.9741657,43.3633441],[40.1905872,43.298333],[40.2954231,43.1404848],[40.2954228,43.1404848],[40.2954221,43.1404848],[40.0285286,43.120124],[39.9604805,43.1192863],[39.8933633,43.1275288],[39.8400984,43.1417295]],[[44.5104588,42.75],[44.696247,42.7148077],[44.7115201,42.6936574],[44.7115201,42.6936574],[44.7115338,42.6936385],[44.7115338,42.6936385],[44.7115201,42.6936574],[44.7115201,42.6936574],[44.696247,42.7148077],[44.5104588,42.75]],[[46.0870969,41.9961477],[46.100261,41.9853423],[46.100261,41.9853423],[46.0870969,41.9961477]]]}}
