{"type":"Feature","properties":{"family":"other","name":"Georgian kingdoms, 965 – 1014"},"geometry":{"type":"Polygon","coordinates":[[[39.8400851,43.141733],[39.8475913,43.1388117],[39.9464738,43.1091886],[40.0042603,43.022673],[40.04237,42.977421],[40.0918104,42.9384889],[40.1506605,42.9073749],[40.216648,42.8852742],[40.2872355,42.8730352],[40.3553892,42.8712424],[40.4026167,42.8521055],[40.4671414,42.8315458],[40.535793,42.8203243],[40.6551681,42.8093506],[40.6884615,42.7824481],[40.7505548,42.7495352],[40.7792143,42.740208],[40.8186394,42.6797928],[40.8554405,42.6350253],[40.9032404,42.5963033],[40.9602391,42.5650703],[41.0243033,42.542489],[41.1566958,42.5068323],[41.4026701,41.8893452],[41.3953496,41.852873],[41.2306481,41.6744987],[41.2257039,41.6678205],[41.2698895,41.7055809],[41.325073,41.7374591],[41.3875181,41.7608303],[41.4548711,41.7748127],[41.5245871,41.7788789],[41.5940293,41.772877],[41.6605724,41.7570352],[41.6909722,41.744563],[41.4979758,41.5366783],[41.4943242,41.5316664],[41.4939536,41.5307274],[41.4982806,41.5332207],[41.5045233,41.535551],[41.5112511,41.5369414],[41.5182112,41.5373399],[41.5251423,41.5367313],[41.5317842,41.5351387],[41.5384431,41.5329903],[41.5384377,41.5329844],[41.5384211,41.5329666],[41.5323841,41.5264678],[41.5276077,41.521326],[41.55,41.5],[41.6,41.2],[41.6,40.775],[41.78,40.82],[42.02,40.88],[42.26,40.94],[42.5,41],[43.254386,41.0754386],[43.254386,41.0754386],[43.5,41.1],[44.8,41.1],[45.0333333,41.0666667],[45.2666667,41.0333333],[45.5,41],[45.9,41.08],[46.1,41.12],[46.3,41.16],[46.5,41.2],[46.5666667,41.3666667],[46.6333333,41.5333333],[46.7,41.7],[46.5333333,41.7833333],[46.2,41.95],[46.0333333,42.0333333],[45.7,42.2],[45.5333333,42.3333333],[45.3666667,42.4666667],[45.2,42.6],[45,42.65],[44.8,42.7],[44.6,42.75],[44.5104588,42.75],[43.9,42.75],[43.6666667,42.8166667],[43.5290898,42.8559743],[43.6529773,42.8060604],[43.6735415,42.7977752],[43.7241457,42.7773869],[43.7273997,42.7760758],[43.7760526,42.7564737],[43.7760526,42.7564737],[43.7761234,42.7564452],[43.7761234,42.7564452],[43.799838,42.7468906],[43.7761234,42.7564452],[43.7761234,42.7564452],[43.7760526,42.7564737],[43.7760526,42.7564737],[43.7273997,42.7760758],[43.7241457,42.7773869],[43.6735415,42.7977752],[43.6529773,42.8060604],[43.5290898,42.8559743],[43.5023784,42.8636062],[43.3938171,42.8869445],[43.390409,42.8876772],[43.3903337,42.8876934],[43.3882136,42.8881492],[43.3878462,42.8882282],[43.3882136,42.8881492],[43.3903337,42.8876934],[43.390409,42.8876772],[43.3938171,42.8869445],[43.5023784,42.8636062],[43.5023784,42.8636062],[43.5190352,42.8600253],[43.5023784,42.8636062],[43.5023784,42.8636062],[43.4333333,42.8833333],[43.2,42.95],[42.9666667,43.0333333],[42.7333333,43.1166667],[42.6585852,43.1433624],[42.6154262,43.136952],[42.6154262,43.136952],[42.6585852,43.1433624],[42.5,43.2],[41.6,43.3],[40.8,43.45],[40.6,43.4375],[40.4,43.425],[40,43.4],[39.9882843,43.3882843],[40.0324575,43.375011],[40.0324637,43.3750092],[40.2178022,43.3193183],[40.0324637,43.3750092],[40.0324575,43.375011],[40.0201278,43.374241],[40.0183125,43.3724263],[40.0135974,43.3685547],[40.0079533,43.3654078],[40.0015875,43.363101],[39.9947335,43.361719],[39.987643,43.3613125],[39.9805759,43.3618964],[39.9740431,43.3633917],[39.9740421,43.3633919],[39.9741653,43.3633441],[40.190587,43.298333],[40.2954228,43.1404848],[40.2954221,43.1404848],[40.0285286,43.120124],[39.9604805,43.1192863],[39.8933633,43.1275288],[39.8400984,43.1417295],[39.8400851,43.141733]],[[44.5104588,42.75],[44.696247,42.7148077],[44.7115201,42.6936574],[44.7115201,42.6936574],[44.7115338,42.6936385],[44.7115338,42.6936385],[44.7115201,42.6936574],[44.7115201,42.6936574],[44.696247,42.7148077],[44.5104588,42.75]]]}}
