{"type":"Feature","properties":{"family":"swedes","name":"Götar, 789 – 899"},"geometry":{"type":"Polygon","coordinates":[[[11.7290789,59.0627633],[11.775,58.925],[11.85,58.7],[12,58.3],[12,57.9],[11.925,57.79],[11.8647898,57.7016917],[11.9190055,57.7025255],[11.9163819,57.6986852],[11.8630601,57.6746754],[11.8630601,57.6746754],[11.8630588,57.6746748],[11.7896369,57.6735457],[11.7896369,57.6735457],[11.7896369,57.6735457],[11.7896369,57.6735457],[11.7896065,57.6735452],[11.7866303,57.6695302],[11.7848507,57.6643152],[11.7850124,57.6590149],[11.7871085,57.6538338],[11.8195726,57.5998118],[11.8233848,57.5950709],[11.8288114,57.5908058],[11.8356533,57.5871723],[11.8436601,57.5843034],[11.8525388,57.5823038],[11.8615093,57.5812978],[11.8534255,57.5257372],[11.8536749,57.5202355],[11.855998,57.5148754],[11.8602974,57.50988],[11.8663936,57.5054569],[11.8666517,57.505333],[11.8608115,57.5104577],[11.8565291,57.5151973],[11.8540423,57.5202935],[11.8534584,57.5254464],[11.8534465,57.5255521],[11.8534526,57.5255762],[11.8547652,57.5307726],[11.857949,57.5357558],[11.8628771,57.5403117],[11.8693619,57.5442664],[11.8771564,57.5474688],[11.8859631,57.5497966],[11.8954457,57.5511608],[11.905242,57.5515094],[11.907594,57.5513451],[11.9036533,57.5245433],[11.903519,57.5236303],[11.9036533,57.5245433],[12.1,57.5],[12.55,57.35],[12.7166667,57.2666667],[12.8833333,57.1833333],[13.05,57.1],[13.225,56.975],[13.4,56.85],[13.5,56.55],[13.9,56.45],[14.0666667,56.44],[14.2333333,56.43],[14.4,56.42],[14.5666667,56.44],[14.7333333,56.46],[14.9,56.48],[15.0833333,56.47],[15.2666667,56.46],[15.45,56.45],[15.65,56.4],[15.85,56.35],[16,56.265],[16.0310047,56.2474307],[16.0399604,56.2555088],[16.0470135,56.2769019],[16.0657662,56.2662698],[16.0715373,56.2622917],[16.0758531,56.2577806],[16.078559,56.2528985],[16.0795586,56.2478205],[16.0788167,56.242729],[16.0763606,56.2378063],[16.0724049,56.2333703],[16.0724049,56.2333703],[16.0722953,56.2332474],[16.0723323,56.2332743],[16.0812934,56.2413493],[16.085292,56.2458363],[16.0877302,56.2506568],[16.14064,56.4105462],[16.2384814,56.5160945],[16.2384816,56.5160944],[16.344113,56.4559193],[16.344113,56.4559193],[16.3441124,56.4558883],[16.3804172,56.2161239],[16.382269,56.2106681],[16.3860886,56.2055385],[16.3917138,56.200952],[16.3989061,56.1971026],[16.4073607,56.1941531],[16.4167201,56.1922283],[16.4265885,56.1914094],[16.4365489,56.1917311],[16.4461803,56.1931798],[16.4550755,56.1956942],[16.5111364,56.2157973],[16.5085915,56.199589],[16.4835389,56.1504487],[16.4423793,56.1048063],[16.2829518,55.9623618],[16.282945,55.9623557],[16.3090721,55.9569874],[16.407157,55.9488512],[16.5061374,55.9520494],[16.6019072,55.966449],[16.6904856,55.9914521],[16.7514712,56.0132734],[16.8212035,56.0435051],[16.880031,56.0802965],[16.925981,56.1224347],[16.9574894,56.1685264],[17.2263274,56.6961714],[17.3168641,56.7879001],[17.3548653,56.8374779],[17.3742152,56.8901926],[17.3741971,56.8968234],[17.3830152,56.9051161],[17.4139746,56.9534416],[17.4270812,57.0018304],[17.4900607,57.065582],[17.5262661,57.1120763],[17.5459544,57.1614179],[17.5467138,57.1772861],[17.5513767,57.180645],[17.5947237,57.2303559],[17.6032034,57.2492979],[17.6040776,57.2912487],[17.6217063,57.3330102],[17.6220625,57.3387337],[17.6047471,57.3929126],[17.5871569,57.426751],[17.5490166,57.4785874],[17.4917468,57.5250792],[17.4177547,57.5642168],[17.3302007,57.5943026],[17.2328639,57.6140278],[17.1739459,57.6189085],[17.1897253,57.6394031],[17.2088716,57.6918132],[17.2085523,57.7247186],[17.2091475,57.7593473],[17.2302704,57.7788084],[17.2629674,57.8316212],[17.2746955,57.8868812],[17.2648613,57.9422463],[17.254428,57.9699122],[17.2551613,57.9711389],[17.2658544,58.0256463],[17.2619576,58.0462343],[17.2672881,58.0530623],[17.3114567,58.1305672],[17.3230786,58.1618212],[17.333561,58.1724629],[17.3616715,58.2237171],[17.3633673,58.2285548],[17.3737459,58.2394673],[17.4006473,58.2925637],[17.4065696,58.3474238],[17.3999495,58.3708093],[17.4064122,58.3764771],[17.4400269,58.4252078],[17.4518618,58.4648824],[17.4518611,58.464882],[17.451726,58.4648007],[17.3737122,58.4328862],[17.3476741,58.4259289],[17.2647595,58.3992634],[17.1717541,58.3809919],[17.1142283,58.3759265],[17.0660414,58.3560976],[16.9801387,58.3327561],[16.9423619,58.3268246],[16.94397,58.330079],[16.9444913,58.3355672],[16.942883,58.3409969],[16.939211,58.3461427],[16.9336267,58.3507911],[16.9263615,58.3547488],[16.893301,58.3694102],[16.9097948,58.3856258],[16.9135397,58.3903271],[16.9155324,58.3953135],[16.9157009,58.4004073],[16.9140384,58.4054267],[16.9106036,58.4101927],[16.9055184,58.4145352],[16.8989636,58.4182992],[16.8911731,58.4213502],[16.8824248,58.4235793],[16.8730312,58.4249067],[16.863328,58.4252851],[16.853662,58.4247009],[16.8237912,58.4213707],[16.9672778,58.4682963],[16.9752969,58.4715215],[16.9819599,58.4755026],[16.9870104,58.4800866],[16.9902539,58.4850976],[16.9915649,58.490343],[16.9908922,58.4956211],[16.9882608,58.5007291],[16.9837711,58.5054703],[16.9775951,58.5096623],[16.9699702,58.5131437],[16.8739875,58.5488671],[16.8377079,58.5792888],[16.837917,58.5813194],[16.8379127,58.5813643],[16.8379077,58.5813161],[16.8364708,58.5762888],[16.8332519,58.5714913],[16.8283658,58.5670936],[16.8219865,58.5632518],[16.8143403,58.5601018],[16.8056985,58.5577555],[16.8029675,58.5573282],[16.7851679,58.5722368],[16.7862355,58.5827529],[16.7,58.6],[16.5333333,58.6333333],[16.485597,58.6428806],[16.4395644,58.6482228],[16.4234,58.6298098],[16.4058968,58.630845],[16.3930539,58.6324862],[16.2374873,58.6635999],[16.2343623,58.6684857],[16.4117354,58.6576529],[16.3666667,58.6666667],[16.2,58.7],[16,58.7166667],[15.8,58.7333333],[15.6,58.75],[15.1,58.75],[14.9333333,58.7833333],[14.7666667,58.8166667],[14.6,58.85],[14.3666667,58.8833333],[14.1333333,58.9166667],[13.9,58.95],[13.6666667,59],[13.4333333,59.05],[13.2,59.1],[12.4,59.15],[12.2,59.1875],[12,59.225],[11.8060632,59.2613631],[11.797952,59.2404384],[11.7290789,59.0627633]],[[16.4359644,56.9984828],[16.4376668,57],[16.4719647,57.0305658],[16.4376668,57],[16.4359644,56.9984828]],[[16.7311673,56.9039225],[16.8021344,57],[16.8021344,57],[16.8895689,57.1183718],[16.8021344,57],[16.8021344,57],[16.7311673,56.9039225]],[[16.9106901,57],[16.9327693,57.0170571],[16.9106901,57],[16.9106901,57]],[[16.9651697,57.3041153],[17,57.3250266],[17.0551706,57.3581498],[17,57.3250266],[16.9651697,57.3041153]],[[17,57.1181675],[17,57.1181675],[17.0515705,57.1926692],[17,57.1181675]]]}}
