{"type":"Feature","properties":{"family":"swedes","name":"Götar, 882 – 943"},"geometry":{"type":"Polygon","coordinates":[[[10.5848412,58.9581093],[10.593778,58.9051767],[10.6225756,58.8541681],[10.6700403,58.8070497],[10.6785977,58.8015397],[10.6684001,58.7770458],[10.6567353,58.721921],[10.6670323,58.6667218],[10.6987557,58.6137758],[10.7362108,58.5682064],[10.7259638,58.5462616],[10.7232496,58.508405],[10.7193452,58.5038202],[10.6970145,58.4508371],[10.6954366,58.3965882],[10.7072811,58.3240278],[10.7264784,58.2705055],[10.7656449,58.22009],[10.8231174,58.174819],[10.8965183,58.1365151],[10.8978271,58.1360642],[10.8964222,58.1182837],[10.9105827,58.0678786],[10.9423509,58.0197736],[10.9933547,57.9608592],[11.0138885,57.9422154],[11.0219301,57.9194076],[11.0227559,57.9182929],[11.0229686,57.9181823],[11.0240473,57.9176213],[11.0370088,57.9108801],[11.0916642,57.8688989],[11.1303581,57.8221822],[11.135336,57.8106054],[11.1355415,57.8101274],[11.135596,57.8100007],[11.1572313,57.7951269],[11.1604921,57.7814422],[11.1897513,57.733346],[11.2043156,57.7191522],[11.2006671,57.6965612],[11.2120143,57.643211],[11.2419549,57.5935507],[11.2421404,57.5935355],[11.2428562,57.5934765],[11.3132597,57.5876763],[11.4028052,57.5705245],[11.4097772,57.5683182],[11.4140308,57.5859932],[11.445354,57.6359309],[11.4943093,57.6816396],[11.5590717,57.7213576],[11.6371836,57.7535487],[11.7256461,57.7769644],[11.7323292,57.7779263],[11.7401268,57.7750378],[11.6635998,57.7142872],[11.6588547,57.7095534],[11.6559598,57.7044112],[11.655029,57.6990647],[11.6560985,57.6937256],[11.6591249,57.6886054],[11.6639876,57.6839068],[11.6704936,57.6798158],[11.6783849,57.6764941],[11.6873492,57.6740733],[11.6970317,57.672649],[11.7070497,57.6722775],[11.789641,57.6735921],[11.7866303,57.6695305],[11.7848507,57.6643153],[11.7850125,57.6590148],[11.7871085,57.6538335],[11.8195727,57.5998115],[11.823385,57.5950706],[11.8288115,57.5908054],[11.8356534,57.5871719],[11.8436601,57.5843029],[11.8525388,57.5823033],[11.8615091,57.5812973],[11.8534255,57.5257374],[11.8534255,57.5257372],[11.8536749,57.5202355],[11.8559981,57.5148753],[11.8602975,57.5098797],[11.8663938,57.5054565],[11.8666525,57.5053323],[11.8666517,57.505333],[11.8666517,57.505333],[11.8608115,57.5104577],[11.8565291,57.5151973],[11.8540423,57.5202935],[11.8534584,57.5254464],[11.8534465,57.5255521],[11.8534526,57.5255762],[11.8547652,57.5307726],[11.857949,57.5357558],[11.8628771,57.5403117],[11.8693619,57.5442664],[11.8771564,57.5474688],[11.8859631,57.5497966],[11.8954457,57.5511608],[11.905242,57.5515094],[11.907594,57.5513451],[11.9036533,57.5245433],[11.903519,57.5236303],[11.9036533,57.5245433],[12.1,57.5],[12.55,57.35],[12.7166667,57.2666667],[12.8833333,57.1833333],[13.05,57.1],[13.225,56.975],[13.4,56.85],[13.5,56.55],[13.9,56.45],[14.0666667,56.44],[14.2333333,56.43],[14.4,56.42],[14.5666667,56.44],[14.7333333,56.46],[14.9,56.48],[15.0833333,56.47],[15.2666667,56.46],[15.45,56.45],[15.65,56.4],[15.85,56.35],[16,56.265],[16.0310047,56.2474307],[16.0399604,56.2555088],[16.0470135,56.2769019],[16.0657662,56.2662698],[16.0715373,56.2622917],[16.0758531,56.2577806],[16.078559,56.2528985],[16.0795586,56.2478205],[16.0788167,56.242729],[16.0763606,56.2378063],[16.0724049,56.2333703],[16.0724049,56.2333703],[16.0722953,56.2332474],[16.0722946,56.2332466],[16.0723326,56.2332742],[16.0812937,56.2413493],[16.0852921,56.2458361],[16.0877302,56.2506563],[16.1406401,56.410546],[16.2384816,56.5160944],[16.344113,56.4559193],[16.3441124,56.455889],[16.3804173,56.2161246],[16.3822691,56.2106688],[16.3860888,56.2055392],[16.3917142,56.2009526],[16.3989066,56.1971032],[16.4073614,56.1941537],[16.416721,56.1922288],[16.4265895,56.1914099],[16.43655,56.1917316],[16.4461814,56.1931803],[16.4550767,56.1956947],[16.5111364,56.2157974],[16.5111364,56.2157973],[16.5085915,56.199589],[16.4835389,56.1504487],[16.4423793,56.1048063],[16.2829518,55.9623618],[16.3090825,55.9569927],[16.4071688,55.9488565],[16.5061502,55.9520546],[16.6019203,55.9664541],[16.6904981,55.9914572],[16.7514834,56.0132785],[16.8212128,56.0435092],[16.8800376,56.0802992],[16.9259849,56.1224357],[16.9574912,56.1685254],[17.226328,56.6961714],[17.3168669,56.7879025],[17.3548661,56.8374778],[17.3742151,56.8901899],[17.3741969,56.8968234],[17.3830178,56.9051188],[17.4139755,56.9534422],[17.4270819,57.0018318],[17.4900633,57.0655854],[17.526267,57.1120775],[17.5459544,57.1614166],[17.5467139,57.1772884],[17.55138,57.1806496],[17.5947249,57.2303581],[17.6032034,57.2492972],[17.6032034,57.2492979],[17.6040776,57.2912487],[17.6217063,57.3330102],[17.6217064,57.3330104],[17.6220623,57.3387303],[17.6047478,57.3929066],[17.5871578,57.4267449],[17.5490179,57.4785808],[17.4917481,57.5250722],[17.4177556,57.5642096],[17.3302008,57.5942954],[17.232863,57.6140207],[17.1739396,57.6189019],[17.1897251,57.6394041],[17.2088715,57.6918124],[17.2085522,57.724733],[17.2093434,57.7707021],[17.2543069,57.8175968],[17.2814499,57.8685319],[17.2894149,57.9213059],[17.2778115,57.9738899],[17.2610694,58.0012772],[17.2658545,58.0256445],[17.2619571,58.0462372],[17.2672894,58.0530674],[17.3114577,58.1305721],[17.3230799,58.161827],[17.3335621,58.1724683],[17.3616722,58.2237216],[17.3633682,58.2285597],[17.3737447,58.2394697],[17.4006467,58.2925643],[17.4065701,58.3474225],[17.3999487,58.3708139],[17.406412,58.376482],[17.4400266,58.425211],[17.4518611,58.464882],[17.451726,58.4648007],[17.3737122,58.4328862],[17.3476741,58.4259289],[17.2647595,58.3992634],[17.1717541,58.3809919],[17.1142283,58.3759265],[17.0660414,58.3560976],[16.9801387,58.3327561],[16.9423619,58.3268246],[16.9423617,58.3268246],[16.9439699,58.330079],[16.9444914,58.3355671],[16.9428832,58.3409966],[16.9392113,58.3461423],[16.9336272,58.3507905],[16.9263622,58.3547482],[16.8933004,58.3694101],[16.909795,58.3856265],[16.9135399,58.3903277],[16.9155324,58.395314],[16.9157009,58.4004076],[16.9140384,58.4054268],[16.9106036,58.4101927],[16.9055184,58.4145351],[16.8989637,58.4182989],[16.8911732,58.4213498],[16.8824249,58.4235788],[16.8730314,58.4249061],[16.8633282,58.4252845],[16.8536623,58.4247002],[16.8237849,58.4213694],[16.967278,58.468297],[16.9752969,58.4715222],[16.9819598,58.4755031],[16.9870103,58.4800871],[16.9902538,58.4850979],[16.9915649,58.4903431],[16.9908923,58.495621],[16.988261,58.5007288],[16.9837715,58.5054698],[16.9775957,58.5096617],[16.969971,58.513143],[16.8739881,58.5488666],[16.8377078,58.5792888],[16.8379171,58.5813198],[16.8379127,58.5813646],[16.8379127,58.5813643],[16.8379127,58.5813643],[16.8379077,58.5813161],[16.8364708,58.5762888],[16.8332519,58.5714913],[16.8283658,58.5670936],[16.8219865,58.5632518],[16.8143403,58.5601018],[16.8056985,58.5577555],[16.8029675,58.5573282],[16.7851679,58.5722368],[16.7862355,58.5827529],[16.7,58.6],[16.5333333,58.6333333],[16.485597,58.6428806],[16.4395644,58.6482228],[16.4234,58.6298098],[16.4058968,58.630845],[16.3930539,58.6324862],[16.2374873,58.6635999],[16.2343623,58.6684857],[16.4117354,58.6576529],[16.3666667,58.6666667],[16.2,58.7],[16,58.7166667],[15.8,58.7333333],[15.6,58.75],[15.1,58.75],[14.9333333,58.7833333],[14.7666667,58.8166667],[14.6,58.85],[14.3666667,58.8833333],[14.1333333,58.9166667],[13.9,58.95],[13.6666667,59],[13.4333333,59.05],[13.2,59.1],[12.4,59.15],[12.2,59.1875],[12,59.225],[11.8060632,59.2613631],[11.797952,59.2404384],[11.7290789,59.0627633],[11.6947169,58.9741182],[11.6119161,58.8930665],[11.4823148,58.8863122],[11.4535145,58.8964436],[11.4391144,58.991004],[11.4335081,59],[11.4335081,59],[11.3707137,59.1007615],[11.1835118,59.1159587],[11.1691117,59.134533],[11.2051121,59.1463531],[11.1763118,59.1970104],[11.1367114,59.1835018],[11.1367114,59.1429759],[11.0863109,59.1750589],[11.100711,59.134533],[11.0323103,59.1277787],[11,59.1495228],[10.9495095,59.1835018],[10.9171092,59.1429759],[10.902709,59.1970104],[10.8235082,59.1632389],[10.7803078,59.1885675],[10.7749505,59.2363106],[10.6969089,59.1822531],[10.6468689,59.1397548],[10.6129716,59.0932631],[10.5963073,59.0443653],[10.5969956,59.0122022],[10.5962019,59.0109167],[10.5848412,58.9581093]],[[11.4391144,58.991004],[11.429225,59],[11.3203132,59.0990729],[11.429225,59],[11.4391144,58.991004]],[[10.8307083,59.0990729],[10.9099091,59.1159587],[10.8847088,59.0720557],[10.8307083,59.0990729]],[[10.9927099,59.0332184],[11,59.0696917],[11.00351,59.0872529],[11.0719107,59.07881],[11.0467105,59.0264641],[11,59.0323066],[10.9927099,59.0332184]],[[11.1187112,59.0213984],[11.1215625,59],[11.1223112,58.9943811],[11.1215625,59],[11.1187112,59.0213984]],[[16.4359644,56.9984828],[16.4376668,57],[16.4719647,57.0305658],[16.4376668,57],[16.4359644,56.9984828]],[[16.7311673,56.9039225],[16.8021344,57],[16.8021344,57],[16.8895689,57.1183718],[16.8021344,57],[16.8021344,57],[16.7311673,56.9039225]],[[16.9106901,57],[16.9327693,57.0170571],[16.9106901,57],[16.9106901,57]],[[16.9651697,57.3041153],[17,57.3250266],[17.0551706,57.3581498],[17,57.3250266],[16.9651697,57.3041153]],[[17,57.1181675],[17,57.1181675],[17.0515705,57.1926692],[17,57.1181675]]]}}
