{"type":"Feature","properties":{"family":"norway","name":"Eastern Settlement, under Norway, 1261 – 1349"},"geometry":{"type":"Polygon","coordinates":[[[-48.7875364,60.8127775],[-48.7814661,60.7589221],[-48.7536398,60.7067287],[-48.7052646,60.6582704],[-48.6383399,60.6154632],[-48.4401692,60.5113674],[-48.3647206,60.4782247],[-48.2783323,60.4524222],[-48.1839076,60.4348206],[-48.0845994,60.426006],[-48.0604639,60.4260764],[-48.0309126,60.4209267],[-47.9225705,60.4133943],[-47.8133562,60.4165779],[-47.7075414,60.430353],[-47.6092746,60.4541808],[-47.384541,60.5227686],[-47.2792246,60.5175562],[-47.1767832,60.5173],[-47.1536684,60.5128464],[-47.0472905,60.5035003],[-46.9392657,60.5045248],[-46.9206818,60.5065304],[-46.8693613,60.5032052],[-46.8120475,60.4799933],[-46.7213124,60.4555546],[-46.5638935,60.4220406],[-46.4587648,60.4055134],[-46.3930771,60.4020187],[-46.3925499,60.4016608],[-46.2843741,60.3412051],[-46.2058663,60.3050366],[-46.1147345,60.2771226],[-46.0144627,60.2585219],[-45.9444627,60.2528423],[-45.9496477,60.2353856],[-45.9548384,60.1832905],[-45.9397875,60.131672],[-45.9051483,60.0824528],[-45.852289,60.0374578],[-45.7832309,59.9983481],[-45.7290302,59.9775198],[-45.6887502,59.9528496],[-45.6073325,59.9191726],[-45.5770407,59.9109818],[-45.5388239,59.8893535],[-45.4536732,59.8570211],[-45.3576148,59.8337077],[-45.2991886,59.8261388],[-45.233139,59.8032948],[-45.1330281,59.7819578],[-45.0368616,59.766949],[-44.9846571,59.753189],[-44.8961002,59.7393868],[-44.8886747,59.7364237],[-44.8313047,59.7179766],[-44.737763,59.6939693],[-44.7299985,59.6928643],[-44.6996014,59.6775567],[-44.6128887,59.6482619],[-44.5166846,59.6279711],[-44.4145926,59.6174413],[-44.3104203,59.6170647],[-44.2080474,59.6268552],[-44.1112909,59.6464479],[-44.0237731,59.6751118],[-43.9487933,59.7117752],[-43.8892075,59.7550635],[-43.8473212,59.8033481],[-43.8393481,59.8215619],[-43.897039,59.7930782],[-43.9330393,59.809964],[-43.9150392,59.8960814],[-44.0086401,59.8184068],[-44.095041,59.8082754],[-44.1166412,59.833604],[-44.1058411,59.877507],[-43.9618396,59.9788217],[-43.8102676,59.9337621],[-43.8100512,59.9394123],[-43.7984229,59.9654411],[-43.7968689,59.9719579],[-43.9186392,60.0041503],[-43.7839444,60.0450989],[-43.7791816,60.0593848],[-43.9402394,60.0480533],[-44.0914409,60.1003992],[-44.1310413,60.1426137],[-44.0734407,60.1763852],[-43.7589625,60.1403942],[-43.7542791,60.1547655],[-43.7552562,60.1651811],[-43.9906399,60.1915824],[-44.1670417,60.1730081],[-44.1454415,60.2321083],[-43.9942399,60.3064057],[-44.0554406,60.3199143],[-44.0662407,60.3722602],[-44.102241,60.3874574],[-44.098641,60.2827656],[-44.1598416,60.2506826],[-44.2614145,60.3236348],[-44.2750428,60.3334229],[-44.2614145,60.3236348],[-44.25,60.375],[-44.2,60.6],[-44.5333333,60.9],[-44.7,61.05],[-45.0333333,61.35],[-45.2,61.5],[-47.2,61.5],[-47.4,61.3714286],[-47.6,61.2428571],[-47.8,61.1142857],[-47.8581448,61.0769069],[-47.8390784,61.0426254],[-47.8581448,61.0769069],[-47.8606786,61.0814626],[-47.9146791,61.0595111],[-47.9362794,61.0882169],[-47.7706777,61.1912202],[-47.8930789,61.1236771],[-48.0730807,61.0882169],[-48.1198812,61.1152342],[-48.0514805,61.1844658],[-48.1378814,61.13212],[-48.2170822,61.1861544],[-48.1054811,61.2385003],[-48.1270813,61.2790262],[-48.0802808,61.3009777],[-47.9146791,61.3279949],[-48.1486815,61.3212406],[-48.2926829,61.1777115],[-48.2170822,61.1422514],[-48.4078841,61.1338085],[-48.4314449,61.1546828],[-48.4740883,61.1197095],[-48.5007796,61.082111],[-48.5534377,61.0624914],[-48.6344801,61.0141819],[-48.6988523,60.9649903],[-48.7494543,60.9156691],[-48.7782542,60.8623743],[-48.781372,60.8333122],[-48.7875364,60.8127775]],[[-47.8390784,61.0426254],[-47.9161125,61.0396419],[-47.9683983,61.0060296],[-47.900279,61.0206739],[-47.9683983,61.0060296],[-47.996446,61],[-47.996446,61],[-48.0190787,60.9951344],[-48.1594816,60.9649508],[-48.2062821,60.9936566],[-48.400684,60.9869023],[-48.3459991,61],[-48.3459991,61],[-48.2314823,61.0274282],[-47.9903244,61.0367678],[-47.9161125,61.0396419],[-47.8390784,61.0426254]],[[-48.3718837,61.0814626],[-48.1198812,61.0882169],[-48.0442804,61.067954],[-48.1594816,61.0578226],[-48.3718837,61.0814626]],[[-47.0434704,60.8416847],[-47,60.8505819],[-46.8454685,60.8822105],[-47,60.8505819],[-47.0434704,60.8416847]],[[-47.0434704,60.8788334],[-47,60.896391],[-46.9138691,60.9311793],[-47,60.896391],[-47.0434704,60.8788334]],[[-47.00387,60.772453],[-47,60.7748733],[-46.9822698,60.7859616],[-47,60.7748733],[-47.00387,60.772453]],[[-47.00387,60.8062245],[-47,60.8025941],[-46.9822698,60.7859616],[-47,60.8025941],[-47.00387,60.8062245]],[[-46.1578616,60.9987224],[-46.155864,61],[-46.1182612,61.024051],[-46.155864,61],[-46.1578616,60.9987224]],[[-46.0930609,60.9835252],[-46.0171925,61],[-46.0171925,61],[-46.0930609,60.9835252]],[[-45.6948056,61],[-45.4882549,61.1017256],[-45.6948056,61],[-45.6948056,61]],[[-45.3946539,61.0105424],[-45.3721776,61],[-45.3298533,60.980148],[-45.3721776,61],[-45.3946539,61.0105424]],[[-45.2146521,60.4381147],[-45,60.4901334],[-44.99865,60.4904606],[-45,60.4901334],[-45.2146521,60.4381147]],[[-45.1174512,60.31316],[-45,60.408757],[-45,60.408757],[-44.99505,60.412786],[-45,60.408757],[-45,60.408757],[-45.1174512,60.31316]],[[-45.0850509,60.1966481],[-45,60.2043198],[-45,60.2043198],[-45.0850509,60.1966481]],[[-45.0814508,60.1561223],[-45,60.1682972],[-44.7538475,60.205091],[-45,60.1682972],[-45.0814508,60.1561223]],[[-44.397444,59.90959],[-44.2246422,60.0227247],[-44.0266403,60.017659],[-43.99784,60.0109046],[-44.0086401,59.9906417],[-44.1526415,59.9028357],[-44.1526415,59.985576],[-44.2066421,59.89777],[-44.306426,59.8800607],[-44.3398434,59.8741299],[-44.397444,59.90959]],[[-44.3341511,59.9963199],[-44.3283363,60.0224867],[-44.3110431,60.0396105],[-44.3252726,60.0362733],[-44.3045011,60.1297449],[-44.2930429,60.1291051],[-44.2569596,60.0986406],[-44.203042,60.0531191],[-44.3182432,59.9771331],[-44.3341511,59.9963199]],[[-44.3290433,60.149368],[-44.2957581,60.1690887],[-44.2862895,60.2116974],[-44.3182432,60.2388626],[-44.2862895,60.2116974],[-44.2606426,60.1898938],[-44.2957581,60.1690887],[-44.3290433,60.149368]],[[-44.2808523,60.2361644],[-44.2641191,60.3114642],[-44.2263241,60.2354891],[-44.2246422,60.2321083],[-44.2272268,60.2322948],[-44.2272268,60.2322948],[-44.2808523,60.2361644]],[[-44.2462425,60.1291051],[-44.2066421,60.1746966],[-44.1454415,60.0953335],[-44.0086401,60.0463648],[-44.1382414,60.041299],[-44.203042,60.1071536],[-44.2462425,60.1291051]]]}}
