{"type":"Feature","properties":{"family":"norway","name":"Western Settlement, under Norway, 1261 – 1349"},"geometry":{"type":"Polygon","coordinates":[[[-52.8579781,64.82799],[-52.8486377,64.776585],[-52.8165973,64.7268701],[-52.7763628,64.6920984],[-52.7805789,64.6860199],[-52.7924552,64.6358542],[-52.7823297,64.5856187],[-52.7767574,64.5724487],[-52.8112431,64.521295],[-52.8209279,64.4657959],[-52.8040022,64.4106214],[-52.7613391,64.3581105],[-52.7560141,64.3532247],[-52.7758014,64.3006379],[-52.7832,64.2446916],[-52.7638645,64.1892879],[-52.7187805,64.1368067],[-52.7009309,64.1245437],[-52.6890264,64.0743387],[-52.6519775,64.0226509],[-52.5922675,63.9752241],[-52.5123782,63.933944],[-52.4155522,63.9004446],[-52.3056595,63.8760466],[-52.187047,63.8617091],[-52.1571394,63.8608131],[-52.1425597,63.850478],[-52.1075557,63.8341923],[-52.1214424,63.8192918],[-52.1549963,63.7705462],[-52.1671377,63.7198827],[-52.1575472,63.6691132],[-52.1266806,63.6200438],[-52.1169074,63.6113024],[-52.0920824,63.579468],[-52.0298302,63.5326929],[-51.9480083,63.4923855],[-51.8489796,63.4523634],[-51.7412927,63.4174924],[-51.6193599,63.3939196],[-51.4889816,63.3827611],[-51.1904163,63.3718022],[-51.1576579,63.3689324],[-51.0479501,63.3643616],[-50.997855,63.3643971],[-50.9488084,63.3624687],[-50.9091094,63.362325],[-50.8264584,63.3551336],[-50.8162451,63.3547081],[-50.2799028,63.4032564],[-50.402304,63.4252079],[-51,63.3753686],[-51.0503105,63.3711734],[-51.0863109,63.3829935],[-51.00351,63.4724881],[-51.0467105,63.4707995],[-51.1367114,63.3762391],[-51.1727117,63.3813049],[-51.1367114,63.4353394],[-51.2231122,63.4454708],[-51.1259113,63.4961281],[-51,63.507683],[-50.7947079,63.5265225],[-50.7443074,63.5552283],[-51,63.5379187],[-51,63.5379187],[-51.0935109,63.5315883],[-51.1475115,63.5957542],[-51.1223112,63.6312143],[-51.0575106,63.6514772],[-51,63.6354207],[-51,63.6354207],[-50.9063091,63.6092628],[-50.7707172,63.6237799],[-50.68,63.62],[-50.565676,63.6152365],[-50.5751058,63.6447229],[-50.565676,63.6152365],[-50.5643056,63.6109514],[-50.5602204,63.6150092],[-50.503105,63.6717402],[-50.5602204,63.6150092],[-50.44,63.61],[-50.2,63.6],[-50.025,63.75],[-49.85,63.9],[-49.675,64.05],[-49.5,64.2],[-49.9,64.95],[-50.7061877,64.95],[-50.7191072,64.9736332],[-50.6983969,65],[-50.6983969,65],[-50.6939069,65.0057162],[-50.7767078,65.0242906],[-50.8415084,65.1306709],[-50.6903069,65.2066569],[-50.8883089,65.1509339],[-50.9778238,65.2197917],[-50.9781622,65.2197917],[-50.9423094,65.1289824],[-50.8883089,65.110408],[-50.9423094,65.0901451],[-50.8811088,65.0698821],[-50.8869515,65],[-50.8869515,65],[-50.8883089,64.9837647],[-50.7227072,64.9938962],[-50.7267806,64.9767009],[-50.7331057,64.95],[-51.4263668,64.95],[-51.5327153,64.8689415],[-51.4263668,64.95],[-51.4175142,64.9567475],[-51.3010332,65],[-51.3010332,65],[-51.2447124,65.0209134],[-51.4211142,65.0074048],[-51.409274,65],[-51.3887139,64.9871419],[-51.701917,64.890893],[-51.6479165,64.9736332],[-51.6324593,64.9769794],[-51.6634196,64.9769794],[-51.6324593,64.9769794],[-51.5543155,64.9938962],[-51.5803422,65],[-51.5803422,65],[-51.6911169,65.0259791],[-51.706739,65],[-51.706739,65],[-51.7228248,64.9732497],[-51.7307173,64.9601246],[-51.7546157,64.95],[-52.1015886,64.95],[-52.0216226,64.9769792],[-52.1017653,64.9769791],[-52.0216226,64.9769792],[-52.0115201,64.9803876],[-52.101521,64.9871419],[-52.0946676,65],[-52.0946676,65],[-52.0835208,65.0209134],[-52.1591216,65.0040276],[-52.1915219,65.0276677],[-52.1627216,65.0496192],[-52.2779228,65.078325],[-52.2743227,65.1036537],[-52.101521,65.1239166],[-52.1771218,65.1289824],[-52.202322,65.1779511],[-52.1454105,65.2177495],[-52.244071,65.2129569],[-52.2743227,65.1999026],[-52.288429,65.2065191],[-52.3804916,65.1928394],[-52.5012,65.1606824],[-52.6166559,65.1215315],[-52.7075955,65.0836256],[-52.7785838,65.0388297],[-52.8268493,64.9889597],[-52.8505758,64.936027],[-52.8489579,64.882154],[-52.8452984,64.8749613],[-52.8579781,64.82799]],[[-51.5399154,63.6920031],[-51.4407667,63.6516986],[-51.4,63.65],[-51.16,63.64],[-51.1525551,63.6396898],[-51.1835118,63.6295257],[-51.1295113,63.5265225],[-51.1619116,63.5079482],[-51.2771128,63.548474],[-51.4211142,63.5417197],[-51.3208578,63.6196044],[-51.3059131,63.6312143],[-51.3779138,63.6261486],[-51.4407667,63.6516986],[-51.5399154,63.6920031]],[[-51.4391144,64.0820644],[-51,64.1495355],[-50.8127081,64.1783133],[-51,64.1495355],[-51.4391144,64.0820644]],[[-51.395914,63.4657337],[-51.3167132,63.5298997],[-51.2231122,63.5130139],[-51.2051121,63.4995053],[-51.2447124,63.4843081],[-51.395914,63.4657337]],[[-51.1547115,64.2542993],[-51,64.4044953],[-50.99991,64.4045827],[-51,64.4044953],[-51.1547115,64.2542993]],[[-51.0755108,63.6649859],[-51,63.6508187],[-50.895509,63.6312143],[-51,63.6508187],[-51.0755108,63.6649859]],[[-51.0647106,64.6663122],[-51,64.6740767],[-51,64.6740767],[-50.9099091,64.6848865],[-51,64.6740767],[-51,64.6740767],[-51.0647106,64.6663122]],[[-51.0467105,64.2813166],[-51,64.2765364],[-51,64.2765364],[-50.8487085,64.2610536],[-51,64.2765364],[-51,64.2765364],[-51.0467105,64.2813166]],[[-51.0467105,64.2813166],[-51,64.3041784],[-50.9639096,64.3218424],[-51,64.3041784],[-51.0467105,64.2813166]],[[-50.7331057,64.95],[-50.7267806,64.9767009],[-50.7331057,64.95],[-50.7331057,64.95]]]}}
