{"type":"Feature","properties":{"family":"norway","name":"Kingdom of Harald Fairhair, 872 – 899"},"geometry":{"type":"Polygon","coordinates":[[[4.0863565,61.0795801],[4.0886674,61.0269495],[4.1119942,60.9755355],[4.1524999,60.9149053],[4.1972459,60.8653129],[4.2612832,60.8210411],[4.2745407,60.8149412],[4.2776578,60.8108781],[4.3021612,60.791809],[4.2995934,60.7898694],[4.2592709,60.739422],[4.2404709,60.6860542],[4.2308161,60.6184714],[4.2347785,60.562247],[4.2623286,60.5076455],[4.3121611,60.4570273],[4.3820348,60.4125701],[4.4066594,60.4022657],[4.4174524,60.3532041],[4.3969601,60.3064802],[4.3951219,60.2535933],[4.4140905,60.2015445],[4.4530439,60.1523259],[4.5104129,60.1078127],[4.5839517,60.0696936],[4.6320185,60.0491777],[4.6388235,60.0052136],[4.6389542,60.0049705],[4.5961026,59.9596106],[4.5703329,59.9058411],[4.5685791,59.8766459],[4.5624552,59.8697499],[4.5393009,59.8196744],[4.5355012,59.7683025],[4.5511054,59.7175011],[4.5802171,59.6765062],[4.5762794,59.653607],[4.584647,59.6063759],[4.6091855,59.560613],[4.6530119,59.5002125],[4.6543881,59.4797011],[4.6685609,59.4201258],[4.6555276,59.3854276],[4.6461589,59.3378604],[4.6477717,59.3272591],[4.6364103,59.2801495],[4.6444917,59.2265845],[4.6896127,59.0967453],[4.71634,59.0473008],[4.7606902,59.0013416],[4.8210083,58.9605137],[4.8950899,58.9262735],[4.980264,58.8998388],[5.0179136,58.8927042],[4.9846127,58.8416045],[4.9625183,58.7932757],[4.9579293,58.7436699],[4.9709267,58.6944696],[5.0009983,58.6473368],[5.1724848,58.4419718],[5.2194971,58.3973218],[5.2815749,58.3580781],[5.3564864,58.3256224],[5.4415704,58.3010939],[5.5414839,58.2783517],[5.563655,58.2515807],[5.6290873,58.2041276],[5.7122615,58.165196],[5.8092613,58.1365949],[6.0265517,58.0876601],[6.0269453,58.0833582],[6.0505207,58.0327451],[6.0919473,57.9854668],[6.1496257,57.9432714],[6.236155,57.8911902],[6.3120061,57.8538446],[6.4003681,57.8253988],[6.497615,57.8070117],[6.5997815,57.7994311],[6.6592621,57.7982432],[6.6800932,57.7869356],[6.7595462,57.7576921],[6.8478568,57.7369764],[6.9418602,57.725528],[7.0382015,57.7237548],[7.1334479,57.7317202],[7.2242031,57.7491401],[7.2912705,57.7703552],[7.2944355,57.7713564],[7.3049482,57.7710726],[7.404546,57.7789979],[7.4993092,57.7972196],[7.5855488,57.8250302],[7.6598869,57.8613481],[7.7193842,57.9047572],[7.7616548,57.9535591],[7.7849651,58.005837],[7.7875764,58.0477468],[7.6948061,58.0421624],[7.6606178,58.0088852],[7.6550056,58.0045035],[7.6478882,58.0007865],[7.6395398,57.9978772],[7.6302816,57.9958874],[7.6204696,57.9948937],[7.6104811,57.9949341],[7.6099544,57.9949919],[7.6091724,57.9946364],[7.6007161,57.9920846],[7.5914995,57.9904317],[7.581859,57.9897381],[7.5721463,57.990029],[7.2723393,58.0138634],[7.2824422,58.0135943],[7.2924676,58.0143922],[7.3019967,58.0162261],[7.3106524,58.0190235],[7.3180918,58.0226737],[7.3240202,58.0270321],[7.3282021,58.0319263],[7.3302031,58.0365436],[7.2799227,58.0405409],[7.2666667,58.1333333],[7.2333333,58.3666667],[7.2,58.6],[7.2666667,58.8333333],[7.3333333,59.0666667],[7.4,59.3],[7.5,59.475],[7.6,59.65],[7.8,60],[8.0666667,60.4],[8.2,60.6],[8.1333333,60.8333333],[8.0666667,61.0666667],[8,61.3],[8.1,61.5],[8.2,61.7],[8.3,61.9],[8.5,62.04],[8.7,62.18],[8.9,62.32],[9.1,62.46],[9.3,62.6],[9.175,62.75],[9.05,62.9],[8.925,63.05],[8.8016524,63.1980171],[8.846826,63.2025871],[8.8605904,63.2039796],[8.9442894,63.2124472],[8.8605904,63.2039796],[8.8575109,63.2076834],[8.854733,63.2101642],[8.7833128,63.2083436],[8.7066281,63.2063888],[8.6130861,63.2040043],[8.7066281,63.2063888],[8.7833128,63.2083436],[8.6333333,63.2833333],[8.5748581,63.3125709],[8.5199022,63.301938],[8.5199022,63.301938],[8.4762848,63.2934989],[8.5199022,63.301938],[8.5199022,63.301938],[8.5748581,63.3125709],[8.6330741,63.3238346],[8.7642876,63.3492219],[8.6330741,63.3238346],[8.5748581,63.3125709],[8.5199022,63.301938],[8.5199022,63.301938],[8.5748581,63.3125709],[8.6330741,63.3238346],[8.6194585,63.3306477],[8.6102348,63.334379],[8.5994972,63.3371786],[8.587705,63.3389269],[8.5753628,63.3395488],[8.562999,63.3390178],[8.5513863,63.3373907],[8.5511429,63.3373566],[8.5513863,63.3373907],[8.6449662,63.3555434],[8.6022981,63.3698057],[8.5935769,63.3733642],[8.5865713,63.3776173],[8.5815512,63.3824019],[8.5787103,63.3875341],[8.578159,63.3928168],[8.5799197,63.3980469],[8.583926,63.4030232],[8.603446,63.4213764],[8.5262752,63.4084081],[8.5132908,63.4069329],[8.4999019,63.4067772],[8.4867685,63.4079486],[8.2601519,63.4400028],[8.2488145,63.4421876],[8.2387095,63.4453588],[8.2302599,63.4493837],[8.22382,63.4540939],[8.2196605,63.4592924],[8.2179568,63.4647613],[8.2187818,63.4702715],[8.2221023,63.4755919],[8.2277803,63.4804994],[8.3644856,63.5734199],[8.3714781,63.5773152],[8.3799625,63.5805714],[8.3896491,63.5830771],[8.4002065,63.5847465],[8.4112734,63.5855224],[8.4938926,63.5878425],[8.4931913,63.5882471],[8.4878591,63.5930684],[8.4847813,63.5982649],[8.4840811,63.6036303],[8.4857877,63.6089517],[8.4898347,63.6140177],[8.4960624,63.6186269],[8.5042242,63.622596],[8.513996,63.6257672],[8.5249895,63.6280141],[8.5681733,63.6345724],[8.533357,63.6522605],[8.367256,63.6449102],[8.3542354,63.6449384],[8.3415284,63.6461968],[8.2516003,63.6596932],[8.2405167,63.6619227],[8.2306561,63.6650869],[8.2224132,63.6690594],[8.2161189,63.6736811],[8.2120262,63.6787669],[8.2103003,63.6841131],[8.2110117,63.6895054],[8.2141333,63.6947274],[8.2195411,63.6995696],[8.227019,63.7038376],[8.2362676,63.7073598],[8.2469156,63.7099948],[8.293802,63.7189157],[8.2186781,63.7287948],[8.1206107,63.737316],[8.0101903,63.7422699],[7.8995818,63.7381949],[7.792555,63.7252299],[7.6927477,63.7038164],[7.6656687,63.696538],[7.464778,63.6425417],[7.3685717,63.6102676],[7.2888322,63.570135],[7.2286862,63.523755],[7.1904384,63.4729811],[7.1754921,63.4198323],[7.18431,63.3664111],[7.20966,63.3256923],[7.1851106,63.3175508],[7.1627815,63.3066555],[7.0984486,63.2934494],[7.0077405,63.2634766],[6.9179058,63.2426161],[6.559863,63.1388166],[6.4704325,63.1067514],[6.3963416,63.0675296],[6.3696527,63.0461643],[6.3115842,63.0162793],[6.2532337,62.9705593],[6.2157682,62.9205366],[6.1949132,62.8799256],[6.1918386,62.8696113],[6.1802203,62.8599415],[6.1541147,62.8576309],[6.0445905,62.8427432],[5.943545,62.8184399],[5.85482,62.7856509],[5.7817552,62.7456276],[5.7270605,62.6998915],[5.7158737,62.6837154],[5.7086525,62.6828265],[5.6011091,62.65784],[5.5349603,62.6334931],[5.5115804,62.6345692],[5.3989912,62.6296734],[5.2906294,62.6148537],[5.1906141,62.5906748],[5.1027239,62.558056],[5.0302466,62.5182343],[4.9758542,62.4727142],[4.9689503,62.462777],[4.8864694,62.4450217],[4.7815494,62.4160948],[4.6854688,62.3828121],[4.6063732,62.3410616],[4.5476023,62.2926467],[4.5115812,62.2396495],[4.4997297,62.1843375],[4.5057607,62.1580971],[4.4781425,62.1390545],[4.4335454,62.0886528],[4.4205907,62.0570003],[4.3746307,62.0284193],[4.3139139,61.9809248],[4.2672914,61.9349859],[4.239957,61.8857391],[4.2327961,61.8349491],[4.245965,61.7844271],[4.2788989,61.735966],[4.2830621,61.7323552],[4.2754203,61.7186022],[4.2683376,61.6668886],[4.2822089,61.6154853],[4.3164226,61.566283],[4.3696342,61.5210825],[4.4115013,61.4975085],[4.3899327,61.4548013],[4.3850872,61.40327],[4.4008041,61.3522381],[4.4044585,61.3472504],[4.3878189,61.3403967],[4.3180921,61.2970124],[4.2869509,61.2662553],[4.2789978,61.262972],[4.2033803,61.2249202],[4.1447363,61.1804995],[4.1052532,61.1314243],[4.0863565,61.0795801]],[[4.7070471,60.9885909],[4.7216416,61],[4.7216416,61],[4.7394474,61.0139195],[4.7216416,61],[4.7216416,61],[4.7070471,60.9885909]],[[4.8654487,61.8886026],[5,61.873303],[5,61.873303],[4.8654487,61.8886026]],[[4.9374494,60.2743227],[5,60.2828799],[5.0238502,60.2861427],[5,60.2828799],[4.9374494,60.2743227]],[[4.9482495,60.4398033],[5,60.3967182],[5,60.3967182],[4.9482495,60.4398033]],[[4.9482495,61.4158009],[5,61.4281243],[5.1822518,61.471524],[5,61.4281243],[4.9482495,61.4158009]],[[4.9626496,61.2655176],[5,61.2580094],[5.0634506,61.2452546],[5,61.2580094],[4.9626496,61.2655176]],[[4.9626496,61.2655176],[5,61.2777278],[5.200252,61.3431921],[5,61.2777278],[4.9626496,61.2655176]],[[4.9698497,61.635316],[5,61.6360025],[5.3406534,61.6437589],[5,61.6360025],[4.9698497,61.635316]],[[4.9878499,61.2249917],[5,61.2247637],[5.1678517,61.2216145],[5,61.2247637],[4.9878499,61.2249917]],[[4.9878499,61.2249917],[5,61.2282482],[5.0634506,61.2452546],[5,61.2282482],[4.9878499,61.2249917]],[[5,60.5122158],[5,60.5122158],[5.1318513,60.4431804],[5,60.5122158]],[[5,60.9196758],[5,60.9196758],[5.0454505,60.8450618],[5,60.9196758]],[[5,61.7452804],[5,61.7452804],[5.1179871,61.7308916],[5.1678517,61.7248106],[5.1179871,61.7308916],[5,61.7452804]],[[5,61.8111573],[5,61.8111573],[5.1246512,61.8565196],[5,61.8111573]],[[5.0130501,60.9818366],[5.0140692,61],[5.0166502,61.0460025],[5.0140692,61],[5.0130501,60.9818366]],[[5.4342543,61.0274282],[5.4465652,61],[5.4486545,60.9953452],[5.4465652,61],[5.4342543,61.0274282]],[[5.6537497,59],[5.6537497,59],[5.7150572,58.9774954],[5.6537497,59]],[[6.1254613,58.9622982],[6.3323655,59],[6.3323655,59],[6.1254613,58.9622982]],[[6.8742687,60.9379336],[6.9939916,61],[6.9939916,61],[7,61.0031149],[7.0110701,61.0088538],[7,61.0031149],[6.9939916,61],[6.9939916,61],[6.8742687,60.9379336]],[[6.899469,60.5056578],[7,60.5756736],[7.0182702,60.5883981],[7,60.5756736],[6.899469,60.5056578]],[[6.9102691,62.9287662],[7,62.9523538],[7.181253,63],[7.181253,63],[7,62.9523538],[6.9102691,62.9287662]],[[6.9354694,58.0454007],[7,58.0618171],[7,58.0618171],[6.9354694,58.0454007]],[[6.9462695,62.9051261],[7,62.8572423],[7.0182702,62.8409602],[7,62.8572423],[6.9462695,62.9051261]],[[6.9570696,61.0882169],[7,61.0251233],[7.0110701,61.0088538],[7,61.0251233],[6.9570696,61.0882169]],[[6.9714697,62.7261369],[7,62.728854],[7.6806768,62.79368],[7,62.728854],[6.9714697,62.7261369]],[[6.9786698,62.1131833],[7,62.115312],[7.1478715,62.1300691],[7,62.115312],[6.9786698,62.1131833]],[[7,61.1248913],[7,61.1248913],[7.2126721,61.1844658],[7,61.1248913]],[[7.00027,61.0932827],[7.0674236,61],[7.0674236,61],[7.00027,61.0932827]],[[7.1682542,58.022138],[7.1682704,58.0221444],[7.2584065,58.014971],[7.1682542,58.022138]],[[7.275234,63],[7.275234,63],[7.500675,62.9101918],[7.275234,63]],[[7.310763,62.2816093],[7.310763,62.2816093],[7.3746737,62.2735982],[7.310763,62.2816093]],[[7.3674737,62.9963093],[7.3781525,63],[7.3781525,63],[7.3674737,62.9963093]],[[7.5258753,62.9456519],[7.6868054,63],[7.6868054,63],[7.7058771,63.0064407],[7.6868054,63],[7.6868054,63],[7.5258753,62.9456519]],[[7.9830798,63.0267037],[8.041277,63],[8.041277,63],[7.9830798,63.0267037]],[[8.2449141,63],[8.2449141,63],[8.3358834,62.9676034],[8.2449141,63]],[[8.3178832,62.9996864],[8.3202231,63],[8.4690847,63.0199493],[8.3202231,63],[8.3178832,62.9996864]],[[8.3754838,62.9726692],[8.472599,63],[8.472599,63],[8.5554856,63.0233265],[8.472599,63],[8.472599,63],[8.3754838,62.9726692]],[[8.5230852,62.989555],[8.545354,63],[8.545354,63],[8.5230852,62.989555]],[[8.8016524,63.1980171],[8.846826,63.2025871],[8.8605904,63.2039796],[8.846826,63.2025871],[8.8016524,63.1980171],[8.8016524,63.1980171]]]}}
