{"type":"Feature","properties":{"family":"franks","name":"Holy Roman Empire, 965 – 971"},"geometry":{"type":"Polygon","coordinates":[[[3.0200019,51.5921378],[3.096132,51.6080967],[3.0996901,51.6145992],[3.1440955,51.6616304],[3.2029049,51.7021338],[3.2737234,51.7344369],[3.3536404,51.757203],[3.4393522,51.7694884],[3.5273031,51.7707834],[3.6138398,51.7610345],[3.665714,51.7480628],[3.6596844,51.7454327],[3.6536869,51.7414883],[3.6490879,51.7368794],[3.6460729,51.7317927],[3.6447635,51.7264338],[3.6452121,51.7210194],[3.656052,51.6771207],[3.6580249,51.672233],[3.6614285,51.6676569],[3.6661436,51.6635518],[3.6720056,51.6600611],[3.6788097,51.6573063],[3.6863189,51.6553835],[3.6942712,51.6543597],[3.7023896,51.6542706],[3.7103912,51.6551193],[3.8005574,51.670134],[3.8893243,51.6255216],[3.8893431,51.6255038],[3.88937,51.6254784],[3.9012362,51.6142514],[3.9012897,51.6142008],[3.9013825,51.614113],[3.9376632,51.5868711],[3.8836711,51.6274119],[3.8777578,51.6310672],[3.8708285,51.6339542],[3.8631389,51.6359662],[3.854973,51.6370291],[3.8466322,51.6371034],[3.5548612,51.6218955],[3.5473447,51.6210764],[3.5401777,51.6194524],[3.5335818,51.6170737],[3.4219554,51.5680817],[3.4156813,51.5647182],[3.4105541,51.5606731],[3.4067611,51.5560944],[3.4044405,51.5511495],[3.4036767,51.5460191],[3.4044971,51.5408907],[3.4068711,51.5359517],[3.4107117,51.5313824],[3.4568977,51.4872217],[3.4568632,51.4872634],[3.4530048,51.4919171],[3.4506338,51.4971634],[3.4500034,51.5026005],[3.4511399,51.5080062],[3.4539973,51.5131599],[3.4584597,51.5178509],[3.4643449,51.5218875],[3.4697384,51.5243425],[3.4697392,51.5243418],[3.4704102,51.5236997],[3.4802304,51.5143033],[3.4932698,51.5018265],[3.4932698,51.5018265],[3.4932698,51.5018265],[3.5370354,51.4599494],[3.5483883,51.459569],[3.5914559,51.4581261],[3.591456,51.4581261],[3.5914682,51.457237],[3.5899521,51.4521442],[3.5869047,51.4473253],[3.5824388,51.4429578],[3.5767192,51.4392026],[3.5722689,51.4372252],[3.5974968,51.4309409],[3.5975186,51.4309355],[3.5975463,51.4309286],[3.6731034,51.4284007],[3.751444,51.3926341],[3.6318763,51.4223438],[3.6319071,51.4223338],[3.6319738,51.4223122],[3.6389583,51.4200506],[3.645574,51.4167428],[3.6510259,51.4126914],[3.6551042,51.4080525],[3.6719218,51.3833562],[3.6657471,51.3848937],[3.6642005,51.3852788],[3.64968,51.3888943],[3.6430478,51.3905458],[3.6351867,51.3925032],[3.6153863,51.3974335],[3.6153863,51.3974335],[3.5752224,51.4074342],[3.5406354,51.4160463],[3.5752224,51.4074342],[3.6153863,51.3974335],[3.6153863,51.3974335],[3.6153863,51.3974335],[3.75,51.2],[3.72,51.05],[3.6,50.85],[3.45,50.7],[3.38,50.55],[3.3,50.35],[3.25,50.18],[3.5,50],[3.9,49.85],[4.1,49.775],[4.3,49.7],[4.7,49.5],[4.85,49.2],[4.9,48.9],[4.925,48.75],[4.95,48.6],[5.1,48.3],[5.2,48],[5.45,47.7],[5.675,47.775],[5.9,47.85],[6.1,47.8666667],[6.3,47.8833333],[6.5,47.9],[6.6666667,47.8166667],[6.8333333,47.7333333],[7,47.65],[7.1966667,47.62],[7.3933333,47.59],[7.59,47.56],[7.5,47.35],[7.45,47.1],[7.55,46.85],[7.75,46.65],[7.925,46.6],[8.1,46.55],[8.275,46.5],[8.45,46.45],[8.275,46.35],[8.1,46.25],[7.985,46.095],[7.87,45.94],[7.66,45.98],[7.4966667,45.9433333],[7.3333333,45.9066667],[7.17,45.87],[7.015,45.85],[6.86,45.83],[7,45.6],[7.1,45.3],[6.9,45],[7,44.7],[7,44.3],[7.1666667,44.2333333],[7.3333333,44.1666667],[7.5,44.1],[7.5481707,43.7917074],[7.5435354,43.7917477],[7.5360714,43.7918125],[7.5307142,43.791859],[7.5271595,43.7918899],[7.500675,43.79212],[7.5271595,43.7918899],[7.5360714,43.7918125],[7.5435354,43.7917477],[7.5481707,43.7917074],[7.5613964,43.7915925],[7.5656763,43.7915554],[7.5741714,43.7914816],[7.5853883,43.7913841],[7.5854299,43.7896351],[7.5842333,43.7846365],[7.5817622,43.779888],[7.5781041,43.7755575],[7.5733887,43.771798],[7.5677825,43.7687423],[7.5614837,43.7664982],[7.5547149,43.765145],[7.5478051,43.7647359],[7.5477606,43.7647333],[7.5477347,43.7647317],[7.5477372,43.7647315],[7.6945755,43.7634558],[7.7018234,43.7639],[7.7088156,43.7653515],[7.9191317,43.8251042],[7.9191322,43.8251009],[7.9197243,43.8211516],[7.9200187,43.7654519],[7.9044845,43.7108965],[7.8738239,43.6598043],[7.8293736,43.6143414],[7.7730425,43.5764307],[7.7072283,43.5476723],[7.6299495,43.5212174],[7.6298962,43.5211992],[7.6900724,43.5206753],[7.7622571,43.5250978],[7.8319249,43.539552],[8.2049763,43.6454601],[8.2599964,43.6648417],[8.3099398,43.6904577],[8.4070425,43.7493436],[8.4521708,43.7817467],[8.4890832,43.8192022],[8.5166998,43.8606313],[8.561533,43.9455779],[8.6017775,43.9630437],[8.6678352,43.9994072],[8.7212178,44.0453364],[8.7592865,44.0985895],[8.7713842,44.121412],[8.8244011,44.1444318],[8.9232997,44.1278069],[8.9600084,44.1043121],[9.0205115,44.0727012],[9.0884781,44.0503029],[9.1612355,44.0379954],[9.2036211,44.0370176],[9.6132271,43.8239051],[9.6740739,43.7979503],[9.740555,43.7806971],[9.8103181,43.7727548],[9.8742631,43.7742508],[9.8915395,43.753901],[9.9478305,43.4572422],[9.9670229,43.4011068],[10.0021766,43.3492247],[10.1513788,43.1773785],[10.1321876,42.9590452],[10.134577,42.9065722],[10.1507624,42.855428],[10.174336,42.8169495],[10.174382,42.8169471],[10.1743919,42.8169466],[10.1745171,42.8169402],[10.3555036,42.8076794],[10.4131041,42.8735339],[10.4419044,42.8448281],[10.4311043,42.7874165],[10.3879039,42.7637764],[10.4239042,42.7401363],[10.4167042,42.7080534],[10.3375034,42.765465],[10.2414475,42.7510135],[10.2412529,42.7509843],[10.241238,42.750982],[10.2411536,42.7509693],[10.2732408,42.7285725],[10.3335098,42.7004502],[10.3999903,42.681408],[10.4055104,42.6806824],[10.4309101,42.648163],[10.4777779,42.608518],[10.5341253,42.576292],[10.5978218,42.5526955],[10.7278213,42.5155841],[10.7382745,42.5069701],[10.727879,42.4809388],[10.7213642,42.42872],[10.7286393,42.3765512],[10.7493949,42.3264013],[10.7711749,42.2876312],[10.8079406,42.2376904],[10.8579417,42.1945478],[10.9189488,42.1601044],[10.9882617,42.135875],[11.0628272,42.1229233],[11.1393704,42.1218176],[11.2894141,42.1312876],[11.3821118,42.0889799],[11.505841,41.9110989],[11.5464689,41.8647948],[11.5988336,41.8256132],[11.6607331,41.795186],[11.7295806,41.7747782],[11.8281764,41.7538987],[11.8567207,41.73229],[11.8988493,41.6448274],[11.9324173,41.5930666],[11.9797997,41.5477834],[12.0388313,41.5110201],[12.1979768,41.4314399],[12.3493992,41.2831488],[12.4060584,41.2389242],[12.4744366,41.2054478],[12.5510098,41.1844361],[12.6825486,41.160545],[12.7065425,41.1359816],[12.7328567,41.109043],[12.7805228,41.0691561],[12.8376301,41.0371503],[12.9019258,41.0142805],[12.9708846,41.0014418],[13.0418052,40.9991361],[13.1119128,41.0074532],[13.1784634,41.0260676],[13.2388473,41.0542503],[13.2906884,41.090897],[13.4368668,41.2146118],[13.4368405,41.2146209],[13.284656,41.2671744],[13.0575684,41.2019805],[13.0509712,41.2006045],[13.0441469,41.2001965],[13.0373437,41.2007713],[13.0308095,41.202308],[13.0247822,41.2047507],[13.0194812,41.2080104],[13.0150997,41.2119683],[13.0117976,41.2164804],[12.9881033,41.2577238],[12.9878169,41.2583841],[12.9877897,41.2584468],[12.9637671,41.3002621],[12.9877897,41.2584468],[12.9881868,41.2577557],[12.9917227,41.2529867],[12.9964591,41.2488498],[13.002202,41.2455145],[13.0087161,41.2431171],[13.0157349,41.2417558],[13.0229712,41.2414862],[13.0301291,41.2423194],[13.035217,41.2437452],[13.0352168,41.2437454],[13.0352168,41.2437454],[13.0352168,41.2437454],[13.0352168,41.2437455],[13.0352167,41.2437457],[13.0352163,41.2437464],[13.0352151,41.2437484],[13.0269665,41.2581188],[13.0210529,41.2684213],[13.015465,41.2781563],[13.0052307,41.2959862],[13.0052303,41.295987],[13.0052302,41.2959871],[13,41.3050989],[13.0052302,41.2959871],[13.0052303,41.295987],[13.0052307,41.2959862],[13.0210529,41.2684213],[13.1333333,41.3666667],[13.2666667,41.4833333],[13.4,41.6],[14,42.1],[14.2448925,42.4673388],[14.2196244,42.4867408],[14.2196244,42.4867408],[14.0743407,42.5982958],[14.2196244,42.4867408],[14.2196244,42.4867408],[14.2448925,42.4673388],[14.2448925,42.4673388],[14.2718268,42.4466575],[14.2718277,42.4466568],[14.2718313,42.4466541],[14.2718316,42.4466538],[14.2718334,42.4466524],[14.2718351,42.4466512],[14.2718351,42.4466512],[14.2718454,42.4466432],[14.2718454,42.4466432],[14.5137737,42.2608802],[14.5137829,42.2608731],[14.5137737,42.2608802],[14.2718454,42.4466432],[14.2718454,42.4466432],[14.2718351,42.4466512],[14.2718351,42.4466512],[14.2718334,42.4466524],[14.2718316,42.4466538],[14.2718313,42.4466541],[14.2718277,42.4466568],[14.2776077,42.4553198],[14.2802171,42.4604636],[14.2813593,42.4658933],[14.2809865,42.4713833],[14.2791137,42.4767055],[14.2758185,42.4816386],[14.2712375,42.4859777],[14.2706461,42.486432],[14.1048087,42.6138243],[14.2706461,42.486432],[14.270723,42.4863835],[14.2712014,42.486082],[14.5310164,42.286539],[14.5310255,42.286532],[14.5714648,42.34671],[14.5977771,42.3980702],[14.6094796,42.4523278],[14.6060482,42.507234],[14.5875846,42.5605067],[14.5548199,42.6099255],[14.5090894,42.6534253],[14.5031866,42.6579775],[14.3797377,42.7531805],[14.2879193,42.895522],[13.9723404,43.6409749],[13.9446222,43.6887917],[13.9047298,43.7318883],[13.8541222,43.7686607],[13.794668,43.7977369],[13.471202,43.9241959],[13.1814705,44.1149124],[13.0917957,44.1584263],[12.8886438,44.2284775],[12.7284678,44.356231],[12.6613759,44.5293127],[12.658182,44.5983492],[12.710828,44.6288482],[12.7577001,44.6688703],[12.7929347,44.714553],[12.8836846,44.8645434],[12.9053613,44.9118362],[12.9144354,44.9611506],[12.9105659,45.010813],[12.8938507,45.0591338],[12.864828,45.1044647],[12.8244614,45.1452552],[12.7741115,45.1801071],[12.6987676,45.223311],[12.7128508,45.2349794],[13.146028,45.366193],[13.1642478,45.2972174],[13.1830756,45.2501118],[13.2001128,45.2256229],[13.2150262,45.1190621],[13.229546,45.0674153],[13.2448874,45.0411365],[13.2484073,45.0272014],[13.2658625,44.9815793],[13.2942691,44.9387999],[13.3327362,44.9001684],[13.4110875,44.8343805],[13.4118051,44.8277005],[13.4330582,44.7750786],[13.4687847,44.7265669],[13.5174876,44.6841501],[13.5591075,44.6600285],[13.5708687,44.6411983],[13.6125969,44.5987094],[13.664897,44.5626571],[13.7258388,44.5343589],[13.7931868,44.5148471],[13.8644809,44.5048323],[13.8965358,44.5047646],[13.937123,44.5046789],[14.0084682,44.5143918],[14.0759174,44.5336171],[14.1370077,44.5616539],[14.1401696,44.5638139],[14.1460497,44.5651057],[14.2111957,44.5901416],[14.2258075,44.5987296],[14.2163718,44.6019481],[14.2101793,44.6046026],[14.2048069,44.6080457],[14.2004502,44.6121521],[14.1972677,44.6167726],[14.1953756,44.6217391],[14.1948428,44.626871],[14.1956893,44.6319814],[14.2064677,44.6674448],[14.2088819,44.6727012],[14.2127533,44.677497],[14.2179196,44.6816306],[14.2241636,44.6849281],[14.2601731,44.7001314],[14.2669982,44.7023934],[14.2743178,44.7036529],[14.2818433,44.7038602],[14.2892782,44.703007],[14.2963293,44.7011272],[14.3027189,44.6982946],[14.3064766,44.695774],[14.3006843,44.7099367],[14.299334,44.7150023],[14.2993646,44.7201578],[14.3007754,44.7252151],[14.3035151,44.7299893],[14.3074839,44.7343059],[14.3125372,44.7380071],[14.3184901,44.7409576],[14.3184901,44.7409576],[14.3251253,44.7430495],[14.3322,44.7442064],[14.3394556,44.7443858],[14.3403249,44.7442882],[14.2583005,44.8987557],[14.2565568,44.9031012],[14.2558614,44.9075918],[14.2562339,44.9121015],[14.2634111,44.9475638],[14.2651778,44.9526725],[14.2683122,44.9574413],[14.2726955,44.9616889],[14.2781613,44.9652538],[14.2845016,44.9680003],[14.2914754,44.9698238],[14.2988171,44.9706549],[14.3062474,44.970462],[14.3134834,44.9692525],[14.3202497,44.9670723],[14.352509,44.9538438],[14.3530596,44.9619225],[14.3542279,44.9673716],[14.3557861,44.970343],[14.2467764,45.0986973],[14.2468033,45.0987087],[14.2790594,45.0607071],[14.2835798,45.0564097],[14.289211,45.0528263],[14.2957313,45.0500979],[14.3028842,45.0483317],[14.3103881,45.0475973],[14.3179481,45.0479235],[14.3252669,45.0492976],[14.3314091,45.0514396],[14.3314069,45.0514422],[14.3314062,45.0514431],[14.3314032,45.0514465],[14.3314006,45.0514497],[14.3314006,45.0514497],[14.3211207,45.0635691],[14.3179694,45.0672843],[14.3153139,45.0704151],[14.3142175,45.0717077],[14.3118132,45.0745422],[14.3107527,45.0757925],[14.3107524,45.0757928],[14.3013891,45.0868317],[14.3011998,45.0870549],[14.300651,45.0877018],[14.3004679,45.0879178],[14.2989517,45.0897052],[14.2989517,45.0897053],[14.2989517,45.0897053],[14.2989517,45.0897053],[14.2989517,45.0897053],[14.2989517,45.0897053],[14.2863663,45.1045429],[14.2853777,45.1057084],[14.2853777,45.1057084],[14.2853777,45.1057084],[14.2853777,45.1057084],[14.2853777,45.1057084],[14.2853777,45.1057084],[14.2795583,45.1125691],[14.2795428,45.1125874],[14.2795583,45.1125691],[14.2853777,45.1057084],[14.2853777,45.1057084],[14.2853777,45.1057084],[14.2853777,45.1057084],[14.2853777,45.1057084],[14.2853777,45.1057084],[14.2863663,45.1045429],[14.2989517,45.0897053],[14.2989517,45.0897053],[14.2989517,45.0897053],[14.2989517,45.0897053],[14.2989517,45.0897053],[14.2989517,45.0897052],[14.3004679,45.0879178],[14.300651,45.0877018],[14.3011998,45.0870549],[14.3013891,45.0868317],[14.3107524,45.0757928],[14.3107527,45.0757925],[14.3118132,45.0745422],[14.3692124,45.1128083],[14.3551436,45.169999],[14.3692124,45.1128083],[14.3770535,45.080934],[14.3770543,45.0809305],[14.3770543,45.0809305],[14.3770547,45.0809291],[14.3954461,45.0931863],[14.4003781,45.0971874],[14.4041042,45.1017934],[14.4064799,45.1068261],[14.4074128,45.1120907],[14.4068665,45.1173833],[14.3928351,45.1745783],[14.3908967,45.179566],[14.3878226,45.1839464],[14.3908494,45.1797071],[14.3928493,45.1746106],[14.408163,45.1122739],[14.4955644,45.1505496],[14.5114542,45.2523228],[14.5130529,45.2576046],[14.5139307,45.2590241],[14.4272183,45.2830241],[14.4272305,45.2830461],[14.4464112,45.2777328],[14.4538105,45.276261],[14.4614769,45.275857],[14.4691023,45.2765369],[14.4763803,45.2782735],[14.4830185,45.280997],[14.48875,45.2845979],[14.4933443,45.2889314],[14.4960401,45.292962],[14.4960397,45.2929621],[14.4960328,45.292964],[14.484235,45.2962298],[14.484235,45.2962298],[14.484235,45.2962298],[14.484235,45.2962298],[14.484235,45.2962298],[14.484235,45.2962298],[14.460457,45.3028119],[14.4593215,45.3031262],[14.4179013,45.3145918],[14.4159763,45.3151247],[14.4159763,45.3151247],[14.4179013,45.3145918],[14.4593215,45.3031262],[14.460457,45.3028119],[14.460457,45.3028119],[14.45,45.33],[14.9,45.6],[15.0333333,45.7333333],[15.1666667,45.8666667],[15.3,46],[15.3666667,46.1666667],[15.4333333,46.3333333],[15.5,46.5],[15.4333333,46.6666667],[15.3666667,46.8333333],[15.3,47],[15.1666667,47.1333333],[15.0333333,47.2666667],[14.9,47.4],[14.75,47.6],[14.6,47.8],[14.5,48.2],[14.4,48.4],[14.2166667,48.5166667],[14.0333333,48.6333333],[13.85,48.75],[13.5,48.95],[13.1,49.2],[12.75,49.45],[12.5,49.8],[12.4,50.1],[12.1,50.3],[12.3,50.325],[12.5,50.35],[12.7,50.375],[12.9,50.4],[13.1,50.5],[13.3,50.6],[13.5,50.65],[13.7,50.7],[13.9,50.75],[14.1333333,50.8],[14.3666667,50.85],[14.6,50.9],[15.05,50.95],[15,51.2],[15,51.7],[14.85,51.9],[14.7,52.1],[14.6666667,52.2666667],[14.6333333,52.4333333],[14.6,52.6],[14.5333333,52.8333333],[14.4666667,53.0666667],[14.4,53.3],[14.3666667,53.5],[14.3333333,53.7],[14.3271827,53.7369039],[14.3376794,53.7328757],[14.369045,53.7208387],[14.3760565,53.7181479],[14.3725006,53.7396172],[14.3709785,53.7443502],[14.3680565,53.7488456],[14.3638275,53.7529595],[14.3584264,53.7565604],[14.3521781,53.7594624],[14.3520257,53.7595331],[14.3521781,53.7594624],[14.5006926,53.7025198],[14.5004145,53.7052787],[14.5018118,53.7108128],[14.5305473,53.7766773],[14.5334618,53.7814422],[14.5378345,53.7858007],[14.5435114,53.7895988],[14.5502921,53.7927023],[14.552759,53.7934442],[14.5519188,53.7938867],[14.5464957,53.798145],[14.5425948,53.8029493],[14.5403686,53.8081123],[14.5343616,53.8315051],[14.4567837,53.8403536],[14.4551623,53.8384017],[14.4494803,53.8340736],[14.4424345,53.8305114],[14.3560564,53.7950701],[14.3488047,53.7926373],[14.340925,53.7910235],[14.3326796,53.7902823],[14.3243432,53.7904384],[14.3161933,53.7914868],[14.3085011,53.7933923],[14.3015229,53.7960916],[14.2841255,53.8042493],[14.2914517,53.8014493],[14.2997037,53.799509],[14.3084381,53.7985519],[14.3173238,53.7986141],[14.326024,53.7996934],[14.3342091,53.8017489],[14.3415685,53.8047025],[14.3478233,53.8084425],[14.3527358,53.8128268],[14.3561195,53.8176893],[14.3578452,53.8228454],[14.357847,53.8280995],[14.3577608,53.8286199],[14.3299433,53.8172032],[14.3124304,53.8254175],[14.200342,53.877992],[14.3124304,53.8254175],[14.3,53.9],[14.3285801,53.9285801],[14.3669942,53.9252435],[14.3737956,53.9246527],[14.3738555,53.9247964],[14.37426,53.9300553],[14.3729235,53.9352584],[14.3698963,53.9402071],[14.3652934,53.944713],[14.3592898,53.948604],[14.3521142,53.9517317],[14.3440404,53.9539767],[14.3354332,53.955245],[14.3977089,53.9498399],[14.7367913,54.0513146],[14.7364519,54.0518212],[14.6900329,54.0948034],[14.6305581,54.1318468],[14.5601469,54.161612],[14.4813313,54.18302],[14.4354671,54.1896997],[14.3996205,54.2110331],[14.2222306,54.3166032],[14.2256681,54.3649413],[14.2084679,54.422004],[14.1706633,54.4755728],[14.1243744,54.5144114],[14.1302433,54.5278029],[14.1350032,54.5809673],[14.1216741,54.6336167],[14.0907098,54.6836948],[14.0432637,54.7292382],[13.9811516,54.7684556],[13.9067866,54.7997995],[13.8470452,54.8156747],[13.7991559,54.8556035],[13.7323676,54.8926171],[13.6540878,54.9212501],[13.5674218,54.9403592],[13.5131092,54.9488559],[13.4159699,54.9578262],[13.3176775,54.9548493],[13.2226487,54.9400583],[13.0634223,54.904396],[12.9972835,54.8851139],[12.9972667,54.8850691],[12.9918223,54.8706189],[12.9564018,54.823058],[12.9059643,54.7802485],[12.8619182,54.7549602],[12.8618787,54.7549375],[12.8423893,54.743748],[12.7680152,54.7148807],[12.6855537,54.6946913],[12.6683058,54.6925674],[12.5979936,54.6839092],[12.5495788,54.6833843],[12.5329728,54.6694561],[12.528478,54.6656861],[12.4325242,54.5995364],[12.4335076,54.5785116],[12.4267588,54.5248246],[12.4138025,54.4978884],[12.4138025,54.4978884],[12.4018218,54.4729803],[12.3597508,54.4250317],[12.3022626,54.3828704],[12.2316614,54.3481544],[12.1507456,54.3222452],[12.0626979,54.3061565],[11.9709647,54.300517],[11.8791283,54.3055468],[11.7907747,54.3210495],[11.7093617,54.3464194],[11.6615389,54.3694085],[11.5440347,54.3592255],[11.4391447,54.3570464],[11.336068,54.3686034],[11.2657191,54.3866994],[11.2657191,54.3866994],[11.2657164,54.3867001],[11.2657143,54.3867006],[11.3123476,54.386297],[11.3218113,54.3867794],[11.3309085,54.3883793],[11.3392559,54.3910293],[11.3465016,54.3946177],[11.3523398,54.3989933],[11.356524,54.4039715],[11.3588771,54.4093426],[11.3592991,54.4148797],[11.3577714,54.4203493],[11.3543578,54.4255204],[11.2968055,54.4913933],[11.290919,54.4965509],[11.2831638,54.5007898],[11.149932,54.5582302],[11.1425809,54.5608156],[11.1345339,54.5625682],[11.126067,54.5634281],[11.1174712,54.5633656],[11.1090417,54.5623829],[11.1010678,54.5605137],[11.0110289,54.5334817],[11.0030033,54.5304177],[10.9962337,54.5264591],[10.9910098,54.5217755],[10.9875548,54.5165677],[10.9723043,54.4837931],[10.9722248,54.48382],[10.9722236,54.4838204],[10.972223,54.4838206],[10.9722177,54.4838223],[10.9722158,54.483823],[10.9722145,54.4838234],[10.9722143,54.4838235],[10.9206198,54.5012617],[10.8543963,54.4825287],[10.7618683,54.4688929],[10.6862206,54.4669677],[10.6665235,54.4664664],[10.6664339,54.4664748],[10.6664242,54.4365867],[10.6507653,54.3877483],[10.639413,54.3706204],[10.6394073,54.3706118],[10.3419431,54.4672712],[10.3337033,54.4693484],[10.3249291,54.47046],[10.3159505,54.4705641],[10.3071057,54.4696568],[10.2987276,54.4677724],[10.2494806,54.4533446],[10.2494686,54.4532913],[10.2494684,54.4532905],[10.2494486,54.4532024],[10.2494484,54.4532019],[10.2494472,54.4531963],[10.2494307,54.4531233],[10.2472771,54.4435752],[10.2438505,54.4283829],[10.2414776,54.422711],[10.2393329,54.4201632],[10.2331023,54.4183367],[10.2327761,54.417994],[10.2327761,54.417994],[10.1978837,54.381334],[10.1680568,54.3538259],[10.1680568,54.3538259],[10.159173,54.3456329],[10.1591554,54.3456167],[10.1535724,54.3414322],[10.146695,54.3379645],[10.1431014,54.3367749],[10.1431014,54.3727451],[10.1899019,54.3963852],[10.197867,54.4318773],[10.204302,54.4605512],[10.197867,54.4318773],[10.12,54.36],[10,54.3436364],[9.9,54.33],[9.67,54.3],[9.4,54.27],[9.25,54.26],[9.1,54.25],[8.975,54.26],[8.8877832,54.2669773],[8.844839,54.2573439],[8.8426876,54.2611405],[8.8415986,54.2665717],[8.8419698,54.2690722],[8.7945531,54.2611595],[8.7945455,54.2611582],[8.7945448,54.2611581],[8.7945364,54.2611567],[8.7661635,54.1860886],[8.7651164,54.1813687],[8.7655003,54.1766141],[8.7673028,54.1719729],[8.7704674,54.1675894],[8.820906,54.1118825],[8.8259863,54.1074059],[8.8324763,54.1036098],[8.840118,54.1006449],[8.8486079,54.0986288],[8.857609,54.0976417],[8.866764,54.0977227],[8.8757097,54.0988685],[8.9538199,54.1137655],[8.9718396,54.0933551],[8.960745,54.0585595],[8.8358003,54.0636351],[8.8270798,54.063496],[8.8185623,54.0623883],[8.8105564,54.0603523],[8.8033519,54.0574615],[8.7972093,54.0538206],[8.7923507,54.0495615],[8.7889516,54.0448382],[8.7871343,54.0398216],[8.7869641,54.0346931],[8.7884465,54.0296381],[8.7915273,54.0248393],[8.810724,54.0017684],[8.8107172,54.0017693],[8.8107158,54.0017695],[8.8106998,54.0017717],[8.8106992,54.0017718],[8.8106877,54.0017734],[8.8106872,54.0017734],[8.8106763,54.001775],[8.7722776,54.0070865],[8.7103148,54.0006712],[8.6148801,54.0025197],[8.5221222,54.0158626],[8.4359862,54.0401327],[8.3601508,54.0742974],[8.3366291,54.0903892],[8.3365072,54.0904726],[8.3364979,54.090479],[8.3364305,54.0905251],[8.2959523,54.0723497],[8.2303503,54.0362994],[8.178061,53.9933963],[8.1563628,53.9652015],[8.1022381,53.9737977],[8.0084451,53.9769397],[7.8803647,53.9733565],[7.8736011,53.9765137],[7.7949837,54.000396],[7.7099829,54.0148825],[7.6013333,54.0267716],[7.5153144,54.0312492],[7.4294175,54.0260994],[7.3859608,54.0210022],[7.3026292,54.0062187],[7.2256424,53.9823763],[7.1578108,53.9503493],[7.1347512,53.9343471],[7.1082419,53.9286087],[7.0320998,53.901184],[6.9406496,53.8603862],[6.8593598,53.8717564],[6.7709422,53.8737134],[6.6296648,53.8686122],[6.5427794,53.8603773],[6.4602606,53.8423957],[6.3852186,53.8153469],[6.3204671,53.7802509],[6.3122258,53.773636],[6.2517834,53.7768572],[6.167597,53.7766761],[6.0849494,53.7672809],[6.0067096,53.748998],[5.9470468,53.7310735],[5.8701244,53.7329118],[5.7843229,53.7300992],[5.7010028,53.7177298],[5.6231823,53.6962525],[5.5536695,53.6664451],[5.5198944,53.6488192],[5.4580514,53.6092734],[5.4108389,53.5631735],[5.4006039,53.5462661],[5.3402631,53.5261406],[5.28254,53.4986068],[5.1384828,53.4171984],[5.0891559,53.3842017],[5.0496164,53.3468126],[5.0209126,53.3060475],[5.0147149,53.2946987],[5.0147962,53.2947118],[5.0148045,53.2947131],[5.0148612,53.2947223],[5.0149027,53.294729],[5.015221,53.2947803],[5.103051,53.3089415],[5.0010334,53.2688085],[5.0006667,53.2686643],[5.0006195,53.2686457],[5.0005538,53.2686199],[5.0005443,53.2686161],[5.0004509,53.2685794],[4.9954921,53.2594993],[4.885859,53.207288],[4.7340523,53.1901941],[4.6585505,53.1774374],[4.5879785,53.1569576],[4.5245126,53.129389],[4.4107825,53.0700427],[4.3462098,53.0281941],[4.2978812,52.979064],[4.2679291,52.9248784],[4.0958692,52.4452325],[3.8716314,52.2418624],[3.8372809,52.2349365],[3.7606545,52.2080468],[3.6944665,52.1722731],[3.6413924,52.1290768],[3.6035542,52.0802179],[3.5824374,52.0276807],[3.5820842,52.0223756],[3.5500029,52.0059099],[3.4986677,51.9667442],[3.4732258,51.9598454],[3.4015447,51.9285081],[3.3416077,51.8889242],[3.2958328,51.8427129],[3.2703046,51.7990574],[3.1951352,51.7659686],[3.1303228,51.7308767],[3.0780578,51.6885379],[3.0403699,51.6406271],[3.0200019,51.5921378]],[[3.5370354,51.4599494],[3.4932698,51.5018265],[3.5483883,51.459569],[3.5914559,51.4581261],[3.591456,51.4581261],[3.6882369,51.4548836],[3.591456,51.4581261],[3.5914559,51.4581261],[3.5483883,51.459569],[3.5370354,51.4599494]],[[3.6719218,51.3833562],[3.6719218,51.3833562],[3.6657471,51.3848937],[3.6719218,51.3833562]],[[3.9473087,51.5672612],[3.9475667,51.5684165],[3.9475821,51.568405],[3.947583,51.5684043],[3.9494802,51.5669873],[3.9494903,51.5669797],[3.9473087,51.5672612]],[[4.6748394,52.8865278],[4.7168174,52.908364],[4.7168177,52.9083648],[4.7168178,52.908365],[4.7322473,52.959406],[4.8186482,52.9678489],[4.8142315,52.9519666],[4.8142315,52.9519666],[4.8142304,52.9519623],[4.8142304,52.9519623],[4.8142296,52.9519597],[4.8142296,52.9519597],[4.8142289,52.9519571],[4.8142289,52.9519571],[4.8142278,52.9519531],[4.8142278,52.9519531],[4.814226,52.9519465],[4.8078481,52.9290116],[4.8176525,52.9251793],[4.8726487,52.9036829],[4.8176525,52.9251793],[4.7040417,52.8661017],[4.7168049,52.9083223],[4.716814,52.9083527],[4.716814,52.9083527],[4.7168163,52.9083603],[4.7168163,52.9083603],[4.7168164,52.9083604],[4.7168165,52.9083609],[4.7168165,52.9083609],[4.7168166,52.9083611],[4.7168168,52.9083618],[4.7168174,52.908364],[4.6748394,52.8865278]],[[4.7070471,53.0286376],[4.8546485,53.1873639],[4.8906489,53.1806096],[4.8942489,53.1113779],[4.8942489,53.0759178],[4.7971352,53],[4.797048,52.9999318],[4.7968342,53],[4.7968342,53],[4.7070471,53.0286376]],[[5.1678517,53.3680417],[5.4234542,53.430519],[5.5854559,53.4541591],[5.4702547,53.4085675],[5.2074521,53.3528445],[5.1678517,53.3680417]],[[5.6358564,53.4490934],[5.6754568,53.4676677],[5.7872641,53.4649784],[5.787267,53.4649783],[5.7872766,53.4649781],[5.7872803,53.464978],[5.7872803,53.464978],[5.7872864,53.4649778],[5.7872897,53.4649777],[5.7872903,53.4649777],[5.7872909,53.4649777],[5.7873078,53.4649773],[5.7873623,53.464976],[5.8527007,53.4634044],[5.8189594,53.4458589],[5.7746208,53.4409973],[5.7746076,53.4409959],[5.7746072,53.4409958],[5.7746019,53.4409952],[5.7745679,53.4409915],[5.7745654,53.4409912],[5.6790568,53.430519],[5.6358564,53.4490934]],[[10.8631086,42.3669608],[10.895509,42.3872237],[10.9243092,42.317992],[10.8631086,42.3669608]],[[14.3572357,45.1969216],[14.3599094,45.1966335],[14.3635234,45.1963197],[14.3641276,45.196179],[14.3572357,45.1969216]],[[14.3668179,45.1955528],[14.3706495,45.194661],[14.3711574,45.1944582],[14.3668179,45.1955528]],[[14.3732729,45.1936137],[14.3771791,45.1920543],[14.3775725,45.1918151],[14.3732729,45.1936137]],[[14.3777128,45.1917564],[14.3790622,45.1909095],[14.382861,45.1886],[14.3831327,45.1883545],[14.3777128,45.1917564]],[[14.3831942,45.188316],[14.3870062,45.1847911],[14.3839839,45.1875857],[14.3874768,45.1844308],[14.3876341,45.1842105],[14.3831942,45.188316]]]}}
