{"type":"Feature","properties":{"family":"franks","name":"Holy Roman Empire, 1047 – 1066"},"geometry":{"type":"Polygon","coordinates":[[[3.0199969,51.5921367],[3.0200019,51.5921378],[3.096132,51.6080967],[3.0996901,51.6145992],[3.1440955,51.6616304],[3.2029049,51.7021338],[3.2737234,51.7344369],[3.3536404,51.757203],[3.4393522,51.7694884],[3.5273031,51.7707834],[3.6138398,51.7610345],[3.665714,51.7480628],[3.6657163,51.7480622],[3.6596807,51.7454299],[3.653685,51.7414872],[3.6490875,51.7368804],[3.6460736,51.7317958],[3.6447647,51.726439],[3.6452131,51.7210266],[3.656053,51.6771279],[3.656053,51.6771279],[3.6580261,51.6722402],[3.6614302,51.6676639],[3.6661463,51.6635585],[3.6720095,51.6600675],[3.678815,51.6573124],[3.6863256,51.6553893],[3.6942792,51.6543653],[3.7023987,51.6542761],[3.710401,51.6551248],[3.800564,51.6701389],[3.8893059,51.6255391],[3.8893243,51.6255216],[3.8893431,51.6255038],[3.88937,51.6254784],[3.9012362,51.6142514],[3.9012897,51.6142008],[3.9013825,51.614113],[3.9014259,51.6140719],[3.9376624,51.5868633],[3.9014259,51.6140719],[3.8836702,51.6274041],[3.8777554,51.6310602],[3.8708244,51.6339479],[3.8631329,51.6359605],[3.854965,51.6370236],[3.8466225,51.637098],[3.5548516,51.6218898],[3.5473356,51.6210708],[3.5401692,51.619447],[3.5335742,51.6170687],[3.4219481,51.5680766],[3.4156762,51.5647144],[3.4105512,51.560671],[3.40676,51.5560941],[3.4044407,51.5511512],[3.4036778,51.5460228],[3.4044984,51.5408963],[3.4068723,51.5359589],[3.4107121,51.5313908],[3.4568632,51.4872634],[3.4530048,51.4919171],[3.4506338,51.4971634],[3.4500034,51.5026005],[3.4511399,51.5080062],[3.4539973,51.5131599],[3.4584597,51.5178509],[3.4643449,51.5218875],[3.4697384,51.5243425],[3.4697392,51.5243418],[3.4704102,51.5236997],[3.4802304,51.5143033],[3.4932698,51.5018265],[3.4932698,51.5018265],[3.4932698,51.5018265],[3.5370354,51.4599494],[3.5483883,51.459569],[3.5914559,51.4581261],[3.591456,51.4581261],[3.5914682,51.457237],[3.5899521,51.4521442],[3.5869047,51.4473253],[3.5824388,51.4429578],[3.5767192,51.4392026],[3.5722689,51.4372252],[3.5974968,51.4309409],[3.5975186,51.4309355],[3.6731085,51.4284064],[3.751517,51.3926088],[3.6319738,51.4223122],[3.6389583,51.4200506],[3.645574,51.4167428],[3.6510259,51.4126914],[3.6551042,51.4080525],[3.6719218,51.3833562],[3.6657471,51.3848937],[3.6642005,51.3852788],[3.64968,51.3888943],[3.6430478,51.3905458],[3.6351867,51.3925032],[3.6153863,51.3974335],[3.6153863,51.3974335],[3.6153863,51.3974335],[3.5752224,51.4074342],[3.5406354,51.4160463],[3.5752224,51.4074342],[3.6153863,51.3974335],[3.6153863,51.3974335],[3.6153863,51.3974335],[3.6153863,51.3974335],[3.6153863,51.3974335],[3.75,51.2],[3.72,51.05],[3.6,50.85],[3.45,50.7],[3.38,50.55],[3.3,50.35],[3.25,50.18],[3.5,50],[3.9,49.85],[4.1,49.775],[4.3,49.7],[4.7,49.5],[4.85,49.2],[4.9,48.9],[4.925,48.75],[4.95,48.6],[5.1,48.3],[5.2,48],[5.45,47.7],[5.6,47.45],[5.4,47.2],[5.10625,46.9552083],[5.05,46.8333333],[4.95,46.6166667],[4.85,46.4],[4.83,46],[4.83,45.75],[4.82,45.5],[4.85,45.2],[4.83,44.9],[4.79,44.725],[4.75,44.55],[4.68,44.2],[4.69,44.075],[4.7,43.95],[4.62,43.7],[4.6,43.5],[4.6237676,43.3573941],[4.6605576,43.3545704],[4.6605722,43.3545693],[4.6605724,43.3545692],[4.7898479,43.344647],[4.6605724,43.3545692],[4.6605722,43.3545693],[4.6605576,43.3545704],[4.6237676,43.3573941],[4.5918459,43.3598442],[4.6237676,43.3573941],[4.6605576,43.3545704],[4.6605722,43.3545693],[4.6594206,43.3499507],[4.6566882,43.3449597],[4.6526501,43.3404623],[4.6474667,43.3366367],[4.6413439,43.3336347],[4.6345243,43.3315752],[4.6272785,43.3305399],[4.6199767,43.3305695],[4.7858609,43.3178366],[4.793782,43.3178421],[4.8015234,43.3190729],[4.8087316,43.3214727],[4.8150773,43.3249319],[4.8205703,43.328654],[4.8266946,43.3235398],[4.8316948,43.3200774],[4.8374922,43.3173517],[4.8438854,43.3154572],[4.8506523,43.3144598],[4.857558,43.3143941],[4.8643628,43.3152624],[4.8708302,43.3170346],[4.8767357,43.3196491],[4.923529,43.3449681],[4.928952,43.348555],[4.933302,43.3528463],[4.9364092,43.3576747],[4.9381519,43.3628517],[4.9384617,43.3681752],[4.9373262,43.3734374],[4.9347894,43.3784328],[4.9309499,43.3829661],[4.9259576,43.3868603],[4.9200074,43.3899632],[4.9133317,43.3921535],[4.9061914,43.3933455],[4.906138,43.3933466],[4.9061393,43.3953485],[4.9764106,43.3985936],[4.9737878,43.3953093],[4.9708278,43.3906213],[4.9691486,43.3856108],[4.9688113,43.3804611],[4.9698277,43.3753604],[4.9721605,43.3704952],[4.9921511,43.3388778],[4.9921492,43.3388627],[4.9882583,43.3079241],[4.9688403,43.2588789],[4.9371215,43.2133755],[4.8942575,43.1730341],[4.8417916,43.1392878],[4.7815988,43.1133334],[4.7158191,43.0960902],[4.6492533,43.0884518],[4.7184176,43.0916947],[4.7474087,43.083102],[4.814817,43.0731653],[4.8835931,43.0725073],[4.9277633,43.0781448],[4.9972705,43.0679052],[5.041095,43.0679086],[5.0568248,43.0500011],[5.1046893,43.0131461],[5.1611232,42.9835073],[5.2241286,42.9621283],[5.2914842,42.9497612],[5.4970672,42.9265632],[5.5916039,42.8557335],[5.6510115,42.81962],[5.7193442,42.7933837],[5.793612,42.7781692],[5.8705755,42.7746399],[5.946882,42.7829498],[5.9471741,42.7830298],[6.0026383,42.7580545],[6.0674557,42.7400596],[6.0683338,42.7398831],[6.1177729,42.7299469],[6.1799307,42.7215724],[6.2431307,42.7211356],[6.3055207,42.7286496],[6.365271,42.7438945],[6.3954907,42.7538056],[6.4012423,42.755692],[6.4624452,42.7811502],[6.5159945,42.8146813],[6.5599312,42.8550682],[6.5649815,42.8621418],[6.5802036,42.8681285],[6.6378781,42.9034692],[6.6468239,42.9117335],[6.7440619,42.9281138],[6.8182453,42.9468251],[6.8854148,42.976582],[6.9425421,43.0160492],[6.9870357,43.0634525],[7.016858,43.1166561],[7.0429351,43.1822576],[7.0898758,43.1993846],[7.1475616,43.2320829],[7.1953896,43.2723833],[7.2047531,43.2844123],[7.2167669,43.2857384],[7.2839084,43.3031797],[7.345283,43.3296286],[7.3986343,43.3641172],[7.4419901,43.4053814],[7.4625258,43.435487],[7.5001846,43.4454245],[7.5753779,43.4821543],[7.6375124,43.5211856],[7.6898821,43.5206952],[7.7621388,43.5251097],[7.8318786,43.539574],[8.2049347,43.6454799],[8.2599705,43.6648668],[8.3099286,43.6904898],[8.4070331,43.7493758],[8.4521716,43.7817855],[8.4890923,43.8192478],[8.5167144,43.8606835],[8.5615397,43.9456132],[8.6017536,43.9630654],[8.6678277,43.999437],[8.7212235,44.0453757],[8.7593006,44.0986386],[8.7713893,44.1214436],[8.8243471,44.1444372],[8.9232369,44.1278128],[8.9599583,44.1043092],[9.0204614,44.0726988],[9.088431,44.0503022],[9.1611941,44.0379977],[9.2035535,44.0370229],[9.6131654,43.8239004],[9.6740133,43.7979451],[9.7404987,43.7806928],[9.8102687,43.7727529],[9.8742057,43.774252],[9.8915203,43.7538567],[9.9478099,43.4571887],[9.9669978,43.4010611],[10.0021446,43.3491879],[10.1513604,43.1773235],[10.1321664,42.958981],[10.1345531,42.9065159],[10.1507321,42.8553813],[10.1742723,42.8169528],[10.174336,42.8169495],[10.174382,42.8169471],[10.1743919,42.8169466],[10.1745171,42.8169402],[10.3555036,42.8076794],[10.4131041,42.8735339],[10.4419044,42.8448281],[10.4311043,42.7874165],[10.3879039,42.7637764],[10.4239042,42.7401363],[10.4167042,42.7080534],[10.3375034,42.765465],[10.2414475,42.7510135],[10.2412529,42.7509843],[10.241238,42.750982],[10.2411536,42.7509693],[10.241133,42.7509662],[10.2410788,42.7509581],[10.2731753,42.7285542],[10.3334306,42.7004384],[10.3998987,42.6814003],[10.4054491,42.6806706],[10.4308555,42.6481368],[10.4777095,42.6084989],[10.5340431,42.5762787],[10.5977272,42.5526858],[10.7277498,42.5155664],[10.7382555,42.5069091],[10.7278625,42.4808939],[10.7213396,42.428667],[10.72861,42.3764922],[10.7493645,42.3263388],[10.7711438,42.287569],[10.8078993,42.2376414],[10.857887,42.1945114],[10.9188789,42.1600788],[10.9881768,42.1358573],[11.0627293,42.1229101],[11.1392632,42.121805],[11.2893108,42.1312737],[11.3820597,42.0889415],[11.5058025,41.9110358],[11.5464154,41.8647468],[11.5987611,41.8255785],[11.6606397,41.7951614],[11.7294668,41.7747593],[11.8280892,41.7538732],[11.85668,41.7322288],[11.898816,41.644748],[11.9323711,41.5930044],[11.9797346,41.5477373],[12.0387436,41.5109871],[12.197909,41.431395],[12.3493439,41.2830879],[12.4059808,41.2388796],[12.474334,41.2054154],[12.5508829,41.1844102],[12.6824638,41.16051],[12.7328026,41.1089752],[12.7804627,41.0690943],[12.8375654,41.0370961],[12.9018584,41.0142348],[12.9708167,41.0014053],[13.0417397,40.9991092],[13.1118525,41.007436],[13.1784111,41.0260597],[13.2388059,41.0542513],[13.2906603,41.0909062],[13.4368405,41.2146209],[13.284656,41.2671744],[13.0575684,41.2019805],[13.0509712,41.2006045],[13.0441469,41.2001965],[13.0373437,41.2007713],[13.0308095,41.202308],[13.0247822,41.2047507],[13.0194812,41.2080104],[13.0150997,41.2119683],[13.0117976,41.2164804],[12.9881033,41.2577238],[12.9878169,41.2583841],[12.9637626,41.3002547],[12.9878169,41.2583841],[12.988183,41.2577468],[12.9917187,41.2529784],[12.9964548,41.2488424],[13.0021974,41.2455081],[13.0087114,41.2431119],[13.0157302,41.2417519],[13.0229667,41.2414836],[13.0301249,41.242318],[13.0352167,41.2437457],[13.0352163,41.2437464],[13.0352151,41.2437484],[13.0269665,41.2581188],[13.0210529,41.2684213],[13.015465,41.2781563],[13.0052307,41.2959862],[13.0052303,41.295987],[13.0052302,41.2959871],[13,41.3050989],[13.0052302,41.2959871],[13.0052303,41.295987],[13.0052307,41.2959862],[13.015465,41.2781563],[13.0210529,41.2684213],[13.1333333,41.3666667],[13.2666667,41.4833333],[13.4,41.6],[14,42.1],[14.2448925,42.4673388],[14.2196244,42.4867408],[14.2196244,42.4867408],[14.0743407,42.5982958],[14.2196244,42.4867408],[14.2196244,42.4867408],[14.2448925,42.4673388],[14.2448925,42.4673388],[14.2718268,42.4466575],[14.2718277,42.4466568],[14.2718313,42.4466541],[14.2718316,42.4466538],[14.2718334,42.4466524],[14.2718351,42.4466512],[14.2718351,42.4466512],[14.2718454,42.4466432],[14.2718454,42.4466432],[14.5137737,42.2608802],[14.2718454,42.4466432],[14.2718454,42.4466432],[14.2718351,42.4466512],[14.2718351,42.4466512],[14.2718334,42.4466524],[14.2718316,42.4466538],[14.2718313,42.4466541],[14.2718277,42.4466568],[14.2718268,42.4466575],[14.2776092,42.455324],[14.2802192,42.4604688],[14.281362,42.4658993],[14.2809899,42.4713898],[14.2791178,42.4767123],[14.2758231,42.4816455],[14.2712426,42.4859844],[14.270723,42.4863835],[14.2712014,42.486082],[14.5310164,42.286539],[14.5714791,42.3467513],[14.5977981,42.3981225],[14.6095073,42.4523887],[14.6060822,42.5073009],[14.5876245,42.5605768],[14.5548649,42.6099961],[14.5091385,42.6534938],[14.3797734,42.7532571],[14.2879483,42.8956051],[13.9723585,43.6410612],[13.9446447,43.6888666],[13.9047621,43.7319513],[13.8541687,43.7687126],[13.7947317,43.7977799],[13.4712525,43.9242401],[13.1815072,44.1149607],[13.0918576,44.1584608],[12.8886886,44.2285156],[12.7284889,44.3562851],[12.6613938,44.5293692],[12.6582025,44.5983648],[12.7108248,44.6288551],[12.7577016,44.6688848],[12.7929412,44.7145745],[12.8836928,44.8645669],[12.9053727,44.9118652],[12.9144501,44.9611839],[12.9105841,45.0108495],[12.8938723,45.0591723],[12.8648527,45.1045039],[12.8244892,45.145294],[12.7741419,45.1801443],[12.6988,45.2233461],[12.7128165,45.2349585],[13.1460074,45.3661731],[13.164234,45.2971678],[13.1830594,45.2500638],[13.2000998,45.225568],[13.2150112,45.1190128],[13.2295282,45.0673679],[13.2448735,45.0410788],[13.2483924,45.0271468],[13.2658468,44.9815243],[13.2942514,44.9387456],[13.3327158,44.9001159],[13.411066,44.8343279],[13.4117777,44.8276877],[13.4330197,44.7750582],[13.4687373,44.7265398],[13.5174338,44.6841176],[13.559087,44.6599725],[13.5708533,44.6411339],[13.6125826,44.5986453],[13.6648843,44.5625955],[13.7258281,44.5343018],[13.7931788,44.5147966],[13.8644759,44.5047901],[13.9371214,44.5046465],[14.0084704,44.5143706],[14.0759234,44.533608],[14.1370173,44.5616575],[14.1401338,44.5637871],[14.1460227,44.5650813],[14.2111799,44.5901277],[14.2258106,44.5987286],[14.2163719,44.6019481],[14.2101794,44.6046026],[14.204807,44.6080457],[14.2004502,44.6121522],[14.1972678,44.6167727],[14.1953756,44.6217392],[14.1948428,44.6268711],[14.1956893,44.6319815],[14.2064677,44.667445],[14.2088819,44.6727013],[14.2127533,44.6774971],[14.2179195,44.6816306],[14.2241634,44.6849281],[14.260173,44.7001314],[14.2669981,44.7023934],[14.2743177,44.7036529],[14.2818432,44.7038602],[14.2892781,44.703007],[14.2963293,44.7011271],[14.3027188,44.6982946],[14.3064767,44.6957738],[14.3006844,44.7099368],[14.299334,44.7150024],[14.2993646,44.7201579],[14.3007754,44.7252152],[14.3035151,44.7299893],[14.3074839,44.7343059],[14.3125371,44.7380071],[14.3184901,44.7409576],[14.3251252,44.7430496],[14.3321999,44.7442064],[14.3394555,44.7443858],[14.340325,44.7442882],[14.2583005,44.8987559],[14.2565568,44.9031013],[14.2558614,44.9075919],[14.2562339,44.9121016],[14.2634111,44.9475639],[14.2651778,44.9526726],[14.2683122,44.9574414],[14.2726955,44.961689],[14.2781613,44.9652539],[14.2845016,44.9680003],[14.2914753,44.9698238],[14.298817,44.9706549],[14.3062473,44.970462],[14.3134833,44.9692525],[14.3202496,44.9670723],[14.352509,44.9538437],[14.3530597,44.9619227],[14.3542279,44.9673717],[14.3557861,44.9703431],[14.2467765,45.0986974],[14.2467983,45.0987066],[14.2790579,45.0607007],[14.283578,45.0564036],[14.2892089,45.0528206],[14.2957287,45.0500926],[14.3028811,45.048327],[14.3103846,45.0475931],[14.3179444,45.0479199],[14.325263,45.0492944],[14.3314101,45.0514384],[14.3314091,45.0514396],[14.3314069,45.0514422],[14.3314062,45.0514431],[14.3314032,45.0514465],[14.3314006,45.0514497],[14.3314006,45.0514497],[14.3211207,45.0635691],[14.3179694,45.0672843],[14.3153139,45.0704151],[14.3142175,45.0717077],[14.3118132,45.0745422],[14.3107527,45.0757925],[14.3107524,45.0757928],[14.3013891,45.0868317],[14.3011998,45.0870549],[14.300651,45.0877018],[14.3004679,45.0879178],[14.2989517,45.0897052],[14.2989517,45.0897053],[14.2989517,45.0897053],[14.2989517,45.0897053],[14.2989517,45.0897053],[14.2989517,45.0897053],[14.2863663,45.1045429],[14.2853777,45.1057084],[14.2853777,45.1057084],[14.2853777,45.1057084],[14.2853777,45.1057084],[14.2853777,45.1057084],[14.2853777,45.1057084],[14.2795583,45.1125691],[14.2795428,45.1125874],[14.2795583,45.1125691],[14.2853777,45.1057084],[14.2853777,45.1057084],[14.2853777,45.1057084],[14.2853777,45.1057084],[14.2853777,45.1057084],[14.2853777,45.1057084],[14.2863663,45.1045429],[14.2989517,45.0897053],[14.2989517,45.0897053],[14.2989517,45.0897053],[14.2989517,45.0897053],[14.2989517,45.0897053],[14.2989517,45.0897052],[14.3004679,45.0879178],[14.300651,45.0877018],[14.3011998,45.0870549],[14.3013891,45.0868317],[14.3107524,45.0757928],[14.3107527,45.0757925],[14.3118132,45.0745422],[14.3692124,45.1128083],[14.3551436,45.169999],[14.3692124,45.1128083],[14.3770535,45.080934],[14.3770543,45.0809305],[14.3770543,45.0809305],[14.3770547,45.0809291],[14.3770547,45.0809289],[14.3954429,45.0931839],[14.4003767,45.0971865],[14.4041043,45.1017942],[14.406481,45.1068287],[14.4074144,45.1120951],[14.406868,45.1173894],[14.3928366,45.1745844],[14.3908984,45.1795718],[14.3881789,45.1834473],[14.3908493,45.179707],[14.3928492,45.1746105],[14.4081629,45.1122739],[14.4955644,45.1505496],[14.5114543,45.2523229],[14.513053,45.2576047],[14.5139307,45.2590241],[14.4272184,45.2830241],[14.4272278,45.283041],[14.4464064,45.2777282],[14.4538063,45.2762565],[14.4614733,45.2758528],[14.4690996,45.2765334],[14.4763785,45.2782709],[14.4830176,45.2809955],[14.4887499,45.2845977],[14.4933449,45.2889327],[14.4960397,45.2929621],[14.4960328,45.292964],[14.484235,45.2962298],[14.484235,45.2962298],[14.484235,45.2962298],[14.484235,45.2962298],[14.484235,45.2962298],[14.484235,45.2962298],[14.460457,45.3028119],[14.4593215,45.3031262],[14.4179013,45.3145918],[14.4159763,45.3151247],[14.4159763,45.3151247],[14.4159763,45.3151247],[14.3669014,45.3287093],[14.3669014,45.3287093],[14.3669014,45.3287093],[14.3669014,45.3287093],[14.3669014,45.3287093],[14.3669014,45.3287093],[14.3669014,45.3287093],[14.3669014,45.3287093],[14.3669014,45.3287093],[14.3669014,45.3287093],[14.3669014,45.3287093],[14.3457726,45.334558],[14.317432,45.3424031],[14.3119431,45.3439225],[14.317432,45.3424031],[14.3457726,45.334558],[14.3669014,45.3287093],[14.3669014,45.3287093],[14.3669014,45.3287093],[14.3669014,45.3287093],[14.3669014,45.3287093],[14.3669014,45.3287093],[14.3669014,45.3287093],[14.3669014,45.3287093],[14.3669014,45.3287093],[14.3669014,45.3287093],[14.3669014,45.3287093],[14.4159763,45.3151247],[14.4159763,45.3151247],[14.4159763,45.3151247],[14.4179013,45.3145918],[14.4593215,45.3031262],[14.460457,45.3028119],[14.460457,45.3028119],[14.45,45.33],[14.8,45.45],[14.9666667,45.5],[15.1333333,45.55],[15.3,45.6],[15.6,45.85],[15.75,46.025],[15.9,46.2],[16.0666667,46.2833333],[16.2333333,46.3666667],[16.4,46.45],[16.1,46.65],[16.2,47],[16.3,47.1666667],[16.4,47.3333333],[16.5,47.5],[16.8,47.9],[16.98,48.17],[16.965,48.385],[16.95,48.6],[16.2,48.75],[16,48.7833333],[15.8,48.8166667],[15.6,48.85],[15.4,48.8833333],[15.2,48.9166667],[15,48.95],[14.8,48.8333333],[14.6,48.7166667],[14.4057416,48.6033493],[14.4,48.6],[14.356,48.612],[14.2166667,48.65],[14.0333333,48.7],[13.85,48.75],[13.5,48.95],[13.1,49.2],[12.75,49.45],[12.5,49.8],[12.4,50.1],[12.1,50.3],[12.3,50.325],[12.5,50.35],[12.7,50.375],[12.9,50.4],[13.1,50.5],[13.3,50.6],[13.5,50.65],[13.7,50.7],[13.9,50.75],[14.1333333,50.8],[14.3666667,50.85],[14.6,50.9],[15.05,50.95],[15,51.2],[14.875,51.4],[14.75,51.6],[14.6,52],[14.38,51.99],[14.16,51.98],[13.94,51.97],[13.5,51.95],[12.5,51.95],[12.1,52],[11.9,52.025],[11.7,52.05],[11.8,52.2],[11.95,52.4],[12,52.65],[11.85,52.85],[11.55,53],[11.2,53.1],[11.05,53.15],[10.9,53.2],[10.6,53.37],[10.6,53.5],[10.5,53.7],[10.35,53.9],[10.25,54.1],[10.2,54.3],[10.2327761,54.417994],[10.2327761,54.417994],[10.1978837,54.381334],[10.1680568,54.3538259],[10.1680568,54.3538259],[10.159173,54.3456329],[10.1591554,54.3456167],[10.1535724,54.3414322],[10.146695,54.3379645],[10.1431014,54.3367749],[10.1431014,54.3727451],[10.1899019,54.3963852],[10.197867,54.4318773],[10.204302,54.4605512],[10.197867,54.4318773],[10.12,54.36],[10,54.3436364],[9.9,54.33],[9.67,54.3],[9.4,54.27],[9.25,54.26],[9.1,54.25],[8.975,54.26],[8.8877832,54.2669773],[8.844839,54.2573439],[8.8426876,54.2611405],[8.8415986,54.2665717],[8.8419698,54.2690722],[8.7945531,54.2611595],[8.7945455,54.2611582],[8.7945448,54.2611581],[8.7945364,54.2611567],[8.7945363,54.2611567],[8.7661665,54.1860968],[8.7651195,54.1813767],[8.7655037,54.1766217],[8.7673067,54.1719798],[8.770472,54.1675954],[8.8209105,54.1118885],[8.8259919,54.1074108],[8.8324831,54.1036135],[8.8401262,54.1006475],[8.8486173,54.0986306],[8.8576193,54.0976428],[8.8667749,54.0977233],[8.8757207,54.0988689],[8.9538298,54.1137655],[8.9718426,54.0933629],[8.9607451,54.0585581],[8.8357856,54.0636343],[8.8270667,54.0634952],[8.8185513,54.0623879],[8.8105478,54.0603523],[8.8033457,54.0574623],[8.7972056,54.0538223],[8.7923493,54.0495641],[8.7889522,54.0448418],[8.7871366,54.0398261],[8.7869676,54.0346984],[8.7884506,54.0296439],[8.7915317,54.0248454],[8.8107346,54.0017669],[8.810724,54.0017684],[8.8107172,54.0017693],[8.8107158,54.0017695],[8.8106998,54.0017717],[8.8106992,54.0017718],[8.8106877,54.0017734],[8.8106872,54.0017734],[8.8106763,54.001775],[8.7722776,54.0070865],[8.7103148,54.0006712],[8.6148801,54.0025197],[8.5221222,54.0158626],[8.4359862,54.0401327],[8.3601508,54.0742974],[8.3366291,54.0903892],[8.3365072,54.0904726],[8.3364979,54.090479],[8.3364305,54.0905251],[8.3364002,54.0905458],[8.2959,54.0723602],[8.2303296,54.0363264],[8.1780656,53.9934424],[8.15631,53.9651717],[8.1021067,53.9737813],[8.0082987,53.9769237],[7.8802346,53.9733395],[7.8734672,53.9764976],[7.7948415,54.0003782],[7.709838,54.0148636],[7.6011881,54.0267516],[7.5151709,54.0312287],[7.4292809,54.026079],[7.3858246,54.0209815],[7.302522,54.0062027],[7.2255657,53.9823693],[7.1577638,53.9503551],[7.1346859,53.9343389],[7.1081476,53.9285943],[7.032033,53.9011792],[6.9405324,53.8603578],[6.8592109,53.8717302],[6.7707968,53.873686],[6.6295201,53.8685836],[6.5426481,53.8603493],[6.4601474,53.8423705],[6.3851269,53.8153264],[6.3203994,53.7802369],[6.3121352,53.7736016],[6.2516414,53.776825],[6.167463,53.7766438],[6.0848281,53.7672504],[6.0066049,53.7489712],[5.9469159,53.7310382],[5.8699817,53.7328761],[5.7841955,53.7300641],[5.7008951,53.7176989],[5.6230969,53.696229],[5.5536076,53.6664318],[5.5198332,53.6488059],[5.4580065,53.6092674],[5.4108129,53.5631747],[5.400579,53.5462601],[5.3401802,53.5261152],[5.2824825,53.4985929],[5.1384281,53.4171847],[5.0891276,53.3842052],[5.0496096,53.3468358],[5.0209215,53.3060918],[5.0146982,53.294696],[5.0147149,53.2946987],[5.0147962,53.2947118],[5.0148045,53.2947131],[5.0148612,53.2947223],[5.0149027,53.294729],[5.015221,53.2947803],[5.103051,53.3089415],[5.0010334,53.2688085],[5.0006667,53.2686643],[5.0006195,53.2686457],[5.0005538,53.2686199],[5.0005443,53.2686161],[5.0004509,53.2685794],[5.0004319,53.2685719],[4.9954785,53.2595013],[4.8857557,53.2072463],[4.7339227,53.1901481],[4.6584395,53.1773944],[4.5878884,53.156921],[4.5244444,53.1293616],[4.4107166,53.0700153],[4.3461763,53.028187],[4.2978736,52.9790812],[4.2679387,52.9249216],[4.0958724,52.4452501],[3.871572,52.2418192],[3.8371937,52.2348879],[3.7605926,52.208009],[3.6944287,52.1722508],[3.6413756,52.1290738],[3.6035535,52.0802363],[3.5824468,52.0277211],[3.5820908,52.0223712],[3.5499385,52.0058682],[3.4986059,51.9666994],[3.4731634,51.9598014],[3.4015043,51.9284781],[3.3415872,51.8889122],[3.2958283,51.8427217],[3.2702755,51.7990272],[3.1950583,51.7659166],[3.1302704,51.7308374],[3.0780279,51.6885153],[3.040359,51.6406239],[3.0199969,51.5921367]],[[3.5370354,51.4599494],[3.4932698,51.5018265],[3.5483883,51.459569],[3.5914559,51.4581261],[3.591456,51.4581261],[3.6882369,51.4548836],[3.591456,51.4581261],[3.5914559,51.4581261],[3.5483883,51.459569],[3.5370354,51.4599494]],[[3.6719218,51.3833562],[3.6719218,51.3833562],[3.6657471,51.3848937],[3.6719218,51.3833562]],[[3.9473072,51.567255],[3.9475664,51.5684167],[3.9475667,51.5684165],[3.9475821,51.568405],[3.947583,51.5684043],[3.9494802,51.5669873],[3.9494903,51.5669797],[3.9495006,51.566972],[3.9473072,51.567255]],[[4.7040417,52.8661017],[4.7168049,52.9083223],[4.716814,52.9083527],[4.716814,52.9083527],[4.7168163,52.9083603],[4.7168163,52.9083603],[4.7168164,52.9083604],[4.7168165,52.9083609],[4.7168165,52.9083609],[4.7168166,52.9083611],[4.7168168,52.9083618],[4.7168174,52.908364],[4.7168174,52.908364],[4.7168177,52.9083648],[4.7168174,52.908364],[4.7168174,52.908364],[4.7168168,52.9083618],[4.7168166,52.9083611],[4.7168165,52.9083609],[4.7168165,52.9083609],[4.7168164,52.9083604],[4.7168163,52.9083603],[4.7168163,52.9083603],[4.716814,52.9083527],[4.716814,52.9083527],[4.7168049,52.9083223],[4.7040417,52.8661017],[4.7040417,52.8661017]],[[4.7040417,52.8661017],[4.7168049,52.9083223],[4.716814,52.9083527],[4.716814,52.9083527],[4.7168163,52.9083603],[4.7168163,52.9083603],[4.7168164,52.9083604],[4.7168165,52.9083609],[4.7168165,52.9083609],[4.7168166,52.9083611],[4.7168168,52.9083618],[4.7168174,52.908364],[4.7168174,52.908364],[4.7168177,52.9083648],[4.7168178,52.908365],[4.7322473,52.959406],[4.8186482,52.9678489],[4.8142315,52.9519666],[4.8142315,52.9519666],[4.8142304,52.9519623],[4.8142304,52.9519623],[4.8142296,52.9519597],[4.8142296,52.9519597],[4.8142289,52.9519571],[4.8142289,52.9519571],[4.8142278,52.9519531],[4.8142278,52.9519531],[4.814226,52.9519465],[4.8078481,52.9290116],[4.8176525,52.9251793],[4.8726487,52.9036829],[4.8176525,52.9251793],[4.7040417,52.8661017]],[[4.7070471,53.0286376],[4.8546485,53.1873639],[4.8906489,53.1806096],[4.8942489,53.1113779],[4.8942489,53.0759178],[4.7971352,53],[4.797048,52.9999318],[4.7968342,53],[4.7968342,53],[4.7070471,53.0286376]],[[5.1678517,53.3680417],[5.4234542,53.430519],[5.5854559,53.4541591],[5.4702547,53.4085675],[5.2074521,53.3528445],[5.1678517,53.3680417]],[[5.6358564,53.4490934],[5.6754568,53.4676677],[5.7872641,53.4649784],[5.787267,53.4649783],[5.7872766,53.4649781],[5.7872803,53.464978],[5.7872864,53.4649778],[5.7872897,53.4649777],[5.7872903,53.4649777],[5.7872909,53.4649777],[5.7873078,53.4649773],[5.7873623,53.464976],[5.8527007,53.4634044],[5.8189594,53.4458589],[5.7746208,53.4409973],[5.7746076,53.4409959],[5.7746072,53.4409958],[5.7746019,53.4409952],[5.7745679,53.4409915],[5.7745654,53.4409912],[5.6790568,53.430519],[5.6358564,53.4490934]],[[5.7872766,53.4649781],[5.7872803,53.464978],[5.7872864,53.4649778],[5.7872897,53.4649777],[5.7872903,53.4649777],[5.7872909,53.4649777],[5.7873078,53.4649773],[5.7873623,53.464976],[5.8527007,53.4634044],[5.8527007,53.4634044],[5.8527007,53.4634044],[5.8527007,53.4634044],[5.8527007,53.4634044],[5.8527007,53.4634044],[5.8527007,53.4634044],[5.7873623,53.464976],[5.7873078,53.4649773],[5.7872909,53.4649777],[5.7872903,53.4649777],[5.7872897,53.4649777],[5.7872864,53.4649778],[5.7872803,53.464978],[5.7872766,53.4649781]],[[10.8631086,42.3669608],[10.895509,42.3872237],[10.9243092,42.317992],[10.8631086,42.3669608]],[[14.3601438,45.1966132],[14.3635234,45.1963196],[14.3640883,45.1961882],[14.3601438,45.1966132]],[[14.3644962,45.1961442],[14.3671141,45.1954838],[14.3706495,45.1946609],[14.3711182,45.1944738],[14.3699239,45.1947751],[14.3711182,45.1944738],[14.3714057,45.1944013],[14.3711182,45.1944738],[14.3699239,45.1947751],[14.3671141,45.1954838],[14.3644962,45.1961442]],[[14.3736155,45.1934769],[14.377179,45.1920543],[14.3775383,45.1918358],[14.3777166,45.1917612],[14.3775383,45.1918358],[14.374092,45.1932776],[14.3736155,45.1934769]],[[14.3777166,45.1917612],[14.3794289,45.1906865],[14.3828609,45.1885999],[14.3831069,45.1883777],[14.383197,45.1883211],[14.3831069,45.1883777],[14.3794289,45.1906865],[14.3777166,45.1917612]],[[14.3843514,45.1872536],[14.3874768,45.1844307],[14.387618,45.1842329],[14.3843514,45.1872536]]]}}
