{"type":"Feature","properties":{"family":"steppe","name":"Principality of Hungary, 882 – 971"},"geometry":{"type":"Polygon","coordinates":[[[13.85,48.75],[14.0333333,48.6333333],[14.2166667,48.5166667],[14.4,48.4],[14.5,48.2],[14.6,47.8],[14.75,47.6],[14.9,47.4],[15.0333333,47.2666667],[15.1666667,47.1333333],[15.3,47],[15.3666667,46.8333333],[15.4333333,46.6666667],[15.5,46.5],[15.95,46.475],[16.175,46.4625],[16.4,46.45],[16.6,46.35],[16.8,46.2833333],[17,46.2166667],[17.2,46.15],[17.4,46.0666667],[17.6,45.9833333],[17.8,45.9],[18.4,45.75],[18.5666667,45.6833333],[18.7333333,45.6166667],[18.9,45.55],[19.0333333,45.4333333],[19.1666667,45.3166667],[19.3,45.2],[19.5,45.1333333],[19.7,45.0666667],[20.1,44.9333333],[20.3,44.8666667],[20.5,44.8],[20.725,44.7875],[20.95,44.775],[21.175,44.7625],[21.4,44.75],[21.6,44.7],[21.8,44.65],[22,44.6],[22.2,44.5833333],[22.4,44.5666667],[22.6,44.55],[22.7,44.7125],[22.8,44.875],[23,45.2],[24,45.4],[24.2166667,45.4166667],[24.4333333,45.4333333],[24.65,45.45],[24.8666667,45.4666667],[25.0833333,45.4833333],[25.3,45.5],[25.65,45.65],[25.825,45.725],[26,45.8],[26,46.5],[25.75,46.85],[25.625,47.025],[25.5,47.2],[24.8,47.7],[24.5833333,47.75],[24.3666667,47.8],[24.15,47.85],[23.9333333,47.9],[23.7166667,47.95],[23.5,48],[23.3333333,48.1666667],[23.1666667,48.3333333],[22.8333333,48.6666667],[22.6666667,48.8333333],[22.5,49],[22.2857143,49.0571429],[22.0714286,49.1142857],[21.8571429,49.1714286],[21.6428571,49.2285714],[21.4285714,49.2857143],[21.2142857,49.3428571],[21,49.4],[19.5,49.4],[19.3,49.38],[19.1,49.36],[18.9,49.34],[18.7,49.32],[18.5,49.3],[18.1,49.14],[17.9,49.06],[17.8888889,49.0555556],[17.7,48.98],[17.5,48.9],[17.3166667,48.8],[16.95,48.6],[16.2,48.75],[16,48.7833333],[15.8,48.8166667],[15.6,48.85],[15.4,48.8833333],[15.2,48.9166667],[15,48.95],[14.8,48.8333333],[14.6,48.7166667],[14.4057416,48.6033493],[14.4,48.6],[14.356,48.612],[14.2166667,48.65],[14.0333333,48.7],[13.85,48.75]]]}}
