{"type":"Feature","properties":{"family":"norway","name":"Iceland, under Norway, 1261 – 1349"},"geometry":{"type":"Polygon","coordinates":[[[-25.1890695,65.5260275],[-25.1854705,65.4754102],[-25.1591919,65.4259601],[-25.1112775,65.3794089],[-25.0435049,65.3373778],[-24.9583105,65.3013237],[-24.858698,65.2724907],[-24.7481327,65.2518705],[-24.6304259,65.2401703],[-24.4428065,65.2289738],[-24.4425661,65.2288519],[-24.3454759,65.195552],[-24.2350365,65.1707036],[-24.1858117,65.1620665],[-24.315984,65.1381698],[-24.4224671,65.1131804],[-24.5155542,65.0801067],[-24.59186,65.0401716],[-24.6486559,64.9948458],[-24.6839643,64.9457902],[-24.6966184,64.8947932],[-24.6862882,64.8437034],[-24.6534743,64.7943624],[-24.5358558,64.6648122],[-24.4822234,64.6188815],[-24.4094439,64.5781046],[-24.320187,64.5439332],[-24.2089959,64.5087548],[-24.0924139,64.4794692],[-23.9641558,64.4615067],[-23.830028,64.4556786],[-23.6960793,64.462248],[-23.5391252,64.4772951],[-23.422549,64.4936422],[-23.3154096,64.5193745],[-23.2461264,64.5446527],[-22.9958259,64.5398394],[-22.9933041,64.537322],[-22.9568165,64.5143279],[-22.9478269,64.489938],[-22.9061695,64.4408853],[-22.8463635,64.3982017],[-22.843563,64.3935483],[-22.7943469,64.3510512],[-22.8727582,64.3449696],[-22.9880644,64.3251216],[-23.0917924,64.2956937],[-23.179771,64.257882],[-23.2485094,64.2132177],[-23.2953361,64.1635015],[-23.3184946,64.1107272],[-23.3412547,63.9991846],[-23.3407697,63.9490175],[-23.3329088,63.9311033],[-23.3418613,63.8918197],[-23.3287749,63.8370041],[-23.2911564,63.7577978],[-23.2574238,63.7095286],[-23.2040977,63.6648755],[-23.1331113,63.6253843],[-23.0469791,63.5924163],[-22.9487055,63.5671037],[-22.8416823,63.5503132],[-22.7295775,63.5426185],[-22.6162183,63.5442825],[-22.5054714,63.5552486],[-22.2491814,63.5917412],[-21.3919098,63.5794646],[-21.271891,63.5826422],[-21.2574086,63.5843355],[-21.1332245,63.5509796],[-21.0584902,63.5348739],[-20.9926549,63.5143693],[-20.9638233,63.498772],[-20.9008769,63.4705575],[-20.9057373,63.4517961],[-20.8967507,63.4000218],[-20.8815675,63.3612471],[-20.8507971,63.3112682],[-20.7994434,63.2648406],[-20.729474,63.2236581],[-20.6435034,63.1892164],[-20.544693,63.1627617],[-20.4366365,63.145248],[-20.3232357,63.1373059],[-20.2085687,63.1392206],[-20.0967557,63.1509236],[-19.9918227,63.1719942],[-19.897568,63.2016735],[-19.8174329,63.2388899],[-19.7946125,63.2546178],[-19.5941079,63.2047363],[-19.500195,63.1857814],[-19.40056,63.1742971],[-18.8368474,63.1308008],[-18.7039556,63.127018],[-18.5724598,63.1365255],[-18.0262644,63.2034571],[-17.9131819,63.2227029],[-17.8107911,63.2517191],[-17.7866551,63.2621048],[-17.7017722,63.2806655],[-17.598637,63.3092182],[-17.5101324,63.3464367],[-17.4398529,63.3908361],[-17.3307697,63.4765509],[-17.300909,63.5065765],[-17.1550758,63.5331644],[-17.0784494,63.5231965],[-16.9606628,63.5184735],[-16.8430441,63.52396],[-16.7751399,63.5332759],[-16.6935739,63.5358221],[-16.5781555,63.5498495],[-16.4710187,63.5736309],[-16.3762675,63.606261],[-16.2983282,63.6461057],[-16.2934921,63.6467585],[-16.1889492,63.665684],[-16.0939259,63.6927966],[-16.0116544,63.727183],[-15.6101501,63.9269948],[-15.2794886,63.9993045],[-15.1699258,63.9991694],[-14.8240694,64.012554],[-14.7064086,64.0220243],[-14.5950161,64.0411937],[-14.4940014,64.0693575],[-14.4071217,64.1054781],[-14.3376483,64.1482205],[-14.3336944,64.1520511],[-14.3001589,64.1567984],[-14.2014933,64.179963],[-14.1138456,64.2104419],[-14.0400641,64.2472584],[-13.9825801,64.2892289],[-13.9433273,64.3349983],[-13.8918929,64.4166395],[-13.8404822,64.4469381],[-13.7978577,64.4780097],[-13.779695,64.4865779],[-13.6751354,64.5065197],[-13.5718038,64.5381056],[-13.4940504,64.5738254],[-13.420274,64.5966711],[-13.3347891,64.6362714],[-13.2691727,64.6823374],[-13.2575229,64.6960801],[-13.2375629,64.7066559],[-13.1801752,64.7532942],[-13.1558021,64.7882803],[-13.1193666,64.8151319],[-13.1070848,64.8308162],[-13.0554884,64.857411],[-12.9972377,64.9028499],[-12.9771227,64.9297599],[-12.9605561,64.9386245],[-12.9008058,64.98995],[-12.8678261,65.0454421],[-12.8632594,65.1026221],[-12.879073,65.1938712],[-12.899579,65.2444663],[-12.9238832,65.2715536],[-12.9232901,65.2788885],[-12.9428876,65.3300344],[-12.9856691,65.3786635],[-13.0049732,65.3919415],[-12.9712562,65.4632328],[-12.9589919,65.5147434],[-12.9706986,65.5662761],[-13.0060834,65.6159279],[-13.0639629,65.6618546],[-13.1422882,65.7023407],[-13.2466438,65.7465629],[-13.3508326,65.7822545],[-13.3555504,65.783281],[-13.3678997,65.7908332],[-13.4585178,65.8278914],[-13.5651827,65.8569938],[-13.6838029,65.8770107],[-13.7171004,65.8811135],[-13.7184367,65.8830333],[-13.7790723,65.9308563],[-13.8620391,65.9727704],[-13.9575991,66.0049027],[-13.9566311,66.018812],[-13.9813739,66.073967],[-14.0338579,66.1258392],[-14.1139026,66.1858957],[-14.0299162,66.2219063],[-13.9589952,66.2679834],[-13.9121663,66.3188211],[-13.8914489,66.3723887],[-13.8978431,66.4265336],[-13.931263,66.4790661],[-13.9905128,66.5278486],[-14.0733097,66.5708837],[-14.1763577,66.6063998],[-14.2954718,66.6329278],[-14.4257505,66.6493661],[-14.5617882,66.6550302],[-14.9257,66.6550378],[-15.0556438,66.6498737],[-15.1805871,66.6348701],[-15.2848968,66.612899],[-15.2968384,66.6241466],[-15.3688008,66.6667637],[-15.4600768,66.7031626],[-15.5900222,66.7457311],[-15.6947982,66.7738624],[-15.8111404,66.7937963],[-15.9349541,66.8048272],[-16.0618559,66.8065637],[-16.1873424,66.798944],[-16.7436001,66.7426408],[-16.8730304,66.7235124],[-16.9898093,66.6943921],[-17.0890768,66.6565047],[-17.1667625,66.6114372],[-17.2197517,66.5610685],[-17.2460016,66.5074862],[-17.2454772,66.4870299],[-17.3029404,66.4837457],[-17.4245759,66.4668704],[-17.5357733,66.4410105],[-17.6324227,66.4071308],[-17.6468437,66.3996847],[-17.7759475,66.4164501],[-18.1504907,66.4471651],[-18.2754873,66.4524335],[-18.400745,66.4482532],[-18.4942548,66.4378489],[-18.5256868,66.4441795],[-18.6507343,66.4633362],[-18.7829049,66.4721486],[-18.9168407,66.4702591],[-19.0471056,66.4577444],[-19.0538404,66.4564915],[-19.1645405,66.4461009],[-19.2899643,66.4225988],[-19.4239489,66.3902215],[-19.5337474,66.3569392],[-19.6067447,66.3233304],[-19.6198973,66.3214035],[-19.6932007,66.3482313],[-19.8014805,66.3747857],[-19.9204549,66.3926272],[-20.0457814,66.4011021],[-20.1728639,66.3998992],[-20.2970356,66.3890629],[-20.6130997,66.3481232],[-20.7341148,66.3267512],[-20.8421137,66.2962055],[-20.9328641,66.2576985],[-20.9690996,66.2344561],[-20.9726018,66.2352305],[-20.9825511,66.2416799],[-21.0633439,66.2839456],[-21.1634875,66.318931],[-21.1710948,66.320667],[-21.2344713,66.3586628],[-21.3300157,66.3965199],[-21.4053957,66.4162238],[-21.4241327,66.4273402],[-21.5139815,66.4701544],[-21.6242792,66.5045862],[-21.6966489,66.5187001],[-21.8782733,66.6212443],[-21.9695483,66.6626812],[-22.0804233,66.6958463],[-22.2062376,66.7193252],[-22.3416412,66.7321135],[-22.3743858,66.7338197],[-22.5144444,66.7353149],[-22.527858,66.7343522],[-22.5719695,66.7360993],[-22.7027392,66.7312242],[-22.7625414,66.7242177],[-22.7979311,66.7290444],[-22.9355685,66.736013],[-23.0739065,66.7317276],[-23.2070507,66.7163711],[-23.3284527,66.690787],[-23.3398818,66.6898151],[-23.4593961,66.6696002],[-23.566795,66.6406923],[-23.658116,66.6041713],[-23.7300392,66.5613961],[-23.780007,66.5139506],[-23.8063079,66.4635823],[-23.8065143,66.4577361],[-23.8269394,66.4297839],[-23.8409933,66.4266809],[-23.9452284,66.3908471],[-24.085512,66.3313117],[-24.1131321,66.3168618],[-24.1468466,66.3053428],[-24.2268024,66.2650643],[-24.2274768,66.264545],[-24.2408818,66.2597019],[-24.3178376,66.218727],[-24.3738875,66.1725908],[-24.4337401,66.1081857],[-24.4659246,66.0604936],[-24.473517,66.0234837],[-24.5252686,66.0085609],[-24.5685525,65.9932425],[-24.6575606,65.9547708],[-24.7261778,65.9099364],[-24.7718393,65.860489],[-24.7890313,65.8179582],[-24.8289148,65.7997007],[-25.0652782,65.6671797],[-25.1280115,65.6236457],[-25.1697312,65.5760296],[-25.1890695,65.5260275]],[[-23.2472325,64.8301042],[-23,64.803155],[-22.7360274,64.7743811],[-23,64.803155],[-23.2472325,64.8301042]],[[-23.2364324,65.0006505],[-23.2362937,65],[-23.2256323,64.9499932],[-23.2362937,65],[-23.2364324,65.0006505]],[[-23.1608316,64.9533703],[-23.10284,65],[-23.10284,65],[-23.1608316,64.9533703]],[[-23.0744307,65.5376181],[-23,65.5545106],[-22.9628296,65.5629467],[-23,65.5545106],[-23.0744307,65.5376181]],[[-23.0405719,65],[-23.0204302,65.0124705],[-23.0405719,65],[-23.0405719,65]],[[-23.0276303,66.1083572],[-23,66.0676263],[-22.9772298,66.0340598],[-23,66.0676263],[-23.0276303,66.1083572]],[[-23,65.0059369],[-23,65.0059369],[-22.9814358,65],[-22.9412294,64.9871419],[-22.9814358,65],[-23,65.0059369]],[[-22.9091608,65],[-22.7180272,65.0766365],[-22.9091608,65],[-22.9091608,65]],[[-22.6892269,65.034422],[-22.6204261,65],[-22.6204261,65],[-22.6892269,65.034422]],[[-22.6084047,65],[-22.6084047,65],[-22.5812258,64.9803876],[-22.6084047,65]],[[-21.1700117,63.876058],[-21,63.8304906],[-20.8172082,63.7814977],[-21,63.8304906],[-21.1700117,63.876058]],[[-21.0548105,65.4515006],[-21,65.3941507],[-20.9612096,65.3535631],[-21,65.3941507],[-21.0548105,65.4515006]],[[-19.0783908,66.1590145],[-19,66.1778957],[-18.9451895,66.1910975],[-19,66.1778957],[-19.0783908,66.1590145]],[[-17.0299703,63.8490408],[-17,63.820926],[-16.9867699,63.8085149],[-17,63.820926],[-17.0299703,63.8490408]],[[-17.00477,63.7983835],[-17,63.8010683],[-16.9867699,63.8085149],[-17,63.8010683],[-17.00477,63.7983835]],[[-17,63.8584124],[-17,63.8584124],[-16.9651697,63.8693037],[-17,63.8584124]],[[-15.1795518,66.1117343],[-15,66.1724816],[-14.9599496,66.1860317],[-15,66.1724816],[-15.1795518,66.1117343]],[[-15.1075511,64.3015795],[-15,64.2789302],[-15,64.2789302],[-15.1075511,64.3015795]],[[-15.1075511,66.2789035],[-15,66.3412194],[-14.9239492,66.3852838],[-15,66.3412194],[-15.1075511,66.2789035]],[[-15.0751508,66.049257],[-15,66.0452772],[-15,66.0452772],[-15.0751508,66.049257]],[[-15.0139501,66.268772],[-15,66.2604443],[-14.9347493,66.2214918],[-15,66.2604443],[-15.0139501,66.268772]],[[-15.0139501,66.268772],[-15,66.2796774],[-14.9923499,66.2856578],[-15,66.2796774],[-15.0139501,66.268772]],[[-13.9195392,65.0141591],[-13.8811192,65],[-13.8811192,65],[-13.9195392,65.0141591]],[[-13.7956368,65],[-13.7956368,65],[-13.7827378,64.9888304],[-13.7956368,65]]]}}
