{"type":"Feature","properties":{"family":"islam","name":"Idrisid emirate, 843 – 864"},"geometry":{"type":"Polygon","coordinates":[[[-10.2007768,30.6379743],[-10.192737,30.5868228],[-10.1735265,30.5379348],[-10.143864,30.4930978],[-10.1048462,30.4539489],[-10.0579061,30.4219159],[-9.9354059,30.3535277],[-9.9338857,30.3511997],[-9.9558992,30.2061288],[-10.0054218,30.1197992],[-10.0263782,30.0725197],[-10.0367405,30.0226951],[-10.0361597,29.9720839],[-10.0246732,29.9224695],[-10.0027014,29.8755973],[-9.9710303,29.833114],[-9.9307827,29.7965101],[-9.8873101,29.7695105],[-9.8868968,29.769934],[-9.8190982,29.839406],[-9.7403209,29.9759606],[-9.7403209,29.9759606],[-9.7403171,29.9759672],[-9.7264527,30],[-9.7264527,30],[-9.6534965,30.1264641],[-9.7264527,30],[-2,30],[-1.9428571,30.2142857],[-1.8857143,30.4285714],[-1.8285714,30.6428571],[-1.7714286,30.8571429],[-1.7142857,31.0714286],[-1.6571429,31.2857143],[-1.6,31.5],[-1.5571429,31.7142857],[-1.5142857,31.9285714],[-1.4714286,32.1428571],[-1.4285714,32.3571429],[-1.3857143,32.5714286],[-1.3428571,32.7857143],[-1.3,33],[-1.25,33.2166667],[-1.2,33.4333333],[-1.1,33.8666667],[-1.05,34.0833333],[-1,34.3],[-0.85,35.2],[-0.8125,35.4],[-0.775,35.6],[-0.7474178,35.7471053],[-0.7167801,35.7312978],[-0.7145735,35.7430415],[-0.7142143,35.7482174],[-0.7150828,35.7533524],[-0.717147,35.7582565],[-0.7203309,35.7627484],[-0.7245168,35.766662],[-0.7294791,35.7698074],[-0.6843368,35.746517],[-0.6393767,35.74886],[-0.5519886,35.7969237],[-0.5123228,35.8977907],[-0.5099322,35.9023592],[-0.5065486,35.9064952],[-0.5022863,35.9100586],[-0.4972895,35.9129286],[-0.4917275,35.9150081],[-0.4917275,35.9150081],[-0.4891073,35.9155457],[-0.5182357,35.9427348],[-0.5682668,35.9744505],[-0.6219401,36.0021786],[-0.6829503,36.0269367],[-0.7489609,36.0410846],[-0.817178,36.0440226],[-0.8847112,36.0356254],[-0.9486996,36.0162481],[-1.1796389,35.9231189],[-1.2469503,35.8869951],[-1.3982736,35.7820477],[-1.45017,35.7365784],[-1.4878646,35.6826953],[-1.5445942,35.5739451],[-1.6315595,35.5460071],[-1.6763392,35.5283221],[-1.7173428,35.5053697],[-1.9238595,35.3696477],[-2.0010022,35.3482071],[-2.1339352,35.3549211],[-2.0908355,35.3426337],[-2.0294029,35.3190013],[-1.9752275,35.2856036],[-1.9306019,35.2438606],[-1.8974042,35.1955445],[-1.87702,35.142703],[-1.8750814,35.126831],[-1.961047,35.1029368],[-2.197882,35.1149414],[-2.1918207,35.1141598],[-2.1859756,35.1124415],[-2.1806282,35.109857],[-2.1759685,35.1064981],[-2.1721616,35.102484],[-2.1693425,35.0979572],[-2.167611,35.0930782],[-2.1670285,35.0880202],[-2.1670292,35.0863535],[-2.2,35.0880253],[-2.2230222,35.0891927],[-2.2,35.0880253],[-2.2,34.95],[-3.3,34.8],[-3.52,34.81],[-3.74,34.82],[-3.96,34.83],[-4.18,34.84],[-4.4,34.85],[-4.8,34.95],[-5,35],[-5.2,35.05],[-5.2,35.5],[-5.156876,35.4985625],[-5.1348108,35.4784722],[-5.1348108,35.4784722],[-5.156876,35.4985625],[-5.156876,35.4985625],[-5.0670507,35.4167767],[-5.156876,35.4985625],[-5.156876,35.4985625],[-5.156876,35.4985625],[-5.1601168,35.5015133],[-5.1649129,35.5058801],[-5.183616,35.5229092],[-5.1876572,35.5265887],[-5.155514,35.5255174],[-5.1489656,35.5247603],[-5.1427324,35.5229601],[-5.1370627,35.5201883],[-5.1322089,35.5165752],[-5.2199267,35.5964711],[-5.2433062,35.6906077],[-5.2450651,35.6953685],[-5.2478693,35.6997863],[-5.251624,35.7037111],[-5.2562016,35.7070095],[-5.2614468,35.7095695],[-5.2882537,35.7200508],[-5.2938012,35.7574463],[-5.2532383,35.7662851],[-5.1864936,35.7695516],[-5.1432247,35.7681105],[-5.0728124,35.7595415],[-5.0062918,35.7389674],[-4.9467377,35.7073405],[-4.9063822,35.6803385],[-4.9901701,35.7860658],[-4.9799528,35.8002324],[-4.958215,35.8527191],[-4.9501284,35.9076981],[-4.9560608,35.9628564],[-4.9757903,36.0158693],[-5.0085096,36.0644978],[-5.0105892,36.0664762],[-5.0166109,36.046771],[-5.0378289,35.9979176],[-5.0701538,35.9532305],[-5.1123827,35.9143469],[-5.1629568,35.8826894],[-5.2200188,35.8594142],[-5.227925,35.8576098],[-5.2423167,35.8478898],[-5.2970626,35.8232561],[-5.3032375,35.8210568],[-5.3032391,35.8210671],[-5.3060577,35.8400676],[-5.2561406,35.8956467],[-5.2527054,35.9004328],[-5.2505479,35.9056863],[-5.249759,35.9111861],[-5.2503723,35.9167005],[-5.2523623,35.9219974],[-5.2556453,35.9268534],[-5.2600832,35.9310642],[-5.2654892,35.9344521],[-5.2716355,35.9368744],[-5.2782632,35.938229],[-5.3935015,35.951742],[-5.3993527,35.9520034],[-5.4051699,35.9514302],[-5.4107728,35.9500401],[-5.415988,35.9478761],[-5.6070656,35.8502542],[-5.6883559,35.8605154],[-5.6944708,35.8608223],[-5.7005513,35.8602148],[-5.7063911,35.8587135],[-5.711792,35.8563693],[-5.7804207,35.8195801],[-5.8520297,35.8142341],[-5.8520312,35.814234],[-6.0340912,35.9196951],[-6.0589553,35.9210996],[-6.1237646,35.9300054],[-6.1851646,35.9490199],[-6.1870524,35.9499835],[-6.1870539,35.9499817],[-6.2191664,35.9112889],[-6.2433268,35.8660673],[-6.5953771,34.9865702],[-7.0761033,34.2225494],[-7.6825502,33.8721757],[-8.4025593,33.641934],[-8.4562475,33.619587],[-8.5040283,33.5893605],[-8.5738599,33.5359188],[-8.6349141,33.524082],[-8.6943332,33.5012671],[-8.7469926,33.4689336],[-8.7907331,33.4284131],[-9.1101056,33.062306],[-9.4795648,32.7738629],[-9.5209375,32.7343555],[-9.5523596,32.6888383],[-9.5726453,32.6390532],[-9.581039,32.5869018],[-9.5955057,32.2567643],[-9.6387281,32.1708817],[-9.9080784,31.9068346],[-9.9554413,31.8446139],[-10.1346064,31.5166419],[-10.154676,31.4680652],[-10.1635328,31.4171284],[-10.1608721,31.3656916],[-10.1468097,31.31563],[-10.1361129,31.2955324],[-10.1595614,31.1608937],[-10.1611657,31.0922215],[-10.1319462,30.8602656],[-10.1825149,30.7395575],[-10.1973335,30.6895161],[-10.2007768,30.6379743]]]}}
