{"type":"Feature","properties":{"family":"celts","name":"Irish kingdoms, 843 – 901"},"geometry":{"type":"Polygon","coordinates":[[[-10.9172638,52.1426629],[-10.905645,52.0905386],[-10.8778243,52.0407879],[-10.8378409,51.9868914],[-10.8135185,51.9606873],[-10.8166009,51.9557707],[-10.8312225,51.9019964],[-10.8280086,51.8475106],[-10.8071547,51.7945373],[-10.7523826,51.6984846],[-10.7154083,51.6496451],[-10.663594,51.6063289],[-10.59903,51.5702508],[-10.5770323,51.5621901],[-10.5765562,51.5590145],[-10.5512615,51.5070914],[-10.5098564,51.4593585],[-10.4540494,51.4177305],[-10.3861085,51.3838724],[-10.3087681,51.3591354],[-10.225121,51.3445045],[-10.2179383,51.3441801],[-10.2135783,51.336059],[-10.1702867,51.2892428],[-10.1130257,51.248743],[-10.0441035,51.2161684],[-9.9662729,51.1928099],[-9.8826239,51.1795916],[-9.7964654,51.177036],[-9.7112001,51.1852441],[-9.6301975,51.203892],[-9.5543758,51.2269148],[-9.4815387,51.2112414],[-9.4010323,51.203993],[-9.3197844,51.2063049],[-9.1658729,51.2197316],[-9.0898058,51.2307627],[-9.0181102,51.2501684],[-8.9746569,51.2683285],[-8.9519294,51.266388],[-8.8716821,51.2689186],[-8.7935444,51.2806708],[-8.7201873,51.3012434],[-8.7069763,51.3069867],[-8.7028577,51.3067024],[-8.622078,51.310624],[-8.5438555,51.3238646],[-8.4816572,51.3427123],[-8.4709556,51.3429839],[-8.389946,51.3549961],[-8.3140655,51.3764444],[-8.2460986,51.4065443],[-8.1885535,51.4441933],[-8.1435713,51.4880091],[-8.1383396,51.4962532],[-8.0335307,51.5502746],[-7.9526594,51.5580473],[-7.8520433,51.5755448],[-7.7609522,51.6074105],[-7.635232,51.6645424],[-7.5940309,51.6876611],[-7.5816309,51.6895085],[-7.5062085,51.7107118],[-7.3734749,51.7577436],[-7.3006364,51.789999],[-7.2398774,51.8307509],[-7.2129424,51.8585413],[-7.1496319,51.8630987],[-7.1243658,51.8607955],[-7.0365519,51.8638531],[-7.0260877,51.8617748],[-6.9437919,51.8555583],[-6.8610745,51.859],[-6.780863,51.8719778],[-6.7060012,51.8940323],[-6.6391524,51.9243815],[-6.628541,51.931451],[-6.403731,51.9176341],[-6.3127464,51.9177845],[-6.2237481,51.9294745],[-6.1405239,51.9522069],[-6.0666279,51.9850138],[-6.0052354,52.0264959],[-5.9590091,52.0748797],[-5.9190223,52.1287766],[-5.890687,52.1798896],[-5.8794707,52.2334403],[-5.885884,52.2872891],[-5.9073266,52.3340366],[-5.839039,52.3966984],[-5.796588,52.4458512],[-5.771477,52.4992586],[-5.7648301,52.554667],[-5.7682851,52.6240016],[-5.7226686,52.7019926],[-5.6066002,52.8211689],[-5.5713042,52.8663463],[-5.5503517,52.914675],[-5.5445061,52.9645057],[-5.55402,53.0141321],[-5.5786183,53.0618491],[-5.5871836,53.0715861],[-5.5852488,53.0818534],[-5.5861755,53.1471146],[-5.613248,53.2103303],[-5.6433136,53.2562846],[-5.6405978,53.2103909],[-5.6467758,53.1552937],[-5.6714936,53.1021013],[-5.7136548,53.053031],[-5.7714523,53.0101211],[-5.8424506,52.9751484],[-5.9236893,52.9495573],[-5.9533199,52.9444613],[-5.9500845,52.9486473],[-5.9480297,52.9534871],[-5.9474911,52.9584723],[-5.9484878,52.9634318],[-5.950986,52.9681956],[-5.9549006,52.9726003],[-6.0035524,53.0168588],[-5.9871718,53.1085008],[-5.9873255,53.1150268],[-5.9900863,53.1213396],[-6.0488473,53.2099571],[-6.0464226,53.204914],[-6.0456751,53.1996803],[-6.0466347,53.1944591],[-6.0466347,53.1944591],[-6.0492644,53.1894482],[-6.053464,53.1848374],[-6.059074,53.1808014],[-6.0658817,53.177493],[-6.0736291,53.1750373],[-6.0740803,53.1749562],[-6.090711,53.2],[-6.090711,53.2],[-6.100261,53.2143811],[-6.090711,53.2],[-6.2,53.2],[-6.45,53.3],[-6.4531646,53.3075949],[-6.5,53.42],[-6.35,53.55],[-6.1663955,53.6142616],[-6.0786608,53.5554737],[-6.1663955,53.6142616],[-6.1971064,53.6348398],[-6.1894552,53.6375183],[-6.1813464,53.6397426],[-6.1726601,53.6409842],[-6.163732,53.6411949],[-6.1549066,53.6403667],[-6.146525,53.6385316],[-6.1389107,53.6357604],[-6.1323576,53.6321601],[-6.0502247,53.5770962],[-6.1850264,53.6674924],[-6.1985486,53.8655829],[-6.1996419,53.8704535],[-6.2022158,53.8751264],[-6.2061852,53.8794464],[-6.2095983,53.8819401],[-6.1396054,53.8835922],[-6.0508629,53.8752631],[-5.9666565,53.8568128],[-5.8902824,53.828965],[-5.831672,53.7966475],[-5.8247139,53.7928108],[-5.7424688,53.7374005],[-5.7804802,53.7630713],[-5.7834705,53.8141658],[-5.7532952,53.8258353],[-5.6095662,53.8930395],[-5.5476347,53.9278876],[-5.4976996,53.9688938],[-5.4902219,53.9783594],[-5.4827861,53.9796487],[-5.4006539,54.0053507],[-5.3289103,54.040216],[-5.2497016,54.0872819],[-5.2471036,54.0891478],[-5.1941552,54.1271768],[-5.1524544,54.1725141],[-5.1505773,54.1751212],[-5.1267501,54.1930252],[-5.0870119,54.2384694],[-5.0031327,54.3614369],[-4.9958986,54.3760854],[-4.99589,54.3761028],[-5.0592035,54.3895382],[-5.1559553,54.4163961],[-5.2304557,54.4422214],[-5.295491,54.475625],[-5.3487947,54.5154559],[-5.388489,54.5603379],[-5.4131516,54.6087156],[-5.4173867,54.6331114],[-5.5261397,54.7134581],[-5.5758432,54.758638],[-5.6092085,54.8085813],[-5.6248694,54.8613362],[-5.6407747,54.9912926],[-5.6379879,55.0377099],[-5.6379876,55.037714],[-5.6521243,55.037444],[-5.8166025,55.044153],[-5.9077241,55.0529838],[-5.9278428,55.0573608],[-5.9297844,55.0621251],[-5.9297844,55.0621251],[-5.9340256,55.0672735],[-5.9400604,55.0717972],[-5.9476202,55.0754943],[-5.9563683,55.0782001],[-6.0084769,55.0904317],[-5.9887772,55.1639917],[-5.9882623,55.1690462],[-5.9894098,55.1740664],[-5.99218,55.1788755],[-5.9964757,55.1833041],[-6.002146,55.1871959],[-6.0885471,55.2361878],[-6.0963896,55.2397687],[-6.1053831,55.2423237],[-6.1151211,55.2437372],[-6.1553928,55.2470324],[-6.1545013,55.247647],[-6.1499904,55.2525021],[-6.1283624,55.2828888],[-6.125825,55.2876889],[-6.1248901,55.2926734],[-6.1255906,55.2976702],[-6.127903,55.3025066],[-6.131748,55.3070158],[-6.1369931,55.3110417],[-6.1434574,55.3144454],[-6.1509178,55.3171091],[-6.1601366,55.319752],[-6.160137,55.3197521],[-6.2157475,55.3356947],[-6.2244425,55.3376005],[-6.2244425,55.3376005],[-6.2336256,55.3385017],[-6.2429417,55.3383634],[-6.2520304,55.337191],[-6.2605401,55.3350298],[-6.3073593,55.3198238],[-6.3150198,55.3167221],[-6.3214533,55.3128208],[-6.3237858,55.3106797],[-6.3237865,55.3106791],[-6.3237895,55.3106763],[-6.3237896,55.3106762],[-6.3237896,55.3106762],[-6.3264068,55.3082737],[-6.3237896,55.3106762],[-6.3237896,55.3106762],[-6.3237895,55.3106763],[-6.3237865,55.3106791],[-6.384432,55.3142593],[-6.4763082,55.3307573],[-6.5605261,55.3574291],[-6.6336483,55.3931919],[-6.6876214,55.4328863],[-6.7645847,55.4555868],[-6.8375448,55.4887078],[-6.8977983,55.5292465],[-6.9093856,55.5411423],[-6.9094597,55.5411667],[-6.9095211,55.541187],[-6.9095307,55.5411901],[-7.1476724,55.619659],[-7.2321029,55.6413286],[-7.3224235,55.6533159],[-7.4151678,55.6551605],[-7.5067707,55.6467913],[-7.5937136,55.6285299],[-7.672667,55.6010773],[-7.7406243,55.5654855],[-7.7878361,55.5287175],[-7.8068499,55.525474],[-7.8098403,55.5256027],[-7.9022007,55.5192788],[-7.990568,55.5028498],[-8.03481,55.4887072],[-8.0651637,55.4870766],[-8.1519806,55.4726203],[-8.232314,55.4490589],[-8.272363,55.4311096],[-8.2787606,55.4311062],[-8.3711124,55.4258787],[-8.4598556,55.4105019],[-8.541549,55.3855732],[-8.6130395,55.3520595],[-8.6715891,55.3112579],[-8.7149803,55.2647432],[-8.720152,55.254954],[-8.7919046,55.2324648],[-8.8613543,55.1994126],[-8.9183883,55.159391],[-8.9183883,55.159391],[-8.9578061,55.1254946],[-9.0011901,55.0786992],[-9.0276805,55.027947],[-9.0363151,54.9752055],[-9.0292066,54.9357281],[-9.0803637,54.9132525],[-9.1471392,54.877399],[-9.2004495,54.8347552],[-9.2382947,54.7869569],[-9.2592842,54.7358317],[-9.2626825,54.6833272],[-9.258641,54.6445051],[-9.2441634,54.5920774],[-9.2317104,54.5726365],[-9.7367452,54.6054958],[-9.8384054,54.6053894],[-9.937554,54.5924293],[-10.0092055,54.5727871],[-10.0180801,54.5730646],[-10.1053431,54.566124],[-10.188727,54.5497177],[-10.2651957,54.5244445],[-10.3319791,54.4912252],[-10.4471379,54.4216792],[-10.5038229,54.3796832],[-10.5450802,54.3319923],[-10.5693343,54.2804921],[-10.5756942,54.2272115],[-10.5660299,54.1835254],[-10.6071034,54.1615789],[-10.6611572,54.1182344],[-10.6993924,54.0694638],[-10.7203407,54.0172135],[-10.7232348,53.9635612],[-10.7080289,53.9106325],[-10.6753895,53.8605162],[-10.6266594,53.8151833],[-10.5637966,53.7764104],[-10.4948372,53.7480007],[-10.5335422,53.7246799],[-10.5831931,53.6793036],[-10.6164744,53.6289669],[-10.6321005,53.5757052],[-10.629509,53.5216642],[-10.6126042,53.4785447],[-10.6205109,53.4620891],[-10.6281322,53.4113067],[-10.6195879,53.360577],[-10.595239,53.3117087],[-10.5560027,53.2664378],[-10.5033125,53.2263675],[-10.4390634,53.1929128],[-10.3655422,53.1672519],[-10.2853467,53.150287],[-10.2600522,53.1464896],[-10.2616102,53.1358302],[-10.2515236,53.0822813],[-10.2239631,53.0310002],[-10.1800818,52.9840214],[-10.1216644,52.9432027],[-10.0510511,52.9101534],[-9.9924279,52.8925907],[-10.2382392,52.7564824],[-10.2965468,52.7169131],[-10.3408485,52.671185],[-10.3694636,52.6210809],[-10.3813353,52.5685481],[-10.3770192,52.5252189],[-10.4302393,52.5062562],[-10.736953,52.3704913],[-10.736953,52.3704913],[-10.8012504,52.3354694],[-10.8530966,52.2934671],[-10.8905363,52.2460998],[-10.9121826,52.1951832],[-10.9172638,52.1426629]],[[-9.2358924,52.5811647],[-9.1496873,52.5973383],[-9,52.6254223],[-8.891298,52.6458167],[-8.8483854,52.6538679],[-8.7498875,52.6723478],[-8.8483854,52.6538679],[-8.891298,52.6458167],[-9,52.6254223],[-9.1496873,52.5973383],[-9.2358924,52.5811647]],[[-9.1206912,51.5629526],[-9,51.5455342],[-9,51.5455342],[-9.1206912,51.5629526]],[[-9.0450905,53.1738553],[-9.0444949,53.1738902],[-9,53.176499],[-8.9997882,53.1765114],[-8.9874899,53.1772324],[-8.9997882,53.1765114],[-9,53.176499],[-9.0444949,53.1738902],[-9.0450905,53.1738553]],[[-9.0234902,53.2751699],[-9,53.2711634],[-9,53.2711634],[-9.0234902,53.2751699]],[[-9,53.2392635],[-9,53.2392635],[-8.9442894,53.2616613],[-9,53.2392635]],[[-8.4582846,55.0025845],[-8.4539798,55],[-8.4539798,55],[-8.4582846,55.0025845]],[[-7.6806768,54.9536157],[-7.5902622,55],[-7.5902622,55],[-7.6806768,54.9536157]],[[-7.6202434,55],[-7.5618756,55.0447989],[-7.6202434,55],[-7.6202434,55]],[[-7.1586716,55.1511793],[-7,55.2146227],[-7,55.2146227],[-7.1586716,55.1511793]],[[-7.0650707,55.0431103],[-7,55.1102566],[-6.9750698,55.1359821],[-7,55.1102566],[-7.0650707,55.0431103]],[[-7.0182702,52.1387574],[-7,52.1501835],[-6.9534695,52.1792833],[-7,52.1501835],[-7.0182702,52.1387574]],[[-6.2490208,55.2685834],[-6.246888,55.2685337],[-6.2389475,55.2544028],[-6.2384762,55.2537878],[-6.2431339,55.2541599],[-6.2490208,55.2685834]],[[-6.038787,53],[-6.038787,53],[-5.9922599,52.9577174],[-6.038787,53]],[[-5.9823677,55],[-5.9742597,55.0532418],[-5.9823677,55],[-5.9823677,55]]]}}
