{"type":"Feature","properties":{"family":"celts","name":"Irish kingdoms, 927 – 970"},"geometry":{"type":"Polygon","coordinates":[[[-10.9172638,52.1426629],[-10.905645,52.0905386],[-10.8778243,52.0407879],[-10.8378409,51.9868914],[-10.8135185,51.9606873],[-10.8166009,51.9557707],[-10.8312225,51.9019964],[-10.8280086,51.8475106],[-10.8071547,51.7945373],[-10.7523826,51.6984846],[-10.7154083,51.6496451],[-10.663594,51.6063289],[-10.59903,51.5702508],[-10.5770323,51.5621901],[-10.5765562,51.5590145],[-10.5765562,51.5590145],[-10.5512615,51.5070914],[-10.5098564,51.4593585],[-10.4540494,51.4177305],[-10.3861085,51.3838724],[-10.3087681,51.3591354],[-10.225121,51.3445045],[-10.2179383,51.3441801],[-10.2135783,51.336059],[-10.1702867,51.2892428],[-10.1130257,51.248743],[-10.0441035,51.2161684],[-9.9662729,51.1928099],[-9.8826239,51.1795916],[-9.7964654,51.177036],[-9.7112001,51.1852441],[-9.6301975,51.203892],[-9.5543758,51.2269148],[-9.4815387,51.2112414],[-9.4010323,51.203993],[-9.3197844,51.2063049],[-9.1658729,51.2197316],[-9.0898058,51.2307627],[-9.0181102,51.2501684],[-8.9746569,51.2683285],[-8.9519294,51.266388],[-8.8716821,51.2689186],[-8.7935444,51.2806708],[-8.7201873,51.3012434],[-8.7069763,51.3069867],[-8.7028577,51.3067024],[-8.622078,51.310624],[-8.5438555,51.3238646],[-8.5438555,51.3238646],[-8.4816572,51.3427123],[-8.4709556,51.3429839],[-8.389946,51.3549961],[-8.3140655,51.3764444],[-8.2460986,51.4065443],[-8.1885535,51.4441933],[-8.1435713,51.4880091],[-8.1383396,51.4962532],[-8.0335307,51.5502746],[-7.9526594,51.5580473],[-7.8520433,51.5755448],[-7.7609522,51.6074105],[-7.635232,51.6645424],[-7.5940309,51.6876611],[-7.5816309,51.6895085],[-7.5062085,51.7107118],[-7.3734749,51.7577436],[-7.3006364,51.789999],[-7.2398774,51.8307509],[-7.2087492,51.8628639],[-7.1681082,51.8662656],[-7.2070611,51.8701686],[-7.2479774,51.8793969],[-7.2889533,51.8834073],[-7.3657948,51.9003626],[-7.4362664,51.9257921],[-7.4979373,51.9588233],[-7.5416618,51.9928671],[-7.5040497,52.0430183],[-7.5011457,52.0482209],[-7.5000172,52.0536778],[-7.5007119,52.059162],[-7.5032015,52.0644456],[-7.5073831,52.0693089],[-7.509379,52.0707938],[-7.4240286,52.0985751],[-7.1856018,52.1050482],[-7.1782683,52.105622],[-7.1711951,52.1069429],[-7.1406589,52.114415],[-7.1406467,52.1144189],[-7.1483668,52.1130159],[-7.1563893,52.1125018],[-7.1644297,52.1128965],[-7.1722174,52.1141868],[-7.1952849,52.1194416],[-7.2049137,52.1225103],[-7.2249942,52.1309828],[-7.1874719,52.1320031],[-7.1874719,52.1320031],[-7.1569212,52.1394794],[-7.18,52.1447372],[-7.2214214,52.1622183],[-7.2532051,52.185],[-7.2731852,52.2115299],[-7.28,52.24],[-7.2731852,52.2684701],[-7.2532051,52.295],[-7.2214214,52.3177817],[-7.18,52.3352628],[-7.1317638,52.3462518],[-7.08,52.35],[-7.0282362,52.3462518],[-6.98,52.3352628],[-6.9385786,52.3177817],[-6.9067949,52.295],[-6.8868148,52.2684701],[-6.88,52.24],[-6.8868148,52.2115299],[-6.9067949,52.185],[-6.9107883,52.1821377],[-6.903069,52.172529],[-6.9135633,52.1553011],[-6.9153702,52.1553048],[-6.9240502,52.1564134],[-6.9271309,52.1572284],[-6.9755,52.1269889],[-6.9757661,52.1240421],[-6.9744866,52.1186853],[-6.9714917,52.1135932],[-6.9669025,52.1089705],[-6.9609041,52.1050033],[-6.953738,52.1018512],[-6.9456926,52.0996409],[-6.9370915,52.0984613],[-6.9282805,52.0983597],[-6.9196138,52.0993403],[-6.9114397,52.1013636],[-6.904087,52.1043484],[-6.7961033,52.1583572],[-6.7896324,52.1623423],[-6.7846481,52.1670639],[-6.7813675,52.1723168],[-6.7799338,52.1778728],[-6.7802188,52.1812361],[-6.589995,52.151463],[-6.5819335,52.1506736],[-6.5737734,52.1508117],[-6.5657954,52.1518726],[-6.4398841,52.1762265],[-6.4368317,52.1722034],[-6.4313999,52.1677475],[-6.4245946,52.1640693],[-6.4167053,52.1613249],[-6.408067,52.1596309],[-6.3990466,52.1590591],[-6.3594703,52.1590592],[-6.351099,52.1595508],[-6.3430331,52.1610105],[-6.335567,52.163385],[-6.3289735,52.1665877],[-6.3234937,52.1705014],[-6.3193279,52.1749833],[-6.2796886,52.2290041],[-6.2767714,52.2344644],[-6.2758078,52.2401793],[-6.2768424,52.2458898],[-6.2798288,52.2513366],[-6.2846322,52.2562728],[-6.2950844,52.2647933],[-6.2906535,52.2603274],[-6.2877045,52.25539],[-6.286376,52.2501963],[-6.2867181,52.2449435],[-6.288717,52.2398309],[-6.2922965,52.2350527],[-6.2973202,52.2307901],[-6.3035972,52.2272048],[-6.3332214,52.2133174],[-6.3416501,52.210344],[-6.3198632,52.2400721],[-6.3303699,52.2486314],[-6.36,52.2347372],[-6.4034126,52.2237482],[-6.45,52.22],[-6.4965874,52.2237482],[-6.54,52.2347372],[-6.5772792,52.2522183],[-6.6058846,52.275],[-6.6238666,52.3015299],[-6.63,52.33],[-6.6238666,52.3584701],[-6.6058846,52.385],[-6.5772792,52.4077817],[-6.54,52.4252628],[-6.4965874,52.4362518],[-6.45,52.44],[-6.4034126,52.4362518],[-6.36,52.4252628],[-6.34555,52.4184869],[-6.3211616,52.4410863],[-6.3185685,52.43987],[-6.3125139,52.4364343],[-6.3076148,52.4323715],[-6.3040421,52.4278237],[-6.3019204,52.4229499],[-6.3013231,52.4179205],[-6.3022708,52.4129112],[-6.3047298,52.4080969],[-6.3085945,52.4036678],[-6.3085723,52.4036843],[-6.1712241,52.5308586],[-6.1670091,52.5357859],[-6.1645417,52.5411339],[-6.1639273,52.5466759],[-6.1707063,52.6615105],[-6.0883264,52.8045511],[-6.1673896,52.6672693],[-6.10571,52.6463183],[-6.0378006,52.6105994],[-5.9832242,52.5672919],[-5.9441939,52.5181853],[-5.9222632,52.4653024],[-5.91827,52.410814],[-5.9235195,52.3542604],[-5.9146766,52.3389109],[-5.9019962,52.3069164],[-5.9097979,52.3298466],[-5.9106026,52.3310074],[-5.8390089,52.396726],[-5.7965745,52.4458717],[-5.7714739,52.4992694],[-5.7648301,52.554667],[-5.7676051,52.610369],[-5.5870269,52.8435198],[-5.5568635,52.8952886],[-5.5446391,52.9496691],[-5.5509259,53.0044169],[-5.5755328,53.0572635],[-5.5873038,53.0709484],[-5.5852488,53.0818534],[-5.5861755,53.1471146],[-5.613248,53.2103303],[-5.6433136,53.2562846],[-5.6405978,53.2103909],[-5.6467758,53.1552937],[-5.6714936,53.1021013],[-5.7136548,53.053031],[-5.7714523,53.0101211],[-5.8424506,52.9751484],[-5.9236893,52.9495573],[-5.9533199,52.9444613],[-5.9500845,52.9486473],[-5.9480297,52.9534871],[-5.9474911,52.9584723],[-5.9484878,52.9634318],[-5.950986,52.9681956],[-5.9549006,52.9726003],[-6.0035524,53.0168588],[-5.9871718,53.1085008],[-5.9873255,53.1150268],[-5.9900863,53.1213396],[-6.0488473,53.2099571],[-6.0464226,53.204914],[-6.0456751,53.1996803],[-6.0466347,53.1944591],[-6.0492644,53.1894482],[-6.053464,53.1848374],[-6.059074,53.1808014],[-6.0658817,53.177493],[-6.0736291,53.1750373],[-6.0740803,53.1749562],[-6.090711,53.2],[-6.090711,53.2],[-6.2,53.2],[-6.45,53.3],[-6.4531646,53.3075949],[-6.5,53.42],[-6.35,53.55],[-6.1663956,53.6142616],[-6.1971064,53.6348398],[-6.1894552,53.6375183],[-6.1813464,53.6397426],[-6.1726601,53.6409842],[-6.163732,53.6411949],[-6.1549066,53.6403667],[-6.146525,53.6385316],[-6.1389107,53.6357604],[-6.1323576,53.6321601],[-6.0502247,53.5770962],[-6.1850264,53.6674924],[-6.1985486,53.8655829],[-6.1996419,53.8704535],[-6.2022158,53.8751264],[-6.2061852,53.8794464],[-6.2114188,53.8832702],[-6.2095983,53.8819401],[-6.1396054,53.8835922],[-6.0508629,53.8752631],[-5.9666565,53.8568128],[-5.8902824,53.828965],[-5.8247139,53.7928108],[-5.7424688,53.7374005],[-5.7804802,53.7630713],[-5.7834705,53.8141658],[-5.7532952,53.8258353],[-5.6095662,53.8930395],[-5.5476347,53.9278876],[-5.4976996,53.9688938],[-5.4902219,53.9783594],[-5.4827861,53.9796487],[-5.4006539,54.0053507],[-5.3289103,54.040216],[-5.2497016,54.0872819],[-5.2471036,54.0891478],[-5.231492,54.1392647],[-5.1538396,54.296598],[-5.1234893,54.3419554],[-5.0795721,54.3833765],[-5.0683273,54.3920514],[-5.1559383,54.4163705],[-5.2304389,54.4421949],[-5.2954751,54.4755987],[-5.3487804,54.515431],[-5.3884766,54.5603155],[-5.4131414,54.6086968],[-5.4173754,54.633083],[-5.5261256,54.7134243],[-5.5758326,54.7586059],[-5.5758326,54.7586059],[-5.6092013,54.8085525],[-5.6248654,54.8613121],[-5.6407745,54.9912707],[-5.6390004,55.0208243],[-5.6461702,55.0256006],[-5.6677552,55.0380887],[-5.8166316,55.0441624],[-5.9077889,55.0529964],[-5.9278418,55.0573583],[-5.9297844,55.0621251],[-5.9340256,55.0672735],[-5.9400604,55.0717972],[-5.9476202,55.0754943],[-5.9563683,55.0782001],[-6.0084769,55.0904317],[-5.9887772,55.1639917],[-5.9882623,55.1690462],[-5.9882623,55.1690462],[-5.9894098,55.1740664],[-5.9894098,55.1740664],[-5.99218,55.1788755],[-5.9964757,55.1833041],[-6.002146,55.1871959],[-6.0885471,55.2361878],[-6.0963896,55.2397687],[-6.1053831,55.2423237],[-6.1151211,55.2437372],[-6.1553928,55.2470324],[-6.1545013,55.247647],[-6.1499904,55.2525021],[-6.1283624,55.2828888],[-6.125825,55.2876889],[-6.1248901,55.2926734],[-6.1255906,55.2976702],[-6.127903,55.3025066],[-6.131748,55.3070158],[-6.1369931,55.3110417],[-6.1434574,55.3144454],[-6.1509178,55.3171091],[-6.2157475,55.3356947],[-6.2244425,55.3376005],[-6.2336256,55.3385017],[-6.2429417,55.3383634],[-6.2520304,55.337191],[-6.2605401,55.3350298],[-6.3073593,55.3198238],[-6.3150198,55.3167221],[-6.3214533,55.3128208],[-6.3264068,55.3082737],[-6.3237896,55.3106762],[-6.3843987,55.3142553],[-6.4763386,55.3307649],[-6.5606148,55.3574533],[-6.6337857,55.3932366],[-6.6877591,55.432928],[-6.7646164,55.4555921],[-6.8376215,55.4887239],[-6.8979132,55.5292748],[-6.9095211,55.541187],[-7.1476724,55.619659],[-7.2321029,55.6413286],[-7.3224235,55.6533159],[-7.4151678,55.6551605],[-7.5067707,55.6467913],[-7.5937136,55.6285299],[-7.672667,55.6010773],[-7.7406243,55.5654855],[-7.7878361,55.5287175],[-7.8068499,55.525474],[-7.8098403,55.5256027],[-7.9022007,55.5192788],[-7.990568,55.5028498],[-8.03481,55.4887072],[-8.0651637,55.4870766],[-8.1519806,55.4726203],[-8.232314,55.4490589],[-8.272363,55.4311096],[-8.2787606,55.4311062],[-8.3711124,55.4258787],[-8.4598556,55.4105019],[-8.541549,55.3855732],[-8.6130395,55.3520595],[-8.6715891,55.3112579],[-8.7149803,55.2647432],[-8.720152,55.254954],[-8.7919046,55.2324648],[-8.8613543,55.1994126],[-8.9183883,55.159391],[-8.9578061,55.1254946],[-9.0011901,55.0786992],[-9.0276805,55.027947],[-9.0363151,54.9752055],[-9.0292066,54.9357281],[-9.0803637,54.9132525],[-9.1471392,54.877399],[-9.1471392,54.877399],[-9.2004495,54.8347552],[-9.2382947,54.7869569],[-9.2592842,54.7358317],[-9.2626825,54.6833272],[-9.258641,54.6445051],[-9.2441634,54.5920774],[-9.2315936,54.5724541],[-9.8112365,54.5979337],[-9.9045716,54.5963403],[-9.9954357,54.5839232],[-10.0433968,54.5710576],[-10.1053431,54.566124],[-10.188727,54.5497177],[-10.2651957,54.5244445],[-10.3319791,54.4912252],[-10.4471379,54.4216792],[-10.5038229,54.3796832],[-10.5450802,54.3319923],[-10.5693343,54.2804921],[-10.5756942,54.2272115],[-10.5660299,54.1835254],[-10.6071034,54.1615789],[-10.6611572,54.1182344],[-10.6993924,54.0694638],[-10.7203407,54.0172135],[-10.7232348,53.9635612],[-10.7080289,53.9106325],[-10.6753895,53.8605162],[-10.6266594,53.8151833],[-10.5637966,53.7764104],[-10.4965231,53.7486963],[-10.5355984,53.7285874],[-10.591561,53.6851184],[-10.6314732,53.6358501],[-10.6537422,53.5828208],[-10.6575172,53.5282167],[-10.6427139,53.4742802],[-10.6232429,53.4438984],[-10.6281322,53.4113067],[-10.6195879,53.360577],[-10.595239,53.3117087],[-10.5560027,53.2664378],[-10.5033125,53.2263675],[-10.4390634,53.1929128],[-10.3655422,53.1672519],[-10.2853467,53.150287],[-10.2600522,53.1464896],[-10.2616102,53.1358302],[-10.2515236,53.0822813],[-10.2239631,53.0310002],[-10.1800818,52.9840214],[-10.1216644,52.9432027],[-10.0510511,52.9101534],[-9.9924279,52.8925907],[-10.2382392,52.7564824],[-10.2965468,52.7169131],[-10.3408485,52.671185],[-10.3694636,52.6210809],[-10.3813353,52.5685481],[-10.3770192,52.5252189],[-10.4302393,52.5062562],[-10.736953,52.3704913],[-10.8012504,52.3354694],[-10.8530966,52.2934671],[-10.8905363,52.2460998],[-10.9121826,52.1951832],[-10.9172638,52.1426629]],[[-9.2358924,52.5811647],[-8.891298,52.6458167],[-8.891298,52.6458167],[-9,52.6254223],[-9.2358924,52.5811647]],[[-9.078409,52.6391357],[-9.0025323,52.7154556],[-9.0064115,52.6978823],[-9.0067263,52.6927106],[-9.0054063,52.6875977],[-9.0025004,52.6827317],[-8.9981162,52.6782914],[-8.9924151,52.6744401],[-8.9856071,52.6713193],[-8.9779424,52.6690438],[-8.9697028,52.667697],[-8.9413469,52.6647899],[-9.078409,52.6391357]],[[-9.0450905,53.1738553],[-9,53.176499],[-8.9874899,53.1772324],[-9.0450905,53.1738553]],[[-8.892815,52.6550899],[-8.8914873,52.6605271],[-8.8914873,52.6605271],[-8.8883699,52.6656881],[-8.8838262,52.6701293],[-8.8854024,52.671929],[-8.8879409,52.6771845],[-8.8886772,52.6826425],[-8.8878768,52.6866089],[-8.8878768,52.6866089],[-8.8441828,52.6820932],[-8.8431852,52.6858819],[-8.8232051,52.71],[-8.7914214,52.7307107],[-8.75,52.7466025],[-8.7017638,52.7565926],[-8.65,52.76],[-8.5982362,52.7565926],[-8.55,52.7466025],[-8.5085786,52.7307107],[-8.4767949,52.71],[-8.4568148,52.6858819],[-8.45,52.66],[-8.4568148,52.6341181],[-8.4767949,52.61],[-8.5085786,52.5892893],[-8.55,52.5733975],[-8.5982362,52.5634074],[-8.65,52.56],[-8.7017638,52.5634074],[-8.75,52.5733975],[-8.7914214,52.5892893],[-8.8232051,52.61],[-8.8431852,52.6341181],[-8.8483854,52.6538679],[-8.891298,52.6458167],[-8.8922986,52.6496024],[-8.892815,52.6550899]],[[-7.0650707,55.0431103],[-6.9750698,55.1359821],[-7,55.1102566],[-7.0650707,55.0431103]],[[-6.8382684,52.2350063],[-6.8365185,52.2356317],[-6.8374396,52.2317992],[-6.8382684,52.2350063]],[[-6.4855754,52.195651],[-6.395464,52.2130548],[-6.3976016,52.1970123],[-6.3976951,52.196997],[-6.444255,52.1932511],[-6.455745,52.1932511],[-6.4855754,52.195651]],[[-6.285796,55.2694409],[-6.246888,55.2685337],[-6.2389475,55.2544028],[-6.2384762,55.2537878],[-6.2432955,55.2541728],[-6.2491786,55.2685871],[-6.285796,55.2694409]]]}}
