{"type":"Feature","properties":{"family":"norse","name":"Norse Hebrides, 855 – 926"},"geometry":{"type":"Polygon","coordinates":[[[-8.050753,56.9280582],[-8.031921,56.8758366],[-7.994769,56.8266416],[-7.9407993,56.7823724],[-7.8721428,56.7447317],[-7.7914711,56.7151626],[-7.701893,56.6947957],[-7.6068385,56.6844083],[-7.5099336,56.6843965],[-7.4148704,56.6947608],[-7.2894354,56.7155462],[-7.3354615,56.6948116],[-7.3967564,56.6536131],[-7.4420223,56.6065874],[-7.4695438,56.5555817],[-7.4783169,56.5025918],[-7.4680781,56.449683],[-7.4393025,56.3989086],[-7.3931733,56.3522312],[-7.3315265,56.3114482],[-7.2235409,56.2526468],[-7.1488338,56.2191984],[-7.0638666,56.1945137],[-6.9719132,56.179539],[-6.8764997,56.1748475],[-6.7812762,56.1806188],[-6.7792405,56.1809764],[-6.7381815,56.1477302],[-6.7183182,56.1346369],[-6.7315919,56.1168749],[-6.750249,56.0639874],[-6.7501644,56.0560219],[-6.7852601,56.0400411],[-6.8462884,55.9983924],[-6.8911896,55.9507806],[-6.9182209,55.8991198],[-6.9738614,55.7317311],[-6.9819217,55.6789151],[-6.971515,55.6262303],[-6.943115,55.5757062],[-6.9094597,55.5411667],[-6.9093876,55.5410928],[-6.8978783,55.5292811],[-6.8375902,55.4887298],[-6.789017,55.4666838],[-6.7645905,55.4555973],[-6.6876986,55.4329203],[-6.6337406,55.3932396],[-6.5605742,55.3574569],[-6.4763048,55.3307686],[-6.3843738,55.3142587],[-6.323797,55.3106804],[-6.3237858,55.3106797],[-6.3214533,55.3128208],[-6.3150198,55.3167221],[-6.3073593,55.3198238],[-6.2605401,55.3350298],[-6.2520304,55.337191],[-6.2429417,55.3383634],[-6.2336256,55.3385017],[-6.2244425,55.3376005],[-6.2244425,55.3376005],[-6.2157475,55.3356947],[-6.160137,55.3197521],[-6.1601366,55.319752],[-6.1005591,55.330283],[-6.0160854,55.3567529],[-5.7645084,55.4550886],[-5.764508,55.4550888],[-5.7631456,55.4562291],[-5.7699334,55.5639223],[-5.7693477,55.5692079],[-5.7669468,55.5743271],[-5.7212363,55.643375],[-5.7297313,55.6698337],[-5.7304823,55.6753342],[-5.7292332,55.680806],[-5.7260356,55.6860201],[-5.7210226,55.6907585],[-5.6426407,55.7499591],[-5.6946397,55.7786337],[-5.7010105,55.7829613],[-5.7056504,55.787937],[-5.7083577,55.7933452],[-5.7228138,55.8406197],[-5.7235018,55.8456436],[-5.7225138,55.8506518],[-5.7198835,55.8554696],[-5.7157023,55.8599288],[-5.7057853,55.8684591],[-5.7098901,55.8708843],[-5.7150081,55.8754808],[-5.7402325,55.9041776],[-5.7435571,55.9091292],[-5.7450942,55.9143493],[-5.7447841,55.9196373],[-5.7427107,55.924615],[-5.7440219,55.9253026],[-5.7494636,55.9295283],[-5.7533548,55.9342612],[-5.7555497,55.9393249],[-5.7559658,55.9445306],[-5.7545869,55.9496841],[-5.7514637,55.954593],[-5.6219988,56.1082994],[-5.6173862,56.1126439],[-5.6149302,56.1141989],[-5.6199949,56.1146881],[-5.6289097,56.1166118],[-5.6369732,56.1194746],[-5.6438711,56.1231648],[-5.6472937,56.125905],[-5.6551924,56.138635],[-5.6553061,56.1429644],[-5.6535628,56.1482048],[-5.6496716,56.1556656],[-5.6439839,56.1574529],[-5.636733,56.1609345],[-5.6340867,56.1628279],[-5.6291198,56.1629371],[-5.6197314,56.1642118],[-5.6109832,56.1664979],[-5.6032227,56.1697048],[-5.5967584,56.173705],[-5.5918475,56.1783397],[-5.5886859,56.1834247],[-5.5634168,56.2425152],[-5.5621666,56.247321],[-5.562487,56.2521736],[-5.5629837,56.2534254],[-5.5926559,56.2504431],[-5.5638556,56.3416262],[-5.5488001,56.3440537],[-5.5499891,56.3449031],[-5.5568598,56.3482594],[-5.5647443,56.3508427],[-5.5733632,56.3525615],[-5.582411,56.3533548],[-5.5915668,56.3531945],[-5.6005058,56.3520862],[-5.6097747,56.350414],[-5.6094373,56.3511008],[-5.6055027,56.3555983],[-5.6001372,56.3596165],[-5.5971846,56.3611349],[-5.5947008,56.3607296],[-5.5854429,56.3602391],[-5.556663,56.3602391],[-5.5464266,56.3608402],[-5.5366463,56.3626188],[-5.535957,56.3628419],[-5.5386554,56.3602006],[-5.535957,56.3628419],[-5.5359568,56.3628422],[-5.5343665,56.3643989],[-5.5316192,56.3670882],[-5.5219696,56.3765339],[-5.4617445,56.4354868],[-5.4632494,56.4368958],[-5.4695223,56.4407929],[-5.4770359,56.4439494],[-5.4855089,56.446247],[-5.4946243,56.4475999],[-5.5040405,56.4479572],[-5.5051336,56.4478811],[-5.4993736,56.4535257],[-5.5023261,56.4546775],[-5.5090947,56.4586671],[-5.5142694,56.4633289],[-5.5176372,56.4684713],[-5.5190592,56.4738832],[-5.518476,56.4793424],[-5.5159108,56.4846246],[-5.4727751,56.5471177],[-5.4682585,56.5520568],[-5.4620082,56.5563842],[-5.4542866,56.5599178],[-5.4518511,56.5606294],[-5.364872,56.6385266],[-5.6359654,56.4807602],[-5.6698709,56.5002079],[-5.6754568,56.4969753],[-5.7140116,56.5136682],[-5.7140116,56.5136682],[-5.7140116,56.5136682],[-5.7140116,56.5136682],[-5.7140116,56.5136682],[-5.7140116,56.5136682],[-5.7140116,56.5136682],[-5.7140148,56.5136696],[-5.7690577,56.5375012],[-5.7140148,56.5136696],[-5.7140116,56.5136682],[-5.912938,56.5456811],[-5.9129381,56.5456811],[-5.9129381,56.5456811],[-5.9280701,56.5481163],[-5.9129381,56.5456811],[-5.9387594,56.5612439],[-5.9387594,56.561244],[-5.9387594,56.561244],[-5.9387594,56.561244],[-6.0027552,56.6398382],[-6.0066601,56.642193],[-6.0045159,56.6420004],[-6.0123015,56.6515621],[-6.0167452,56.6558863],[-6.0225566,56.6596893],[-6.0295391,56.662842],[-6.0374557,56.6652375],[-6.046038,56.6667943],[-6.1287386,56.6772383],[-6.1614616,56.6776531],[-6.1627107,56.6783506],[-6.1690237,56.6773459],[-6.1778179,56.6748005],[-6.1854977,56.6713339],[-6.2023246,56.6620043],[-6.2023247,56.6620043],[-6.2720858,56.7009379],[-6.2779183,56.7048651],[-6.2823112,56.7093216],[-6.2851092,56.7141502],[-6.2862129,56.7191809],[-6.2855829,56.7242361],[-6.2832405,56.7291375],[-6.279268,56.7337122],[-6.2738048,56.7377984],[-6.2162117,56.7732755],[-6.2090094,56.7769047],[-6.2006382,56.7796815],[-6.1914291,56.7814959],[-5.9932977,56.8085324],[-5.98473,56.8092634],[-5.9760609,56.8091605],[-5.9675593,56.808227],[-5.9594888,56.8064917],[-5.9295474,56.7983162],[-5.9240293,56.8023485],[-5.9164293,56.8060114],[-5.9076211,56.8087459],[-5.8979769,56.8104365],[-5.8879046,56.8110116],[-5.8872156,56.811012],[-5.8913129,56.8134481],[-5.8964354,56.8180982],[-5.8997537,56.8232154],[-5.9011328,56.8285926],[-5.9005159,56.834012],[-5.8979273,56.8392541],[-5.8934711,56.8441063],[-5.8873272,56.8483719],[-5.8797443,56.851878],[-5.8710298,56.8544822],[-5.8321702,56.8634399],[-5.8313285,56.8665865],[-5.8311572,56.8668464],[-5.9201936,56.8668129],[-5.9298838,56.8673303],[-5.9392003,56.8688764],[-5.9477812,56.8713913],[-5.9552933,56.8747774],[-5.9614444,56.878903],[-5.9659949,56.8836078],[-5.9687675,56.8887091],[-5.9696535,56.8940085],[-5.9686177,56.8992997],[-5.9656996,56.9043769],[-5.961012,56.9090425],[-5.954737,56.9131147],[-5.9471185,56.9164349],[-5.9384531,56.9188736],[-5.9297001,56.9202389],[-5.9300825,56.921961],[-5.929289,56.9273504],[-5.9265416,56.9325453],[-5.8618321,57.0203748],[-5.8577388,57.0247278],[-5.8522679,57.028607],[-5.8455991,57.0318846],[-5.8379514,57.0344529],[-5.8295765,57.0362273],[-5.8201022,57.0377121],[-5.8251507,57.0398839],[-5.8315269,57.0439814],[-5.8362868,57.0486843],[-5.8392414,57.0538067],[-5.8401378,57.0584459],[-5.8401378,57.0584459],[-5.7641009,57.1056481],[-5.7592471,57.1092016],[-5.7555272,57.113138],[-5.7530415,57.1173515],[-5.7422624,57.1425626],[-5.7412341,57.1429958],[-5.7318073,57.1454614],[-5.7276321,57.1460117],[-5.7292945,57.1478298],[-5.730031,57.1493916],[-5.730031,57.1493916],[-5.6773056,57.1626996],[-5.6773055,57.1626997],[-5.6773055,57.1626997],[-5.6250563,57.2163093],[-5.6430564,57.233195],[-5.5999318,57.2556699],[-5.5999282,57.2556718],[-5.5989857,57.2573258],[-5.597074,57.2622837],[-5.5969092,57.2673475],[-5.5984978,57.2723387],[-5.6017844,57.2770813],[-5.6059855,57.2808142],[-5.6059864,57.2808143],[-5.6059864,57.2808143],[-5.6059864,57.2808143],[-5.7294573,57.297361],[-5.7255796,57.3003058],[-5.760319,57.3036606],[-5.7715817,57.3040425],[-5.7781042,57.3034597],[-5.7781042,57.3034597],[-5.7750101,57.308423],[-5.7701912,57.3129738],[-5.7467718,57.3307975],[-5.8039833,57.3279124],[-5.8142254,57.3279622],[-5.8242343,57.3291373],[-5.8335902,57.3313884],[-5.8419009,57.3346211],[-5.8488176,57.3386999],[-5.8540498,57.3434538],[-5.8573772,57.3486833],[-5.8586593,57.3541688],[-5.861624,57.4241897],[-5.8777467,57.427677],[-5.8866137,57.4301733],[-5.8943843,57.4335675],[-5.9007488,57.4377247],[-5.9054533,57.4424793],[-5.9083098,57.4476419],[-5.9227624,57.4881621],[-5.9236565,57.4936533],[-5.9224549,57.4991275],[-5.8865646,57.5852586],[-5.8835223,57.5902241],[-5.8787497,57.5947818],[-5.8724253,57.5987604],[-5.8647866,57.6020105],[-5.8561203,57.6044098],[-5.8467521,57.6058682],[-5.8370344,57.6063306],[-5.8273327,57.6057799],[-5.8180117,57.6042366],[-5.8106957,57.6021263],[-5.8445993,57.6251054],[-5.850077,57.6297031],[-5.8537172,57.6347964],[-5.8553703,57.6401775],[-5.854968,57.6456265],[-5.8406407,57.6996665],[-5.8382006,57.704949],[-5.8338252,57.7098623],[-5.8338251,57.7098623],[-5.8276918,57.7142063],[-5.8210985,57.7173104],[-5.8271671,57.7188872],[-5.836351,57.7219632],[-5.8440964,57.7260142],[-5.8500467,57.730854],[-5.8539275,57.7362598],[-5.8555593,57.7419831],[-5.8628841,57.8314746],[-5.8624668,57.8363007],[-5.860439,57.8410097],[-5.8600624,57.8414776],[-5.8772407,57.8425626],[-5.90712,57.8640057],[-5.9575178,57.8936838],[-5.9210637,57.92851],[-5.8833797,57.9737415],[-5.8759608,57.990313],[-5.8328761,58.0094223],[-5.7668829,58.0445511],[-5.7140098,58.0854534],[-5.6760651,58.1307666],[-5.6543756,58.1789761],[-5.6429869,58.2211462],[-5.6385037,58.2726684],[-5.6527589,58.3236967],[-5.6579932,58.3315317],[-5.65481,58.3547917],[-5.6599458,58.375489],[-5.6515177,58.4000611],[-5.6535871,58.4534472],[-5.668055,58.4874793],[-5.668055,58.4874793],[-5.6757463,58.505571],[-5.7172091,58.554381],[-5.8172282,58.6459094],[-5.8725449,58.6869193],[-5.9416245,58.7218697],[-6.0220836,58.7495357],[-6.1111185,58.7689454],[-6.2056064,58.7794152],[-6.3022195,58.7805762],[-6.3975504,58.7723873],[-6.4882399,58.7551371],[-6.5711028,58.7294331],[-7.0223914,58.5561389],[-7.0782501,58.5310422],[-7.1183936,58.510185],[-7.1288203,58.5096962],[-7.2267824,58.4945034],[-7.3169817,58.469462],[-7.3958349,58.4355725],[-7.4602364,58.3941853],[-7.4953227,58.3592643],[-7.5317566,58.3370689],[-7.5826259,58.288797],[-7.6136326,58.2360881],[-7.6235611,58.181161],[-7.6223782,58.0984235],[-7.6122467,58.046896],[-7.6100843,58.0431408],[-7.6131518,58.0373597],[-7.6206631,57.9837235],[-7.6079662,57.9303632],[-7.6049062,57.9255432],[-7.6063095,57.9226611],[-7.7030333,57.9030745],[-7.790931,57.8730007],[-7.865215,57.8339449],[-7.9227332,57.7875899],[-7.9905143,57.7181198],[-8.0268413,57.6698956],[-8.0451247,57.6188388],[-8.0447594,57.5668529],[-8.0258374,57.5158679],[-7.9891336,57.4677688],[-7.9360657,57.4243266],[-7.9253928,57.4184474],[-7.9267633,57.4147454],[-7.9270551,57.3625548],[-7.9169571,57.3343269],[-7.9402627,57.2967277],[-7.9523381,57.2424181],[-7.9439148,57.1879077],[-7.9240155,57.1512699],[-7.9929585,57.0824865],[-8.0309647,57.0334382],[-8.0504574,56.9812826],[-8.050753,56.9280582]],[[-7.5582756,56.9528912],[-7.5104491,57],[-7.5104491,57],[-7.5582756,56.9528912]],[[-7.3858097,57],[-7.3858097,57],[-7.3746737,56.9832856],[-7.3858097,57]],[[-7.0762689,56.7692872],[-7.0621975,56.7743892],[-6.9933773,56.8117455],[-6.9391085,56.8557299],[-6.9091964,56.8946794],[-6.8640172,56.8506595],[-6.860956,56.8486723],[-7.0003186,56.7889205],[-7.0278224,56.7743801],[-7.0762689,56.7692872]],[[-7.0578706,58.0386464],[-7,58.0450332],[-6.9354694,58.052155],[-7,58.0450332],[-7.0578706,58.0386464]],[[-7.0434704,57.9018716],[-7,57.9144191],[-6.99667,57.9153803],[-7,57.9144191],[-7.0434704,57.9018716]],[[-7.0326703,58.2446528],[-7,58.2372098],[-6.9066691,58.215947],[-7,58.2372098],[-7.0326703,58.2446528]],[[-7.0074701,57.8900516],[-7,57.9075706],[-6.99667,57.9153803],[-7,57.9075706],[-7.0074701,57.8900516]],[[-6.4566646,57.0035485],[-6.4501215,57],[-6.4501215,57],[-6.4566646,57.0035485]],[[-6.2606844,57],[-6.2514625,57.0271886],[-6.2606844,57],[-6.2606844,57]]]}}
