{"type":"Feature","properties":{"family":"norse","name":"Kingdom of Mann and the Isles, under Norway, 1261 – 1265"},"geometry":{"type":"Polygon","coordinates":[[[-8.050743,56.9280743],[-8.0319127,56.8758525],[-7.9947621,56.8266565],[-7.9407935,56.7823858],[-7.8721374,56.744743],[-7.7914655,56.7151716],[-7.7018867,56.6948024],[-7.6068312,56.6844132],[-7.5099252,56.6843999],[-7.4148612,56.6947633],[-7.2894384,56.7155463],[-7.3354609,56.6948142],[-7.3967564,56.6536176],[-7.4420238,56.6065936],[-7.4695474,56.5555893],[-7.4783231,56.5026006],[-7.4680871,56.4496923],[-7.439314,56.3989178],[-7.3931867,56.3522396],[-7.3315412,56.3114555],[-7.2235568,56.2526523],[-7.148849,56.2192024],[-7.0638798,56.1945163],[-6.9719233,56.1795404],[-6.876506,56.1748481],[-6.7812783,56.1806191],[-6.7792566,56.1809742],[-6.7382053,56.1477323],[-6.7183354,56.134634],[-6.7316101,56.1168724],[-6.7502707,56.0639857],[-6.7501865,56.0560148],[-6.785278,56.0400364],[-6.8463116,55.9983859],[-6.8912168,55.9507722],[-6.9182505,55.8991097],[-6.9738957,55.7317237],[-6.9819581,55.6789079],[-6.9715523,55.6262234],[-6.9431519,55.5756995],[-6.9095211,55.541187],[-6.9094491,55.541113],[-6.9094474,55.5411113],[-6.8979132,55.5292748],[-6.8376215,55.4887239],[-6.7890413,55.4666768],[-6.7890413,55.4666768],[-6.7646164,55.4555921],[-6.7011596,55.4368796],[-6.7011596,55.4368796],[-6.6877591,55.432928],[-6.6337857,55.3932366],[-6.5606148,55.3574533],[-6.4763386,55.3307649],[-6.3843987,55.3142553],[-6.3238009,55.3106768],[-6.3237934,55.3106764],[-6.3237899,55.3106796],[-6.3236027,55.3108492],[-6.3214465,55.3128276],[-6.3213655,55.3128767],[-6.3177781,55.315051],[-6.3150105,55.3167283],[-6.3149561,55.3167504],[-6.3120904,55.3179099],[-6.3117106,55.3180636],[-6.3117106,55.3180636],[-6.3117106,55.3180636],[-6.3120904,55.3179099],[-6.3149561,55.3167504],[-6.3149369,55.3167619],[-6.3097917,55.3188401],[-6.3073475,55.3198291],[-6.2962472,55.3234343],[-6.2962043,55.3234455],[-6.2888266,55.3253821],[-6.2962043,55.3234455],[-6.2605393,55.3350289],[-6.2520274,55.3371905],[-6.2429364,55.3383629],[-6.2336181,55.3385008],[-6.224433,55.3375986],[-6.2157367,55.3356915],[-6.175299,55.3240987],[-6.1752983,55.3240985],[-6.1601371,55.3197521],[-6.160137,55.3197521],[-6.1005513,55.3302849],[-6.0744511,55.3384633],[-6.1617613,55.5414509],[-6.0744511,55.3384633],[-6.0413522,55.2615115],[-6.0376584,55.255351],[-6.0320782,55.2496705],[-6.0247948,55.2446559],[-5.6677563,55.0380893],[-5.6677468,55.0380839],[-5.667746,55.0380833],[-5.6677407,55.0380803],[-5.6461702,55.0256006],[-5.6390004,55.0208243],[-5.6389603,55.0207976],[-5.6389378,55.0207826],[-5.6388115,55.0206985],[-5.3474,54.8265711],[-5.3457426,54.8255032],[-4.9457015,54.575654],[-4.9325124,54.5693562],[-4.8684051,54.5462842],[-4.4480413,54.3949974],[-4.8684051,54.5462842],[-4.9704249,54.4675796],[-4.9704249,54.4675796],[-4.9714336,54.4668014],[-5.0683104,54.3920645],[-5.0683262,54.3920523],[-5.0683273,54.3920514],[-5.0795721,54.3833765],[-5.1234893,54.3419554],[-5.1538396,54.296598],[-5.231492,54.1392647],[-5.2471036,54.0891478],[-5.2471084,54.0891324],[-5.2471235,54.0890838],[-5.2479424,54.0864548],[-5.2462246,54.0327792],[-5.2264765,53.9803626],[-5.189543,53.9312719],[-5.1369333,53.8874357],[-5.0707533,53.8505705],[-4.9936197,53.8221155],[-4.9085566,53.803179],[-4.8188805,53.7944972],[-4.6436187,53.7877897],[-4.5432886,53.7903732],[-4.4462896,53.8057749],[-4.3572351,53.8332634],[-4.2803808,53.8715308],[-4.0570787,54.009365],[-3.9802103,54.0727095],[-3.9003414,54.1636154],[-3.8661596,54.2144308],[-3.8607476,54.2325798],[-3.8501159,54.2682331],[-3.8529375,54.3228249],[-3.8745832,54.3759673],[-3.8895101,54.3946198],[-3.8874793,54.4032653],[-3.89241,54.4547746],[-3.9141469,54.5047964],[-3.9144503,54.5051711],[-3.9519516,54.5514928],[-4.0044828,54.5931418],[-4.0698396,54.6282026],[-4.1456275,54.6553741],[-4.2290467,54.6736459],[-4.3152823,54.6821674],[-4.3152878,54.6821679],[-4.3491931,54.6615046],[-4.3556642,54.6582244],[-4.3630656,54.6556873],[-4.3711459,54.6539795],[-4.3796303,54.6531591],[-4.3882307,54.6532539],[-4.3966549,54.6542607],[-4.4893265,54.6705598],[-4.4893266,54.6705598],[-4.4933415,54.6700496],[-4.6381646,54.6428615],[-4.7240197,54.620884],[-4.7781841,54.5985161],[-4.8600834,54.6280129],[-4.8752901,54.6375228],[-4.9554496,54.6598033],[-4.9554496,54.6876524],[-5.2533548,54.8739545],[-5.5524838,55.0735273],[-5.5551544,55.0751885],[-5.6097749,55.1068399],[-5.9227543,55.2882046],[-5.961196,55.3782057],[-6.0382119,55.5585182],[-5.961196,55.3782057],[-5.7645161,55.4550842],[-5.7631478,55.4562295],[-5.7699354,55.5639232],[-5.7693498,55.5692086],[-5.766949,55.5743275],[-5.7212381,55.6433757],[-5.7297333,55.6698347],[-5.7304842,55.675335],[-5.7292352,55.6808065],[-5.7260377,55.6860205],[-5.7210248,55.6907586],[-5.6426418,55.7499596],[-5.6946411,55.7786344],[-5.7010121,55.7829621],[-5.7056521,55.7879379],[-5.7083594,55.7933462],[-5.7228155,55.8406207],[-5.7235034,55.8456444],[-5.7225154,55.8506524],[-5.7198853,55.85547],[-5.7157043,55.859929],[-5.7057866,55.8684598],[-5.7098914,55.870885],[-5.7150096,55.8754817],[-5.740234,55.9041786],[-5.7435586,55.9091301],[-5.7450957,55.9143501],[-5.7447857,55.9196379],[-5.7427122,55.9246158],[-5.7440224,55.9253029],[-5.7494645,55.9295286],[-5.7533559,55.9342616],[-5.755551,55.9393253],[-5.7559673,55.944531],[-5.7545885,55.9496845],[-5.7514653,55.9545935],[-5.6220002,56.1082997],[-5.6173876,56.1126441],[-5.6149316,56.1141992],[-5.6199943,56.1146882],[-5.6289095,56.116612],[-5.6369733,56.1194748],[-5.6438715,56.1231651],[-5.6472874,56.1258999],[-5.6441232,56.1208003],[-5.6472874,56.1258999],[-5.6472874,56.1258999],[-5.6472874,56.1258999],[-5.6472875,56.1259],[-5.647293,56.1259088],[-5.6551832,56.1386252],[-5.6551926,56.1386403],[-5.6551937,56.1386419],[-5.6553073,56.1429649],[-5.653564,56.1482054],[-5.6496733,56.1556652],[-5.6496717,56.1556657],[-5.64966,56.1556694],[-5.6439843,56.1574528],[-5.6367328,56.1609347],[-5.6340873,56.1628274],[-5.6291202,56.1629368],[-5.6197313,56.1642117],[-5.6109826,56.1664982],[-5.6032217,56.1697054],[-5.596757,56.173706],[-5.5918459,56.178341],[-5.5886841,56.1834263],[-5.5634152,56.2425168],[-5.562165,56.2473226],[-5.5624854,56.2521751],[-5.5629815,56.2534256],[-5.5629837,56.2534254],[-5.5926559,56.2504431],[-5.5638556,56.3416262],[-5.5488001,56.3440537],[-5.5487974,56.3440541],[-5.5499873,56.3449042],[-5.5568579,56.3482604],[-5.5647423,56.3508436],[-5.5733611,56.3525622],[-5.5824089,56.3533554],[-5.5915647,56.353195],[-5.6005039,56.3520867],[-5.6097653,56.3504158],[-5.6097748,56.3504141],[-5.6097759,56.3504139],[-5.6094382,56.3511013],[-5.6055037,56.3555987],[-5.6001383,56.3596167],[-5.5971874,56.3611343],[-5.5971863,56.3611341],[-5.5971805,56.3611332],[-5.5947038,56.360729],[-5.5854458,56.3602385],[-5.5566659,56.3602386],[-5.5464289,56.3608397],[-5.5366478,56.3626185],[-5.5359568,56.3628422],[-5.5343665,56.3643989],[-5.5316192,56.3670882],[-5.5219696,56.3765339],[-5.4617445,56.4354868],[-5.4617445,56.4354868],[-5.4617431,56.4354881],[-5.4632475,56.4368966],[-5.4695202,56.4407936],[-5.4770335,56.4439501],[-5.4855064,56.4462477],[-5.4946217,56.4476005],[-5.5040379,56.4479577],[-5.5051247,56.4478821],[-5.5051333,56.4478815],[-5.5051345,56.4478814],[-5.4993743,56.4535263],[-5.502326,56.4546777],[-5.5090948,56.4586675],[-5.5142697,56.4633293],[-5.5176377,56.4684717],[-5.5190598,56.4738837],[-5.5184767,56.479343],[-5.5159115,56.4846251],[-5.4727757,56.5471182],[-5.4682592,56.5520572],[-5.4620089,56.5563845],[-5.4542873,56.559918],[-5.451852,56.5606296],[-5.3648818,56.6385186],[-5.6359632,56.4807606],[-5.6359639,56.480761],[-5.6359677,56.4807632],[-5.6630983,56.4963249],[-5.6687406,56.4995612],[-5.6692499,56.4998533],[-5.6698695,56.5002087],[-5.6698709,56.5002079],[-5.6754568,56.4969753],[-5.7140116,56.5136682],[-5.7140116,56.5136682],[-5.7140116,56.5136682],[-5.7140116,56.5136682],[-5.7140116,56.5136682],[-5.7140116,56.5136682],[-5.7140116,56.5136682],[-5.7140148,56.5136696],[-5.9129378,56.5456817],[-5.9129383,56.5456818],[-5.9387577,56.5612434],[-5.9387579,56.5612436],[-5.9387579,56.5612436],[-5.9387579,56.5612436],[-6.0027535,56.6398371],[-6.0027552,56.6398382],[-6.0066601,56.642193],[-6.0045159,56.6420004],[-6.0045159,56.6420004],[-6.0045149,56.6420003],[-6.0123014,56.651563],[-6.016745,56.6558871],[-6.0225563,56.65969],[-6.0295385,56.6628426],[-6.0374549,56.6652379],[-6.0460369,56.6667947],[-6.1287345,56.6772382],[-6.1287386,56.6772383],[-6.1287386,56.6772383],[-6.1287386,56.6772383],[-6.1614616,56.6776531],[-6.1627107,56.6783506],[-6.1627107,56.6783506],[-6.1627109,56.6783507],[-6.1690228,56.6773461],[-6.1778173,56.6748006],[-6.1854972,56.6713339],[-6.2023238,56.6620045],[-6.2720854,56.7009384],[-6.277918,56.7048657],[-6.2823111,56.7093222],[-6.2851092,56.7141509],[-6.2862131,56.7191816],[-6.2855832,56.7242368],[-6.283241,56.7291381],[-6.2792686,56.7337127],[-6.2738056,56.7377989],[-6.2162125,56.7732759],[-6.2090105,56.776905],[-6.2006396,56.7796816],[-6.1914308,56.7814959],[-5.9932996,56.8085323],[-5.9847318,56.8092633],[-5.9760625,56.8091605],[-5.9675606,56.8082269],[-5.9594899,56.8064915],[-5.9295487,56.798316],[-5.9240301,56.8023488],[-5.9164304,56.8060115],[-5.9076223,56.808746],[-5.8979783,56.8104365],[-5.8879062,56.8110116],[-5.8872144,56.811012],[-5.8913124,56.8134484],[-5.896435,56.8180986],[-5.8997535,56.8232158],[-5.9011328,56.828593],[-5.9005161,56.8340123],[-5.8979278,56.8392543],[-5.8934717,56.8441065],[-5.8873281,56.8483721],[-5.8797454,56.8518781],[-5.8710311,56.8544822],[-5.8321703,56.8634401],[-5.8313287,56.866587],[-5.8311577,56.8668463],[-5.920192,56.8668129],[-5.9298822,56.8673303],[-5.9391987,56.8688765],[-5.9477799,56.8713914],[-5.9552921,56.8747775],[-5.9614434,56.8789031],[-5.9659942,56.8836079],[-5.9687671,56.8887092],[-5.9696534,56.8940086],[-5.9686179,56.8992998],[-5.9657001,56.904377],[-5.9610129,56.9090426],[-5.9547381,56.9131148],[-5.9471198,56.9164349],[-5.9384546,56.9188736],[-5.9296998,56.9202392],[-5.9300823,56.9219618],[-5.9292889,56.9273513],[-5.9265415,56.9325461],[-5.8618319,57.0203756],[-5.8577388,57.0247284],[-5.8522681,57.0286074],[-5.8455996,57.0318849],[-5.8379523,57.034453],[-5.8295777,57.0362273],[-5.8201014,57.0377124],[-5.8251496,57.0398841],[-5.831526,57.0439817],[-5.8362861,57.0486847],[-5.8392409,57.0538072],[-5.8401375,57.0584471],[-5.840135,57.0584486],[-5.7641031,57.1056478],[-5.7592492,57.1092015],[-5.7555291,57.113138],[-5.7530433,57.1173518],[-5.7422659,57.1425591],[-5.7422647,57.142562],[-5.7412345,57.142996],[-5.7318081,57.1454615],[-5.7276312,57.146012],[-5.7292938,57.1478303],[-5.7300302,57.1493919],[-5.7300296,57.149392],[-5.7152513,57.1531221],[-5.6976085,57.1575752],[-5.6904494,57.1593822],[-5.6976085,57.1575752],[-5.7152513,57.1531221],[-5.7300296,57.149392],[-5.7300302,57.1493919],[-5.7404714,57.1467565],[-5.7300302,57.1493919],[-5.7300296,57.149392],[-5.7152513,57.1531221],[-5.6976085,57.1575752],[-5.6904494,57.1593822],[-5.6884048,57.1598982],[-5.680576,57.1618743],[-5.6773055,57.1626997],[-5.6250563,57.2163093],[-5.6430564,57.233195],[-5.5999318,57.2556699],[-5.5989881,57.257326],[-5.5989881,57.257326],[-5.5970764,57.2622841],[-5.5969114,57.267348],[-5.5984998,57.2723392],[-5.6017862,57.2770819],[-5.6059864,57.2808143],[-5.6059855,57.2808142],[-5.5782558,57.277098],[-5.6059855,57.2808142],[-5.6059864,57.2808143],[-5.6059864,57.2808143],[-5.6059864,57.2808143],[-5.6059864,57.2808143],[-5.7294573,57.297361],[-5.7255796,57.3003058],[-5.7255796,57.3003058],[-5.7255789,57.3003062],[-5.7603187,57.3036611],[-5.7715805,57.3040429],[-5.7781004,57.3034604],[-5.7781037,57.3034601],[-5.7750095,57.3084237],[-5.7701907,57.3129744],[-5.7467722,57.3307974],[-5.8039819,57.3279124],[-5.814224,57.3279623],[-5.8242329,57.3291374],[-5.8335889,57.3313886],[-5.8418998,57.3346214],[-5.8488166,57.3387004],[-5.8540488,57.3434545],[-5.8573763,57.3486841],[-5.8586584,57.3541698],[-5.861623,57.4241899],[-5.8777446,57.427677],[-5.8866119,57.4301734],[-5.8943827,57.4335677],[-5.9007474,57.4377251],[-5.9054521,57.4424799],[-5.9083087,57.4476427],[-5.9227612,57.4881629],[-5.9236554,57.4936543],[-5.9224538,57.4991285],[-5.8865634,57.5852596],[-5.8835212,57.5902249],[-5.8787487,57.5947825],[-5.8724247,57.5987609],[-5.8647863,57.6020108],[-5.8561205,57.60441],[-5.8467528,57.6058682],[-5.8370355,57.6063306],[-5.8273342,57.6057798],[-5.8180136,57.6042365],[-5.8106906,57.6021242],[-5.8445975,57.6251057],[-5.8500754,57.6297036],[-5.8537157,57.6347971],[-5.8553689,57.6401784],[-5.8549666,57.6456275],[-5.8406392,57.6996675],[-5.8381992,57.7049498],[-5.8338241,57.7098629],[-5.8276911,57.7142068],[-5.8210979,57.7173109],[-5.8271648,57.7188872],[-5.8363488,57.7219633],[-5.8440944,57.7260145],[-5.8500449,57.7308545],[-5.8539259,57.7362606],[-5.8555577,57.7419841],[-5.8628824,57.8314755],[-5.8624651,57.8363017],[-5.8604372,57.8410107],[-5.8600588,57.8414808],[-5.8600597,57.8414809],[-5.8772832,57.8425688],[-5.9071729,57.8640184],[-5.9575542,57.8936861],[-5.9211177,57.9284968],[-5.8834326,57.9737328],[-5.8760171,57.9902988],[-5.8329309,58.0094091],[-5.7669396,58.0445383],[-5.7140681,58.085442],[-5.6761249,58.1307573],[-5.6544366,58.1789695],[-5.6430494,58.2211402],[-5.6385671,58.2726629],[-5.6528208,58.3236918],[-5.6580591,58.3315338],[-5.6548776,58.3547957],[-5.6600132,58.3754865],[-5.6515869,58.400058],[-5.6536596,58.4534516],[-5.6681045,58.4874254],[-5.6681184,58.4874581],[-5.6758244,58.5055823],[-5.7172944,58.5543976],[-5.8173174,58.6459245],[-5.87263,58.6869306],[-5.9417004,58.7218774],[-6.0221459,58.7495406],[-6.1111635,58.7689483],[-6.2056314,58.7794174],[-6.3022232,58.780579],[-6.3975328,58.7723921],[-6.4882022,58.7551453],[-6.5710476,58.7294458],[-7.0223284,58.5561569],[-7.0781887,58.5310603],[-7.1183647,58.5101864],[-7.1288349,58.5096955],[-7.2267741,58.4945054],[-7.3169524,58.4694687],[-7.3957881,58.4355853],[-7.4601769,58.3942052],[-7.4952598,58.3592878],[-7.5317104,58.3370805],[-7.582571,58.2888129],[-7.6135733,58.2361079],[-7.6235016,58.1811839],[-7.6223221,58.0984471],[-7.6121927,58.0469158],[-7.610031,58.0431613],[-7.6131008,58.0373753],[-7.6206113,57.9837382],[-7.6079144,57.9303762],[-7.6048606,57.9255656],[-7.6062706,57.922669],[-7.7030257,57.9030765],[-7.7909098,57.8730075],[-7.865183,57.8339574],[-7.9226943,57.7876086],[-7.9904761,57.7181403],[-8.0268039,57.6699171],[-8.0450885,57.6188602],[-8.0447244,57.5668731],[-8.0258035,57.5158861],[-7.9891002,57.4677842],[-7.9360323,57.424339],[-7.9253651,57.4184625],[-7.9267357,57.41476],[-7.9270279,57.3625707],[-7.9169316,57.3343453],[-7.9402393,57.2967451],[-7.9523163,57.2424355],[-7.9438945,57.1879242],[-7.9239961,57.1512854],[-7.9929456,57.0824983],[-8.0309522,57.0334522],[-8.050446,56.981298],[-8.050743,56.9280743]],[[-7.5582756,56.9528912],[-7.5104491,57],[-7.5104491,57],[-7.5582756,56.9528912]],[[-7.3858097,57],[-7.3858097,57],[-7.3746737,56.9832856],[-7.3858097,57]],[[-7.0762716,56.7692861],[-7.0621901,56.7743921],[-6.9933738,56.8117483],[-6.9391094,56.8557326],[-6.909195,56.8946895],[-6.8640105,56.8506614],[-6.8609492,56.848674],[-7.000313,56.7889231],[-7.0278251,56.7743789],[-7.0762716,56.7692861]],[[-7.0578706,58.0386464],[-7,58.0450332],[-6.9354694,58.052155],[-7,58.0450332],[-7.0578706,58.0386464]],[[-7.0434704,57.9018716],[-7,57.9144191],[-6.99667,57.9153803],[-7,57.9144191],[-7.0434704,57.9018716]],[[-7.0326703,58.2446528],[-7,58.2372098],[-6.9066691,58.215947],[-7,58.2372098],[-7.0326703,58.2446528]],[[-7.0074701,57.8900516],[-7,57.9075706],[-6.99667,57.9153803],[-7,57.9075706],[-7.0074701,57.8900516]],[[-6.4566646,57.0035485],[-6.4501215,57],[-6.4501215,57],[-6.4566646,57.0035485]],[[-6.3213655,55.3128767],[-6.3213196,55.3129182],[-6.3177781,55.315051],[-6.3213655,55.3128767]],[[-6.2606844,57],[-6.2514625,57.0271886],[-6.2606844,57],[-6.2606844,57]]]}}
