{"type":"Feature","properties":{"family":"franks","name":"Kingdom of Italy, 855 – 938"},"geometry":{"type":"Polygon","coordinates":[[[6.86,45.83],[7,45.6],[7.1,45.3],[6.9,45],[7,44.7],[7,44.3],[7.1666667,44.2333333],[7.3333333,44.1666667],[7.5,44.1],[7.5481707,43.7917074],[7.5360714,43.7918125],[7.5307142,43.791859],[7.500675,43.79212],[7.5271595,43.7918899],[7.5307142,43.791859],[7.5435354,43.7917477],[7.5481707,43.7917074],[7.5481707,43.7917074],[7.5613964,43.7915925],[7.5656763,43.7915554],[7.5741714,43.7914816],[7.5853883,43.7913841],[7.5853919,43.7913841],[7.5854335,43.7896357],[7.5842368,43.7846372],[7.5817654,43.7798888],[7.5781069,43.7755584],[7.5733908,43.7717989],[7.567784,43.7687431],[7.5614845,43.766499],[7.5547148,43.7651458],[7.5477926,43.764736],[7.5478051,43.7647359],[7.6945922,43.7634603],[7.7018493,43.763905],[7.7088494,43.7653575],[7.9191322,43.8251009],[7.9191676,43.8251109],[7.9197597,43.8211617],[7.920056,43.7654664],[7.9045233,43.7109143],[7.8738638,43.6598242],[7.8294138,43.614362],[7.7730818,43.5764504],[7.7072653,43.5476895],[7.6300237,43.5212458],[7.6902298,43.5207203],[7.7625127,43.5251467],[7.8322666,43.5396132],[8.2053587,43.6455359],[8.2603946,43.6649269],[8.3103448,43.6905475],[8.4074538,43.7494425],[8.452559,43.7818318],[8.4894475,43.819264],[8.5170416,43.8606623],[8.5618902,43.945655],[8.6021316,43.963122],[8.6681788,43.999482],[8.721544,44.0453953],[8.7595919,44.0986226],[8.7717028,44.1214748],[8.8245495,44.144422],[8.923101,44.1278528],[8.9597287,44.1044065],[9.020277,44.0727684],[9.0883039,44.0503459],[9.1611327,44.0380194],[9.2034091,44.0370376],[9.6129339,43.8239516],[9.6738317,43.7979793],[9.7403765,43.780712],[9.810212,43.7727603],[9.8739509,43.7742461],[9.8911913,43.7539345],[9.9474452,43.4572297],[9.9666097,43.4011479],[10.0017241,43.349308],[10.1509671,43.1773719],[10.1317345,42.9589541],[10.1341185,42.9065017],[10.1503049,42.8553786],[10.1738497,42.8169744],[10.1742709,42.8169528],[10.1742723,42.8169528],[10.174336,42.8169495],[10.174382,42.8169471],[10.1743919,42.8169466],[10.1745171,42.8169402],[10.3555036,42.8076794],[10.4131041,42.8735339],[10.4419044,42.8448281],[10.4311043,42.7874165],[10.3879039,42.7637764],[10.4239042,42.7401363],[10.4167042,42.7080534],[10.3375034,42.765465],[10.2414475,42.7510135],[10.2412529,42.7509843],[10.241238,42.750982],[10.2411536,42.7509693],[10.241133,42.7509662],[10.2410788,42.7509581],[10.2407967,42.7509156],[10.2728379,42.72857],[10.3331453,42.7004535],[10.3996752,42.681411],[10.4049774,42.6807141],[10.4304088,42.6481693],[10.4772706,42.6085471],[10.5336183,42.5763316],[10.5973249,42.5527314],[10.7272386,42.5156359],[10.7378097,42.5069229],[10.7273832,42.4808737],[10.7208342,42.428682],[10.7280787,42.3765408],[10.7488097,42.3264154],[10.7705848,42.2876428],[10.8073598,42.237695],[10.8573982,42.194545],[10.9184692,42.1600948],[10.9878698,42.1358602],[11.0625423,42.1229062],[11.139206,42.1218013],[11.2889455,42.1312469],[11.3814374,42.0890269],[11.505176,41.9110925],[11.5457912,41.8648056],[11.5981604,41.8256327],[11.6600841,41.7952041],[11.7289771,41.7747841],[11.8274504,41.753925],[11.856013,41.732299],[11.8981688,41.6447524],[11.9316915,41.5930561],[11.9790264,41.5478201],[12.0380166,41.5110797],[12.1971574,41.4314877],[12.3485846,41.2831665],[12.4052489,41.2389432],[12.473666,41.2054583],[12.5503129,41.1844279],[12.6817005,41.1605564],[12.7078021,41.1338313],[12.7320095,41.1090456],[12.7797371,41.0691207],[12.8369524,41.0370897],[12.9013948,41.0142107],[12.9705293,41.0013812],[13.0416434,40.9991039],[13.1119499,41.0074675],[13.1786921,41.0261442],[13.2392486,41.0544013],[13.2912325,41.0911293],[13.437047,41.2145514],[13.2846578,41.2671758],[13.0575703,41.2019822],[13.0509729,41.2006063],[13.0441483,41.2001983],[13.0373448,41.2007733],[13.0308103,41.2023101],[13.0247826,41.2047529],[13.0194814,41.2080127],[13.0150998,41.2119708],[13.0117976,41.216483],[12.9881033,41.2577263],[12.9880479,41.257854],[12.9881106,41.257745],[12.9916503,41.2529738],[12.9963947,41.248836],[13.0021492,41.2455011],[13.008678,41.2431057],[13.0157136,41.241748],[13.0229679,41.2414834],[13.0301437,41.2423229],[13.0352163,41.2437464],[13.0352151,41.2437484],[13.0269665,41.2581188],[13.0210529,41.2684213],[13.015465,41.2781563],[13.0052307,41.2959862],[13.0052303,41.295987],[13.0052302,41.2959871],[13,41.3050989],[13.0052302,41.2959871],[13.0052303,41.295987],[13.0052307,41.2959862],[13.015465,41.2781563],[13.0210529,41.2684213],[13.1333333,41.3666667],[13.2666667,41.4833333],[13.4,41.6],[14,42.1],[14.2448925,42.4673388],[14.2718268,42.4466575],[14.2718277,42.4466568],[14.2718313,42.4466541],[14.2718316,42.4466538],[14.2718334,42.4466524],[14.2718351,42.4466512],[14.2718351,42.4466512],[14.2718454,42.4466432],[14.2776614,42.4553604],[14.2802698,42.4605017],[14.2814128,42.4659266],[14.2810424,42.4714102],[14.2791737,42.4767253],[14.2758838,42.4816516],[14.2713088,42.4859849],[14.2711151,42.4861336],[14.1048717,42.6138353],[14.2711151,42.4861336],[14.2711984,42.4860811],[14.5312051,42.2863916],[14.5720157,42.3471345],[14.5983146,42.398474],[14.610018,42.4526859],[14.6066038,42.5075287],[14.5881739,42.5607289],[14.555457,42.6100752],[14.5097836,42.6535114],[14.5078316,42.6550165],[14.3803503,42.7533102],[14.2884355,42.8957642],[13.9727338,43.6412255],[13.9450416,43.6889842],[13.9051861,43.7320249],[13.8546224,43.7687491],[13.7952138,43.7977903],[13.471715,43.9242394],[13.1819334,44.11496],[13.0922531,44.1584681],[12.8890658,44.2285173],[12.7287611,44.356349],[12.6616066,44.5295192],[12.6584056,44.5985078],[12.710967,44.6289775],[12.7578634,44.6690353],[12.793114,44.7147476],[12.8838506,44.8647534],[12.9055227,44.9120464],[12.9145969,44.9613512],[12.9107333,45.010996],[12.8940303,45.0592933],[12.8650257,45.104597],[12.8246826,45.1453597],[12.7743597,45.1801856],[12.698861,45.2234689],[12.7127461,45.2349654],[13.145864,45.3661775],[13.1641329,45.2969731],[13.1829324,45.2499122],[13.1999853,45.2253902],[13.2148848,45.1188057],[13.229382,45.0671993],[13.2447282,45.0409004],[13.2482497,45.0269498],[13.2656766,44.9813757],[13.294039,44.938644],[13.3324499,44.9000561],[13.4108613,44.8342006],[13.411549,44.8277005],[13.4327222,44.7750713],[13.4683818,44.7265511],[13.5170347,44.6841253],[13.5588225,44.6598874],[13.5706682,44.6409297],[13.6124108,44.598461],[13.6647345,44.5624382],[13.7257082,44.5341785],[13.7930952,44.5147131],[13.8644331,44.5047517],[13.8965677,44.5047097],[13.8966887,44.5047096],[13.9371217,44.5046568],[14.0085135,44.5144315],[14.0760066,44.5337193],[14.1371358,44.5618167],[14.1400944,44.5638398],[14.1458755,44.565111],[14.2111145,44.590192],[14.2257202,44.5987769],[14.2162696,44.6020005],[14.210122,44.6046361],[14.2047918,44.6080546],[14.200472,44.6121322],[14.1973188,44.6167216],[14.1954466,44.6216568],[14.1949234,44.6267595],[14.1957685,44.6318449],[14.2065458,44.6673081],[14.2089679,44.6725789],[14.2128549,44.6773907],[14.2180425,44.6815396],[14.2243111,44.6848499],[14.2603204,44.7000538],[14.2671309,44.7023144],[14.2744293,44.7035786],[14.2819286,44.7037966],[14.2893342,44.70296],[14.2963551,44.7011015],[14.3027153,44.6982942],[14.3065221,44.6957477],[14.3007548,44.7098448],[14.2994092,44.7148993],[14.2994449,44.7200478],[14.3008608,44.7251019],[14.3036055,44.7298763],[14.3075788,44.7341964],[14.3126354,44.7379037],[14.3185902,44.7408624],[14.3252251,44.7429641],[14.3322969,44.7441317],[14.3395464,44.7443225],[14.3403987,44.7442281],[14.2583617,44.898678],[14.256626,44.9030029],[14.2559344,44.9074753],[14.2563065,44.9119702],[14.2634826,44.9474322],[14.2652503,44.9525429],[14.2683879,44.9573175],[14.2727763,44.9615738],[14.2782479,44.9651492],[14.2845941,44.9679071],[14.2915726,44.9697423],[14.2989167,44.9705844],[14.306346,44.9704015],[14.3135765,44.9692003],[14.3203319,44.967027],[14.3525868,44.9538015],[14.3531312,44.9617966],[14.3543013,44.9672483],[14.3558757,44.9702478],[14.2791699,45.0605589],[14.2790378,45.0606844],[14.280861,45.0589515],[14.2835569,45.0563892],[14.2891875,45.0528087],[14.295708,45.0500837],[14.3028618,45.0483214],[14.3103676,45.047591],[14.314773,45.0477835],[14.314773,45.0477835],[14.314773,45.0477835],[14.314773,45.0477835],[14.314773,45.0477835],[14.3103676,45.047591],[14.314773,45.0477835],[14.314773,45.0477835],[14.3179302,45.0479214],[14.3252523,45.0492994],[14.3280369,45.0502714],[14.3280369,45.0502714],[14.3298805,45.050915],[14.3298805,45.050915],[14.3298805,45.050915],[14.3280369,45.0502714],[14.3280369,45.0502714],[14.3280369,45.0502714],[14.3280369,45.0502714],[14.3280369,45.0502714],[14.3314032,45.0514465],[14.3314032,45.0514465],[14.3314032,45.0514465],[14.3750408,45],[14.4127441,44.9555497],[14.4127441,44.9555497],[14.3750408,45],[14.3750408,45],[14.3314101,45.0514384],[14.3314091,45.0514396],[14.3314069,45.0514422],[14.3314062,45.0514431],[14.3314032,45.0514465],[14.3314006,45.0514497],[14.3314006,45.0514497],[14.3211207,45.0635691],[14.3179694,45.0672843],[14.3153139,45.0704151],[14.3142175,45.0717077],[14.3118132,45.0745422],[14.3107527,45.0757925],[14.3013891,45.0868317],[14.3011998,45.0870549],[14.300651,45.0877018],[14.3004679,45.0879178],[14.2989517,45.0897052],[14.2989517,45.0897053],[14.2989517,45.0897053],[14.2989517,45.0897053],[14.2989517,45.0897053],[14.2989517,45.0897053],[14.2863663,45.1045429],[14.2853777,45.1057084],[14.2853777,45.1057084],[14.2853777,45.1057084],[14.2853777,45.1057084],[14.2853777,45.1057084],[14.2853777,45.1057084],[14.2863663,45.1045429],[14.2989517,45.0897053],[14.2989517,45.0897053],[14.2989517,45.0897053],[14.2989517,45.0897052],[14.3004679,45.0879178],[14.300651,45.0877018],[14.3011998,45.0870549],[14.3013891,45.0868317],[14.3107527,45.0757925],[14.3118132,45.0745422],[14.3692124,45.1128083],[14.3551436,45.169999],[14.3692124,45.1128083],[14.3770535,45.080934],[14.3770543,45.0809305],[14.3770543,45.0809305],[14.3770547,45.0809291],[14.3770547,45.0809289],[14.3875439,45.03829],[14.4365243,45],[14.4365243,45],[14.4425616,44.9952804],[14.4365243,45],[14.3875439,45.03829],[14.3770519,45.0809404],[14.386472,45.0872187],[14.3954403,45.0931958],[14.4003798,45.0972026],[14.404112,45.1018143],[14.4064921,45.1068523],[14.4067582,45.108351],[14.4074275,45.1121214],[14.4068955,45.1172816],[14.4081594,45.1121377],[14.4956354,45.1504482],[14.5115181,45.2521988],[14.5131186,45.2574842],[14.5140653,45.2590146],[14.4467092,45.2776576],[14.4468724,45.2776251],[14.453769,45.2762542],[14.4614408,45.2758516],[14.4672347,45.2763699],[14.469073,45.2765343],[14.4763587,45.2782747],[14.4830048,45.2810028],[14.4862728,45.2830562],[14.488744,45.2846089],[14.4933451,45.288948],[14.4940437,45.2899919],[14.4960328,45.292964],[14.4960397,45.2929621],[14.4960401,45.292962],[14.4960417,45.2929616],[14.4960419,45.2929615],[14.4960423,45.2929614],[14.4960433,45.2929611],[14.4960433,45.2929611],[14.5315453,45.2831337],[14.5315453,45.2831337],[14.5315453,45.2831337],[14.5308135,45.2833363],[14.4960433,45.2929611],[14.4960433,45.2929611],[14.4960423,45.2929614],[14.4960419,45.2929615],[14.4960417,45.2929616],[14.4960401,45.292962],[14.4960397,45.2929621],[14.484235,45.2962298],[14.484235,45.2962298],[14.484235,45.2962298],[14.484235,45.2962298],[14.484235,45.2962298],[14.484235,45.2962298],[14.484235,45.2962298],[14.484235,45.2962298],[14.484235,45.2962298],[14.484235,45.2962298],[14.460457,45.3028119],[14.4593215,45.3031262],[14.4179013,45.3145918],[14.4159763,45.3151247],[14.4159763,45.3151247],[14.4159763,45.3151247],[14.3669014,45.3287093],[14.3669014,45.3287093],[14.3669014,45.3287093],[14.3669014,45.3287093],[14.3669014,45.3287093],[14.3669014,45.3287093],[14.3669014,45.3287093],[14.3669014,45.3287093],[14.3669014,45.3287093],[14.3669014,45.3287093],[14.3457726,45.334558],[14.317432,45.3424031],[14.3119431,45.3439225],[14.317432,45.3424031],[14.3457726,45.334558],[14.3669014,45.3287093],[14.3669014,45.3287093],[14.3669014,45.3287093],[14.3669014,45.3287093],[14.3669014,45.3287093],[14.3669014,45.3287093],[14.3669014,45.3287093],[14.3669014,45.3287093],[14.3669014,45.3287093],[14.4159763,45.3151247],[14.4159763,45.3151247],[14.4159763,45.3151247],[14.4179013,45.3145918],[14.4593215,45.3031262],[14.460457,45.3028119],[14.460457,45.3028119],[14.45,45.33],[14.2,45.6],[13.8,46.2],[13.7,46.5],[13.4,46.55],[13.1666667,46.5833333],[12.9333333,46.6166667],[12.7,46.65],[12.5333333,46.6333333],[12.3666667,46.6166667],[12.2,46.6],[12.0333333,46.55],[11.8666667,46.5],[11.7,46.45],[11.5,46.4],[11.3,46.35],[11,46.4],[10.8166667,46.45],[10.6333333,46.5],[10.45,46.55],[10.225,46.475],[10,46.4],[9.8333333,46.3833333],[9.6666667,46.3666667],[9.5,46.35],[9.35,46.4],[9.2,46.45],[8.45,46.45],[8.275,46.35],[8.1,46.25],[7.985,46.095],[7.87,45.94],[7.66,45.98],[7.4966667,45.9433333],[7.3333333,45.9066667],[7.17,45.87],[7.015,45.85],[6.86,45.83]],[[14.3153139,45.0704151],[14.3179694,45.0672843],[14.3211207,45.0635691],[14.3314006,45.0514497],[14.3314006,45.0514497],[14.3314032,45.0514465],[14.3314006,45.0514497],[14.3314006,45.0514497],[14.3211207,45.0635691],[14.3179694,45.0672843],[14.3142175,45.0717077],[14.3118132,45.0745422],[14.3107527,45.0757925],[14.3107524,45.0757928],[14.3107527,45.0757925],[14.3118132,45.0745422],[14.3142175,45.0717077],[14.3153139,45.0704151]],[[10.8631086,42.3669608],[10.895509,42.3872237],[10.9243092,42.317992],[10.8631086,42.3669608]],[[14.3572857,45.1969271],[14.362554,45.1963598],[14.3635152,45.1962793],[14.3637034,45.1962361],[14.3645349,45.1961465],[14.3572857,45.1969271]],[[14.3690466,45.1950092],[14.3706285,45.1946459],[14.3708756,45.1945481],[14.371439,45.194406],[14.3690466,45.1950092]],[[14.371439,45.194406],[14.3750976,45.1928762],[14.377146,45.1920651],[14.3773894,45.1919179],[14.3777444,45.1917695],[14.371439,45.194406]],[[14.380638,45.1899538],[14.3828172,45.1886362],[14.3830003,45.1884714],[14.380638,45.1899538]],[[14.3856313,45.1861041],[14.3874239,45.1844911],[14.3875178,45.1843599],[14.3856313,45.1861041]],[[14.3901319,45.1807077],[14.3907894,45.1797891],[14.3908058,45.1797475],[14.3901319,45.1807077]]]}}
