{"type":"Feature","properties":{"family":"steppe","name":"Khazar Khaganate, 789 – 864"},"geometry":{"type":"Polygon","coordinates":[[[31.1150677,46.3626035],[31.126192,46.3096385],[31.1335525,46.295415],[31.1522737,46.2592382],[31.228409,46.1480432],[31.264221,46.1059515],[31.3103915,46.0690159],[31.3653954,46.0384419],[31.4274289,46.0152257],[31.4944673,46.000123],[31.8528141,45.9429459],[31.9279696,45.9360718],[31.9868487,45.9386832],[32.0187966,45.9172149],[32.0808829,45.8890849],[32.1495031,45.8696416],[32.3896579,45.8191981],[32.4670134,45.8086591],[32.4795992,45.8087474],[32.4856634,45.806749],[32.5568942,45.7939699],[32.562225,45.7933804],[32.5512609,45.7832662],[32.5267005,45.7778188],[32.4430321,45.7512263],[32.370826,45.7115909],[32.2088657,45.5980647],[32.1635321,45.5596418],[32.1291435,45.5160433],[32.1068552,45.4687688],[32.0974001,45.4194405],[32.1010677,45.3697465],[32.1176985,45.3213826],[32.1504749,45.2539549],[32.1783198,45.2099179],[32.216845,45.1700744],[32.2648046,45.1356918],[32.3206613,45.1078616],[32.3826349,45.0874664],[32.4615182,45.067288],[32.5285472,45.0548126],[32.5976717,45.0510497],[32.6666442,45.0561224],[32.7332214,45.0698666],[32.78456,45.0841097],[33.0139671,44.9497028],[33.0793094,44.9187018],[33.1522292,44.8978172],[33.1954494,44.8923047],[33.1691898,44.8391517],[33.1650429,44.8271771],[33.1859527,44.8670378],[33.2225015,44.9100043],[33.2696914,44.9474344],[33.3258935,44.9780222],[33.3891547,45.0006992],[33.4572671,45.0146724],[33.5278465,45.019453],[33.5399026,45.0194517],[33.5800977,44.9294071],[33.571658,44.8817253],[33.4844099,44.8014017],[33.4806904,44.7972306],[33.4781059,44.7926498],[33.4767428,44.7878129],[33.4766466,44.782882],[33.4778201,44.7780225],[33.4910101,44.7430239],[33.4910832,44.7428838],[33.4910484,44.7429763],[33.4898217,44.7483804],[33.4901594,44.7538516],[33.492048,44.7591639],[33.4954099,44.7640979],[33.5001064,44.7684498],[33.5059437,44.7720395],[33.5126807,44.7747189],[33.5179572,44.7759079],[33.5203141,44.7696433],[33.5213092,44.7669985],[33.5229878,44.7625371],[33.5277046,44.75],[33.9,44.75],[33.9,44.3847608],[33.8754323,44.3868388],[33.8178337,44.3917106],[33.719839,44.3999992],[33.7197372,44.4000078],[33.719839,44.3999992],[33.8178337,44.3917106],[33.8754323,44.3868388],[33.9,44.3847608],[33.9000798,44.3847541],[33.9372881,44.3816069],[33.9372904,44.3816067],[33.9372908,44.3816067],[33.9372922,44.3816066],[33.9372931,44.3816065],[33.9372955,44.3816063],[33.9393394,44.3814334],[33.9372955,44.3816063],[33.9372931,44.3816065],[33.9372922,44.3816066],[33.9372908,44.3816067],[33.9372904,44.3816067],[33.9372881,44.3816069],[33.9000798,44.3847541],[33.9,44.3847608],[33.8754323,44.3868388],[33.8178337,44.3917106],[33.719839,44.3999992],[33.7197433,44.4000073],[33.719839,44.3999992],[33.8178337,44.3917106],[33.8754323,44.3868388],[33.9,44.3847608],[33.9000798,44.3847541],[33.9372881,44.3816069],[33.9372904,44.3816067],[33.9370495,44.3797862],[33.9350776,44.374925],[33.9318698,44.3704107],[33.9275395,44.3664022],[33.9222394,44.3630407],[33.9161562,44.3604445],[33.9095043,44.3587052],[33.9025177,44.3578839],[33.8955049,44.3580084],[33.8956701,44.3579944],[33.9347972,44.3546846],[33.9438924,44.3546945],[33.9527233,44.3562583],[34.114666,44.4001405],[34.12177,44.4026976],[34.1279686,44.4062589],[34.277958,44.5125184],[34.2779692,44.5125263],[34.2771608,44.3848513],[34.2693883,44.3315446],[34.2470433,44.2803626],[34.211041,44.2333219],[34.1628259,44.1922718],[34.1043108,44.1588231],[34.0378011,44.1342863],[33.9659047,44.1196217],[33.8914327,44.1154035],[33.8172934,44.1217973],[33.7899931,44.1261232],[33.6995242,44.2759291],[33.6993109,44.2762823],[33.6995242,44.2759291],[33.7899931,44.1261232],[33.7900525,44.1260249],[33.7900668,44.1260012],[33.7900693,44.1259971],[33.7901138,44.1259234],[33.7901339,44.1258901],[33.7901547,44.1258556],[33.7920911,44.1226492],[33.7921384,44.1225708],[33.8940571,44.1139411],[33.9754973,44.1133112],[34.0552633,44.1252287],[34.1296523,44.1491419],[34.5210703,44.3122427],[34.578289,44.3412804],[34.6270653,44.3773614],[34.6657092,44.419249],[34.7292169,44.5041698],[34.92807,44.5468972],[34.992742,44.5312011],[35.0650285,44.5241523],[35.1378863,44.5270739],[35.2086421,44.5398593],[35.2746964,44.56204],[35.3336151,44.5928017],[35.383217,44.6310132],[35.4339977,44.678526],[35.4381908,44.6787963],[35.5067789,44.6927142],[35.5705476,44.715466],[35.627264,44.7462583],[35.6490007,44.7634839],[35.7084325,44.7416534],[35.7857621,44.7266491],[35.8658027,44.7234536],[36.0127108,44.7284842],[36.0949339,44.7376987],[36.1308253,44.7477385],[36.1742355,44.7407145],[36.2429053,44.7385914],[36.3110097,44.7452502],[36.3763473,44.7604761],[36.6023644,44.8293918],[36.6299235,44.8401137],[36.6492796,44.836942],[36.7200749,44.8348742],[36.7638454,44.8364693],[36.967054,44.7677044],[37.0051805,44.6737007],[37.0303572,44.6277638],[37.0668272,44.585851],[37.1133571,44.5493536],[37.2212895,44.4786806],[37.2778942,44.4479954],[37.3415067,44.4253887],[37.4098964,44.4116513],[37.7251311,44.3701154],[37.7485042,44.3537874],[37.8095391,44.3251655],[37.8251006,44.3206303],[37.9011867,44.2382237],[37.9427771,44.2007749],[37.9929013,44.1691697],[38.0499838,44.1443935],[38.1122397,44.1272181],[38.5635573,44.0335263],[39.7239436,43.1988043],[39.7748534,43.1675538],[39.8325722,43.1434406],[39.8413441,43.1411726],[39.8952452,43.1272366],[39.9608648,43.11946],[40.0273329,43.1203596],[40.2952795,43.1406945],[40.1905864,43.2983267],[39.9741626,43.363338],[39.9735349,43.3635819],[39.9726552,43.3637904],[39.9735349,43.3635819],[39.9792179,43.3622343],[39.9860638,43.3615895],[39.9929558,43.3618783],[39.9996556,43.3630907],[40.0059314,43.3651848],[40.0115659,43.3680881],[40.0163641,43.3717001],[40.0190869,43.3741737],[40.0324637,43.3750092],[40.0324575,43.375011],[39.9882843,43.3882843],[39.9873999,43.38855],[39.9882843,43.3882843],[40,43.4],[40.4,43.425],[40.6,43.4375],[40.8,43.45],[41.6,43.3],[42.5,43.2],[42.6585852,43.1433624],[42.6154262,43.136952],[42.6154262,43.136952],[42.6585852,43.1433624],[42.6585852,43.1433624],[42.8314283,43.169035],[42.6585852,43.1433624],[42.7333333,43.1166667],[42.9666667,43.0333333],[43.2,42.95],[43.4333333,42.8833333],[43.5023784,42.8636062],[43.3938171,42.8869445],[43.390409,42.8876772],[43.3903337,42.8876934],[43.3882136,42.8881492],[43.3878462,42.8882282],[43.3870783,42.8883932],[43.3843422,42.8889814],[43.3462335,42.897174],[43.3843422,42.8889814],[43.3870783,42.8883932],[43.3878462,42.8882282],[43.3882136,42.8881492],[43.3903337,42.8876934],[43.390409,42.8876772],[43.3938171,42.8869445],[43.5023784,42.8636062],[43.5290898,42.8559743],[43.5190352,42.8600253],[43.5290898,42.8559743],[43.5290898,42.8559743],[43.5290898,42.8559743],[43.5290898,42.8559743],[43.6529773,42.8060604],[43.7241457,42.7773869],[43.7273997,42.7760758],[43.7760526,42.7564737],[43.7760526,42.7564737],[43.7273997,42.7760758],[43.7241457,42.7773869],[43.6735415,42.7977752],[43.6529773,42.8060604],[43.5290898,42.8559743],[43.6666667,42.8166667],[43.9,42.75],[44.5104588,42.75],[44.6,42.75],[44.8,42.7],[45,42.65],[45.2,42.6],[45.3666667,42.4666667],[45.5333333,42.3333333],[45.7,42.2],[46.0333333,42.0333333],[46.2,41.95],[46.5333333,41.7833333],[46.7,41.7],[46.9,41.5666667],[47.1,41.4333333],[47.3,41.3],[47.4666667,41.3666667],[47.6333333,41.4333333],[47.8,41.5],[47.9333333,41.6833333],[48.0666667,41.8666667],[48.2,42.05],[48.3200897,42.070015],[48.3325798,42.0447984],[48.3345927,42.0452848],[48.3405853,42.0477381],[48.3458486,42.0509846],[48.3501951,42.0549088],[48.3534701,42.0593711],[48.3555567,42.0642127],[48.3563803,42.0692612],[48.3559113,42.0743367],[48.3541661,42.0792584],[48.3539895,42.0796154],[48.3539053,42.0797855],[48.3541659,42.079391],[48.4161063,41.9542173],[48.5760419,41.8791749],[48.5761114,41.8792184],[48.5794752,41.8813237],[48.6231215,41.9215119],[48.6556799,41.9671737],[48.675933,42.0166369],[48.6831075,42.0680862],[48.6769069,42.1196285],[48.6582023,42.1676286],[48.6577961,42.1686711],[48.6575267,42.1693625],[48.6256525,42.2154492],[48.1750409,42.7314603],[48.1358901,42.7683741],[48.088606,42.7997602],[48.0764477,42.8065167],[48.0646973,42.8935043],[48.0516779,42.9426284],[48.0264568,42.9891567],[47.9898793,43.031479],[47.9431908,43.0681272],[47.8637777,43.1197744],[47.8682104,43.1235392],[47.9125761,43.1704377],[47.9424705,43.2230986],[47.9565241,43.2791783],[47.9540649,43.336174],[47.9351562,43.3915349],[47.9173399,43.4270484],[47.8843983,43.4763688],[47.8809779,43.4795999],[47.9457975,43.6521763],[48.0133289,43.7252357],[48.0151231,43.7276493],[48.0904166,43.7677392],[48.1461792,43.8041553],[48.1907486,43.8478861],[48.2223043,43.8971712],[48.2395395,43.950022],[48.241718,44.0043006],[48.2287098,44.0578052],[48.2010033,44.1083596],[48.1596915,44.1539017],[48.1064333,44.1925691],[48.0433888,44.2227767],[47.9731323,44.2432838],[47.8985451,44.2532467],[47.6960192,44.265138],[47.62463,44.2643819],[47.6242831,44.2643302],[47.5899552,44.3206742],[47.5513351,44.3694058],[47.4994024,44.411375],[47.4363898,44.4447551],[47.3650274,44.46809],[47.3581359,44.4691961],[47.3300917,44.5036454],[47.2821058,44.5501912],[47.2745862,44.5549126],[47.3213533,44.5771735],[47.3748186,44.6155497],[47.4165104,44.6607345],[47.4447362,44.710925],[47.4583307,44.7641135],[47.4591264,44.7712319],[47.4753271,44.7830552],[47.5297237,44.8334072],[47.5660897,44.8913729],[47.6011244,44.9713116],[47.6241945,44.9831452],[47.6735485,45.020272],[47.7121893,45.0632871],[47.7387217,45.1106656],[47.7521721,45.1607238],[47.7594253,45.2156756],[47.7838425,45.2448945],[47.8213665,45.2277609],[47.8924218,45.2079829],[47.9675993,45.1984744],[48.0439473,45.1996078],[48.1184704,45.2113378],[48.1882424,45.2332037],[48.2505163,45.2643459],[48.3028295,45.3035395],[48.3430988,45.3492401],[48.3697038,45.3996432],[48.3815541,45.4527537],[48.3810794,45.4602173],[48.4098076,45.4675378],[48.4750265,45.4953684],[48.5311756,45.5316476],[48.5673083,45.5665326],[48.5984232,45.5570333],[48.6726012,45.5457059],[48.7484956,45.5447224],[48.823201,45.5541198],[48.8938562,45.5735374],[48.9692074,45.6004417],[49.0302007,45.6274691],[49.0829678,45.6619454],[49.1256604,45.7026735],[49.1567707,45.7482364],[49.1751849,45.7970457],[49.1802256,45.8473955],[49.1753464,45.8760241],[49.1977512,45.8886126],[49.2075772,45.8896103],[49.279517,45.9074035],[49.3450961,45.9346149],[49.4017905,45.9702011],[49.4341806,46.0004557],[49.4382395,46.0012488],[49.5043244,46.024231],[49.5166446,46.0307925],[49.5314904,46.0183935],[49.5928636,45.9842721],[49.662815,45.9593829],[49.738503,45.9447323],[49.8168639,45.9409118],[49.8947308,45.9480748],[49.9689567,45.965931],[50.0365361,45.9937574],[50.0947222,46.0304273],[50.1411358,46.0744532],[50.1738618,46.1240463],[50.1915294,46.1771864],[50.2102424,46.2801115],[50.2124619,46.3313142],[50.200573,46.3818842],[50.1883892,46.4047844],[50.2787559,46.4584262],[50.3471389,46.4682049],[50.4182661,46.4889788],[50.4821409,46.518909],[50.5362949,46.5568443],[50.5425814,46.562213],[50.5992116,46.5614256],[50.6763032,46.5709909],[50.7491332,46.5908262],[50.8148331,46.6201511],[50.8578181,46.6490805],[50.9246041,46.6676967],[50.9890846,46.6967661],[51.0441011,46.7338719],[51.087535,46.7775987],[51.0898038,46.7804465],[51.2468462,46.8325378],[51.2759221,46.8266466],[51.2895482,46.8154367],[51.3442729,46.7784112],[51.4084229,46.7493305],[51.4782715,46.7296557],[51.5063681,46.7119419],[51.5704741,46.6848378],[51.6409014,46.666553],[51.6533888,46.6650746],[51.689904,46.6507864],[51.7589948,46.6343901],[51.8359983,46.6214021],[51.8485942,46.6192775],[51.9315792,46.6115146],[52.015078,46.6159223],[52.0953492,46.632302],[52.1687909,46.659918],[52.2320958,46.6975301],[52.2889915,46.7393105],[52.3338247,46.7790167],[52.3671545,46.8237071],[52.3878021,46.8718401],[52.3886914,46.8779899],[52.3878664,46.8771245],[52.3877626,46.8770527],[52.3822827,46.8732595],[52.37568,46.8702368],[52.368326,46.8681788],[52.3605184,46.8671687],[52.2506506,46.8606196],[52.2803672,46.8222265],[52.2832273,46.8174841],[52.284722,46.8124568],[52.2847978,46.8073266],[52.2834522,46.8022792],[52.2807344,46.7974972],[52.2767429,46.7931536],[52.2716225,46.7894056],[52.2655585,46.7863885],[52.2587703,46.7842115],[52.2515033,46.7829533],[52.2440201,46.7826594],[52.1108858,46.7860356],[52.1034865,46.7867027],[52.0964037,46.7883125],[52.0898914,46.7908071],[52.0841828,46.7940972],[51.9789658,46.8673023],[51.9789567,46.8673087],[52.0058258,46.8871056],[52.00072,46.8906593],[52.0187202,46.9362508],[52,46.9224528],[52,47],[51.9428571,47.4285714],[51.9142857,47.6428571],[51.8857143,47.8571429],[51.8571429,48.0714286],[51.8285714,48.2857143],[51.8,48.5],[51.7571429,48.7142857],[51.7142857,48.9285714],[51.6714286,49.1428571],[51.6285714,49.3571429],[51.5857143,49.5714286],[51.5428571,49.7857143],[51.5,50],[51.4833333,50.2166667],[51.4666667,50.4333333],[51.4333333,50.8666667],[51.4166667,51.0833333],[51.4,51.3],[51.04,51.5],[50.86,51.6],[50.68,51.7],[50.5,51.8],[50.0555556,51.8444444],[49.8333333,51.8666667],[49.6111111,51.8888889],[49.3888889,51.9111111],[49.1666667,51.9333333],[48.9444444,51.9555556],[48.7222222,51.9777778],[48.5,52],[48.2571429,51.9428571],[48.0142857,51.8857143],[47.7714286,51.8285714],[47.5285714,51.7714286],[47.2857143,51.7142857],[47.0428571,51.6571429],[46.8,51.6],[46.575,51.575],[46.35,51.55],[46.125,51.525],[45,51.4],[44.7777778,51.3888889],[44.5555556,51.3777778],[44.3333333,51.3666667],[44.1111111,51.3555556],[43.8888889,51.3444444],[43.6666667,51.3333333],[43.4444444,51.3222222],[43,51.3],[42.7777778,51.2777778],[42.5555556,51.2555556],[42.3333333,51.2333333],[42.1111111,51.2111111],[42,51.2],[41.8888889,51.1888889],[41.6666667,51.1666667],[41.4444444,51.1444444],[41.2222222,51.1222222],[41,51.1],[40.7666667,51.0666667],[40.5333333,51.0333333],[40.5,51.0285714],[40.0666667,50.9666667],[39.8333333,50.9333333],[39.6,50.9],[39.3833333,50.85],[39.1666667,50.8],[38.95,50.75],[38.7333333,50.7],[38.5166667,50.65],[38.3,50.6],[37.86,50.4],[37.64,50.3],[37.5993547,50.2815249],[37.600576,50.2914539],[37.5731886,50.3027427],[37.5731886,50.3027427],[37.600576,50.2914539],[37.5993547,50.2815249],[37.5993547,50.2815249],[37.5966629,50.25964],[37.5993547,50.2815249],[37.42,50.2],[37.2,50.1],[37,49.96],[36.8,49.82],[36.6,49.68],[36.4,49.54],[36.2,49.4],[36,49.26],[35.8,49.12],[35.6,48.98],[35.4,48.84],[35.2,48.7],[35,48.56],[34.8,48.42],[34.6,48.28],[34.4,48.14],[34.2,48],[34,47.88],[33.8,47.76],[33.6,47.64],[33.4,47.52],[33.2,47.4],[33,47.28],[32.8,47.16],[32.6,47.04],[32.4,46.92],[32.2,46.8],[31.9579888,46.7327747],[31.9737398,46.7080412],[32.0241202,46.6289298],[31.9737398,46.7080412],[31.9579888,46.7327747],[31.9423051,46.7574024],[31.9361861,46.7551851],[31.9301251,46.7517872],[31.9251691,46.747636],[31.9215144,46.742896],[31.9210145,46.7417328],[31.9196987,46.742249],[31.9122043,46.7439468],[31.9043645,46.7445874],[31.9019398,46.7444511],[31.9019398,46.7444511],[31.9053191,46.7386873],[31.9036285,46.7176746],[31.75,46.675],[31.5535142,46.6204206],[31.5777158,46.6171097],[31.5535142,46.6204206],[31.5150031,46.6256891],[31.5142334,46.6204931],[31.5149693,46.6152325],[31.5150716,46.6149996],[31.5146573,46.6150674],[31.5069504,46.6152668],[31.5069504,46.6152668],[31.499335,46.61443],[31.4921048,46.6125892],[31.4855392,46.6098156],[31.4798913,46.6062162],[31.4773695,46.6038207],[31.4761621,46.6040742],[31.4692214,46.6066652],[31.4631735,46.6101569],[31.4582632,46.6144081],[31.4546893,46.6192469],[31.4543766,46.6200284],[31.4482433,46.6138056],[31.4440082,46.6102155],[31.4389419,46.6071757],[31.4331932,46.6047755],[31.3540202,46.5777703],[31.3456575,46.5756879],[31.3368251,46.5749541],[31.3279766,46.5756067],[31.1615584,46.6011009],[31.1186001,46.5922988],[31.1186,46.5922972],[31.1176389,46.5707374],[31.1303656,46.5186328],[31.1499328,46.4832088],[31.1390126,46.4678429],[31.1193832,46.4160432],[31.1150677,46.3626035]],[[31.563061,46.5916693],[31.5700093,46.5907181],[31.5700859,46.5907122],[31.5700751,46.590675],[31.5631345,46.5916244],[31.594817,46.5722949],[31.563061,46.5916693]],[[35.3268745,45.8829706],[35.3310085,45.8843436],[35.3879235,45.9075464],[35.4384123,45.9370984],[35.4810171,45.9721535],[35.7723964,46.2560733],[36.0426193,46.3903768],[36.0473798,46.390657],[36.0589369,46.3840494],[36.1251467,46.3591284],[36.1970204,46.3433938],[36.2719165,46.3374236],[36.3470872,46.3414373],[36.4197747,46.3552885],[36.487308,46.3784691],[36.5471974,46.4101279],[36.5513485,46.4133646],[36.6176154,46.3886366],[36.6933023,46.3728057],[36.7720412,46.367745],[36.8506577,46.3736592],[36.9259817,46.3903105],[36.9949699,46.4170277],[37.0548241,46.4527319],[37.1031021,46.4959791],[37.1378162,46.5450156],[37.1414228,46.5517648],[37.1415086,46.551998],[37.1416668,46.5522218],[37.1734757,46.6118534],[37.2141421,46.6266644],[37.2412002,46.6201737],[37.3177267,46.612782],[37.3469061,46.6139177],[37.3495211,46.6025766],[37.3752269,46.5540086],[37.5529115,46.2962184],[37.5916087,46.2514834],[37.6419671,46.2127076],[37.6556265,46.2040327],[37.6315319,46.1863121],[37.5914003,46.1420403],[37.5644064,46.0932349],[37.4963863,45.9215274],[37.4846132,45.9191971],[37.4175567,45.8953722],[37.3584478,45.8629513],[37.3095243,45.8231711],[37.2772209,45.7909989],[37.2400406,45.7448455],[37.2165492,45.6945144],[37.2076175,45.6419527],[37.206824,45.6139653],[37.0067463,45.684547],[36.9358,45.7035994],[36.8608469,45.7125309],[36.784831,45.7109909],[36.7107396,45.6990407],[36.6684074,45.6856678],[36.6404078,45.6897313],[36.4965969,45.7002659],[36.4512863,45.7199335],[36.3760952,45.7389752],[36.296859,45.7467531],[36.2170205,45.74293],[36.0506582,45.7225581],[35.9996714,45.7123198],[35.9614334,45.7247792],[35.8890529,45.7372899],[35.8145556,45.7398219],[35.7407549,45.7322801],[35.6704368,45.7149501],[35.6062498,45.6884862],[35.5506022,45.6538867],[35.5397539,45.6439125],[35.3429905,45.8573762],[35.3268745,45.8829706]],[[37.5947759,50.2442988],[37.5953177,50.2487036],[37.59539,50.2492909],[37.5954054,50.2494162],[37.59539,50.2492909],[37.5953177,50.2487036],[37.5947759,50.2442988]]]}}
