{"type":"Feature","properties":{"family":"steppe","name":"Khazar Khaganate, 882 – 957"},"geometry":{"type":"Polygon","coordinates":[[[35.0151086,44.7933962],[35.017509,44.790538],[35.0663868,44.7517993],[35.1248024,44.7204221],[35.1905891,44.6975635],[35.2613181,44.6840657],[35.3343854,44.6804259],[35.407104,44.6867788],[35.4735654,44.702144],[35.4767989,44.7028916],[35.5409012,44.7281722],[35.630401,44.7718694],[35.6370828,44.7679667],[35.7082943,44.7418194],[35.7856312,44.7268173],[35.8656865,44.7236215],[36.0125951,44.7286485],[36.0948611,44.7378648],[36.1307225,44.7478938],[36.1740958,44.740875],[36.2428004,44.7387504],[36.3109427,44.745412],[36.3763179,44.7606449],[36.6023416,44.829556],[36.6298463,44.8402543],[36.6491593,44.83709],[36.7199703,44.8350213],[36.7637089,44.8366142],[36.9670007,44.7678158],[37.0051689,44.6737034],[37.0303204,44.6278103],[37.0667567,44.5859361],[37.1132469,44.5494697],[37.2211745,44.4787968],[37.2777617,44.4481205],[37.3413624,44.4255188],[37.4097461,44.4117824],[37.724994,44.3702372],[37.748396,44.3538885],[37.8094136,44.3252766],[37.8250009,44.3207343],[37.9011255,44.238281],[37.9482425,44.1967612],[38.0058232,44.1627102],[38.0716055,44.1374565],[38.1430182,44.1219843],[38.4473238,44.0785819],[38.7377453,43.9396431],[38.7371226,43.9401106],[38.7368378,43.9403245],[38.7111608,43.9596036],[38.6658716,44.0001095],[38.6321682,44.0460999],[38.6113223,44.0958772],[38.6041377,44.1476],[38.6109167,44.1993501],[38.631443,44.2492033],[38.6544478,44.2808193],[38.6544478,44.2808193],[38.6544503,44.2808227],[38.7353077,44.2519705],[38.8272915,44.1673093],[38.8317353,44.1638748],[38.8369414,44.1610444],[38.8427526,44.1589036],[38.9567137,44.1254626],[38.9567024,44.1254729],[38.9566915,44.1254828],[38.9506019,44.1310426],[38.9465166,44.1356563],[38.943811,44.140766],[38.9425963,44.146162],[38.942923,44.1516227],[38.9447779,44.1569239],[38.9456287,44.1581905],[38.9793898,44.1484098],[38.9801311,44.1477327],[39.15,44.2],[39.3666667,44.2666667],[39.5833333,44.3333333],[39.8,44.4],[40.0428571,44.4285714],[40.2857143,44.4571429],[40.5285714,44.4857143],[40.7714286,44.5142857],[41.0142857,44.5428571],[41.2571429,44.5714286],[41.5,44.6],[41.7222222,44.5888889],[41.9444444,44.5777778],[42.1666667,44.5666667],[42.3888889,44.5555556],[42.6111111,44.5444444],[42.8333333,44.5333333],[43.0555556,44.5222222],[43.2777778,44.5111111],[43.5,44.5],[43.7142857,44.4285714],[43.9285714,44.3571429],[44.1428571,44.2857143],[44.3571429,44.2142857],[44.5714286,44.1428571],[44.7857143,44.0714286],[45,44],[45.3,43.65],[45.45,43.475],[45.6,43.3],[45.5,43.125],[45.4,42.95],[45.3,42.775],[45.2,42.6],[45.3666667,42.4666667],[45.5333333,42.3333333],[45.7,42.2],[46.0333333,42.0333333],[46.2,41.95],[46.5333333,41.7833333],[46.7,41.7],[46.9,41.5666667],[47.1,41.4333333],[47.3,41.3],[47.4666667,41.3666667],[47.6333333,41.4333333],[47.8,41.5],[47.9333333,41.6833333],[48.0666667,41.8666667],[48.2,42.05],[48.3200897,42.070015],[48.3325798,42.0447984],[48.3325798,42.0447984],[48.3325831,42.0447917],[48.334572,42.0452724],[48.3405696,42.0477283],[48.3458378,42.0509786],[48.3501888,42.0549075],[48.3534675,42.059375],[48.3555567,42.064222],[48.3563818,42.0692757],[48.355913,42.074356],[48.3541667,42.0792817],[48.3539711,42.079677],[48.3375763,42.1128144],[48.3539711,42.079677],[48.3541939,42.0793393],[48.4160618,41.9543163],[48.5761101,41.8792233],[48.579348,41.8812499],[48.6230404,41.921479],[48.6556397,41.9671873],[48.6759256,42.0166996],[48.6831232,42.0681971],[48.6769346,42.1197836],[48.658135,42.1680657],[48.6575552,42.1695547],[48.6256712,42.2156683],[48.1750301,42.7316873],[48.1359041,42.7685731],[48.0886564,42.7999332],[48.0764577,42.8067118],[48.0647071,42.893682],[48.0516866,42.9428126],[48.0264691,42.989342],[47.9898995,43.0316607],[47.9432228,43.0683013],[47.8638964,43.1198904],[47.8681169,43.1234749],[47.9125288,43.1704202],[47.9424579,43.2231345],[47.9565316,43.2792692],[47.9540765,43.3363167],[47.9351556,43.3917215],[47.9173379,43.4272359],[47.8844005,43.4765506],[47.8810145,43.4797493],[47.945777,43.6521726],[48.0132684,43.7251867],[48.0150362,43.7275646],[48.090274,43.7676228],[48.1460662,43.8040552],[48.1906684,43.8478076],[48.2222585,43.8971183],[48.2395278,43.9499975],[48.2417387,44.0043058],[48.2287598,44.0578397],[48.2010782,44.1084214],[48.1597866,44.1539874],[48.1065432,44.1926741],[48.0435082,44.2228955],[47.9732558,44.2434104],[47.8986678,44.2533748],[47.6961408,44.2652611],[47.6247507,44.264501],[47.6243127,44.2644357],[47.5899399,44.3208449],[47.5513269,44.3695644],[47.4994123,44.4115198],[47.4364267,44.4448866],[47.3650968,44.4682105],[47.3581455,44.4693262],[47.3300758,44.503804],[47.2923561,44.5420163],[47.2744032,44.5547718],[47.3213454,44.5771326],[47.3748125,44.6155323],[47.416507,44.6607413],[47.4447363,44.7109555],[47.4583348,44.7641666],[47.4591212,44.7711993],[47.4752404,44.7829627],[47.5296783,44.8333518],[47.5660755,44.8913633],[47.6010845,44.9712359],[47.6241512,44.9830721],[47.6735203,45.0202228],[47.7121746,45.0632653],[47.7387177,45.1106733],[47.7521751,45.1607615],[47.7594216,45.215657],[47.7837671,45.2447894],[47.8213934,45.2276097],[47.8924483,45.2078372],[47.9676245,45.1983391],[48.0439707,45.1994874],[48.1184917,45.2112367],[48.1882616,45.2331255],[48.2505333,45.2642936],[48.3028441,45.3035153],[48.3431108,45.349245],[48.3697129,45.3996771],[48.3815598,45.4528153],[48.3810956,45.4601125],[48.4098108,45.4674369],[48.4750345,45.4952923],[48.5311872,45.5316007],[48.5672126,45.566407],[48.5983347,45.5568985],[48.6724941,45.5455627],[48.7483739,45.5445723],[48.8230704,45.5539647],[48.8937237,45.5733797],[48.9690771,45.600283],[49.0301063,45.6273276],[49.0829069,45.6618316],[49.1256281,45.7025959],[49.1567598,45.7482016],[49.1751863,45.7970573],[49.1802295,45.8474542],[49.175374,45.8759441],[49.1976262,45.8884567],[49.2076132,45.889473],[49.2795466,45.9072868],[49.3451194,45.9345223],[49.4018079,45.9701354],[49.4340743,46.0002982],[49.4382749,46.0011202],[49.504361,46.0241282],[49.5166238,46.0306657],[49.5315203,46.018221],[49.5928912,45.9840922],[49.6628374,45.9592004],[49.7385186,45.9445523],[49.8168719,45.9407394],[49.8947316,45.9479148],[49.9689515,45.9657881],[50.0365268,45.9936359],[50.0947111,46.0303309],[50.1411255,46.0743849],[50.1738547,46.1240082],[50.191528,46.1771797],[50.2102419,46.2801086],[50.2124653,46.3313574],[50.2005731,46.3819715],[50.1884769,46.4047171],[50.2786395,46.4582349],[50.3470382,46.4680148],[50.4181569,46.488788],[50.4820313,46.5187205],[50.5361941,46.5566619],[50.5424737,46.5620243],[50.599129,46.5612313],[50.6762215,46.5707963],[50.7490563,46.5906389],[50.8147647,46.6199783],[50.8576736,46.6488668],[50.9244937,46.6674933],[50.9889833,46.6965713],[51.0440144,46.7336922],[51.0874679,46.7774403],[51.0896978,46.7802392],[51.2467883,46.8323419],[51.2760072,46.8264209],[51.2896303,46.8152125],[51.3443441,46.7781883],[51.408472,46.7491098],[51.4795828,46.7290724],[51.5116273,46.7247265],[51.5634698,46.6970691],[51.6305648,46.668144],[51.6719607,46.6574506],[51.684269,46.652361],[51.7590146,46.6341629],[51.8486124,46.6190482],[51.9315539,46.611289],[52.0150103,46.6156981],[52.0952461,46.6320771],[52.1686646,46.6596915],[52.2319625,46.6973025],[52.2888607,46.7390834],[52.338127,46.7836797],[52.3729433,46.8342565],[52.3877626,46.8770527],[52.3822827,46.8732595],[52.37568,46.8702368],[52.368326,46.8681788],[52.3605184,46.8671687],[52.2506506,46.8606196],[52.2803672,46.8222265],[52.2832273,46.8174841],[52.284722,46.8124568],[52.2847978,46.8073266],[52.2834522,46.8022792],[52.2807344,46.7974972],[52.2767429,46.7931536],[52.2716225,46.7894056],[52.2655585,46.7863885],[52.2587703,46.7842115],[52.2515033,46.7829533],[52.2440201,46.7826594],[52.1108858,46.7860356],[52.1034865,46.7867027],[52.0964037,46.7883125],[52.0898914,46.7908071],[52.0841828,46.7940972],[51.9789658,46.8673023],[52.0058349,46.8870993],[52.0058258,46.8871056],[52.00072,46.8906593],[52.0187202,46.9362508],[52,46.9224528],[52,47],[51.9428571,47.4285714],[51.9142857,47.6428571],[51.8857143,47.8571429],[51.8571429,48.0714286],[51.8285714,48.2857143],[51.8,48.5],[51.7571429,48.7142857],[51.7142857,48.9285714],[51.6714286,49.1428571],[51.6285714,49.3571429],[51.5857143,49.5714286],[51.5428571,49.7857143],[51.5,50],[51.4833333,50.2166667],[51.4666667,50.4333333],[51.4333333,50.8666667],[51.4166667,51.0833333],[51.4,51.3],[51.04,51.5],[50.86,51.6],[50.68,51.7],[50.5,51.8],[50.0555556,51.8444444],[49.8333333,51.8666667],[49.6111111,51.8888889],[49.3888889,51.9111111],[49.1666667,51.9333333],[48.9444444,51.9555556],[48.7222222,51.9777778],[48.5,52],[48.2571429,51.9428571],[48.0142857,51.8857143],[47.7714286,51.8285714],[47.5285714,51.7714286],[47.2857143,51.7142857],[47.0428571,51.6571429],[46.8,51.6],[46.5625,51.58125],[46.325,51.5625],[46.0875,51.54375],[45.85,51.525],[45.6125,51.50625],[45.375,51.4875],[45.1375,51.46875],[44.9,51.45],[43.95,51.375],[43.7125,51.35625],[43.475,51.3375],[43.2375,51.31875],[43,51.3],[42.7777778,51.2777778],[42.5555556,51.2555556],[42.3333333,51.2333333],[42.1111111,51.2111111],[42,51.2],[42.125,51.025],[42.25,50.85],[42.5,50.5],[43,49.5],[42.5,48.6],[42.3,48.48],[42.1,48.36],[41.5,48],[40.5,47.6],[40.15,47.45],[39.975,47.375],[39.8,47.3],[39.6,47.2333333],[39.4,47.1666667],[39.2637926,47.1212642],[39.2637926,47.1512993],[39.2461887,47.1454304],[39.2399462,47.1428133],[39.2345201,47.1394593],[39.2300957,47.1354832],[39.2268242,47.131021],[39.2248173,47.1262254],[39.2241441,47.1212669],[39.2240548,47.2386231],[39.0899632,47.2578622],[38.9801727,47.2321228],[38.9720516,47.1815513],[38.9703392,47.1761324],[38.9670328,47.1710659],[38.9622725,47.1665659],[38.9562595,47.1628221],[38.9492479,47.1599926],[38.9415334,47.1581967],[38.5975252,47.1034761],[38.2832474,46.9196055],[38.2433605,46.8910962],[38.1989442,46.8702853],[37.8374837,46.6589584],[37.8639022,46.6487536],[37.9725999,46.6445058],[38.2504526,46.7552762],[38.257647,46.7575025],[38.2653462,46.7587005],[38.2732401,46.7588218],[38.2810108,46.7578615],[38.2883456,46.7558584],[38.2949493,46.752893],[38.3005561,46.7490848],[38.3049406,46.744587],[38.3384853,46.7012931],[38.3404404,46.7011306],[38.3393171,46.7041249],[38.3284833,46.7514017],[38.3280633,46.7570396],[38.3293661,46.7626136],[38.3323351,46.7678793],[38.4006926,46.859084],[38.4045205,46.863211],[38.4093759,46.8667976],[38.4150993,46.8697261],[38.4215029,46.8719],[38.428376,46.8732479],[38.7867445,46.9194049],[39.0530498,47.0541855],[39.0596674,47.0568817],[39.0669277,47.0586527],[39.0745552,47.0594311],[39.0822599,47.0591875],[39.0887959,47.0585421],[39.0804436,47.0587521],[39.0722113,47.0577629],[39.0644681,47.0556186],[39.0575594,47.0524148],[38.7813607,46.8912517],[38.802988,46.8940364],[39,46.9937391],[39,46.9937391],[39.0123714,47],[39.0123714,47],[39.0765908,47.0324998],[39.0831713,47.0318499],[39,46.9833333],[38.8,46.8666667],[38.6,46.75],[38.5407613,46.7154441],[38.5869859,46.6964729],[38.5407613,46.7154441],[38.5314443,46.7192679],[38.5071284,46.7292475],[38.5058912,46.7279439],[38.5030831,46.7232267],[38.5016207,46.7182319],[38.5015557,46.7131378],[38.5028902,46.7081262],[38.505576,46.703376],[38.509517,46.6990568],[38.5145724,46.6953225],[38.5205573,46.6923086],[38.5205453,46.6923124],[38.4710057,46.7126478],[38.4225106,46.6942799],[38.4582236,46.6912798],[38.4583184,46.6912653],[38.4581721,46.6912775],[38.450112,46.6913756],[38.4421922,46.6903446],[38.4347458,46.6882279],[38.428086,46.6851146],[38.4003724,46.6689439],[38.4511298,46.6647042],[38.4525096,46.6645889],[38.4534468,46.6645106],[38.4,46.6333333],[38.2,46.5166667],[38.0008287,46.4004834],[37.9893799,46.4026604],[37.985361,46.3951203],[37.9785798,46.3823975],[37.985361,46.3951203],[37.9500739,46.383358],[37.9302083,46.3960302],[37.9214096,46.4016429],[37.920954,46.4013548],[37.9164565,46.3971361],[37.9132272,46.3923981],[37.9113878,46.3873194],[37.911007,46.3820916],[37.9120989,46.3769118],[37.9146219,46.3719752],[37.9184806,46.3674679],[37.9235226,46.3635647],[37.8800318,46.3912985],[37.8764517,46.3939046],[37.7972387,46.4597381],[37.7932557,46.4637212],[37.7903687,46.4681299],[37.7226106,46.6021351],[37.7139744,46.5984958],[37.6579901,46.5629777],[37.6131242,46.5206812],[37.5810542,46.4732147],[37.5629612,46.4223783],[37.5594895,46.3700946],[37.5707284,46.3183352],[37.5962145,46.2690468],[37.6349557,46.2240777],[37.6584255,46.2059838],[37.6571595,46.2050529],[37.6315074,46.1861898],[37.59138,46.1419262],[37.5643936,46.0931324],[37.4963657,45.9213884],[37.4845896,45.9190567],[37.4175237,45.8952257],[37.3584101,45.862801],[37.3094875,45.8230202],[37.2771861,45.7908485],[37.2400244,45.7447181],[37.2165463,45.6944168],[37.2076213,45.64189],[37.2068278,45.6138669],[37.0068601,45.6844037],[36.9358906,45.7034583],[36.8609077,45.7123882],[36.7848593,45.7108429],[36.7107364,45.6988839],[36.6684579,45.6855264],[36.6405037,45.6895815],[36.4967254,45.7001106],[36.4513226,45.719805],[36.376132,45.7388303],[36.2968951,45.7465969],[36.2170549,45.7427683],[36.0506946,45.7223924],[35.9997643,45.7121646],[35.9614199,45.7246443],[35.889027,45.737135],[35.814518,45.7396492],[35.7407079,45.7320928],[35.6703837,45.7147519],[35.6061949,45.688282],[35.5505504,45.6536818],[35.5396199,45.6436245],[35.5055259,45.6122539],[35.4712353,45.5733581],[35.4010004,45.5602163],[35.3310349,45.5418297],[35.2675094,45.5143114],[35.2539589,45.5054885],[35.3607305,45.3900186],[35.4877839,45.3275144],[35.4957537,45.3289297],[35.5031545,45.3297139],[35.5089371,45.3295269],[35.6932011,45.3638529],[35.5089371,45.3295269],[35.5089371,45.3295269],[35.4901463,45.3260265],[35.4831734,45.3241958],[35.4768343,45.3214545],[35.4713678,45.3179058],[35.4669796,45.3136832],[35.4638347,45.308946],[35.4627977,45.3068693],[35.4801548,45.2983309],[35.5051463,45.3027711],[35.5,45.3],[35.4,45.1],[35.3248411,44.9496822],[35.3048366,44.9524063],[35.2875445,44.954761],[35.2871362,44.9535923],[35.2867646,44.9484664],[35.2877754,44.9433849],[35.2901314,44.9385322],[35.293747,44.9340845],[35.2984905,44.930203],[35.3041898,44.9270287],[35.3106381,44.9246766],[35.3176014,44.923232],[35.3181361,44.9231592],[35.3176364,44.9231907],[35.26669,44.9301322],[35.1830776,44.8841579],[35.1149092,44.7819225],[35.1111287,44.7774293],[35.1061981,44.773539],[35.100303,44.7703979],[35.0936654,44.7681241],[35.0865347,44.7668031],[35.079179,44.7664846],[35.071875,44.7671805],[35.0648971,44.7688647],[35.0585076,44.7714738],[35.0151086,44.7933962]],[[48.3325831,42.0447917],[48.3325798,42.0447984],[48.3325798,42.0447984],[48.3200897,42.070015],[48.3200897,42.070015],[48.3325798,42.0447984],[48.3325798,42.0447984],[48.3325831,42.0447917]],[[37.9214096,46.4016429],[37.9302083,46.3960302],[37.9500739,46.383358],[37.9500739,46.383358],[37.9302083,46.3960302],[37.9214096,46.4016429]],[[35.2875445,44.954761],[35.3048366,44.9524063],[35.3248411,44.9496822],[35.3248411,44.9496822],[35.3048366,44.9524063],[35.2875445,44.954761]],[[38.4525096,46.6645889],[38.4534468,46.6645106],[38.4534468,46.6645106],[38.4525096,46.6645889]]]}}
