{"type":"Feature","properties":{"family":"norway","name":"Jarls of Lade, 872 – 899"},"geometry":{"type":"Polygon","coordinates":[[[7.6656687,63.696538],[7.6927477,63.7038164],[7.792555,63.7252299],[7.8995818,63.7381949],[8.0101903,63.7422699],[8.1206107,63.737316],[8.2186781,63.7287948],[8.293802,63.7189157],[8.2469156,63.7099948],[8.2362676,63.7073598],[8.227019,63.7038376],[8.2195411,63.6995696],[8.2141333,63.6947274],[8.2110117,63.6895054],[8.2103003,63.6841131],[8.2120262,63.6787669],[8.2161189,63.6736811],[8.2224132,63.6690594],[8.2306561,63.6650869],[8.2405167,63.6619227],[8.2516003,63.6596932],[8.3415284,63.6461968],[8.3542354,63.6449384],[8.367256,63.6449102],[8.533357,63.6522605],[8.5681733,63.6345724],[8.5249895,63.6280141],[8.513996,63.6257672],[8.5042242,63.622596],[8.4960624,63.6186269],[8.4898347,63.6140177],[8.4857877,63.6089517],[8.4840811,63.6036303],[8.4847813,63.5982649],[8.4878591,63.5930684],[8.4931913,63.5882471],[8.4938926,63.5878425],[8.4112734,63.5855224],[8.4002065,63.5847465],[8.3896491,63.5830771],[8.3799625,63.5805714],[8.3714781,63.5773152],[8.3644856,63.5734199],[8.2277803,63.4804994],[8.2221023,63.4755919],[8.2187818,63.4702715],[8.2179568,63.4647613],[8.2196605,63.4592924],[8.22382,63.4540939],[8.2302599,63.4493837],[8.2387095,63.4453588],[8.2488145,63.4421876],[8.2601519,63.4400028],[8.4867685,63.4079486],[8.4999019,63.4067772],[8.5132908,63.4069329],[8.5262752,63.4084081],[8.603446,63.4213764],[8.583926,63.4030232],[8.5799197,63.3980469],[8.578159,63.3928168],[8.5787103,63.3875341],[8.5815512,63.3824019],[8.5865713,63.3776173],[8.5935769,63.3733642],[8.6022981,63.3698057],[8.6449662,63.3555434],[8.5513863,63.3373907],[8.562999,63.3390178],[8.5753628,63.3395488],[8.587705,63.3389269],[8.5994972,63.3371786],[8.6102348,63.334379],[8.6194585,63.3306477],[8.6330741,63.3238346],[8.5748581,63.3125709],[8.5199022,63.301938],[8.5199022,63.301938],[8.5748581,63.3125709],[8.6330741,63.3238346],[8.7642876,63.3492219],[8.6330741,63.3238346],[8.5748581,63.3125709],[8.6333333,63.2833333],[8.7833128,63.2083436],[8.854733,63.2101642],[8.9442894,63.2124472],[8.854733,63.2101642],[8.7833128,63.2083436],[8.7066281,63.2063888],[8.7833128,63.2083436],[8.854733,63.2101642],[8.8575109,63.2076834],[8.8605904,63.2039796],[8.8016524,63.1980171],[8.7365642,63.1914323],[8.8016524,63.1980171],[8.846826,63.2025871],[8.8016524,63.1980171],[8.925,63.05],[9.05,62.9],[9.175,62.75],[9.3,62.6],[9.54,62.58],[9.78,62.56],[10.02,62.54],[10.5,62.5],[11.5,62.6],[12.097989,62.6],[12.1555216,62.7109397],[12.0943209,62.9068147],[12.2239222,63.001375],[11.9935199,63.2884331],[12.2203222,63.4741766],[12.1699217,63.5974428],[12.2923229,63.656543],[12.6811268,63.9571097],[12.9835298,64.0584244],[13.2355324,64.0905073],[13.9627396,64.0094556],[14.1004491,64.1285073],[14.0666667,64.1333333],[13.8333333,64.1666667],[13.6,64.2],[13.5333333,64.4],[13.4666667,64.6],[13.4,64.8],[13.5333333,65],[13.6666667,65.2],[13.8,65.4],[13.96,65.58],[14.12,65.76],[14.28,65.94],[14.6,66.3],[14.8,66.42],[15,66.54],[15.6,66.9],[15.75,67.025],[15.9,67.15],[16.05,67.275],[16.1805546,67.3837955],[16.1263613,67.4220703],[16.198362,67.5081877],[16.3498032,67.524836],[16.35,67.525],[16.65,67.775],[16.7601443,67.8667869],[16.7815678,67.8965605],[16.8202268,67.909194],[17.02,68],[17.24,68.1],[17.46,68.2],[17.68,68.3],[17.9,68.4],[18.6,68.9],[19,69.06],[19.2,69.14],[19.4,69.22],[19.4164201,69.226568],[19.301593,69.2237822],[19.4164201,69.226568],[19.5103951,69.228848],[19.4721901,69.248876],[19.6,69.3],[19.8,69.375],[20,69.45],[20.2,69.525],[20.2821427,69.5558035],[20.2736027,69.5598091],[20.2821427,69.5558035],[20.3060031,69.5446119],[20.2700027,69.5175947],[20.2712614,69.5119859],[20.2712713,69.5119419],[20.338303,69.5373187],[20.3476737,69.5415719],[20.354455,69.5463885],[20.3567523,69.5494288],[20.4291381,69.5715558],[20.4399753,69.5756202],[20.4482051,69.5803717],[20.453478,69.5856096],[20.4555688,69.5911124],[20.4590578,69.633367],[20.4578694,69.6389114],[20.4534378,69.6442523],[20.4341013,69.6608447],[20.459567,69.7033755],[20.4244307,69.7392867],[20.448227,69.7889108],[20.4427127,69.7774114],[20.4478787,69.7881844],[20.4560284,69.7895155],[20.4944663,69.7942737],[20.4707598,69.8023425],[20.4611658,69.8062969],[20.4576225,69.8085039],[20.494965,69.8863769],[20.4959228,69.8922253],[20.4931863,69.8980059],[20.4868815,69.9034459],[20.4867299,69.9035437],[20.4880657,69.9052682],[20.494616,69.9099055],[20.5036197,69.9140286],[20.5147483,69.9174866],[20.5275949,69.9201526],[20.541689,69.9219289],[20.6930645,69.9354545],[20.7086197,69.9362775],[20.7243435,69.9360191],[20.7383802,69.9347962],[20.7371831,69.9354124],[20.7314435,69.9400588],[20.684481,69.9906964],[20.6813123,69.9957133],[20.680977,70.000844],[20.6834894,70.0059027],[20.6887606,70.0107061],[20.6966011,70.0150802],[20.7831052,70.0542741],[20.7747623,70.0551822],[20.7605628,70.0579251],[20.74873,70.061476],[20.7146143,70.0670419],[20.7136669,70.0668838],[20.7138125,70.0671727],[20.7137183,70.0671881],[20.6876069,70.071448],[20.6261089,70.0522178],[20.601206,70.0444308],[20.6261089,70.0522178],[20.7,70.2],[20.7181655,70.2363311],[20.5508055,70.2301743],[20.7181655,70.2363311],[20.7344073,70.2369286],[20.7907075,70.2200279],[20.7907343,70.2200199],[20.7908057,70.2199985],[20.8244082,70.2099114],[20.7980545,70.1637633],[20.7704077,70.115351],[20.7980545,70.1637633],[20.8062522,70.166563],[20.8192383,70.16952],[20.833685,70.1715549],[20.8490309,70.1725886],[20.8646794,70.172581],[20.8800217,70.1715322],[20.8944614,70.1694832],[20.9074372,70.1665135],[20.9184455,70.1627386],[20.9270598,70.1583051],[20.9845706,70.121134],[20.9901313,70.1165532],[20.9931339,70.1117043],[20.9934787,70.1067511],[20.991156,70.1018607],[20.9706581,70.0747544],[20.9784508,70.0781022],[20.9892491,70.0819032],[21.0020232,70.084911],[21.0162804,70.0870094],[21.0314703,70.0881173],[21.0470057,70.0881919],[21.0622862,70.0872302],[21.0767212,70.0852695],[21.0897533,70.0823856],[21.1008795,70.0786897],[21.1096715,70.0743247],[21.1157915,70.0694589],[21.1190053,70.06428],[21.1261241,70.0423253],[21.1262367,70.0367676],[21.1256578,70.0357901],[21.1311514,70.0351289],[21.1441402,70.0325317],[21.1554492,70.0291399],[21.1646679,70.0250771],[21.171462,70.0204909],[21.1755861,70.0155482],[21.1768923,70.0104286],[21.1763414,70.0086209],[21.1800179,70.0126176],[21.1866119,70.0168992],[21.1953424,70.020708],[21.2745336,70.0494389],[21.2856251,70.0527668],[21.2983426,70.0553307],[21.3122407,70.0570409],[21.3268324,70.0578373],[21.3416058,70.0576919],[21.3560427,70.05661],[21.369637,70.0546293],[21.423477,70.044605],[21.4244083,70.0444316],[21.4412449,70.0757634],[21.4403123,70.0759482],[21.4364377,70.0767162],[21.4240744,70.0805459],[21.4143381,70.0851734],[21.4076632,70.090393],[21.3606978,70.1410305],[21.3599321,70.1422695],[21.3227484,70.1408864],[21.307475,70.1408185],[21.2924427,70.1417447],[21.2782063,70.1436308],[21.2652914,70.1464072],[21.2541752,70.1499715],[21.1497477,70.190463],[21.1403903,70.1949214],[21.1338738,70.1999269],[21.130468,70.205274],[21.1303153,70.2107431],[21.1334244,70.2161092],[21.1396698,70.2211516],[21.1487965,70.2256625],[21.1604302,70.2294562],[21.3909229,70.2903071],[21.4041334,70.2931219],[21.4187199,70.2950144],[21.4327838,70.2958339],[21.4347301,70.2996065],[21.4394565,70.3040189],[21.4681519,70.3248731],[21.4684668,70.3251019],[21.4414653,70.3515226],[21.3573099,70.3989217],[21.2457386,70.4395],[21.1114035,70.4715121],[20.9600213,70.4935733],[20.7981201,70.5047256],[20.6327346,70.504483],[20.4632062,70.4982508],[20.3064818,70.4869982],[20.2506324,70.4788366],[20.1496658,70.5090033],[20.0177651,70.535223],[19.8730876,70.5525345],[19.7210225,70.5602897],[19.5672671,70.5581974],[19.4175891,70.5463358],[19.2775867,70.5251489],[19.268753,70.5230564],[19.26566,70.5232896],[19.1030496,70.5243415],[18.9431861,70.5143745],[18.7927793,70.4938069],[18.6580993,70.4635008],[18.57864,70.4413294],[18.4681865,70.4036258],[18.3821392,70.359385],[18.3811336,70.3585431],[18.2662789,70.3365584],[18.1511545,70.3033114],[18.0570481,70.2632973],[17.9872849,70.2179849],[17.9442457,70.1690276],[17.8933711,70.0809942],[17.8791842,70.0188296],[17.8856548,70.0045699],[17.8355331,69.9907995],[17.7851098,69.9737603],[17.6917876,69.9356596],[17.6207516,69.8923004],[17.6125156,69.8839593],[17.5926,69.8765103],[17.5778058,69.8681023],[17.5619677,69.867949],[17.5563792,69.8675052],[17.4364733,69.8698692],[17.2833703,69.8622892],[17.1377781,69.844376],[17.005549,69.8168525],[16.8919439,69.7808263],[16.8014103,69.7377407],[16.7970617,69.734458],[16.7260829,69.7196536],[16.615502,69.6849525],[16.5263855,69.6435153],[16.4877255,69.6155734],[16.3910878,69.5884165],[16.3471635,69.5704139],[16.2022176,69.5824182],[16.049218,69.5841351],[15.8983312,69.5751662],[15.7556859,69.5558761],[15.627041,69.5270473],[15.3885585,69.460552],[15.2756308,69.4214361],[15.1883642,69.3749561],[15.1349261,69.3272057],[15.1289788,69.3257061],[15.012438,69.2893563],[14.987975,69.2777944],[14.871894,69.2698142],[14.7371766,69.2504765],[14.61558,69.2223342],[14.5116112,69.186444],[14.4290621,69.1441473],[14.4234287,69.1405659],[14.4139038,69.1382352],[14.3083953,69.0991768],[14.2415392,69.0614161],[14.1260679,69.0306264],[14.1229426,69.0293902],[14.0904609,69.0235297],[13.9766638,68.9919115],[13.8820809,68.9530501],[13.8101456,68.9084008],[13.7606745,68.8693669],[13.7144058,68.8210183],[13.7113787,68.8133835],[13.6969465,68.803767],[13.6541649,68.754669],[13.6380254,68.7035191],[13.6489365,68.6521874],[13.680358,68.6104724],[13.6805087,68.5926931],[13.6860642,68.5829938],[13.58453,68.5635958],[13.5814591,68.5626968],[13.5025209,68.5604184],[13.3565735,68.5446481],[13.2228714,68.5181499],[13.1072289,68.4820865],[12.9705264,68.4293127],[12.8819723,68.3873168],[12.8371814,68.3541156],[12.7292381,68.3386025],[12.6112259,68.3109799],[12.5099251,68.2754946],[12.4290514,68.2334782],[12.3715055,68.1864993],[12.1089196,67.8983561],[12.0769029,67.8459752],[12.0731387,67.7922412],[12.0975847,67.7392889],[12.149092,67.6892081],[12.2254778,67.6439628],[12.3236325,67.6053167],[12.4396547,67.5747685],[12.5690056,67.553498],[12.7066788,67.5423241],[12.8473787,67.5416761],[12.9857054,67.551579],[13.1163405,67.5716526],[13.2342323,67.6011245],[13.4639347,67.6714173],[13.5563927,67.7051207],[13.6316555,67.7445441],[13.6578451,67.7652478],[13.672343,67.7706881],[13.7438495,67.783976],[13.7660329,67.7903589],[13.8134272,67.7960644],[13.9306796,67.820672],[13.970787,67.8246917],[14.0498794,67.8393],[14.0408967,67.8124183],[14.0510364,67.7593369],[14.0573963,67.7506212],[14.0255558,67.7053567],[14.019948,67.6726407],[13.9581972,67.6589992],[13.8489973,67.6213616],[13.7016595,67.5584099],[13.6202682,67.5156236],[13.5625405,67.4675665],[13.5305785,67.4161118],[13.5254524,67.3632525],[13.5454965,67.3150864],[13.4882232,67.2894223],[13.4210337,67.2434118],[13.3574082,67.1874356],[13.3563172,67.1861189],[13.2460167,67.1655202],[13.133989,67.139157],[13.0369652,67.1050344],[12.9584087,67.0643952],[12.9010681,67.0187125],[12.8668875,66.9696336],[12.8614392,66.9418529],[12.8039947,66.9275483],[12.7070649,66.8912275],[12.6302159,66.8481812],[12.5763089,66.800075],[12.5518188,66.7567993],[12.5281301,66.7285629],[12.5271587,66.7255794],[12.5225741,66.7242653],[12.4308328,66.6848047],[12.3676044,66.6433216],[12.3491949,66.6375476],[12.26294,66.5972731],[12.1983804,66.5510664],[12.1579063,66.5007288],[12.1429377,66.4482113],[12.1442043,66.4421318],[12.1394279,66.4319516],[12.0545949,66.401255],[11.932388,66.3468299],[11.8533495,66.3034221],[11.7975535,66.2545587],[11.7812546,66.2265618],[11.7534043,66.209478],[11.7042597,66.160447],[11.6851368,66.1197103],[11.6520187,66.0822631],[11.6329337,66.0296315],[11.6396665,65.976504],[11.6548746,65.9521267],[11.5794704,65.9434043],[11.4562001,65.9166092],[11.3497699,65.8797759],[11.2649557,65.8345861],[11.2054878,65.783093],[11.1422495,65.7085376],[11.1129585,65.6593807],[11.1065283,65.6088364],[11.1230532,65.5586866],[11.1618244,65.5106891],[11.2213731,65.4665169],[11.2995358,65.4277016],[11.3935392,65.3955829],[11.4665881,65.3789257],[11.4647819,65.3745772],[11.3786585,65.3667198],[11.2576931,65.3440429],[11.1506088,65.3114769],[11.061956,65.2704242],[11.0197936,65.2401614],[10.9045487,65.2284045],[10.570556,65.1789574],[10.4593293,65.1570446],[10.3602841,65.1265723],[10.2770827,65.0886825],[10.2127561,65.0447893],[10.1417432,64.9837269],[10.0973016,64.9330358],[10.0777323,64.8796105],[10.0836758,64.8256065],[10.1147424,64.7731897],[10.1695526,64.7244501],[10.2458121,64.6813202],[10.2554252,64.6776878],[10.207171,64.6693992],[10.1036159,64.6403758],[10.0155412,64.6031928],[9.9463447,64.5593149],[9.9143066,64.5338655],[9.8672999,64.4858316],[9.8488504,64.4475178],[9.7876697,64.4224415],[9.7363174,64.3906466],[9.6951559,64.3734701],[9.62415,64.3285768],[9.6162408,64.3204213],[9.602598,64.3163882],[9.5169777,64.2784201],[9.469686,64.2468112],[9.4552368,64.2426743],[9.366566,64.204077],[9.2977895,64.1584776],[9.2516595,64.1077704],[9.2299538,64.0540511],[9.2329641,64.0067358],[9.2323526,64.0065702],[9.1873714,64.0259094],[9.0868688,64.0546965],[8.9753328,64.0743134],[8.8570991,64.0839944],[8.7367856,64.0833612],[8.6190984,64.0724389],[8.5086317,64.0516549],[7.9727332,63.9205139],[7.877512,63.8913287],[7.7966911,63.8547314],[7.7331591,63.8120586],[7.6891422,63.7648622],[7.6661315,63.71485],[7.6656687,63.696538]],[[20.2736027,69.5598091],[20.3456527,69.5796198],[20.3782671,69.5918502],[20.3816038,69.6341065],[20.3782671,69.5918502],[20.3780038,69.5885149],[20.3456527,69.5796198],[20.2736027,69.5598091]],[[8.8160887,63.4568316],[8.9734065,63.4828002],[8.9716527,63.4819436],[8.9176764,63.4498423],[8.9153147,63.4480946],[8.8944837,63.4487394],[8.8821145,63.4485519],[8.8700903,63.4472388],[8.8589184,63.4448556],[8.855116,63.4435613],[8.8327605,63.4522912],[8.8239964,63.4551341],[8.8160887,63.4568316]],[[8.9658897,63.4336508],[9,63.4539165],[9.0198902,63.4657337],[9,63.4539165],[8.9658897,63.4336508]],[[9,63.5156633],[9,63.5156633],[9.1062911,63.5332768],[9,63.5156633]],[[10.5751058,63.8085149],[11,63.9493337],[11,63.9493337],[10.5751058,63.8085149]],[[10.7191072,63.6041971],[11,63.7071751],[11,63.7071751],[10.7191072,63.6041971]],[[10.8271083,64.8503671],[11,64.9154556],[11,64.9154556],[11.100711,64.9533703],[11,64.9154556],[11,64.9154556],[10.8271083,64.8503671]],[[10.9099091,63.7308404],[11,63.787795],[11.0755108,63.8355322],[11,63.787795],[10.9099091,63.7308404]],[[10.9351094,63.8980095],[11,63.8691338],[11.0755108,63.8355322],[11,63.8691338],[10.9351094,63.8980095]],[[12.7135271,66.0425027],[13,66.0779405],[13.0411304,66.0830285],[13,66.0779405],[12.7135271,66.0425027]],[[12.9259293,65.9935339],[13,65.9745835],[13.1239312,65.9428766],[13,65.9745835],[12.9259293,65.9935339]],[[12.9727297,66.5220586],[13,66.5256663],[13.1131311,66.5406329],[13,66.5256663],[12.9727297,66.5220586]],[[12.9763298,67.9691693],[13,67.9651075],[13.1239312,67.9438407],[13,67.9651075],[12.9763298,67.9691693]],[[12.9799298,68.0367124],[13,68.0448983],[13,68.0448983],[12.9799298,68.0367124]],[[13,67.9293031],[13,67.9293031],[13.0483305,67.9151348],[13,67.9293031]],[[14.0306311,67],[14.0306311,67],[14.0455405,66.9813516],[14.0306311,67]],[[14.0599406,67.0607147],[14.1209988,67],[14.1209988,67],[14.0599406,67.0607147]],[[14.7259473,67.4879248],[15,67.5619767],[15.0064959,67.563732],[15.0064959,67.563732],[15,67.5619767],[14.7259473,67.4879248]],[[14.7727477,67.8155088],[15,67.8398394],[15.103951,67.8509689],[15,67.8398394],[14.7727477,67.8155088]],[[14.8483485,67.8442146],[15,67.848222],[15.103951,67.8509689],[15,67.848222],[14.8483485,67.8442146]],[[14.898749,68.4335281],[15,68.4410267],[15.1723517,68.453791],[15,68.4410267],[14.898749,68.4335281]],[[14.9311493,67.1535865],[15,67.1787041],[15.0931509,67.2126867],[15,67.1787041],[14.9311493,67.1535865]],[[14.9599496,68.7070776],[15,68.7103927],[15,68.7103927],[14.9599496,68.7070776]],[[14.9707497,67.9168234],[15,67.915788],[15.1615516,67.9100691],[15,67.915788],[14.9707497,67.9168234]],[[14.9923499,67.7699172],[15,67.7615447],[15,67.7615447],[14.9923499,67.7699172]],[[14.99955,67.8948719],[15,67.8948297],[15.2335523,67.8729204],[15,67.8948297],[14.99955,67.8948719]],[[15,68.2815052],[15,68.2815052],[15.1939519,68.4352166],[15,68.2815052]],[[15,68.5804542],[15,68.5804542],[15.0643506,68.5787457],[15,68.5804542]],[[15,68.673384],[15,68.673384],[15.1651517,68.7020119],[15,68.673384]],[[15.0064959,67.563732],[15.0067501,67.5639108],[15.0064959,67.563732],[15.0064959,67.563732]],[[15.0067079,67.5637893],[15.0067603,67.5638034],[15.0069894,67.5638653],[15.0067501,67.5639108],[15.0069894,67.5638653],[15.0067603,67.5638034],[15.0067079,67.5637893]],[[15.0683275,69],[15.0859509,69.0110215],[15.0683275,69],[15.0683275,69]],[[15.1543515,69.0025786],[15.1559685,69],[15.1559685,69],[15.1723517,68.9738728],[15.1559685,69],[15.1559685,69],[15.1543515,69.0025786]],[[15.4624264,69],[15.5683557,69.1055818],[15.4624264,69],[15.4624264,69]],[[15.5287553,69.0093329],[15.540275,69],[15.540275,69],[15.5683557,68.97725],[15.540275,69],[15.540275,69],[15.5287553,69.0093329]],[[15.6331563,68.9873814],[15.6977229,69],[15.6977229,69],[15.6331563,68.9873814]],[[16.8247682,68.3237705],[17,68.3521462],[17.1271713,68.3727393],[17,68.3521462],[16.8247682,68.3237705]],[[16.8787688,69.2220937],[17,69.237462],[17.1451715,69.2558652],[17,69.237462],[16.8787688,69.2220937]],[[16.8787688,69.3588684],[17,69.3608636],[17.0839708,69.3622456],[17,69.3608636],[16.8787688,69.3588684]],[[16.9795698,69.2761281],[17,69.2733097],[17.0407704,69.2676852],[17,69.2733097],[16.9795698,69.2761281]],[[16.9939699,68.7087662],[17,68.7058062],[17.1487715,68.6327802],[17,68.7058062],[16.9939699,68.7087662]],[[18.7363874,69.3234083],[19,69.2880808],[19,69.2880808],[18.7363874,69.3234083]],[[18.9919899,69.4838231],[19,69.4775971],[19.1179912,69.3858856],[19,69.4775971],[18.9919899,69.4838231]],[[18.9919899,69.4838231],[19,69.4913373],[19,69.4913373],[18.9919899,69.4838231]],[[19,69.4325822],[19,69.4325822],[19.0099901,69.4281001],[19,69.4325822]],[[19,69.7451524],[19,69.7451524],[19.0567906,69.764127],[19,69.7451524]],[[19.3485327,69.2519677],[19.3769695,69.2526665],[19.3769803,69.2526556],[19.3485327,69.251967],[19.3485327,69.2519677]],[[20.5335523,70.0305596],[20.536294,70.0292664],[20.5337451,70.030423],[20.5335523,70.0305596]],[[20.5419957,70.2569817],[20.7095696,70.2631469],[20.7096939,70.263147],[20.5421429,70.2569836],[20.5419984,70.2569733],[20.5419957,70.2569817]],[[20.5421121,70.0265223],[20.5535955,70.0228996],[20.5456835,70.0253956],[20.5430554,70.0261984],[20.5428653,70.0262847],[20.5443763,70.025808],[20.5421121,70.0265223]],[[20.554409,70.0227302],[20.5550803,70.0225905],[20.5669416,70.0201213],[20.5574385,70.0220996],[20.5573691,70.0221136],[20.5545936,70.0226739],[20.5544155,70.0227283],[20.554409,70.0227302]],[[20.567715,70.0200251],[20.5681421,70.019972],[20.5715494,70.0195486],[20.5679168,70.0199844],[20.5677194,70.0200242],[20.567715,70.0200251]],[[20.5822651,70.0182629],[20.585198,70.0181109],[20.5879937,70.0179659],[20.5825142,70.018233],[20.5822651,70.0182629]],[[20.5970793,70.017495],[20.6067695,70.0176531],[20.597827,70.0174867],[20.597512,70.017502],[20.602207,70.0175787],[20.5970793,70.017495]],[[20.6126922,70.0177498],[20.6278561,70.0190503],[20.6419778,70.0213457],[20.6545048,70.0245462],[20.6794037,70.0323259],[20.6908812,70.0367954],[20.6992212,70.0420136],[20.7040171,70.0477277],[20.7082696,70.0561695],[20.7040267,70.0476813],[20.6992404,70.0419791],[20.6909202,70.0367729],[20.6794704,70.0323141],[20.6545711,70.0245344],[20.642195,70.0213667],[20.6282496,70.0190841],[20.6132691,70.0177741],[20.6128943,70.0177671],[20.6126922,70.0177498]],[[20.7907992,70.2200004],[20.7967433,70.2318],[20.7978475,70.2372985],[20.7978592,70.23727],[20.7967559,70.231756],[20.7908057,70.2199985],[20.7907992,70.2200004]]]}}
