{"type":"Feature","properties":{"family":"celts","name":"Leinster, 917 – 926"},"geometry":{"type":"Polygon","coordinates":[[[-8,53.25],[-7.8,53.1],[-7.2,52.9],[-7,52.7],[-6.95,52.45],[-6.95,52.3226019],[-6.95,52.3226019],[-6.9385786,52.3177817],[-6.9067949,52.295],[-6.8868148,52.2684701],[-6.88,52.24],[-6.8868148,52.2115299],[-6.9067949,52.185],[-6.9107883,52.1821377],[-6.953051,52.2347451],[-6.953051,52.2347451],[-6.9107883,52.1821377],[-6.903069,52.172529],[-6.9135633,52.1553011],[-6.9153702,52.1553048],[-6.9240502,52.1564134],[-6.9271309,52.1572284],[-6.9755028,52.1269871],[-6.975769,52.1240401],[-6.9744895,52.1186834],[-6.9714946,52.1135913],[-6.9669052,52.1089688],[-6.9609065,52.1050019],[-6.9537401,52.10185],[-6.9456944,52.09964],[-6.9370928,52.0984606],[-6.9282814,52.0983593],[-6.9196141,52.0993402],[-6.9114395,52.1013638],[-6.9040863,52.1043488],[-6.7961023,52.1583578],[-6.7896307,52.1623432],[-6.7846459,52.1670651],[-6.781365,52.1723183],[-6.779931,52.1778746],[-6.7802157,52.1812342],[-6.5899993,52.1514621],[-6.5819375,52.1506728],[-6.5737767,52.1508109],[-6.565798,52.1518718],[-6.455248,52.1732542],[-6.4619366,52.1555739],[-6.4932086,52.0978216],[-6.5284388,52.0492304],[-6.5784032,52.0058147],[-6.6356294,51.9724571],[-6.6411396,51.9692451],[-6.7142125,51.9409252],[-6.7948066,51.9219396],[-6.8084775,51.9205089],[-6.8848798,51.8947233],[-6.9611407,51.8744592],[-7.0375633,51.8640379],[-7.0261071,51.8617671],[-6.9438055,51.8555529],[-6.8610815,51.8589972],[-6.7808631,51.871978],[-6.7059943,51.8940358],[-6.639139,51.9243885],[-6.6285545,51.9314399],[-6.403777,51.9176238],[-6.3127799,51.9177746],[-6.2237678,51.9294672],[-6.1405296,51.9522042],[-6.0666207,51.9850175],[-6.0052177,52.0265072],[-5.9589841,52.0748992],[-5.9189973,52.1287976],[-5.8906608,52.1799142],[-5.8794444,52.2334675],[-5.8858584,52.2873176],[-5.9072995,52.3340591],[-5.8390266,52.3967093],[-5.7965722,52.445868],[-5.7714598,52.4992807],[-5.7648134,52.5546935],[-5.7682699,52.6240226],[-5.7226625,52.7020016],[-5.6065996,52.8211751],[-5.5713012,52.8663578],[-5.5503474,52.9146916],[-5.5445019,52.9645268],[-5.554017,53.0141568],[-5.5786173,53.0618761],[-5.5871818,53.0716117],[-5.5852485,53.0818726],[-5.5861776,53.1471388],[-5.6132534,53.2103577],[-5.6433146,53.256302],[-5.6433136,53.2562846],[-5.6405978,53.2103909],[-5.6467758,53.1552937],[-5.6714936,53.1021013],[-5.7136548,53.053031],[-5.7714523,53.0101211],[-5.8424506,52.9751484],[-5.9236893,52.9495573],[-5.9533199,52.9444613],[-5.9533205,52.9444612],[-5.9500844,52.9486482],[-5.9480294,52.9534884],[-5.9474907,52.9584739],[-5.9484873,52.9634337],[-5.9509856,52.9681978],[-5.9549003,52.9726026],[-6.003552,53.0168609],[-5.9871718,53.1085024],[-5.9873256,53.1150287],[-5.9900865,53.1213418],[-6.0488495,53.2099617],[-6.0488473,53.2099571],[-6.0464226,53.204914],[-6.0456751,53.1996803],[-6.0466347,53.1944591],[-6.0466347,53.1944591],[-6.0492644,53.1894482],[-6.053464,53.1848374],[-6.059074,53.1808014],[-6.0658817,53.177493],[-6.0736291,53.1750373],[-6.0740803,53.1749562],[-6.090711,53.2],[-6.090711,53.2],[-6.100261,53.2143811],[-6.090711,53.2],[-6.2,53.2],[-6.45,53.3],[-6.4531646,53.3075949],[-6.75,53.35],[-7.05,53.3],[-7.2,53.275],[-7.35,53.25],[-7.65,53.2],[-8,53.25]],[[-6.8382684,52.2350063],[-6.8365185,52.2356317],[-6.8374396,52.2317992],[-6.8382684,52.2350063]],[[-6.038787,53],[-6.038787,53],[-5.9922599,52.9577174],[-6.038787,53]]]}}
