{"type":"Feature","properties":{"family":"celts","name":"Leinster, 985 – 1027"},"geometry":{"type":"Polygon","coordinates":[[[-8,53.25],[-7.8,53.1],[-7.2,52.9],[-7,52.7],[-6.95,52.45],[-6.95,52.3226019],[-6.95,52.3226019],[-6.9385786,52.3177817],[-6.9067949,52.295],[-6.8868148,52.2684701],[-6.88,52.24],[-6.8868148,52.2115299],[-6.9067949,52.185],[-6.9107883,52.1821377],[-6.9107883,52.1821377],[-6.903069,52.172529],[-6.9135633,52.1553011],[-6.9153702,52.1553048],[-6.9240502,52.1564134],[-6.9271309,52.1572284],[-6.9755028,52.1269871],[-6.975769,52.1240401],[-6.9744895,52.1186834],[-6.9714946,52.1135913],[-6.9669052,52.1089688],[-6.9609065,52.1050019],[-6.9537401,52.10185],[-6.9456944,52.09964],[-6.9370928,52.0984606],[-6.9282814,52.0983593],[-6.9196141,52.0993402],[-6.9114395,52.1013638],[-6.9040863,52.1043488],[-6.7961023,52.1583578],[-6.7896307,52.1623432],[-6.7846459,52.1670651],[-6.781365,52.1723183],[-6.779931,52.1778746],[-6.7802157,52.1812342],[-6.5899993,52.1514621],[-6.5819375,52.1506728],[-6.5737767,52.1508109],[-6.565798,52.1518718],[-6.4398878,52.1762252],[-6.436835,52.1722015],[-6.4314034,52.1677459],[-6.4245985,52.1640679],[-6.4167095,52.1613238],[-6.4080714,52.1596299],[-6.399051,52.1590581],[-6.3594747,52.1590582],[-6.3511021,52.1595499],[-6.3430349,52.1610099],[-6.3355675,52.1633848],[-6.335567,52.163385],[-6.3289729,52.166588],[-6.3234921,52.1705024],[-6.3193256,52.1749851],[-6.2796862,52.229006],[-6.2767689,52.2344664],[-6.2758052,52.2401814],[-6.2768396,52.2458918],[-6.2798258,52.2513386],[-6.2846291,52.2562747],[-6.2951071,52.2648163],[-6.2906535,52.2603274],[-6.2877045,52.25539],[-6.286376,52.2501963],[-6.2867181,52.2449435],[-6.288717,52.2398309],[-6.2922965,52.2350527],[-6.2973202,52.2307901],[-6.3035972,52.2272048],[-6.3332214,52.2133174],[-6.3416501,52.210344],[-6.3198632,52.2400721],[-6.3303699,52.2486314],[-6.36,52.2347372],[-6.4034126,52.2237482],[-6.45,52.22],[-6.4965874,52.2237482],[-6.54,52.2347372],[-6.5772792,52.2522183],[-6.6058846,52.275],[-6.6238666,52.3015299],[-6.63,52.33],[-6.6238666,52.3584701],[-6.6058846,52.385],[-6.5772792,52.4077817],[-6.54,52.4252628],[-6.4965874,52.4362518],[-6.45,52.44],[-6.4034126,52.4362518],[-6.36,52.4252628],[-6.34555,52.4184869],[-6.3211616,52.4410863],[-6.3185685,52.43987],[-6.3125139,52.4364343],[-6.3076148,52.4323715],[-6.3040421,52.4278237],[-6.3019204,52.4229499],[-6.3013231,52.4179205],[-6.3022708,52.4129112],[-6.3047298,52.4080969],[-6.3085947,52.4036675],[-6.3085714,52.4036849],[-6.1712231,52.5308595],[-6.1670077,52.5357873],[-6.1645402,52.5411357],[-6.1639256,52.5466781],[-6.1707049,52.6615122],[-6.1673893,52.6672692],[-6.10571,52.6463183],[-6.0378006,52.6105994],[-5.9832242,52.5672919],[-5.9441939,52.5181853],[-5.9222632,52.4653024],[-5.91827,52.410814],[-5.9235195,52.3542604],[-5.9146766,52.3389109],[-5.9017512,52.3062983],[-5.9097731,52.3298743],[-5.9105747,52.3310307],[-5.8389968,52.3967367],[-5.7965588,52.4458883],[-5.7714567,52.4992915],[-5.7648134,52.5546935],[-5.7675893,52.6103863],[-5.5870215,52.8435332],[-5.5568581,52.8953071],[-5.5446346,52.9496919],[-5.5509231,53.0044428],[-5.5755322,53.0572913],[-5.5873019,53.070974],[-5.5852485,53.0818726],[-5.5861776,53.1471388],[-5.6132534,53.2103577],[-5.6433146,53.256302],[-5.6405978,53.2103909],[-5.6467758,53.1552937],[-5.6714936,53.1021013],[-5.7136548,53.053031],[-5.7714523,53.0101211],[-5.8424506,52.9751484],[-5.9236893,52.9495573],[-5.9533199,52.9444613],[-5.9533205,52.9444612],[-5.9533205,52.9444612],[-5.9500844,52.9486482],[-5.9480294,52.9534884],[-5.9474907,52.9584739],[-5.9484873,52.9634337],[-5.9509856,52.9681978],[-5.9549003,52.9726026],[-6.003552,53.0168609],[-5.9871718,53.1085024],[-5.9873256,53.1150287],[-5.9900865,53.1213418],[-6.0488495,53.2099617],[-6.0464226,53.204914],[-6.0456751,53.1996803],[-6.0466347,53.1944591],[-6.0492644,53.1894482],[-6.053464,53.1848374],[-6.059074,53.1808014],[-6.0658817,53.177493],[-6.0736291,53.1750373],[-6.0740803,53.1749562],[-6.090711,53.2],[-6.090711,53.2],[-6.2,53.2],[-6.45,53.3],[-6.4531646,53.3075949],[-6.75,53.35],[-7.05,53.3],[-7.2,53.275],[-7.35,53.25],[-7.65,53.2],[-8,53.25]],[[-6.8382684,52.2350063],[-6.8365185,52.2356317],[-6.8374396,52.2317992],[-6.8382684,52.2350063]],[[-6.4855754,52.195651],[-6.395464,52.2130548],[-6.3976016,52.1970123],[-6.3976951,52.196997],[-6.444255,52.1932511],[-6.455745,52.1932511],[-6.4855754,52.195651]]]}}
