{"type":"Feature","properties":{"family":"other","name":"Lombard principalities, 965 – 1066"},"geometry":{"type":"Polygon","coordinates":[[[12.7065425,41.1359816],[12.7158853,41.1198458],[12.7490394,41.0748059],[12.7928968,41.0353199],[12.8458541,41.002816],[12.9059873,40.9784678],[12.9711214,40.9631536],[13.038907,40.9574251],[13.1069027,40.961489],[13.1726596,40.9751989],[13.2732068,41.0041188],[13.3955365,40.9618104],[13.4585103,40.9451395],[13.5244716,40.9375679],[13.5725193,40.9388609],[13.5812574,40.9292297],[13.5810955,40.9291024],[13.542209,40.8821721],[13.5168626,40.8302235],[13.5060955,40.7754537],[13.5027939,40.7197209],[13.5064795,40.6670656],[13.5235812,40.6159584],[13.553418,40.5683456],[13.5948302,40.5260366],[13.6462273,40.4906359],[13.7056491,40.463484],[13.7708407,40.4456075],[13.8393362,40.4376816],[13.9085491,40.4400057],[13.9758667,40.452492],[14.0198876,40.4642015],[14.0319914,40.4423094],[14.0707687,40.39858],[14.1199295,40.3614141],[14.1775939,40.3322209],[14.2415689,40.312106],[14.3094298,40.3018303],[14.3786103,40.3017822],[14.4464957,40.3119636],[14.5828345,40.3430897],[14.5639109,40.2978981],[14.5561513,40.2451145],[14.5620908,40.1921937],[14.581468,40.1411848],[14.613505,40.0940583],[14.6569421,40.0526307],[14.7100889,40.0184958],[14.7708911,39.9929646],[14.9314505,39.9403389],[14.9326168,39.939521],[14.941551,39.9188891],[14.9791467,39.8698418],[15.0292516,39.8279156],[15.0896339,39.7949605],[15.1576203,39.7724284],[15.3047195,39.7371053],[15.373031,39.726217],[15.4427855,39.7258987],[15.4608844,39.7286118],[15.444639,39.7845607],[15.31901,39.9283085],[15.2884025,39.9711942],[15.2767826,39.9982289],[15.3993941,39.9687738],[15.4063765,39.9676708],[15.4135054,39.9676682],[15.4135054,39.9676682],[15.4204888,39.9687661],[15.4270406,39.9709196],[15.4328922,39.9740404],[15.548993,40.050275],[15.6061684,40.0502718],[15.6062198,40.0502718],[15.6057504,40.0508624],[15.6054616,40.0508832],[15.5990595,40.0523075],[15.5931243,40.0546247],[15.5878685,40.057752],[15.5834802,40.0615775],[15.5801165,40.0659642],[15.5778982,40.0707552],[15.5769047,40.075779],[15.5769822,40.07725],[15.5769837,40.07725],[15.6121111,40.07725],[15.8,40.5],[15.6,40.9],[15.3,41.2],[15.2,41.4],[15.1,41.6],[15.1333333,41.7666667],[15.16558,41.9278998],[15.4459545,41.9076677],[15.16558,41.9278998],[15.1651517,41.9279307],[15.1331945,41.9397443],[15.1331857,41.9397475],[15.1342279,41.9414214],[15.1382259,41.9455504],[15.1432059,41.9490461],[15.1489894,41.9517831],[15.1553686,41.9536631],[15.1621147,41.9546185],[15.1689853,41.9546151],[15.4460659,41.9346306],[15.4470537,41.934694],[15.3930652,41.9385915],[15.1753363,41.9543097],[14.8590258,42.0712692],[14.8588705,42.0713266],[14.9017841,42.1126213],[14.9578338,42.1482762],[15.0225868,42.1747727],[15.0933397,42.190999],[15.1671285,42.1962724],[15.2570314,42.1955153],[15.0462449,42.2736237],[15.0385117,42.2896423],[15.006168,42.3312736],[14.9643103,42.367992],[14.9142598,42.3986251],[14.8576064,42.4221933],[14.7747481,42.4497363],[14.5086868,42.6545034],[14.5031866,42.6579775],[14.5090894,42.6534253],[14.5548199,42.6099255],[14.5875846,42.5605067],[14.6060482,42.507234],[14.6094796,42.4523278],[14.5977771,42.3980702],[14.5714648,42.34671],[14.5310255,42.286532],[14.5310164,42.286539],[14.2712014,42.486082],[14.270723,42.4863835],[14.2706461,42.486432],[14.2712375,42.4859777],[14.2758185,42.4816386],[14.2791137,42.4767055],[14.2809865,42.4713833],[14.2813593,42.4658933],[14.2802171,42.4604636],[14.2776077,42.4553198],[14.2718277,42.4466568],[14.2718268,42.4466575],[14.2448925,42.4673388],[14.2448925,42.4673388],[14.2196244,42.4867408],[14.2196244,42.4867408],[14.0743407,42.5982958],[14.2196244,42.4867408],[14.2196244,42.4867408],[14.2448925,42.4673388],[14.2448925,42.4673388],[14.2718268,42.4466575],[14.2718277,42.4466568],[14.2718313,42.4466541],[14.2718316,42.4466538],[14.2718334,42.4466524],[14.2718351,42.4466512],[14.2718351,42.4466512],[14.2718454,42.4466432],[14.2718454,42.4466432],[14.5137737,42.2608802],[14.5137829,42.2608731],[14.5138189,42.2608455],[14.5138222,42.2608429],[14.5138411,42.2608284],[14.5603456,42.2251203],[14.5138411,42.2608284],[14.5138222,42.2608429],[14.5138189,42.2608455],[14.5137829,42.2608731],[14.5137737,42.2608802],[14.2718454,42.4466432],[14.2718454,42.4466432],[14.2718351,42.4466512],[14.2718351,42.4466512],[14.2718334,42.4466524],[14.2718316,42.4466538],[14.2718313,42.4466541],[14.2718277,42.4466568],[14.2718268,42.4466575],[14.2448925,42.4673388],[14,42.1],[13.4,41.6],[13.2666667,41.4833333],[13.1333333,41.3666667],[13.0210529,41.2684213],[13.0269665,41.2581188],[13.0352151,41.2437484],[13.0352163,41.2437464],[13.0352167,41.2437457],[13.0352168,41.2437455],[13.0352168,41.2437454],[13.0352168,41.2437454],[13.0352168,41.2437454],[13.035217,41.2437452],[13.0447304,41.2271711],[13.035217,41.2437452],[13.0352168,41.2437454],[13.0352168,41.2437454],[13.0352168,41.2437454],[13.0352168,41.2437455],[13.0352167,41.2437457],[13.0352163,41.2437464],[13.0352151,41.2437484],[13.0269665,41.2581188],[13.0210529,41.2684213],[13.015465,41.2781563],[13.0052307,41.2959862],[13.0052303,41.295987],[13.0052302,41.2959871],[13.0052303,41.295987],[13.0052307,41.2959862],[13.015465,41.2781563],[13.0210529,41.2684213],[13.0269665,41.2581188],[13.0352151,41.2437484],[13.0352163,41.2437464],[13.0352167,41.2437457],[13.0352168,41.2437455],[13.0352168,41.2437454],[13.0352168,41.2437454],[13.0352168,41.2437454],[13.035217,41.2437452],[13.0301291,41.2423194],[13.0229712,41.2414862],[13.0157349,41.2417558],[13.0087161,41.2431171],[13.002202,41.2455145],[12.9964591,41.2488498],[12.9917227,41.2529867],[12.9881868,41.2577557],[12.9877897,41.2584468],[12.9878169,41.2583841],[12.9881033,41.2577238],[13.0117976,41.2164804],[13.0150997,41.2119683],[13.0194812,41.2080104],[13.0247822,41.2047507],[13.0308095,41.202308],[13.0373437,41.2007713],[13.0441469,41.2001965],[13.0509712,41.2006045],[13.0575684,41.2019805],[13.284656,41.2671744],[13.4368405,41.2146209],[13.4368668,41.2146118],[13.2906884,41.090897],[13.2388473,41.0542503],[13.1784634,41.0260676],[13.1119128,41.0074532],[13.0418052,40.9991361],[12.9708846,41.0014418],[12.9019258,41.0142805],[12.8376301,41.0371503],[12.7805228,41.0691561],[12.7328567,41.109043],[12.7065425,41.1359816]]]}}
