{"type":"Feature","properties":{"family":"english","name":"Lordship of Ireland, 1261 – 1349"},"geometry":{"type":"Polygon","coordinates":[[[-9.7211923,51.440578],[-9.7170289,51.4259396],[-9.683662,51.3741679],[-9.6340317,51.3277724],[-9.5702867,51.2887191],[-9.4951529,51.2586583],[-9.4118174,51.2388575],[-9.3368498,51.2263576],[-9.2572409,51.2179313],[-9.2446809,51.2180828],[-9.1765214,51.218905],[-9.0974788,51.2292454],[-9.0228462,51.2485953],[-8.9746544,51.2683332],[-8.9519595,51.2663954],[-8.8717076,51.2689261],[-8.7935645,51.2806791],[-8.7202015,51.3012532],[-8.7070001,51.3069923],[-8.7028877,51.3067083],[-8.6221039,51.3106299],[-8.5438766,51.3238712],[-8.4816819,51.3427174],[-8.4709807,51.342989],[-8.3899662,51.355002],[-8.3140804,51.3764516],[-8.2461083,51.4065534],[-8.1885585,51.4442048],[-8.1435725,51.4880231],[-8.1383421,51.496265],[-8.0335487,51.5502776],[-7.9526854,51.5580491],[-7.8520631,51.5755472],[-7.7609653,51.6074147],[-7.6352437,51.6645464],[-7.5940466,51.6876623],[-7.5816505,51.6895091],[-7.5062253,51.7107128],[-7.3734904,51.7577443],[-7.3006463,51.7900018],[-7.2398823,51.8307565],[-7.2129539,51.8585396],[-7.1496559,51.8630958],[-7.1243893,51.8607924],[-7.0365735,51.8638496],[-7.0261012,51.8617697],[-6.9438059,51.855554],[-6.8610884,51.8589965],[-6.7808762,51.8719752],[-6.7060129,51.8940306],[-6.6391623,51.9243809],[-6.628559,51.9314448],[-6.4037542,51.9176269],[-6.3127673,51.917777],[-6.2237659,51.9294676],[-6.1405378,51.9522014],[-6.0666376,51.9850105],[-6.0052412,52.0264955],[-5.9590114,52.0748826],[-5.919024,52.12878],[-5.8906865,52.1798963],[-5.879469,52.2334502],[-5.8858821,52.2873019],[-5.9073218,52.3340432],[-5.8390435,52.3966964],[-5.7965894,52.4458526],[-5.7714764,52.4992637],[-5.7648288,52.5546758],[-5.7682835,52.6240064],[-5.722671,52.7019902],[-5.6066038,52.8211644],[-5.5713056,52.8663447],[-5.5503515,52.9146767],[-5.5445054,52.9645107],[-5.5540195,53.0141402],[-5.5786191,53.0618598],[-5.5871821,53.0715942],[-5.5852483,53.0818561],[-5.5829578,53.125713],[-5.5925529,53.1692126],[-5.6337941,53.2832101],[-5.6238203,53.2991836],[-5.6095679,53.3502723],[-5.6119192,53.4020463],[-5.6308472,53.4525966],[-5.6469477,53.4745278],[-5.6279663,53.5230074],[-5.626186,53.579625],[-5.6443727,53.6352148],[-5.6817987,53.687319],[-5.7368704,53.7336252],[-5.7804805,53.7630768],[-5.7834701,53.8141555],[-5.7533016,53.8258222],[-5.6095708,53.8930263],[-5.5476389,53.9278745],[-5.4977032,53.9688813],[-5.4902265,53.9783455],[-5.4827875,53.9796354],[-5.4006587,54.0053359],[-5.3289173,54.0401997],[-5.2497075,54.0872656],[-5.2471084,54.0891324],[-5.2471036,54.0891478],[-5.231492,54.1392647],[-5.1538396,54.296598],[-5.1234893,54.3419554],[-5.0795721,54.3833765],[-5.0683273,54.3920514],[-5.0683104,54.3920645],[-4.9714336,54.4668014],[-5.0683104,54.3920645],[-5.0683262,54.3920523],[-5.155878,54.4163537],[-5.2303671,54.4421733],[-5.2953946,54.4755733],[-5.3486942,54.5154029],[-5.3883877,54.5602862],[-5.4130524,54.6086678],[-5.417286,54.6330453],[-5.5260403,54.7133833],[-5.5757503,54.7585639],[-5.609123,54.8085124],[-5.6247915,54.8612762],[-5.6407092,54.9912348],[-5.6389378,55.0207826],[-5.6389603,55.0207976],[-5.6390004,55.0208243],[-5.6461702,55.0256006],[-5.6677407,55.0380803],[-5.667746,55.0380833],[-5.6677468,55.0380839],[-6.0247948,55.2446559],[-5.6677563,55.0380893],[-5.8166227,55.0441628],[-5.9077873,55.0529976],[-5.9278432,55.0573601],[-5.9297849,55.0621245],[-5.9340265,55.0672735],[-5.9400619,55.0717976],[-5.9476224,55.0754951],[-5.9563711,55.0782011],[-6.0084765,55.0904319],[-5.9887775,55.16399],[-5.9882626,55.1690449],[-5.9894103,55.1740656],[-5.9921808,55.1788752],[-5.996477,55.1833041],[-6.0021479,55.1871963],[-6.088549,55.2361883],[-6.0964033,55.2397735],[-6.1054108,55.2423298],[-6.1151637,55.2437414],[-6.1554153,55.2470151],[-6.1545016,55.247645],[-6.1499907,55.2525001],[-6.1283627,55.2828868],[-6.1258248,55.2876884],[-6.1248903,55.2926744],[-6.1255922,55.2976726],[-6.1279067,55.3025104],[-6.1317545,55.3070206],[-6.137003,55.3110472],[-6.1434711,55.3144509],[-6.1509353,55.3171141],[-6.1601371,55.3197521],[-6.160137,55.3197521],[-6.1005513,55.3302849],[-6.160137,55.3197521],[-6.1601371,55.3197521],[-6.1752983,55.3240985],[-6.175299,55.3240987],[-6.1856435,55.3262473],[-6.1965818,55.3269789],[-6.2727864,55.326979],[-6.2809279,55.3265756],[-6.2888266,55.3253821],[-6.2962043,55.3234455],[-6.2962472,55.3234343],[-6.3073475,55.3198291],[-6.3097917,55.3188401],[-6.3117106,55.3180636],[-6.3120904,55.3179099],[-6.3117106,55.3180636],[-6.3149561,55.3167504],[-6.3150105,55.3167283],[-6.3177781,55.315051],[-6.3213655,55.3128767],[-6.3214465,55.3128276],[-6.3236027,55.3108492],[-6.3263136,55.3083619],[-6.3262615,55.3084398],[-6.3237934,55.3106764],[-6.3238009,55.3106768],[-6.3843987,55.3142553],[-6.4763386,55.3307649],[-6.5606148,55.3574533],[-6.6337857,55.3932366],[-6.6877591,55.432928],[-6.7011596,55.4368796],[-6.7597345,55.4015056],[-6.935304,55.2689006],[-6.9152407,55.2622967],[-6.9075748,55.2591246],[-6.9011723,55.2551454],[-6.8962896,55.250519],[-6.8931221,55.2454306],[-6.8917958,55.2400844],[-6.8923634,55.2346946],[-6.8948012,55.2294769],[-6.8990109,55.2246403],[-6.9048236,55.2203784],[-6.9097713,55.217956],[-6.7629096,55.2060582],[-6.5200857,55.2718185],[-6.5114726,55.2735812],[-6.502425,55.2743664],[-6.4932817,55.2741447],[-6.3761493,55.2647261],[-6.3861021,55.2649116],[-6.3959171,55.2639025],[-6.4051427,55.2617432],[-6.4133688,55.25853],[-6.42023,55.2544054],[-6.4363331,55.2423197],[-6.3826612,55.2380041],[-6.3359893,55.2342513],[-6.3359893,55.2342513],[-6.3626289,55.2363933],[-6.3826612,55.2380041],[-6.3826612,55.2380041],[-6.4363331,55.2423197],[-6.499865,55.2474282],[-6.4363331,55.2423197],[-6.3826612,55.2380041],[-6.5,55.15],[-6.7,55],[-6.8,54.8],[-6.9,54.6],[-7.0333333,54.4666667],[-7.1666667,54.3333333],[-7.3,54.2],[-7.4666667,54.1],[-7.6333333,54],[-7.8,53.9],[-8.4,53.9],[-8.5666667,53.7666667],[-8.7333333,53.6333333],[-8.9,53.5],[-9.0845838,53.2692702],[-9.1290734,53.264974],[-9.5130951,53.2278898],[-9.1290734,53.264974],[-9.1215555,53.2657],[-9.0845838,53.2692702],[-9.0303769,53.2745049],[-9.0234902,53.2751699],[-9.0303769,53.2745049],[-9.0845838,53.2692702],[-9.1290734,53.264974],[-9.1269969,53.2600857],[-9.123152,53.2552817],[-9.1178052,53.2510231],[-9.1111652,53.2474755],[-9.1034907,53.2447771],[-9.0950805,53.2430329],[-9.0862619,53.2423107],[-9.0774466,53.2426362],[-9.0775344,53.2426226],[-9.5057861,53.2012683],[-9.5144989,53.2009239],[-9.5187606,53.2012529],[-9.5110531,53.18206],[-9.4751431,53.1348834],[-9.4651588,53.126499],[-9.4600424,53.1166599],[-9.417984,53.0702465],[-9.4078155,53.062905],[-9.3104647,53.1607255],[-9.3047617,53.1652611],[-9.2976001,53.16898],[-9.2892973,53.1717171],[-9.2802217,53.1733509],[-9.2707763,53.1738089],[-9.2613805,53.1730708],[-9.1725954,53.1602441],[-9.1724864,53.1622585],[-9.1703739,53.1675557],[-9.1665289,53.1724906],[-9.1611079,53.1768617],[-9.1543314,53.1804909],[-9.1464757,53.18323],[-9.1378613,53.1849671],[-9.1288399,53.1856314],[-9.1197797,53.1851957],[-9.0881363,53.1817163],[-9.0848346,53.1865264],[-9.0799352,53.1909389],[-9.0736896,53.1946922],[-9.0665441,53.1975587],[-9.0622676,53.1961952],[-9.0538229,53.1946688],[-9.0450437,53.1941572],[-9.0336451,53.1941639],[-9.0349098,53.1933909],[-9.0397892,53.1888908],[-9.0430847,53.183901],[-9.0446662,53.1786191],[-9.0444949,53.1738902],[-9,53.176499],[-8.9997882,53.1765114],[-8.9874899,53.1772324],[-8.9997882,53.1765114],[-8.95,53.14],[-8.775,53.02],[-8.6,52.9],[-8.65,52.66],[-8.875,52.63],[-9.1,52.6],[-9.3,52.3],[-9,52],[-9.2,51.6],[-9.3004621,51.4995379],[-9.3386759,51.4869911],[-9.3349517,51.4832068],[-9.3290257,51.4792507],[-9.3219521,51.4761106],[-9.3140153,51.4739126],[-9.3055341,51.4727449],[-9.2968492,51.4726546],[-9.2883094,51.4736451],[-9.2802577,51.4756768],[-9.2802547,51.4756778],[-9.28029,51.4756636],[-9.3596915,51.4495977],[-9.3677505,51.4475628],[-9.3762987,51.4465723],[-9.3849917,51.4466662],[-9.3934794,51.4478406],[-9.4014197,51.4500482],[-9.4084927,51.4532],[-9.4144132,51.4571692],[-9.4189421,51.4617956],[-9.4218965,51.4668928],[-9.4231566,51.4722552],[-9.422722,51.4770975],[-9.4256943,51.4780963],[-9.4322156,51.4814504],[-9.4375668,51.4855298],[-9.441544,51.4901791],[-9.443995,51.4952212],[-9.4448261,51.5004638],[-9.444852,51.5275202],[-9.5869389,51.4710028],[-9.5941768,51.4686814],[-9.6019834,51.4672444],[-9.6100832,51.4667424],[-9.6181905,51.4671933],[-9.6260194,51.468581],[-9.6332935,51.4708566],[-9.6397562,51.4739399],[-9.6478961,51.4786409],[-9.6670359,51.4593068],[-9.6728797,51.4546379],[-9.6802155,51.4508752],[-9.6886902,51.4481998],[-9.7211923,51.440578]],[[-9.0234902,53.2751699],[-9,53.2711634],[-9,53.2711634],[-9.0234902,53.2751699]],[[-9.1206912,51.5629526],[-9,51.5455342],[-9,51.5455342],[-9.1206912,51.5629526]],[[-9,53.2392635],[-9,53.2392635],[-8.9442894,53.2616613],[-9,53.2392635]],[[-7.0182702,52.1387574],[-7,52.1501835],[-6.9534695,52.1792833],[-7,52.1501835],[-7.0182702,52.1387574]],[[-6.3311269,55.298285],[-6.33031,55.3010256],[-6.3311193,55.2981316],[-6.3311269,55.298285]],[[-6.3310009,55.295744],[-6.3307912,55.2928155],[-6.3308648,55.2929992],[-6.3310009,55.295744]],[[-6.3298543,55.2904797],[-6.3285505,55.2874375],[-6.3286378,55.2876412],[-6.3287973,55.2878442],[-6.3298543,55.2904797]],[[-6.3296075,55.303382],[-6.3295728,55.3034987],[-6.3278141,55.306123],[-6.3296075,55.303382]],[[-6.3269063,55.2854381],[-6.3247451,55.2828099],[-6.3250043,55.283018],[-6.3269063,55.2854381]],[[-6.3222653,55.2808194],[-6.3192668,55.2785092],[-6.3196323,55.278706],[-6.3222653,55.2808194]],[[-6.31611,55.276809],[-6.3124174,55.2749052],[-6.3128876,55.2750736],[-6.31611,55.276809]],[[-6.3086834,55.2735683],[-6.3082874,55.273434],[-6.3039495,55.2719626],[-6.3044637,55.272137],[-6.3050296,55.2722602],[-6.3086834,55.2735683]],[[-6.300282,55.2712271],[-6.2957141,55.270311],[-6.2963597,55.2703737],[-6.300282,55.2712271]],[[-6.2912419,55.2698773],[-6.2865072,55.2694975],[-6.2872107,55.2694864],[-6.2912419,55.2698773]],[[-6.2838628,55.2963969],[-6.2370624,55.3115941],[-6.1966138,55.3],[-6.272767,55.3],[-6.2838628,55.2963969]],[[-6.2491972,55.2685868],[-6.2468865,55.2685329],[-6.2389471,55.2544037],[-6.238426,55.2537238],[-6.2432897,55.2541124],[-6.2491972,55.2685868]],[[-6.038787,53],[-6.038787,53],[-5.9922599,52.9577174],[-6.038787,53]],[[-5.9823677,55],[-5.9742597,55.0532418],[-5.9823677,55],[-5.9823677,55]]]}}
