{"type":"Feature","properties":{"family":"franks","name":"Lotharingia, 855 – 866"},"geometry":{"type":"Polygon","coordinates":[[[3.0198994,51.5921089],[3.0961369,51.6080902],[3.0996944,51.6145912],[3.1441021,51.6616226],[3.2029137,51.7021265],[3.2737339,51.7344304],[3.3536524,51.7571974],[3.4393651,51.7694839],[3.5273163,51.7707801],[3.6138528,51.7610325],[3.6657143,51.7480647],[3.6657143,51.7480647],[3.6596939,51.7454382],[3.6536856,51.7414867],[3.6490778,51.73687],[3.6460566,51.7317751],[3.644744,51.7264085],[3.6451924,51.7209873],[3.6560328,51.6770884],[3.658005,51.672202],[3.6614068,51.6676277],[3.6661193,51.6635251],[3.671978,51.6600369],[3.6787786,51.6572845],[3.6862844,51.6553639],[3.6942341,51.6543418],[3.7023508,51.6542539],[3.7103523,51.6551031],[3.8005148,51.6701177],[3.8894307,51.6254313],[3.9012118,51.6142847],[3.9376875,51.5868959],[3.9012118,51.6142847],[3.883696,51.6274369],[3.8777872,51.6310893],[3.870863,51.6339738],[3.8631784,51.6359839],[3.8550167,51.6370457],[3.8466788,51.6371199],[3.554906,51.6219132],[3.5473819,51.6210929],[3.5402063,51.6194666],[3.5336014,51.6170846],[3.421974,51.5680924],[3.4156904,51.5647241],[3.4105543,51.5606735],[3.4067535,51.5560887],[3.4044266,51.5511377],[3.4036582,51.5460015],[3.404476,51.5408679],[3.4068495,51.5359247],[3.4106914,51.5313526],[3.4569466,51.4871264],[3.4571161,51.4869816],[3.4570183,51.4870751],[3.4568614,51.4872643],[3.4568614,51.4872643],[3.4530044,51.4919165],[3.4506336,51.4971627],[3.4500034,51.5025997],[3.45114,51.5080054],[3.4539977,51.513159],[3.4584603,51.51785],[3.4643457,51.5218867],[3.4697392,51.5243418],[3.4704102,51.5236997],[3.4802304,51.5143033],[3.4932698,51.5018265],[3.4932698,51.5018265],[3.5370354,51.4599494],[3.4932698,51.5018265],[3.5483883,51.459569],[3.5914559,51.4581261],[3.591456,51.4581261],[3.6882369,51.4548836],[3.591456,51.4581261],[3.5914559,51.4581261],[3.5914682,51.4572374],[3.5899517,51.4521447],[3.586904,51.4473258],[3.5824377,51.4429583],[3.5767178,51.439203],[3.5722675,51.4372258],[3.5975609,51.4309251],[3.5976352,51.4309066],[3.5976352,51.4309066],[3.5976352,51.4309066],[3.6314356,51.4224868],[3.5976352,51.4309066],[3.6730642,51.4283833],[3.7511436,51.3927368],[3.6315062,51.4224639],[3.6318657,51.4223475],[3.6389598,51.4200504],[3.6455751,51.4167429],[3.6510266,51.4126918],[3.6551046,51.4080532],[3.6719228,51.3833559],[3.6719218,51.3833562],[3.6719218,51.3833562],[3.6719218,51.3833562],[3.6719218,51.3833562],[3.6657471,51.3848937],[3.6642005,51.3852788],[3.64968,51.3888943],[3.6430478,51.3905458],[3.6351867,51.3925032],[3.6153863,51.3974335],[3.75,51.2],[3.72,51.05],[3.6,50.85],[3.45,50.7],[3.38,50.55],[3.3,50.35],[3.25,50.18],[3.5,50],[3.9,49.85],[4.1,49.775],[4.3,49.7],[4.7,49.5],[4.85,49.2],[4.9,48.9],[4.925,48.75],[4.95,48.6],[5.1,48.3],[5.2,48],[5.45,47.7],[5.6,47.45],[5.4,47.2],[5.10625,46.9552083],[5.1,46.95],[4.88,46.78],[4.85,46.4],[5.075,46.35],[5.3,46.3],[5.525,46.225],[5.75,46.15],[6.1,46.1],[6.5,46],[6.86,45.83],[7.015,45.85],[7.17,45.87],[7.3333333,45.9066667],[7.4966667,45.9433333],[7.66,45.98],[7.87,45.94],[7.985,46.095],[8.1,46.25],[8.275,46.35],[8.45,46.45],[8.275,46.5],[8.1,46.55],[7.925,46.6],[7.75,46.65],[7.55,46.85],[7.45,47.1],[7.5,47.35],[7.59,47.56],[7.55,47.75],[7.565,47.875],[7.58,48],[7.65,48.25],[7.8,48.55],[7.95,48.7],[8.2,48.97],[8,49.05],[7.7,49.2],[7.6,49.5],[7.7,49.75],[7.8,49.86],[7.9,49.97],[7.8,50.06],[7.7,50.15],[7.6,50.36],[7.35,50.5],[7.225,50.615],[7.1,50.73],[6.95,50.95],[6.86,51.1],[6.77,51.25],[6.735,51.375],[6.7,51.5],[6.62,51.75],[6.8,52],[7,52.3],[7.075,52.475],[7.15,52.65],[7.2,52.85],[7.25,53.05],[7.1844239,53.2467283],[7.0794708,53.266727],[7.1844239,53.2467283],[7.1946719,53.2447755],[7.2145966,53.2667376],[7.2146177,53.2667608],[7.2069012,53.2701169],[7.1981429,53.2724294],[7.1728,53.2772631],[7.2035917,53.311248],[7.1488665,53.3143915],[7.1578537,53.3144253],[7.1669739,53.315606],[7.1754943,53.317882],[7.1830512,53.321156],[7.1893219,53.3252884],[7.1940382,53.3301028],[7.1969981,53.3353934],[7.197632,53.3386558],[7.302673,53.3325815],[7.1976216,53.3386564],[7.1975884,53.3386583],[7.1529195,53.3412414],[7.0908846,53.5273462],[7.1338192,53.5355846],[7.1338495,53.5355904],[7.1338495,53.5355904],[7.1338767,53.5355956],[7.1329472,53.5374506],[7.1290518,53.5419326],[7.12382,53.5459044],[7.1174345,53.5492269],[7.1101189,53.5517837],[7.1021293,53.5534852],[7.0937457,53.5542718],[7.0852617,53.5541159],[7.0769749,53.553023],[7.0710257,53.5518814],[7.0710216,53.5518852],[7.0483248,53.5731417],[7.0444831,53.5776053],[7.0420972,53.5824128],[7.0412498,53.5873981],[7.0419708,53.5923892],[7.0442358,53.5972137],[7.0479671,53.6017049],[7.0530362,53.6057076],[7.0592681,53.6090835],[7.2789156,53.7070699],[7.2865146,53.7098019],[7.2948685,53.7116063],[7.3036582,53.7124141],[7.4135267,53.7160086],[7.4141727,53.7160297],[7.4051766,53.7223219],[7.3319036,53.7561722],[7.2484439,53.7804628],[7.1583135,53.7941665],[7.1179904,53.7952749],[7.0984483,53.8075928],[7.0266263,53.8380688],[6.9461151,53.8597436],[6.8599749,53.8717906],[6.7714921,53.8737496],[6.6302068,53.8686539],[6.5432279,53.8604172],[6.4605986,53.842431],[6.385434,53.8153747],[6.3205534,53.7802687],[6.3123744,53.7737185],[6.2524373,53.7769152],[6.1681035,53.7767348],[6.0852931,53.7673205],[6.0068866,53.7489999],[5.9474681,53.7311508],[5.8707649,53.7329871],[5.7847939,53.7301693],[5.7012921,53.7177706],[5.6232915,53.6962415],[5.5536133,53.6663634],[5.5198352,53.6487365],[5.4579203,53.6091573],[5.4106363,53.5630309],[5.4004033,53.5461591],[5.3403395,53.5261255],[5.2824809,53.4985288],[5.1384106,53.4171153],[5.0889814,53.3840507],[5.049362,53.3465899],[5.0206049,53.3057531],[5.0145538,53.2946727],[5.0146982,53.294696],[5.0147149,53.2946987],[5.0147962,53.2947118],[5.0148045,53.2947131],[5.0148612,53.2947223],[5.0149027,53.294729],[5.015221,53.2947803],[5.103051,53.3089415],[5.0010334,53.2688085],[5.0006667,53.2686643],[5.0006195,53.2686457],[5.0005538,53.2686199],[5.0005443,53.2686161],[5.0004509,53.2685794],[5.0004319,53.2685719],[5.0002641,53.2685059],[4.9952684,53.2593579],[4.8861074,53.2073735],[4.7345375,53.1903107],[4.6588819,53.1775282],[4.5881557,53.1570035],[4.524545,53.1293735],[4.4108041,53.070024],[4.3461004,53.0280945],[4.2976711,52.9788766],[4.2676566,52.9246039],[4.0956413,52.4450367],[3.8717004,52.2419416],[3.8375947,52.2350655],[3.7608352,52.2081318],[3.6945211,52.172298],[3.6413372,52.1290301],[3.603413,52.0800935],[3.5822395,52.0274786],[3.5818914,52.0222793],[3.5501864,52.0060183],[3.4987544,51.9668237],[3.4734519,51.9599612],[3.4016453,51.9285661],[3.3415961,51.8889095],[3.2957308,51.8426161],[3.2702483,51.7990575],[3.1953298,51.7660807],[3.1304167,51.7309388],[3.0780579,51.6885413],[3.040289,51.6405669],[3.0198994,51.5921089]],[[3.9473269,51.567281],[3.9475808,51.5684145],[3.9494684,51.5670046],[3.9473269,51.567281]],[[4.6748409,52.8865256],[4.7168163,52.9083603],[4.7168164,52.9083604],[4.7168165,52.9083609],[4.7168165,52.9083609],[4.7168166,52.9083611],[4.7168168,52.9083618],[4.7168174,52.908364],[4.7168174,52.908364],[4.7168177,52.9083648],[4.7168178,52.908365],[4.7322473,52.959406],[4.8186482,52.9678489],[4.8142315,52.9519666],[4.8142315,52.9519666],[4.8142304,52.9519623],[4.8142304,52.9519623],[4.8142296,52.9519597],[4.8142296,52.9519597],[4.8142289,52.9519571],[4.8142289,52.9519571],[4.8142278,52.9519531],[4.8142278,52.9519531],[4.814226,52.9519465],[4.8078481,52.9290116],[4.8176525,52.9251793],[4.8726487,52.9036829],[4.8176525,52.9251793],[4.7040417,52.8661017],[4.7168049,52.9083223],[4.716814,52.9083527],[4.716814,52.9083527],[4.7168163,52.9083603],[4.6748409,52.8865256]],[[4.7070471,53.0286376],[4.8546485,53.1873639],[4.8906489,53.1806096],[4.8942489,53.1113779],[4.8942489,53.0759178],[4.7971352,53],[4.797048,52.9999318],[4.7968342,53],[4.7968342,53],[4.7070471,53.0286376]],[[5.1678517,53.3680417],[5.4234542,53.430519],[5.5854559,53.4541591],[5.4702547,53.4085675],[5.2074521,53.3528445],[5.1678517,53.3680417]],[[5.6358564,53.4490934],[5.6754568,53.4676677],[5.7872641,53.4649784],[5.787267,53.4649783],[5.7872766,53.4649781],[5.7872803,53.464978],[5.7872864,53.4649778],[5.7872864,53.4649778],[5.7872897,53.4649777],[5.7872903,53.4649777],[5.7872909,53.4649777],[5.7873078,53.4649773],[5.7873623,53.464976],[5.8527007,53.4634044],[5.8189594,53.4458589],[5.7746208,53.4409973],[5.7746076,53.4409959],[5.7746072,53.4409958],[5.7746019,53.4409952],[5.7745679,53.4409915],[5.7745654,53.4409912],[5.6790568,53.430519],[5.6358564,53.4490934]],[[7.1529195,53.3412414],[7.1975884,53.3386583],[7.1976216,53.3386564],[7.197632,53.3386558],[7.1976216,53.3386564],[7.1975884,53.3386583],[7.1529195,53.3412414],[7.1529195,53.3412414]]]}}
