{"type":"Feature","properties":{"family":"anglo","name":"Kingdom of Mercia, 789 – 803"},"geometry":{"type":"Polygon","coordinates":[[[-3.2328614,53.3959866],[-3.2328563,53.3907488],[-3.2311542,53.3856102],[-3.2278199,53.3807643],[-3.1667759,53.3117364],[-3.1667754,53.3117362],[-3.1667752,53.3117361],[-3.0921524,53.2730634],[-3.0911877,53.2731898],[-3.0836005,53.2732599],[-3.0844209,53.2640251],[-3.0859874,53.2463907],[-3.05,53.22],[-2.95,53.12],[-3.05,53],[-3.08,52.8],[-3.1,52.6],[-3.1,52.4],[-3.05,52.2],[-2.85,51.9],[-2.7,51.75],[-2.6575625,51.6226874],[-2.6214655,51.6475861],[-2.6149987,51.6281305],[-2.6141124,51.6231153],[-2.6147456,51.6180854],[-2.6168759,51.6132167],[-2.6204281,51.6086794],[-2.6252779,51.604632],[-2.6335428,51.5989339],[-2.6383906,51.5960692],[-2.6438886,51.5937008],[-2.6902449,51.5767924],[-2.6902584,51.5767875],[-2.6902584,51.5767875],[-2.6902584,51.5767875],[-2.6902589,51.5767873],[-2.6902595,51.5767871],[-2.6902595,51.5767871],[-2.6902595,51.5767871],[-2.6902596,51.5767871],[-2.6902596,51.5767871],[-2.7485784,51.5175676],[-2.7516828,51.5161919],[-2.7516785,51.5161934],[-2.7442134,51.5188333],[-2.7360164,51.5205086],[-2.7274483,51.5211402],[-2.7188489,51.5207029],[-2.7105594,51.5192143],[-2.6989276,51.5163061],[-2.6989278,51.5163058],[-2.6989278,51.5163058],[-2.6989279,51.5163057],[-2.6989279,51.5163057],[-2.6989283,51.5163054],[-2.6989283,51.5163054],[-2.7162272,51.4987866],[-2.72666,51.494165],[-2.55,51.45],[-2.36,51.38],[-2.15,51.45],[-2,51.55],[-1.75,51.55],[-1.45,51.42],[-1.2,51.42],[-0.97,51.45],[-0.85,51.3],[-0.82,51.1],[-0.9,50.95],[-0.9258446,50.8380066],[-0.9378094,50.8436186],[-0.9258446,50.8380066],[-0.9258446,50.8380066],[-0.9205698,50.8355325],[-0.8916926,50.8219878],[-0.8933924,50.8204652],[-0.8991467,50.8169482],[-0.9058383,50.8141713],[-0.913232,50.8122318],[-0.9135504,50.8121898],[-0.8990977,50.7924951],[-0.8963631,50.7875629],[-0.8963628,50.7875616],[-0.9126091,50.7777641],[-0.8976853,50.7719995],[-0.901123,50.7673695],[-0.9060112,50.7631557],[-0.9120913,50.7596168],[-0.9191353,50.7568854],[-0.9268791,50.7550639],[-0.9338217,50.7543458],[-0.8124346,50.7074661],[-0.8051671,50.7052219],[-0.7973617,50.7038874],[-0.7892989,50.7035105],[-0.7812688,50.7041048],[-0.7735602,50.7056489],[-0.7664505,50.7080873],[-0.7601954,50.7113322],[-0.7550202,50.715267],[-0.7511114,50.71975],[-0.7277992,50.7537373],[-0.5094928,50.777816],[-0.5123246,50.7709577],[-0.5136113,50.7687635],[-0.5160995,50.740749],[-0.5365211,50.6901124],[-0.5719148,50.6429103],[-0.6209198,50.6009014],[-0.681682,50.5656462],[-0.685576,50.5641406],[-0.6969718,50.5484682],[-0.7470326,50.5050289],[-0.8095721,50.4687449],[-0.8223365,50.4626735],[-0.7811642,50.460749],[-0.7012694,50.4666612],[-0.6245256,50.4820257],[-0.5536571,50.506298],[-0.5035541,50.532226],[-0.2831797,50.5564481],[0.1685524,50.4856639],[0.2468081,50.4780488],[0.3259204,50.4797716],[0.403177,50.490773],[0.4759263,50.5106758],[0.5416639,50.5387966],[0.5981152,50.5741687],[0.6026121,50.5775647],[0.7260566,50.5967785],[0.8174603,50.6182049],[0.898323,50.6519856],[0.939128,50.6494445],[1.0245368,50.6495409],[1.1082207,50.6603911],[1.1405254,50.6690891],[1.1868611,50.6815649],[1.2573296,50.7122223],[1.3168079,50.7511451],[1.3628976,50.7967834],[1.3937171,50.847315],[1.3973112,50.860783],[1.5533872,50.9030217],[1.6221997,50.9264526],[1.6831747,50.9573553],[1.7342849,50.9947112],[1.7738164,51.0372861],[1.8004267,51.0836701],[1.8298249,51.1544833],[1.8436347,51.2159287],[1.8384523,51.2516717],[1.8437091,51.2596066],[1.8449138,51.2632298],[1.8602055,51.3092227],[1.8615843,51.3598942],[1.8548922,51.4139521],[1.8390424,51.4683023],[1.8056971,51.5194955],[1.7562074,51.5653713],[1.6926229,51.6039871],[1.6176108,51.6337032],[1.5671859,51.6455523],[1.6023081,51.6659462],[1.6493264,51.7053339],[1.6841475,51.7493325],[1.7055809,51.7964709],[1.7055125,51.7964129],[1.6874614,51.7811139],[1.6280073,51.7401341],[1.5564523,51.7074418],[1.4757592,51.6843805],[1.3892487,51.6718958],[1.3004681,51.6704992],[1.2929116,51.6713447],[1.2194897,51.672397],[1.0943791,51.6824044],[1.0802989,51.6836674],[1.0740587,51.6842913],[1.0476051,51.688666],[1.0170842,51.6904776],[0.9913137,51.693958],[0.9948532,51.6831356],[0.9913137,51.693958],[0.9733128,51.7489978],[0.9707044,51.7541967],[0.9664622,51.7589657],[0.9607587,51.7631101],[0.9538259,51.7664612],[0.9493842,51.7678261],[0.9825585,51.797365],[1.0290584,51.7594259],[1.0350249,51.7554544],[1.042153,51.7523014],[1.050155,51.750094],[1.0587078,51.7489213],[1.0674665,51.7488305],[1.0760777,51.7498254],[1.084194,51.7518659],[1.2965141,51.821061],[1.3031703,51.8237233],[1.3089383,51.8270855],[1.3136278,51.8310369],[1.317084,51.8354472],[1.3191924,51.8401711],[1.3300268,51.8773157],[1.3307044,51.8828135],[1.3295569,51.8882815],[1.3266315,51.8934913],[1.3220499,51.8982251],[1.3160032,51.9022851],[1.3087439,51.9055014],[1.3005754,51.9077396],[1.2928982,51.9087645],[1.3052422,51.9190648],[1.3052379,51.919067],[1.305236,51.919068],[1.3043646,51.9195114],[1.2971499,51.9163674],[1.2885756,51.9141201],[1.2794247,51.9130432],[1.2701118,51.9131855],[1.2461739,51.9151233],[1.2758455,51.9399324],[1.15,51.95],[1.1437236,51.9506276],[1.0674107,51.9530139],[1.1124486,51.9537551],[1.2726127,51.9563911],[1.1124486,51.9537551],[0.95,51.97],[0.7,52.03],[0.4,52.05],[0.3,52.15],[0.2,52.3],[0.15,52.45],[0.2,52.7],[0.2,52.8270007],[0.2466025,52.795614],[0.2,52.8270007],[0.1702689,52.8470246],[0.1760164,52.8497604],[0.184016,52.8521934],[0.1926591,52.8536132],[0.2015978,52.8539628],[0.2104722,52.8532279],[0.2189249,52.8514383],[0.2266157,52.848666],[0.2332351,52.8450225],[0.2336147,52.8447668],[0.2353394,52.843605],[0.2353394,52.843605],[0.1394762,52.9082022],[0.1336191,52.9114905],[0.1268833,52.9140964],[0.1194847,52.9159366],[0.1116602,52.9169519],[0.1036608,52.9171098],[0.1024507,52.9170683],[0.192597,52.9894114],[0.2279037,53.0063032],[0.2279052,53.006304],[0.2279248,53.0063152],[0.2279248,53.0063152],[0.2279248,53.0063152],[0.2202833,53.0033605],[0.2117609,53.0013878],[0.2027516,53.0004944],[0.1936282,53.0007174],[0.1847688,53.0020475],[0.17654,53.0044298],[0.169283,53.0077654],[0.1650553,53.0106978],[0.2,53.0274229],[0.2,53.2],[0.3423892,53.2],[0.3366034,53.0928036],[0.3423892,53.2],[0.3438034,53.2262012],[0.3433801,53.2269218],[0.3513974,53.2264345],[0.3600013,53.2248321],[0.3678999,53.2222365],[0.3747771,53.2187516],[0.3803579,53.2145169],[0.3844192,53.2097019],[0.3867991,53.2044992],[0.3874022,53.1991249],[0.3888434,53.2253205],[0.3883511,53.2302861],[0.3863439,53.235113],[0.3230201,53.343102],[0.3230211,53.3431023],[0.389539,53.3640568],[0.3230211,53.3431023],[0.3230201,53.343102],[0.2892875,53.4006276],[0.2843803,53.4065316],[0.1908218,53.4909896],[0.1855924,53.4948674],[0.1792548,53.498108],[-0.091221,53.6116656],[-0.0912212,53.6116656],[-0.1118093,53.6112534],[-0.1217446,53.6116955],[-0.1312802,53.6134097],[-0.139959,53.6163139],[-0.147365,53.620269],[-0.2784055,53.7072022],[-0.2787223,53.7071721],[-0.2790028,53.7074457],[-0.2907765,53.7060257],[-0.5289779,53.6833715],[-0.5370281,53.6830258],[-0.5450553,53.6835264],[-0.5492816,53.6842521],[-0.61167,53.708833],[-0.6210062,53.7125114],[-0.61167,53.708833],[-0.5492816,53.6842521],[-0.5492724,53.6842485],[-0.5492724,53.6842485],[-0.5492724,53.6842485],[-0.5492724,53.6842485],[-0.5492724,53.6842485],[-0.5310053,53.6770513],[-0.5492724,53.6842485],[-0.5492724,53.6842485],[-0.5492724,53.6842485],[-0.5492724,53.6842485],[-0.5492724,53.6842485],[-0.5492816,53.6842521],[-0.61167,53.708833],[-0.7,53.7],[-0.9,53.55],[-1.2,53.48],[-1.5,53.42],[-1.8,53.42],[-1.925,53.4],[-2.05,53.38],[-2.35,53.4],[-2.475,53.395],[-2.6,53.39],[-2.8,53.35],[-2.95,53.38],[-2.9527079,53.3823211],[-2.9250293,53.3494673],[-2.8202925,53.325606],[-2.8202887,53.3256052],[-2.8202817,53.3256035],[-2.9596307,53.3534714],[-2.9596307,53.3534714],[-2.9596307,53.3534714],[-2.8818288,53.2886785],[-2.9596307,53.3534714],[-2.9596307,53.3534714],[-2.9596307,53.3534714],[-2.9596307,53.3534714],[-2.9596307,53.3534714],[-2.9596313,53.3534719],[-2.9596313,53.3534719],[-2.9596315,53.3534721],[-3,53.3870907],[-3.0227282,53.4060186],[-3.0227282,53.4060186],[-3.0227282,53.4060186],[-3.0227282,53.4060186],[-3.0227372,53.4060261],[-3.0227373,53.4060262],[-3.0227373,53.4060262],[-3.0227373,53.4060262],[-3.0582306,53.4355848],[-3.0227373,53.4060262],[-3.0227373,53.4060262],[-3.0227373,53.4060262],[-3.0227372,53.4060261],[-3.0227282,53.4060186],[-3.0627365,53.4532178],[-3.0698275,53.4615834],[-3.0698275,53.4615834],[-3.0698277,53.4615837],[-3.0713034,53.4614154],[-3.0799295,53.4592674],[-3.2095807,53.4170295],[-3.2168401,53.4140781],[-3.2230045,53.4103457],[-3.2278413,53.4059734],[-3.2311686,53.4011261],[-3.2328614,53.3959866]],[[-2.7878438,53.3241339],[-2.7878399,53.324135],[-2.7878388,53.3241354],[-2.698227,53.3511559],[-2.7127379,53.3390018],[-2.7127379,53.3390018],[-2.7127379,53.3390018],[-2.7127382,53.3390016],[-2.7127382,53.3390016],[-2.712739,53.3390009],[-2.7855864,53.3244304],[-2.7878438,53.3241339]]]}}
