{"type":"Feature","properties":{"family":"anglo","name":"Kingdom of Mercia, 825 – 873"},"geometry":{"type":"Polygon","coordinates":[[[-3.2328627,53.3959855],[-3.2328578,53.3907474],[-3.2311558,53.3856084],[-3.2278214,53.3807623],[-3.1667817,53.3117394],[-3.166781,53.311739],[-3.166781,53.311739],[-3.166781,53.311739],[-3.1667759,53.3117364],[-3.1667754,53.3117362],[-3.1667752,53.3117361],[-3.0921524,53.2730634],[-3.0911877,53.2731898],[-3.0836005,53.2732599],[-3.0844209,53.2640251],[-3.0859874,53.2463907],[-3.05,53.22],[-2.95,53.12],[-3.05,53],[-3.08,52.8],[-3.1,52.6],[-3.1,52.4],[-3.05,52.2],[-2.85,51.9],[-2.7,51.75],[-2.6575625,51.6226874],[-2.6214655,51.6475861],[-2.6149987,51.6281305],[-2.6141124,51.6231153],[-2.6147456,51.6180854],[-2.6168759,51.6132167],[-2.6204281,51.6086794],[-2.6252779,51.604632],[-2.6335428,51.5989339],[-2.6383906,51.5960692],[-2.6438886,51.5937008],[-2.6902449,51.5767924],[-2.6902584,51.5767875],[-2.6902584,51.5767875],[-2.6902584,51.5767875],[-2.6902589,51.5767873],[-2.6902595,51.5767871],[-2.6902595,51.5767871],[-2.6902595,51.5767871],[-2.6902596,51.5767871],[-2.6902596,51.5767871],[-2.6902596,51.5767871],[-2.6902613,51.5767865],[-2.6902613,51.5767865],[-2.6902613,51.5767865],[-2.6902648,51.5767852],[-2.8382247,51.522817],[-2.6902648,51.5767852],[-2.6902613,51.5767865],[-2.6902613,51.5767865],[-2.6902613,51.5767865],[-2.6902596,51.5767871],[-2.6902596,51.5767871],[-2.6902596,51.5767871],[-2.6902595,51.5767871],[-2.7485768,51.5175687],[-2.7516895,51.5161892],[-2.7442151,51.5188325],[-2.7360179,51.5205078],[-2.7274495,51.5211394],[-2.7188497,51.5207022],[-2.7105598,51.5192135],[-2.6989283,51.5163054],[-2.7162272,51.4987866],[-2.72666,51.494165],[-2.55,51.45],[-2.36,51.38],[-2.15,51.45],[-2,51.6],[-1.8,51.68],[-1.5,51.7],[-1.25,51.73],[-1.1,51.6],[-0.97,51.48],[-0.835,51.49],[-0.7,51.5],[-0.5,51.45],[-0.3,51.47],[-0.1,51.5],[0,51.5],[-0.02,51.62],[-0.026,51.68],[-0.03,51.72],[0.05,51.8],[0.16,51.87],[0.3,51.98],[0.4,52.05],[0.3,52.15],[0.2,52.3],[0.15,52.45],[0.2,52.7],[0.2,52.8270007],[0.2466025,52.795614],[0.2,52.8270007],[0.1702689,52.8470246],[0.1760164,52.8497604],[0.184016,52.8521934],[0.1926591,52.8536132],[0.2015978,52.8539628],[0.2104722,52.8532279],[0.2189249,52.8514383],[0.2266157,52.848666],[0.2332351,52.8450225],[0.2336147,52.8447668],[0.1394773,52.9082012],[0.13362,52.9114896],[0.1268839,52.9140956],[0.119485,52.9159358],[0.1116602,52.9169512],[0.1036603,52.9171092],[0.1024498,52.9170676],[0.1925984,52.9894122],[0.2279052,53.006304],[0.2279248,53.0063152],[0.2202833,53.0033605],[0.2117609,53.0013878],[0.2027516,53.0004944],[0.1936282,53.0007174],[0.1847688,53.0020475],[0.17654,53.0044298],[0.169283,53.0077654],[0.1650553,53.0106978],[0.2,53.0274229],[0.2,53.2],[0.3423892,53.2],[0.3366034,53.0928036],[0.3423892,53.2],[0.3438034,53.2262012],[0.3433801,53.2269218],[0.3513974,53.2264345],[0.3600013,53.2248321],[0.3678999,53.2222365],[0.3747771,53.2187516],[0.3803579,53.2145169],[0.3844192,53.2097019],[0.3867991,53.2044992],[0.3874022,53.1991249],[0.387403,53.1991176],[0.3888447,53.2253203],[0.3883524,53.2302856],[0.3863454,53.2351123],[0.3230211,53.3431023],[0.2892893,53.4006268],[0.2843823,53.4065306],[0.190824,53.4909887],[0.1855947,53.4948664],[0.1792572,53.498107],[-0.0912203,53.6116657],[-0.091221,53.6116656],[-0.0912212,53.6116656],[-0.1118093,53.6112534],[-0.1217446,53.6116955],[-0.1312802,53.6134097],[-0.139959,53.6163139],[-0.147365,53.620269],[-0.2784055,53.7072022],[-0.2787223,53.7071721],[-0.2790028,53.7074457],[-0.2907765,53.7060257],[-0.5289779,53.6833715],[-0.5370281,53.6830258],[-0.5450553,53.6835264],[-0.5492816,53.6842521],[-0.61167,53.708833],[-0.6210062,53.7125114],[-0.61167,53.708833],[-0.5492816,53.6842521],[-0.5492724,53.6842485],[-0.5492724,53.6842485],[-0.5492724,53.6842485],[-0.5492724,53.6842485],[-0.5492724,53.6842485],[-0.5310053,53.6770513],[-0.5492724,53.6842485],[-0.5492724,53.6842485],[-0.5492724,53.6842485],[-0.5492724,53.6842485],[-0.5492724,53.6842485],[-0.5492816,53.6842521],[-0.61167,53.708833],[-0.7,53.7],[-0.9,53.55],[-1.2,53.48],[-1.5,53.42],[-1.8,53.42],[-1.925,53.4],[-2.05,53.38],[-2.35,53.4],[-2.475,53.395],[-2.6,53.39],[-2.8,53.35],[-2.95,53.38],[-2.9527079,53.3823211],[-2.9250293,53.3494673],[-2.8202925,53.325606],[-2.8202887,53.3256052],[-2.8202817,53.3256035],[-2.9596307,53.3534714],[-2.9596307,53.3534714],[-2.9596307,53.3534714],[-2.8818288,53.2886785],[-2.9596307,53.3534714],[-2.9596307,53.3534714],[-2.9596307,53.3534714],[-2.9596307,53.3534714],[-2.9596307,53.3534714],[-2.9596313,53.3534719],[-2.9596313,53.3534719],[-2.9596315,53.3534721],[-3,53.3870907],[-3.0227282,53.4060186],[-3.0227282,53.4060186],[-3.0227282,53.4060186],[-3.0227282,53.4060186],[-3.0227372,53.4060261],[-3.0227373,53.4060262],[-3.0227373,53.4060262],[-3.0227373,53.4060262],[-3.0582306,53.4355848],[-3.0227373,53.4060262],[-3.0227373,53.4060262],[-3.0227373,53.4060262],[-3.0227372,53.4060261],[-3.0227282,53.4060186],[-3.0627365,53.4532178],[-3.0698275,53.4615834],[-3.0698275,53.4615834],[-3.0698277,53.4615837],[-3.0698283,53.4615843],[-3.0713013,53.4614163],[-3.0799277,53.4592682],[-3.2095791,53.4170303],[-3.2168393,53.4140786],[-3.2230043,53.4103459],[-3.2278418,53.4059731],[-3.2311696,53.4011254],[-3.2328627,53.3959855]],[[-2.7878438,53.3241339],[-2.7878399,53.324135],[-2.7878388,53.3241354],[-2.698227,53.3511559],[-2.7127379,53.3390018],[-2.7127379,53.3390018],[-2.7127379,53.3390018],[-2.7127382,53.3390016],[-2.7127382,53.3390016],[-2.712739,53.3390009],[-2.7855864,53.3244304],[-2.7878438,53.3241339]]]}}
