{"type":"Feature","properties":{"family":"franks","name":"Middle Francia, 843 – 854"},"geometry":{"type":"Polygon","coordinates":[[[3.0194551,51.5906502],[3.0319601,51.5931309],[3.0925985,51.6016223],[3.0996944,51.6145912],[3.1441021,51.6616226],[3.2029137,51.7021265],[3.2737339,51.7344304],[3.3536524,51.7571974],[3.4393651,51.7694839],[3.5273163,51.7707801],[3.6138528,51.7610325],[3.6657143,51.7480647],[3.6596894,51.7454359],[3.6536935,51.7414911],[3.6490957,51.7368818],[3.6460818,51.7317945],[3.6447731,51.726435],[3.645222,51.72102],[3.6560619,51.6771212],[3.6580347,51.6722331],[3.6614377,51.6676565],[3.6661518,51.6635509],[3.6720125,51.6600597],[3.678815,51.6573044],[3.6863223,51.6553811],[3.6942726,51.6543569],[3.702389,51.6542673],[3.7103885,51.6551156],[3.800565,51.6701321],[3.8893432,51.6255141],[3.8894307,51.6254313],[3.9012118,51.6142847],[3.9012118,51.6142847],[3.9014614,51.6140485],[3.8836585,51.6274161],[3.8777462,51.631071],[3.8708186,51.6339576],[3.8631313,51.6359694],[3.854968,51.6370321],[3.8466302,51.6371065],[3.5548595,51.6218988],[3.5473468,51.6210801],[3.5401833,51.6194568],[3.5335904,51.6170792],[3.421964,51.5680873],[3.4156897,51.5647236],[3.4105624,51.5606778],[3.4067695,51.556098],[3.4044492,51.5511517],[3.4036859,51.5460198],[3.404507,51.5408899],[3.4068821,51.5359495],[3.4107237,51.531379],[3.4568614,51.4872643],[3.4530044,51.4919165],[3.4506336,51.4971627],[3.4500034,51.5025997],[3.45114,51.5080054],[3.4539977,51.513159],[3.4584603,51.51785],[3.4643457,51.5218867],[3.4697392,51.5243418],[3.4704102,51.5236997],[3.4802304,51.5143033],[3.4932698,51.5018265],[3.4932698,51.5018265],[3.5370354,51.4599494],[3.4932698,51.5018265],[3.5483883,51.459569],[3.5914559,51.4581261],[3.591456,51.4581261],[3.6882369,51.4548836],[3.591456,51.4581261],[3.5914559,51.4581261],[3.5914682,51.4572374],[3.5899517,51.4521447],[3.586904,51.4473258],[3.5824377,51.4429583],[3.5767178,51.439203],[3.5722675,51.4372258],[3.5975609,51.4309251],[3.6731137,51.4283973],[3.7514464,51.3926343],[3.6318657,51.4223475],[3.6389598,51.4200504],[3.6455751,51.4167429],[3.6510266,51.4126918],[3.6551046,51.4080532],[3.6719228,51.3833559],[3.6719218,51.3833562],[3.6719218,51.3833562],[3.6719218,51.3833562],[3.6719218,51.3833562],[3.6657471,51.3848937],[3.6642005,51.3852788],[3.64968,51.3888943],[3.6430478,51.3905458],[3.6351867,51.3925032],[3.6153863,51.3974335],[3.75,51.2],[3.72,51.05],[3.6,50.85],[3.45,50.7],[3.38,50.55],[3.3,50.35],[3.25,50.18],[3.5,50],[3.9,49.85],[4.1,49.775],[4.3,49.7],[4.7,49.5],[4.85,49.2],[4.9,48.9],[4.925,48.75],[4.95,48.6],[5.1,48.3],[5.2,48],[5.45,47.7],[5.6,47.45],[5.4,47.2],[5.10625,46.9552083],[5.1,46.95],[4.88,46.78],[4.85,46.4],[4.83,46],[4.83,45.75],[4.82,45.5],[4.85,45.2],[4.83,44.9],[4.79,44.725],[4.75,44.55],[4.68,44.2],[4.69,44.075],[4.7,43.95],[4.62,43.7],[4.6,43.5],[4.6237676,43.3573941],[4.6605576,43.3545704],[4.6605722,43.3545693],[4.6605724,43.3545692],[4.7898479,43.344647],[4.6605724,43.3545692],[4.6605722,43.3545693],[4.6605576,43.3545704],[4.6237676,43.3573941],[4.5918459,43.3598442],[4.6237676,43.3573941],[4.6605576,43.3545704],[4.6605722,43.3545693],[4.6605724,43.3545692],[4.6594207,43.3499502],[4.6566883,43.3449594],[4.6526503,43.3404622],[4.6474672,43.3366369],[4.6413445,43.333635],[4.6345252,43.3315757],[4.6272795,43.3305405],[4.6198946,43.3305705],[4.6198664,43.3305726],[4.6198664,43.3305726],[4.6198664,43.3305726],[4.6198739,43.3305715],[4.7858795,43.3178295],[4.7937998,43.3178349],[4.8015397,43.3190651],[4.808746,43.3214639],[4.8150896,43.3249218],[4.820583,43.3286442],[4.8266949,43.3235405],[4.8316976,43.3200761],[4.8374975,43.3173485],[4.843893,43.3154523],[4.850662,43.3144535],[4.8575695,43.3143866],[4.8643756,43.3152541],[4.8708438,43.3170258],[4.8767497,43.3196402],[4.9235429,43.3449592],[4.9289659,43.3485466],[4.9333152,43.3528388],[4.9364209,43.3576684],[4.9381615,43.3628469],[4.9384687,43.3681722],[4.93733,43.3734362],[4.9347896,43.3784334],[4.9309464,43.3829686],[4.9259503,43.3868644],[4.9199964,43.3899686],[4.9133174,43.3921598],[4.9061743,43.3933524],[4.9061457,43.3933529],[4.906147,43.3953409],[4.9763844,43.3985845],[4.973779,43.395322],[4.9708192,43.3906337],[4.9691404,43.3856226],[4.9688037,43.3804717],[4.969821,43.3753695],[4.9721549,43.3705023],[4.9921514,43.3388758],[4.9921492,43.3388584],[4.9882581,43.3079174],[4.9688405,43.2588739],[4.9371221,43.2133723],[4.8942585,43.1730327],[4.8417931,43.1392883],[4.7816007,43.1133357],[4.7158213,43.0960942],[4.647956,43.0883082],[4.718594,43.0916211],[4.7474904,43.0830523],[4.8149207,43.0731016],[4.883715,43.0724328],[4.9279738,43.0780757],[4.9974303,43.0678395],[5.04116,43.0678421],[5.0568283,43.0500091],[5.104733,43.0131281],[5.1612105,42.9834681],[5.2242599,42.9620742],[5.2916571,42.9496991],[5.4971523,42.9265131],[5.5916132,42.8557421],[5.6510565,42.8196059],[5.7194252,42.7933505],[5.7937269,42.7781215],[5.8707197,42.774583],[5.9470485,42.7828894],[5.9473279,42.7829659],[6.0027576,42.7580127],[6.0676029,42.7400125],[6.068481,42.739836],[6.1179204,42.7299004],[6.1800957,42.7215233],[6.243308,42.7210849],[6.3057049,42.7285983],[6.3654566,42.7438435],[6.395676,42.7537552],[6.4014275,42.7556416],[6.4626181,42.7810974],[6.5161513,42.8146251],[6.5600693,42.8550081],[6.5651096,42.8620712],[6.5803292,42.8680556],[6.6379887,42.9033825],[6.6469744,42.9116832],[6.7442534,42.9280724],[6.818413,42.9467784],[6.885556,42.9765235],[6.9426579,43.015974],[6.9871304,43.0633576],[7.0169386,43.116541],[7.0430337,43.1821922],[7.0900172,43.1993344],[7.1476808,43.2320198],[7.1954887,43.2723043],[7.2048816,43.2843717],[7.216927,43.2857014],[7.2840527,43.3031371],[7.3454093,43.3295767],[7.3987424,43.3640531],[7.4420819,43.405303],[7.4626383,43.4354413],[7.5003337,43.4453888],[7.575503,43.4821083],[7.6376617,43.5211568],[7.6900349,43.5206674],[7.7622959,43.525083],[7.8320342,43.5395477],[8.2050877,43.6454603],[8.2601083,43.6648429],[8.3100499,43.6904586],[8.4071519,43.749346],[8.4522718,43.7817439],[8.4891763,43.8191921],[8.5167859,43.8606125],[8.5616259,43.9455764],[8.6018818,43.9630478],[8.6679321,43.9994078],[8.7213064,44.0453302],[8.7593675,44.0985742],[8.7714726,44.1214119],[8.8244684,44.1444233],[8.9232741,44.1278146],[8.9599544,44.1043381],[9.0204717,44.0727195],[9.0884551,44.0503138],[9.1612306,44.0379998],[9.2036036,44.0370193],[9.6131825,43.8239258],[9.6740435,43.7979661],[9.7405403,43.780708],[9.8103196,43.772761],[9.8742175,43.7742515],[9.8914557,43.7539466],[9.9477441,43.4572802],[9.9669334,43.4011549],[10.0020823,43.3492789],[10.1512877,43.1774248],[10.1320915,42.9590734],[10.1344831,42.9065995],[10.1506755,42.8554535],[10.1742709,42.8169528],[10.1742723,42.8169528],[10.174336,42.8169495],[10.174382,42.8169471],[10.1743919,42.8169466],[10.1745171,42.8169402],[10.3555036,42.8076794],[10.4131041,42.8735339],[10.4419044,42.8448281],[10.4311043,42.7874165],[10.3879039,42.7637764],[10.4239042,42.7401363],[10.4167042,42.7080534],[10.3375034,42.765465],[10.2414475,42.7510135],[10.2412529,42.7509843],[10.241238,42.750982],[10.2411536,42.7509693],[10.241133,42.7509662],[10.2732008,42.7285893],[10.3334915,42.7004641],[10.399995,42.6814195],[10.4054311,42.680705],[10.4308369,42.6481886],[10.4777157,42.6085445],[10.5340752,42.5763175],[10.5977848,42.5527178],[10.727742,42.5156185],[10.7381809,42.5070163],[10.727774,42.4809614],[10.7212592,42.4287583],[10.7285316,42.3766037],[10.7492823,42.3264648],[10.7710622,42.287694],[10.8078402,42.2377398],[10.8578637,42.1945843],[10.9189011,42.16013],[10.9882498,42.1358927],[11.0628538,42.1229371],[11.1394349,42.1218316],[11.2893999,42.1312973],[11.3820003,42.0890343],[11.5057216,41.9111637],[11.5463617,41.8648491],[11.5987466,41.825657],[11.6606729,41.79522],[11.7295517,41.7748041],[11.8280917,41.7539366],[11.8565959,41.7323582],[11.8987252,41.6448926],[11.9322958,41.5931306],[11.9796862,41.5478431],[12.0387309,41.5110727],[12.197856,41.4315026],[12.3492687,41.2832209],[12.4059527,41.2389798],[12.4743665,41.205489],[12.5509827,41.1844667],[12.6824425,41.16059],[12.7327201,41.1091195],[12.7804073,41.0692175],[12.837545,41.0371982],[12.9018781,41.0143175],[12.9708784,41.0014715],[13.0418417,40.9991628],[13.11199,41.0074811],[13.1785763,41.0261005],[13.2389882,41.0542917],[13.2908475,41.0909491],[13.4369359,41.2145916],[13.4369314,41.2145931],[13.2846584,41.2671776],[13.0575715,41.2019844],[13.0509739,41.2006085],[13.0441489,41.2002005],[13.0373452,41.2007754],[13.0308103,41.2023122],[13.0247824,41.204755],[13.019481,41.2080147],[13.0150993,41.2119728],[13.0117971,41.2164849],[12.9881029,41.2577282],[12.9878247,41.2583698],[12.9881733,41.257763],[12.9917104,41.2529929],[12.996449,41.2488549],[13.0021948,41.2455186],[13.0087125,41.2431205],[13.0157352,41.2417587],[13.0229755,41.2414889],[13.0301372,41.2423222],[13.0352168,41.2437454],[13.0352168,41.2437454],[13.0352168,41.2437454],[13.0352168,41.2437455],[13.0352167,41.2437457],[13.0352163,41.2437464],[13.0352151,41.2437484],[13.0269665,41.2581188],[13.0210529,41.2684213],[13.1333333,41.3666667],[13.2666667,41.4833333],[13.4,41.6],[14,42.1],[14.2448925,42.4673388],[14.2196244,42.4867408],[14.2196244,42.4867408],[14.0743407,42.5982958],[14.2196244,42.4867408],[14.2196244,42.4867408],[14.2448925,42.4673388],[14.2448925,42.4673388],[14.2718268,42.4466575],[14.2718277,42.4466568],[14.2718313,42.4466541],[14.2718316,42.4466538],[14.2718351,42.4466512],[14.2718351,42.4466512],[14.2718454,42.4466432],[14.2718454,42.4466432],[14.5137737,42.2608802],[14.5137829,42.2608731],[14.5138189,42.2608455],[14.5138222,42.2608429],[14.5138411,42.2608284],[14.5138222,42.2608429],[14.5138189,42.2608455],[14.5137829,42.2608731],[14.5137737,42.2608802],[14.2718454,42.4466432],[14.2718454,42.4466432],[14.2718351,42.4466512],[14.2718351,42.4466512],[14.2718316,42.4466538],[14.2718313,42.4466541],[14.2718277,42.4466568],[14.2718268,42.4466575],[14.2448925,42.4673388],[14.2448925,42.4673388],[14.2196244,42.4867408],[14.2448925,42.4673388],[14.2448925,42.4673388],[14.2718268,42.4466575],[14.2718277,42.4466568],[14.2718313,42.4466541],[14.2718316,42.4466538],[14.2718334,42.4466524],[14.2776197,42.4553248],[14.2802281,42.4604667],[14.2813697,42.4658941],[14.2809967,42.4713818],[14.2791242,42.4767018],[14.2758297,42.4816332],[14.2712496,42.4859711],[14.2707001,42.4863932],[14.2711977,42.4860795],[14.5310627,42.2864993],[14.5310815,42.2864849],[14.571587,42.3467638],[14.5978884,42.3981046],[14.6095839,42.4523396],[14.6061499,42.5072221],[14.5876886,42.5604724],[14.5549304,42.6098725],[14.5092097,42.6533594],[14.379855,42.7531161],[14.2880228,42.8954769],[13.9724343,43.6409312],[13.9447182,43.6887454],[13.9048241,43.7318412],[13.8542113,43.7686142],[13.7947484,43.7976928],[13.4712927,43.9241481],[13.1815678,44.114861],[13.0918627,44.1583896],[12.8887257,44.2284358],[12.7285456,44.3561917],[12.6614413,44.5292997],[12.6582431,44.5983827],[12.7108948,44.6288834],[12.7577706,44.668907],[12.7930054,44.71459],[12.8837515,44.8645809],[12.9054225,44.9118637],[12.9144927,44.9611663],[12.9106216,45.0108162],[12.8939072,45.0591248],[12.8648873,45.1044446],[12.8245255,45.1452262],[12.7741815,45.1800721],[12.6987734,45.2233123],[12.7129002,45.2350128],[13.1459747,45.3662014],[13.1641955,45.297219],[13.1830196,45.2501243],[13.2000575,45.225636],[13.2149718,45.1190575],[13.2294904,45.0674191],[13.244827,45.0411528],[13.2483495,45.0272066],[13.2657985,44.9815998],[13.294196,44.9388336],[13.332652,44.9002124],[13.4110231,44.8344062],[13.4117414,44.827715],[13.4329895,44.7751021],[13.4687121,44.7265979],[13.5174127,44.6841866],[13.559027,44.6600702],[13.5708084,44.6412114],[13.6125419,44.5987274],[13.6648499,44.5626795],[13.7258018,44.5343854],[13.7931616,44.514877],[13.8644684,44.504865],[13.9371236,44.5047134],[14.0084817,44.5144274],[14.075943,44.5336526],[14.1370441,44.5616883],[14.1402163,44.5638548],[14.1460408,44.5651338],[14.2112033,44.5901662],[14.2258148,44.5987508],[14.2258126,44.5987515],[14.2162682,44.6020071],[14.2101161,44.6046443],[14.2047818,44.6080639],[14.2004582,44.6121425],[14.197302,44.6167326],[14.1954274,44.6216681],[14.1949027,44.6267707],[14.1957472,44.6318556],[14.2065246,44.6673187],[14.2089447,44.6725848],[14.2128287,44.6773924],[14.2180128,44.6815378],[14.2242776,44.6848458],[14.2602868,44.7000497],[14.2671009,44.7023112],[14.2744042,44.7035759],[14.2819097,44.7037939],[14.2893221,44.7029566],[14.29635,44.7010971],[14.3027171,44.6982884],[14.3065057,44.6957557],[14.3007341,44.7098638],[14.2993887,44.7149181],[14.2994252,44.7200657],[14.3008424,44.7251181],[14.3035888,44.7298905],[14.3075643,44.734208],[14.3126234,44.7379124],[14.318581,44.7408681],[14.3252189,44.7429666],[14.3322939,44.7441311],[14.3395467,44.7443189],[14.340389,44.7442254],[14.2583414,44.8986971],[14.2566063,44.9030204],[14.2559148,44.9074906],[14.2562865,44.9119828],[14.2634628,44.9474447],[14.2652305,44.9525542],[14.268369,44.9573271],[14.2727587,44.9615814],[14.2782324,44.9651545],[14.2845811,44.96791],[14.2915626,44.9697427],[14.2989101,44.9705825],[14.3063429,44.9703973],[14.3135771,44.9691941],[14.3203363,44.967019],[14.3525665,44.9538036],[14.3531118,44.9618112],[14.3542819,44.967261],[14.3558584,44.9702629],[14.2467901,45.0986775],[14.2468159,45.0986884],[14.2790519,45.0607105],[14.2835728,45.0564129],[14.289205,45.0528294],[14.2957269,45.050101],[14.3028816,45.048335],[14.3103877,45.0476009],[14.3179498,45.0479276],[14.3252705,45.0493022],[14.3314069,45.0514422],[14.3314062,45.0514431],[14.3314032,45.0514465],[14.3314006,45.0514497],[14.3314006,45.0514497],[14.3211207,45.0635691],[14.3179694,45.0672843],[14.3153139,45.0704151],[14.3142175,45.0717077],[14.3118132,45.0745422],[14.3107527,45.0757925],[14.3107524,45.0757928],[14.3013891,45.0868317],[14.3011998,45.0870549],[14.300651,45.0877018],[14.3004679,45.0879178],[14.2989517,45.0897052],[14.2989517,45.0897053],[14.2989517,45.0897053],[14.2989517,45.0897053],[14.2989517,45.0897053],[14.2989517,45.0897053],[14.2863663,45.1045429],[14.2853777,45.1057084],[14.2853777,45.1057084],[14.2853777,45.1057084],[14.2853777,45.1057084],[14.2853777,45.1057084],[14.2853777,45.1057084],[14.2795583,45.1125691],[14.2795428,45.1125874],[14.2795583,45.1125691],[14.2853777,45.1057084],[14.2853777,45.1057084],[14.2853777,45.1057084],[14.2853777,45.1057084],[14.2853777,45.1057084],[14.2853777,45.1057084],[14.2863663,45.1045429],[14.2989517,45.0897053],[14.2989517,45.0897053],[14.2989517,45.0897053],[14.2989517,45.0897053],[14.2989517,45.0897053],[14.2989517,45.0897052],[14.3004679,45.0879178],[14.300651,45.0877018],[14.3011998,45.0870549],[14.3013891,45.0868317],[14.3107524,45.0757928],[14.3107527,45.0757925],[14.3118132,45.0745422],[14.3692124,45.1128083],[14.3551436,45.169999],[14.3692124,45.1128083],[14.3770535,45.080934],[14.3770543,45.0809305],[14.3954526,45.0931923],[14.4003841,45.0971929],[14.4041098,45.1017979],[14.4064853,45.1068294],[14.4074182,45.1120925],[14.4068721,45.1173836],[14.3985477,45.1513158],[14.4081705,45.1121529],[14.4956146,45.1504492],[14.5114994,45.252212],[14.5130998,45.2574956],[14.5140469,45.2590259],[14.4465501,45.2777079],[14.4464035,45.277737],[14.4538038,45.2762651],[14.4614714,45.2758608],[14.4690983,45.2765404],[14.4763779,45.2782765],[14.4830177,45.2809996],[14.4887508,45.2846],[14.4933466,45.288933],[14.4960423,45.2929614],[14.4960419,45.2929615],[14.4960417,45.2929616],[14.4960401,45.292962],[14.4960397,45.2929621],[14.4960328,45.292964],[14.484235,45.2962298],[14.484235,45.2962298],[14.484235,45.2962298],[14.484235,45.2962298],[14.484235,45.2962298],[14.484235,45.2962298],[14.460457,45.3028119],[14.4593215,45.3031262],[14.4179013,45.3145918],[14.4159763,45.3151247],[14.4159763,45.3151247],[14.4159763,45.3151247],[14.3669014,45.3287093],[14.3669014,45.3287093],[14.3669014,45.3287093],[14.3669014,45.3287093],[14.3669014,45.3287093],[14.3669014,45.3287093],[14.3669014,45.3287093],[14.3669014,45.3287093],[14.3669014,45.3287093],[14.3669014,45.3287093],[14.3669014,45.3287093],[14.3457726,45.334558],[14.317432,45.3424031],[14.3119431,45.3439225],[14.317432,45.3424031],[14.3457726,45.334558],[14.3669014,45.3287093],[14.3669014,45.3287093],[14.3669014,45.3287093],[14.3669014,45.3287093],[14.3669014,45.3287093],[14.3669014,45.3287093],[14.3669014,45.3287093],[14.3669014,45.3287093],[14.3669014,45.3287093],[14.3669014,45.3287093],[14.3669014,45.3287093],[14.4159763,45.3151247],[14.4159763,45.3151247],[14.4159763,45.3151247],[14.4179013,45.3145918],[14.4593215,45.3031262],[14.460457,45.3028119],[14.460457,45.3028119],[14.45,45.33],[14.2,45.6],[13.8,46.2],[13.7,46.5],[13.4,46.55],[13.1666667,46.5833333],[12.9333333,46.6166667],[12.7,46.65],[12.5333333,46.6333333],[12.3666667,46.6166667],[12.2,46.6],[12.0333333,46.55],[11.8666667,46.5],[11.7,46.45],[11.5,46.4],[11.3,46.35],[11,46.4],[10.8166667,46.45],[10.6333333,46.5],[10.45,46.55],[10.225,46.475],[10,46.4],[9.8333333,46.3833333],[9.6666667,46.3666667],[9.5,46.35],[9.35,46.4],[9.2,46.45],[8.45,46.45],[8.275,46.5],[8.1,46.55],[7.925,46.6],[7.75,46.65],[7.55,46.85],[7.45,47.1],[7.5,47.35],[7.59,47.56],[7.55,47.75],[7.565,47.875],[7.58,48],[7.65,48.25],[7.8,48.55],[7.95,48.7],[8.2,48.97],[8,49.05],[7.7,49.2],[7.6,49.5],[7.7,49.75],[7.8,49.86],[7.9,49.97],[7.8,50.06],[7.7,50.15],[7.6,50.36],[7.35,50.5],[7.225,50.615],[7.1,50.73],[6.95,50.95],[6.86,51.1],[6.77,51.25],[6.735,51.375],[6.7,51.5],[6.62,51.75],[6.8,52],[7,52.3],[7.075,52.475],[7.15,52.65],[7.2,52.85],[7.25,53.05],[7.1844239,53.2467283],[7.0794708,53.266727],[7.1844239,53.2467283],[7.1946719,53.2447755],[7.2145966,53.2667376],[7.2145837,53.2667463],[7.2068371,53.2701169],[7.1980763,53.2724306],[7.172791,53.2772531],[7.1728,53.2772631],[7.2035917,53.311248],[7.1488665,53.3143915],[7.1488602,53.3143918],[7.1578933,53.3144262],[7.1669972,53.315606],[7.175501,53.3178801],[7.1830419,53.3211515],[7.1892982,53.3252805],[7.1940026,53.3300912],[7.1969538,53.3353782],[7.1975884,53.3386583],[7.1529195,53.3412414],[7.0908846,53.5273462],[7.1338192,53.5355846],[7.1328936,53.5374322],[7.1289993,53.5419166],[7.1237698,53.5458911],[7.1173879,53.5492165],[7.1100771,53.5517762],[7.1020936,53.5534806],[7.093717,53.5542699],[7.0852412,53.5541163],[7.0769633,53.5530254],[7.0710216,53.5518852],[7.0483248,53.5731417],[7.0444831,53.5776053],[7.0420972,53.5824128],[7.0412498,53.5873981],[7.0419708,53.5923892],[7.0442358,53.5972137],[7.0479671,53.6017049],[7.0530362,53.6057076],[7.0592681,53.6090835],[7.2789156,53.7070699],[7.2865146,53.7098019],[7.2948685,53.7116063],[7.3036582,53.7124141],[7.4135267,53.7160086],[7.404737,53.7221654],[7.3315508,53.7560428],[7.2481983,53.7803697],[7.1581896,53.7941183],[7.1172529,53.795268],[7.0977378,53.807569],[7.0259368,53.8380468],[6.9454724,53.8597224],[6.9407081,53.8603893],[6.8594037,53.8717694],[6.7710148,53.8737281],[6.6297393,53.8686279],[6.5428739,53.8603935],[6.460372,53.8424103],[6.3853437,53.8153578],[6.3206028,53.7802563],[6.3123707,53.7736467],[6.2517972,53.7768753],[6.1676649,53.7766946],[6.085068,53.767305],[6.0068717,53.7490325],[5.9471492,53.7310908],[5.8701465,53.7329315],[5.7843938,53.7301204],[5.7011186,53.7177567],[5.6233359,53.6962884],[5.553851,53.6664929],[5.5200755,53.6488675],[5.4582339,53.6093244],[5.4110164,53.5632245],[5.4007752,53.5463122],[5.3404263,53.5261849],[5.2827149,53.4986573],[5.1386555,53.417251],[5.0893225,53.3842507],[5.0497758,53.3468551],[5.0210647,53.3060809],[5.0148612,53.2947223],[5.0149027,53.294729],[5.015221,53.2947803],[5.103051,53.3089415],[5.0010334,53.2688085],[5.0006667,53.2686643],[5.0006195,53.2686457],[4.9956512,53.2595487],[4.8859823,53.2073225],[4.7341167,53.1902234],[4.6586514,53.1774733],[4.5881104,53.1570025],[4.5246682,53.1294445],[4.4109368,53.0700999],[4.34636,53.0282489],[4.2980251,52.9791116],[4.2680657,52.9249149],[4.095995,52.4452849],[3.8717443,52.2419115],[3.8373301,52.2349723],[3.7607175,52.208082],[3.6945417,52.1723052],[3.641478,52.1291037],[3.6036483,52.0802375],[3.5825382,52.0276916],[3.5821886,52.0224328],[3.5500701,52.0059437],[3.4987813,51.9668014],[3.4732627,51.9598803],[3.4015991,51.9285422],[3.3416773,51.888956],[3.2959146,51.8427409],[3.2704205,51.7991263],[3.195226,51.7660277],[3.1304113,51.7309335],[3.0781446,51.6885877],[3.0404565,51.6406657],[3.0194551,51.5906502]],[[14.4464035,45.277737],[14.3964029,45.2915878],[14.3373662,45.3079282],[14.337371,45.3079403],[14.4464035,45.277737]],[[3.9473006,51.5672643],[3.9475587,51.5684209],[3.9494889,51.566982],[3.9473006,51.5672643]],[[4.7040417,52.8661017],[4.7168049,52.9083223],[4.716814,52.9083527],[4.716814,52.9083527],[4.7168163,52.9083603],[4.7168163,52.9083603],[4.7168164,52.9083604],[4.7168165,52.9083609],[4.7168165,52.9083609],[4.7168166,52.9083611],[4.7168168,52.9083618],[4.7168174,52.908364],[4.7168174,52.908364],[4.7168177,52.9083648],[4.7168178,52.908365],[4.7322473,52.959406],[4.8186482,52.9678489],[4.8142315,52.9519666],[4.8142315,52.9519666],[4.8142304,52.9519623],[4.8142304,52.9519623],[4.8142296,52.9519597],[4.8142296,52.9519597],[4.8142289,52.9519571],[4.8142289,52.9519571],[4.8142278,52.9519531],[4.8142278,52.9519531],[4.814226,52.9519465],[4.8078481,52.9290116],[4.8176525,52.9251793],[4.8726487,52.9036829],[4.8176525,52.9251793],[4.7040417,52.8661017]],[[4.7070471,53.0286376],[4.8546485,53.1873639],[4.8906489,53.1806096],[4.8942489,53.1113779],[4.8942489,53.0759178],[4.7971352,53],[4.797048,52.9999318],[4.7968342,53],[4.7968342,53],[4.7070471,53.0286376]],[[5.1678517,53.3680417],[5.4234542,53.430519],[5.5854559,53.4541591],[5.4702547,53.4085675],[5.2074521,53.3528445],[5.1678517,53.3680417]],[[5.6358564,53.4490934],[5.6754568,53.4676677],[5.7872641,53.4649784],[5.787267,53.4649783],[5.7872766,53.4649781],[5.7872803,53.464978],[5.7872864,53.4649778],[5.7872897,53.4649777],[5.7872903,53.4649777],[5.7872903,53.4649777],[5.7872909,53.4649777],[5.7873078,53.4649773],[5.7873623,53.464976],[5.8527007,53.4634044],[5.8189594,53.4458589],[5.7746076,53.4409959],[5.7746072,53.4409958],[5.7746019,53.4409952],[5.7745679,53.4409915],[5.7745654,53.4409912],[5.6790568,53.430519],[5.6358564,53.4490934]],[[5.7746208,53.4409973],[5.8189594,53.4458589],[5.8189594,53.4458589],[5.8189594,53.4458589],[5.8189594,53.4458589],[5.8189594,53.4458589],[5.7746208,53.4409973]],[[10.8631086,42.3669608],[10.895509,42.3872237],[10.9243092,42.317992],[10.8631086,42.3669608]],[[14.3572397,45.1969179],[14.3621706,45.1963867],[14.3635224,45.1962728],[14.3637822,45.1962131],[14.3634792,45.1962457],[14.3572397,45.1969179]],[[14.364495,45.1961363],[14.3684156,45.1951476],[14.3706389,45.1946363],[14.3709819,45.1945004],[14.3714059,45.1943935],[14.364495,45.1961363]],[[14.3714059,45.1943935],[14.374184,45.1932316],[14.3771594,45.1920527],[14.37751,45.1918407],[14.3714059,45.1943935]],[[14.3777183,45.1917535],[14.3811243,45.1896162],[14.3794264,45.1906816],[14.3828329,45.1886215],[14.3831176,45.1883653],[14.3831999,45.1883137],[14.3777183,45.1917535]],[[14.3831999,45.1883137],[14.3841091,45.1874732],[14.3874415,45.1844746],[14.3876154,45.1842316],[14.3831999,45.1883137]],[[14.3876491,45.1842005],[14.3882234,45.1833823],[14.3908081,45.1797715],[14.3908721,45.1796085],[14.3876491,45.1842005]],[[14.3921209,45.1764306],[14.3928036,45.1746931],[14.3928164,45.1746413],[14.3921209,45.1764306]]]}}
