{"type":"Feature","properties":{"family":"celts","name":"Mide, 917 – 926"},"geometry":{"type":"Polygon","coordinates":[[[-8,53.25],[-7.65,53.2],[-7.35,53.25],[-7.2,53.275],[-7.05,53.3],[-6.75,53.35],[-6.4531646,53.3075949],[-6.5,53.42],[-6.35,53.55],[-6.1663955,53.6142616],[-6.0786608,53.5554737],[-6.1663955,53.6142616],[-6.1971064,53.6348398],[-6.1894552,53.6375183],[-6.1813464,53.6397426],[-6.1726601,53.6409842],[-6.163732,53.6411949],[-6.1549066,53.6403667],[-6.146525,53.6385316],[-6.1389107,53.6357604],[-6.1323576,53.6321601],[-6.0502247,53.5770962],[-6.0467308,53.5747538],[-6.1850266,53.667493],[-6.1966809,53.8382173],[-6.1980293,53.8437187],[-6.2012606,53.8489401],[-6.2062382,53.8536599],[-6.2127511,53.8576775],[-6.220523,53.860822],[-6.2292236,53.8629599],[-6.238483,53.8640002],[-6.2442489,53.8642886],[-6.2423651,53.8371183],[-6.3,53.84],[-6.5,53.87],[-6.7,53.9],[-7.1,53.92],[-7.25,53.9],[-7.4,53.88],[-7.6,53.85],[-7.85,53.75],[-7.97,53.6],[-7.95,53.42],[-8,53.25]]]}}
