{"type":"Feature","properties":{"family":"celts","name":"Munster, 917 – 926"},"geometry":{"type":"Polygon","coordinates":[[[-10.9173002,52.1427057],[-10.9056804,52.0905802],[-10.877859,52.0408263],[-10.8378765,51.9869281],[-10.8137816,51.9609682],[-10.8156042,51.9581291],[-10.8309441,51.9049209],[-10.8287717,51.850896],[-10.821219,51.8137757],[-10.8030605,51.7636191],[-10.7699151,51.7164963],[-10.7511806,51.6995726],[-10.7436617,51.6843824],[-10.7037014,51.6381514],[-10.6501657,51.5975703],[-10.5897347,51.5665447],[-10.5898134,51.5589933],[-10.5734169,51.5065071],[-10.5407657,51.4570572],[-10.493184,51.412573],[-10.4325628,51.3747849],[-10.3612829,51.345159],[-10.2821213,51.3248423],[-10.198146,51.31462],[-10.1937833,51.3146351],[-10.1703409,51.2892705],[-10.1130625,51.2487591],[-10.0441184,51.2161741],[-9.9662631,51.1928072],[-9.8825884,51.1795833],[-9.796405,51.1770249],[-9.7111177,51.1852334],[-9.6300979,51.2038845],[-9.5543063,51.2268985],[-9.4814981,51.2112339],[-9.4009737,51.2039853],[-9.3197099,51.2062981],[-9.1657945,51.2197266],[-9.0897204,51.2307596],[-9.0180206,51.2501668],[-8.974582,51.2683209],[-8.9518913,51.2663837],[-8.8716289,51.2689144],[-8.7934783,51.2806676],[-8.7201112,51.301242],[-8.7069088,51.3069815],[-8.7028279,51.3066998],[-8.6220373,51.3106207],[-8.5438056,51.3238608],[-8.481589,51.3427116],[-8.4709192,51.3429823],[-8.3898982,51.3549946],[-8.3140085,51.3764432],[-8.2460352,51.4065436],[-8.1884864,51.444193],[-8.1435033,51.4880091],[-8.1382665,51.4962617],[-8.0334702,51.5502796],[-7.9526184,51.5580518],[-7.8519883,51.5755533],[-7.7608878,51.6074237],[-7.635168,51.6645586],[-7.5939778,51.6876722],[-7.5815942,51.6895173],[-7.5061585,51.7107252],[-7.3734242,51.75776],[-7.3005827,51.7900185],[-7.2398233,51.8307724],[-7.2087068,51.8628751],[-7.1681552,51.8662703],[-7.2070611,51.8701686],[-7.2479774,51.8793969],[-7.2889533,51.8834073],[-7.3657948,51.9003626],[-7.4362664,51.9257921],[-7.4979373,51.9588233],[-7.5416597,51.9928654],[-7.5040453,52.0430199],[-7.5011415,52.0482224],[-7.5000132,52.0536789],[-7.5007082,52.0591628],[-7.5031981,52.0644461],[-7.5073799,52.0693089],[-7.5093769,52.0707945],[-7.4240274,52.0985757],[-7.1856024,52.1050491],[-7.1782677,52.1056231],[-7.1711935,52.1069442],[-7.1406573,52.1144163],[-7.1406526,52.1144178],[-7.1483668,52.1130159],[-7.1563893,52.1125018],[-7.1644297,52.1128965],[-7.1722174,52.1141868],[-7.1952849,52.1194416],[-7.2049137,52.1225103],[-7.2249942,52.1309828],[-7.1874719,52.1320031],[-7.1569212,52.1394794],[-7.18,52.1447372],[-7.2214214,52.1622183],[-7.2532051,52.185],[-7.2731852,52.2115299],[-7.28,52.24],[-7.2731852,52.2684701],[-7.2532051,52.295],[-7.2214214,52.3177817],[-7.18,52.3352628],[-7.1317638,52.3462518],[-7.08,52.35],[-7.0282362,52.3462518],[-6.98,52.3352628],[-6.95,52.3226019],[-6.95,52.3226019],[-6.95,52.3226019],[-6.95,52.45],[-7,52.7],[-7.2,52.9],[-7.8,53.1],[-8,53.25],[-8.22,53.08],[-8.5,53.04],[-8.75,53.08],[-8.95,53.14],[-9.0325503,53.1647651],[-9.0054901,53.1451495],[-9.0155985,53.1462651],[-9.0155985,53.1462651],[-9.0743735,53.1527517],[-9.0743735,53.1527517],[-9.0797608,53.1566546],[-9.0847011,53.1610481],[-9.0881148,53.1659359],[-9.0898698,53.1711293],[-9.0898977,53.1764282],[-9.0881969,53.1816282],[-9.0881381,53.1817138],[-9.1197813,53.1851959],[-9.1288412,53.1856316],[-9.1378623,53.1849673],[-9.1464763,53.1832302],[-9.1543316,53.1804912],[-9.1611077,53.176862],[-9.1665284,53.1724908],[-9.170373,53.167556],[-9.1724852,53.1622587],[-9.1725942,53.1602434],[-9.2613824,53.173071],[-9.2707777,53.1738092],[-9.2802225,53.1733513],[-9.2892975,53.1717176],[-9.2975998,53.1689807],[-9.304761,53.165262],[-9.3104636,53.1607267],[-9.5114378,52.9587839],[-9.5257828,52.9582029],[-9.6108872,52.9645623],[-9.6266869,52.9676576],[-9.6752504,52.9698342],[-9.7427539,52.968898],[-9.8255191,52.977117],[-9.9043446,52.9944293],[-9.9765086,53.0202383],[-10.0395075,53.0536537],[-10.0661785,53.074259],[-10.1231518,53.0891297],[-10.1982218,53.1208769],[-10.2315113,53.1421809],[-10.260044,53.146468],[-10.261598,53.135839],[-10.2515065,53.0822869],[-10.2239411,53.0310022],[-10.1800548,52.9840198],[-10.1216325,52.9431977],[-10.0510147,52.9101456],[-9.9924578,52.8926021],[-10.2382574,52.7565089],[-10.2965663,52.716941],[-10.3408685,52.6712127],[-10.3694829,52.6211071],[-10.3813526,52.5685713],[-10.3770345,52.5252494],[-10.4302906,52.5062751],[-10.737005,52.3705174],[-10.8012978,52.3355003],[-10.85314,52.2935027],[-10.8905766,52.2461392],[-10.9122206,52.1952251],[-10.9173002,52.1427057]],[[-9.2358924,52.5811647],[-9.1496873,52.5973383],[-9,52.6254223],[-8.891298,52.6458167],[-8.8483854,52.6538679],[-8.7498875,52.6723478],[-8.8483854,52.6538679],[-8.891298,52.6458167],[-9,52.6254223],[-9.1496873,52.5973383],[-9.2358924,52.5811647]],[[-9.1206912,51.5629526],[-9,51.5455342],[-9,51.5455342],[-9.1206912,51.5629526]]]}}
