{"type":"Feature","properties":{"family":"islam","name":"Emirate of Nekor, 843 – 864"},"geometry":{"type":"Polygon","coordinates":[[[-5.2938012,35.7574463],[-5.2882537,35.7200508],[-5.2614468,35.7095695],[-5.2562016,35.7070095],[-5.251624,35.7037111],[-5.2478693,35.6997863],[-5.2450651,35.6953685],[-5.2433062,35.6906077],[-5.2199267,35.5964711],[-5.1322089,35.5165752],[-5.1370627,35.5201883],[-5.1427324,35.5229601],[-5.1489656,35.5247603],[-5.155514,35.5255174],[-5.1876572,35.5265887],[-5.183616,35.5229092],[-5.1649129,35.5058801],[-5.1601168,35.5015133],[-5.156876,35.4985625],[-5.2,35.5],[-5.2,35.05],[-5,35],[-4.8,34.95],[-4.4,34.85],[-4.18,34.84],[-3.96,34.83],[-3.74,34.82],[-3.52,34.81],[-3.3,34.8],[-2.2,34.95],[-2.2,35.0880253],[-2.2230222,35.0891927],[-2.2,35.0880253],[-2.1670292,35.0863535],[-2.1670285,35.0880202],[-2.167611,35.0930782],[-2.1693425,35.0979572],[-2.1721616,35.102484],[-2.1759685,35.1064981],[-2.1806282,35.109857],[-2.1859756,35.1124415],[-2.1918207,35.1141598],[-2.197882,35.1149414],[-1.961047,35.1029368],[-1.8750814,35.126831],[-1.87702,35.142703],[-1.8974042,35.1955445],[-1.9306019,35.2438606],[-1.9752275,35.2856036],[-2.0294029,35.3190013],[-2.0908355,35.3426337],[-2.1339352,35.3549211],[-2.3088552,35.4047894],[-2.365578,35.4164225],[-2.4239356,35.4197102],[-2.4820882,35.4145486],[-2.5382025,35.4011004],[-2.5676232,35.3891183],[-2.6275465,35.4282126],[-2.6392363,35.4773042],[-2.6578298,35.5280275],[-2.6882642,35.5748128],[-2.729382,35.6158505],[-2.7796055,35.6495511],[-2.8369968,35.6746073],[-2.8993329,35.6900458],[-2.9641934,35.6952666],[-3.0290569,35.6900668],[-3.0914017,35.6746482],[-3.1488072,35.6496101],[-3.1990494,35.6159248],[-3.2401894,35.5748989],[-3.2975198,35.5045128],[-3.3672825,35.479956],[-3.4724731,35.4917904],[-3.5183435,35.5161817],[-3.5775691,35.5411123],[-3.6417542,35.5558607],[-3.7082794,35.5598244],[-3.7744269,35.5528415],[-3.837495,35.5351974],[-3.8504039,35.5289995],[-3.8861867,35.534989],[-3.9552226,35.534636],[-4.0226566,35.5226182],[-4.3581893,35.4314878],[-4.6176737,35.4871628],[-4.9063822,35.6803385],[-4.9467377,35.7073405],[-5.0062918,35.7389674],[-5.0728124,35.7595415],[-5.1432247,35.7681105],[-5.1864936,35.7695516],[-5.2532383,35.7662851],[-5.2938012,35.7574463]],[[-5.1876572,35.5265887],[-5.183616,35.5229092],[-5.1649129,35.5058801],[-5.1601168,35.5015133],[-5.156876,35.4985625],[-5.156876,35.4985625],[-5.1601168,35.5015133],[-5.1649129,35.5058801],[-5.183616,35.5229092],[-5.1876572,35.5265887]],[[-3.0114297,35.4392968],[-2.9971838,35.4602442],[-2.9936016,35.4644927],[-2.989093,35.468109],[-2.9838225,35.4709612],[-2.9779824,35.472945],[-2.9717861,35.4739879],[-2.9654599,35.474052],[-2.9592349,35.4731348],[-2.9533385,35.4712698],[-2.9479859,35.4685252],[-2.9433726,35.4650012],[-2.939667,35.4608266],[-2.9370043,35.4561536],[-2.9354813,35.451153],[-2.9315349,35.4295098],[-2.9315163,35.4294497],[-2.9331078,35.4346062],[-2.9359099,35.4394081],[-2.9398139,35.443669],[-2.9446682,35.4472231],[-2.9502843,35.4499324],[-2.9564439,35.4516914],[-2.9629076,35.452432],[-2.9812253,35.4530426],[-2.9873056,35.4527884],[-2.993226,35.4516317],[-2.9987862,35.4496114],[-3.0037982,35.446796],[-3.0080924,35.4432807],[-3.0114297,35.4392968]],[[-3,35.4004791],[-2.9682297,35.4471711],[-2.964265,35.4254755],[-2.9825766,35.4260859],[-3,35.4004791]]]}}
