{"type":"Feature","properties":{"family":"normans","name":"Duchy of Normandy, 933 – 1066"},"geometry":{"type":"Polygon","coordinates":[[[-3.0878623,49.4312903],[-3.0786241,49.377675],[-3.0532187,49.3263238],[-3.0127052,49.2792804],[-2.9587314,49.2384115],[-2.8934635,49.2053347],[-2.8194984,49.1813565],[-2.7397622,49.1674224],[-2.6573985,49.1640813],[-2.6451385,49.1643827],[-2.6315853,49.1123576],[-2.6011821,49.0613185],[-2.5557396,49.0153392],[-2.4971541,48.9762996],[-2.4461795,48.953863],[-2.427842,48.9457917],[-2.3506406,48.9250572],[-2.2686948,48.9149389],[-2.0610122,48.9031787],[-2.0043903,48.9036879],[-2.0133363,48.8631402],[-2.0096164,48.8116076],[-1.9910911,48.7614819],[-1.9697507,48.7209137],[-1.9687916,48.7214422],[-1.9616969,48.7239864],[-1.9539823,48.7255609],[-1.8531306,48.7390764],[-1.8454091,48.7396116],[-1.8376736,48.7391745],[-1.830203,48.737781],[-1.8232668,48.7354813],[-1.8171151,48.7323584],[-1.8119697,48.7285248],[-1.8080158,48.7241189],[-1.8053956,48.7192994],[-1.8042032,48.71424],[-1.804481,48.7091231],[-1.8153103,48.6547593],[-1.7859112,48.6440299],[-1.5304177,48.6597319],[-1.5304047,48.6597336],[-1.5304177,48.6597319],[-1.5384479,48.6586866],[-1.5460121,48.6565992],[-1.5527922,48.6535556],[-1.5585148,48.6496787],[-1.5629495,48.6451248],[-1.5659177,48.6400774],[-1.5673004,48.63474],[-1.5670925,48.6303812],[-1.5670829,48.6303818],[-1.5670829,48.6303818],[-1.5265747,48.6328737],[-1.52,48.6],[-1.25,48.5],[-0.3,48.5],[0.1,48.45],[0.4,48.55],[0.575,48.6],[0.75,48.65],[1,48.75],[1.3,48.9],[1.5,49.05],[1.62,49.2],[1.72,49.45],[1.735,49.575],[1.75,49.7],[1.6,49.9],[1.49,49.98],[1.38,50.06],[1.3728341,50.0725403],[1.2222122,49.9790671],[1.3728341,50.0725403],[1.3728341,50.0725403],[1.4030028,50.0912625],[1.397383,50.0944434],[1.3901637,50.097121],[1.3822619,50.0988316],[1.3739888,50.0995079],[1.3656702,50.0991231],[1.3576337,50.0976924],[1.3501959,50.0952722],[1.3436495,50.0919578],[1.3246341,50.0801545],[1.3246341,50.0801545],[1.3246341,50.0801545],[1.4212516,50.1401421],[1.4826732,50.2266568],[1.4868421,50.2312535],[1.4923388,50.2352374],[1.4989499,50.2384538],[1.5064187,50.2407777],[1.5144549,50.2421187],[1.5227462,50.2424247],[1.5309701,50.2416838],[1.5410813,50.2401095],[1.512271,50.2592073],[1.5068732,50.2636206],[1.5030159,50.2686521],[1.5008662,50.2740846],[1.5005171,50.279684],[1.5053144,50.3273452],[1.4791152,50.3336064],[1.4791152,50.3336064],[1.3939417,50.3419797],[1.3078754,50.3390902],[1.2245538,50.3250598],[1.1474926,50.300481],[1.0799312,50.2663906],[1.0032158,50.2186749],[0.4727273,50.1154089],[0.3858817,50.0910635],[-0.0258384,49.9366652],[-0.0844953,49.9098578],[-0.1350988,49.8769631],[-0.1761583,49.8389617],[-0.206476,49.7969838],[-0.3131644,49.6075018],[-0.3145776,49.6038911],[-0.3521885,49.6094365],[-0.8152391,49.6524298],[-0.8293812,49.7002307],[-0.8612488,49.7712619],[-0.8894433,49.8175169],[-0.9303719,49.8596358],[-0.982664,49.8961765],[-1.0445483,49.9258846],[-1.1139119,49.9477386],[-1.1883737,49.9609856],[-1.3367611,49.9779625],[-1.4240052,49.9818989],[-1.5106044,49.974054],[-1.5927353,49.9547743],[-1.6337216,49.9418664],[-1.7971175,49.9787993],[-1.876429,49.9912166],[-1.9579941,49.9934692],[-2.0386748,49.9854706],[-2.115369,49.9675288],[-2.1851352,49.9403333],[-2.2453097,49.904928],[-2.2936109,49.8626694],[-2.3282264,49.8151721],[-2.3478786,49.7642464],[-2.3496668,49.756423],[-2.400894,49.7682547],[-2.4848387,49.775853],[-2.5694266,49.772291],[-2.6511185,49.757718],[-2.7265021,49.7327437],[-2.8997603,49.6597961],[-2.9646142,49.6259225],[-3.0176688,49.5843436],[-3.056813,49.5367397],[-3.0805116,49.4850293],[-3.0878623,49.4312903]],[[-1.5540967,48.75],[-1.55,48.75],[-1.5485614,48.7428068],[-1.5534155,48.7464057],[-1.5540967,48.75]]]}}
