{"type":"Feature","properties":{"family":"normans","name":"Norman lands in southern Italy, 1047 – 1066"},"geometry":{"type":"Polygon","coordinates":[[[14.8585031,42.0714625],[14.8588705,42.0713266],[14.8590258,42.0712692],[15.1753363,41.9543097],[15.3930652,41.9385915],[15.4461116,41.9347645],[15.1690138,41.9547553],[15.1621453,41.9547566],[15.1554001,41.9537944],[15.1490204,41.9519033],[15.1432351,41.9491512],[15.1382519,41.9456369],[15.1342494,41.9414865],[15.1331731,41.9397522],[15.1331857,41.9397475],[15.1331945,41.9397443],[15.1651517,41.9279307],[15.16558,41.9278998],[15.4459545,41.9076677],[15.16558,41.9278998],[15.1333333,41.7666667],[15.1,41.6],[15.2,41.4],[15.3,41.2],[15.6,40.9],[15.8,40.5],[15.6121111,40.07725],[15.5769837,40.07725],[15.5769822,40.07725],[15.5769806,40.07725],[15.5769031,40.0758019],[15.5778926,40.070749],[15.5801091,40.0659294],[15.5834728,40.0615158],[15.5878631,40.0576667],[15.5931223,40.0545198],[15.5990619,40.052188],[15.6054691,40.0507548],[15.6058038,40.0507304],[15.6061684,40.0502718],[15.548993,40.050275],[15.4328922,39.9740404],[15.4270406,39.9709196],[15.4204888,39.9687661],[15.4135054,39.9676682],[15.4135054,39.9676682],[15.4063765,39.9676708],[15.3993941,39.9687738],[15.2767826,39.9982289],[15.2767665,39.9982327],[15.2766444,39.9982621],[15.2886288,39.9703606],[15.3194626,39.9271402],[15.4448212,39.783725],[15.5255931,39.5056544],[15.5415995,39.465381],[15.5655097,39.4275176],[15.6977063,39.2534145],[15.7394335,39.0366455],[15.7562538,38.9848249],[15.7858531,38.9365923],[15.7903681,38.9307893],[15.7345214,38.9160529],[15.6708245,38.8933894],[15.6143288,38.8611968],[15.5673496,38.8208011],[15.5318008,38.7738634],[15.5091173,38.7223105],[15.5001994,38.668254],[15.5053803,38.6139031],[15.5244168,38.5614739],[15.5480682,38.5148151],[15.534548,38.4865565],[15.4615366,38.4535864],[15.4024995,38.4198586],[15.3539296,38.3771128],[15.3180083,38.3272873],[15.2963332,38.2726368],[15.2922962,38.2371395],[15.5130303,38.3265453],[15.5197325,38.3285869],[15.5268294,38.3294905],[15.5340106,38.3292164],[15.5409618,38.3277768],[15.6597978,38.2923042],[15.6659358,38.2898921],[15.6713401,38.2865705],[15.6757951,38.282472],[15.679123,38.2777603],[15.6811914,38.2726232],[15.6812012,38.2725508],[15.6160454,38.2432039],[15.6104826,38.2400739],[15.6058203,38.2361398],[15.6022437,38.2315577],[15.5998945,38.2265097],[15.5988657,38.2211962],[15.5991978,38.2158281],[15.6001791,38.2106636],[15.6001767,38.2106623],[15.6001759,38.2106619],[15.5964835,38.2087731],[15.5320053,38.0751708],[15.5279404,38.0691565],[15.3470245,37.8666725],[15.3524307,37.8587721],[15.3937991,37.8188859],[15.491002,37.7414173],[15.5435616,37.7070873],[15.6036597,37.681685],[15.6689117,37.6662156],[15.7367352,37.6612908],[16.0631253,37.6629682],[16.1298787,37.6684292],[16.1940107,37.6841065],[16.2530571,37.7093985],[16.304743,37.7433337],[16.3470688,37.784607],[16.3783869,37.8316287],[16.4680307,38.0054255],[16.5420306,38.0773206],[16.7566116,38.1933126],[16.8112471,38.2298628],[16.8550777,38.27452],[16.8861802,38.3253469],[16.9031746,38.3801344],[16.9052877,38.4364957],[16.8873238,38.6225433],[16.9524215,38.6550684],[16.9861439,38.6454078],[17.0520426,38.6320768],[17.1199977,38.629062],[17.1873985,38.636479],[17.2516552,38.6540429],[17.3102948,38.6810787],[17.3610537,38.7165461],[17.4019636,38.7590789],[17.5031092,38.8888394],[17.5320207,38.9353394],[17.5490409,38.9852718],[17.5535219,39.0368114],[17.5452722,39.0880704],[17.5245673,39.1371668],[17.4921438,39.1822945],[17.4651007,39.2071589],[17.4632398,39.2407422],[17.4967656,39.3372989],[17.5081169,39.3911984],[17.505198,39.4457614],[17.4880956,39.4987514],[17.4574809,39.5479915],[17.4145872,39.5914542],[17.3611627,39.6273464],[16.9825484,39.8323206],[16.945299,39.8489043],[16.9673693,39.8883345],[16.9815768,39.9480644],[16.9780115,40.0087185],[16.9747159,40.0245788],[17.0876955,40.1574413],[17.2228572,40.0974471],[17.2873264,40.075034],[17.3563195,40.062888],[17.6150502,40.0375239],[17.6149743,40.0327885],[17.6292061,39.9778143],[17.6579212,39.9262735],[17.762779,39.7813306],[17.8004678,39.7390942],[17.8478122,39.703077],[17.9031061,39.6745663],[18.1688704,39.5635074],[18.2257474,39.5444409],[18.2860742,39.5333851],[18.3479755,39.5306835],[18.4095289,39.5364196],[18.4688225,39.5504152],[18.5226584,39.5672409],[18.5787625,39.5894652],[18.6288211,39.6190663],[18.6712147,39.6550915],[18.7045646,39.6963799],[18.7277774,39.7415987],[18.7400821,39.7892857],[18.7557426,39.9025719],[18.832033,40.0188885],[18.8581287,40.0717142],[18.8693093,40.1275388],[18.865049,40.1839204],[18.8454968,40.2383863],[18.8114769,40.2885424],[18.5350674,40.6066889],[18.4895772,40.6487753],[18.4338217,40.6830496],[18.3465721,40.7263081],[18.3288615,40.7642118],[18.2973227,40.8059998],[18.2564341,40.8428662],[18.2074927,40.8736287],[18.1520605,40.8972988],[17.6638414,41.0626762],[17.2820209,41.2930475],[17.2336142,41.3174997],[17.1805451,41.3357187],[16.7423579,41.453739],[16.4236775,41.5853039],[16.4686586,41.6183569],[16.5084007,41.6618586],[16.5361201,41.7102958],[16.5507375,41.7618306],[16.5516654,41.8145034],[16.5388357,41.8663063],[16.4890666,41.9947866],[16.4601537,42.0475279],[16.4169269,42.0945722],[16.3612966,42.1338089],[16.2957436,42.1634745],[16.2232078,42.1822336],[16.1469543,42.1892406],[15.1676783,42.1976692],[15.0938743,42.1923813],[15.0230815,42.1760793],[14.9582678,42.1494476],[14.9021416,42.1136029],[14.8585031,42.0714625]]]}}
