{"type":"Feature","properties":{"family":"normans","name":"Normandy, the grant of 911, 911 – 923"},"geometry":{"type":"Polygon","coordinates":[[[-0.3375825,49.5013602],[-0.324992,49.4480545],[-0.296388,49.3974356],[-0.2529542,49.351515],[-0.1981435,49.3132931],[-0.0081822,49.3578369],[0.1374612,49.4359237],[0.145477,49.4392855],[0.1544634,49.4413667],[0.2308656,49.4527932],[0.2437217,49.4499905],[0.2432645,49.4497238],[0.2382919,49.445363],[0.2347634,49.4404432],[0.2328215,49.4351637],[0.2325445,49.4297382],[0.2336448,49.4255274],[0.2471625,49.4275489],[0.2739342,49.4315526],[0.42,49.38],[0.5,49.2],[0.6,49],[0.8,48.85],[1,48.75],[1.3,48.9],[1.5,49.05],[1.62,49.2],[1.72,49.45],[1.735,49.575],[1.75,49.7],[1.6,49.9],[1.49,49.98],[1.38,50.06],[1.3728341,50.0725403],[1.4030028,50.0912625],[1.4030028,50.0912625],[1.3973823,50.0944441],[1.3901629,50.0971221],[1.382261,50.0988331],[1.3739878,50.0995097],[1.3656691,50.0991251],[1.3576327,50.0976946],[1.3501949,50.0952745],[1.3436486,50.0919602],[1.2860772,50.0562242],[1.4212338,50.1401406],[1.4826561,50.2266573],[1.4868253,50.2312538],[1.492323,50.2352375],[1.4989357,50.2384537],[1.5064068,50.2407772],[1.5144458,50.2421178],[1.5227402,50.2424234],[1.5309676,50.2416821],[1.5410831,50.2401072],[1.5122581,50.2592141],[1.5068593,50.2636279],[1.5030014,50.2686592],[1.5008511,50.2740913],[1.5005019,50.2796899],[1.5052997,50.3273592],[1.4790841,50.3336244],[1.3939112,50.341998],[1.3078474,50.3391088],[1.2245295,50.3250788],[1.147473,50.3005006],[1.0799165,50.266411],[1.0222496,50.2305414],[1.0031958,50.2186897],[0.4727015,50.1154137],[0.3858563,50.0910666],[-0.0258545,49.9366635],[-0.0845098,49.9098559],[-0.1351112,49.8769613],[-0.1761682,49.8389602],[-0.2064833,49.796983],[-0.3131657,49.6075042],[-0.3146219,49.6037799],[-0.3336054,49.5552281],[-0.3375825,49.5013602]]]}}
