{"type":"Feature","properties":{"family":"anglo","name":"Kingdom of Northumbria, 789 – 866"},"geometry":{"type":"Polygon","coordinates":[[[-5.6407747,54.9912926],[-5.6248694,54.8613362],[-5.6092085,54.8085813],[-5.5758432,54.758638],[-5.5261397,54.7134581],[-5.4173867,54.6331114],[-5.4131516,54.6087156],[-5.388489,54.5603379],[-5.3487947,54.5154559],[-5.295491,54.475625],[-5.2304557,54.4422214],[-5.1559553,54.4163961],[-5.0592035,54.3895382],[-4.99589,54.3761028],[-4.9749977,54.3716694],[-4.8865036,54.3635142],[-4.7969718,54.3653722],[-4.7096889,54.3771754],[-4.6278638,54.3984906],[-4.5545161,54.4285341],[-4.5528523,54.4295438],[-4.477116,54.4158605],[-4.3862714,54.4102925],[-4.3587074,54.4117581],[-4.3506435,54.413271],[-4.3510784,54.4121637],[-4.2953034,54.4151292],[-4.2076762,54.4301867],[-4.1267342,54.4548913],[-4.0908889,54.4717339],[-4.08415,54.446101],[-4.0514093,54.3946995],[-4.0015929,54.3481927],[-3.8640205,54.2443803],[-3.8553983,54.212796],[-3.8280188,54.1671511],[-3.7872257,54.1250895],[-3.6860114,54.0392918],[-3.6819787,54.0365051],[-3.6527322,53.9918592],[-3.6035016,53.9463847],[-3.5399994,53.9075465],[-3.5154098,53.8952214],[-3.5155517,53.893237],[-3.5032594,53.7565081],[-3.49022,53.7051796],[-3.4872356,53.7002128],[-3.5242483,53.6580996],[-3.5496977,53.6030626],[-3.5514771,53.5840466],[-3.5550295,53.5460826],[-3.5400857,53.4897116],[-3.5056115,53.4364642],[-3.4416411,53.3617526],[-3.3900589,53.375739],[-3.3809852,53.3775261],[-3.3714843,53.3781353],[-3.3619811,53.3775392],[-3.2827338,53.3674015],[-3.275514,53.3660907],[-3.2687608,53.3640811],[-3.2626626,53.3614289],[-3.1667874,53.3117423],[-3.1667866,53.3117419],[-3.1667858,53.3117415],[-3.1667817,53.3117394],[-3.166781,53.311739],[-3.166781,53.311739],[-3.166781,53.311739],[-3.1667759,53.3117364],[-3.1667754,53.3117362],[-3.1667752,53.3117361],[-3.0921524,53.2730634],[-3.1667752,53.3117361],[-3.1667754,53.3117362],[-3.1667759,53.3117364],[-3.2278199,53.3807643],[-3.2311542,53.3856102],[-3.2328563,53.3907488],[-3.2328614,53.3959866],[-3.2311686,53.4011261],[-3.2278413,53.4059734],[-3.2230045,53.4103457],[-3.2168401,53.4140781],[-3.2095807,53.4170295],[-3.0799295,53.4592674],[-3.0713034,53.4614154],[-3.0698277,53.4615837],[-3.0698275,53.4615834],[-3.0698275,53.4615834],[-3.0627365,53.4532178],[-3.0698275,53.4615834],[-3.0698275,53.4615834],[-3.0698277,53.4615837],[-3.0698283,53.4615843],[-3.0698283,53.4615843],[-3.1419545,53.5466742],[-3.0698283,53.4615843],[-3.0698283,53.4615843],[-3.0698277,53.4615837],[-3.0698275,53.4615834],[-3.0698275,53.4615834],[-3.0227282,53.4060186],[-3.0227372,53.4060261],[-3.0227373,53.4060262],[-3.0227373,53.4060262],[-3.0227373,53.4060262],[-3.0582306,53.4355848],[-3.0227373,53.4060262],[-3.0227373,53.4060262],[-3.0227373,53.4060262],[-3.0227372,53.4060261],[-3.0227282,53.4060186],[-3.0227282,53.4060186],[-3.0227282,53.4060186],[-3,53.3870907],[-2.9596315,53.3534721],[-2.9596313,53.3534719],[-2.9596313,53.3534719],[-2.9596307,53.3534714],[-2.9596307,53.3534714],[-2.9596307,53.3534714],[-2.8818288,53.2886785],[-2.9596307,53.3534714],[-2.8202817,53.3256035],[-2.8202887,53.3256052],[-2.8202925,53.325606],[-2.9250293,53.3494673],[-2.9527079,53.3823211],[-2.95,53.38],[-2.8,53.35],[-2.6,53.39],[-2.475,53.395],[-2.35,53.4],[-2.05,53.38],[-1.925,53.4],[-1.8,53.42],[-1.5,53.42],[-1.2,53.48],[-0.9,53.55],[-0.7,53.7],[-0.61167,53.708833],[-0.6210062,53.7125114],[-0.61167,53.708833],[-0.5492816,53.6842521],[-0.5450553,53.6835264],[-0.5370281,53.6830258],[-0.5289779,53.6833715],[-0.2907765,53.7060257],[-0.2790028,53.7074457],[-0.2787223,53.7071721],[-0.2784055,53.7072022],[-0.147365,53.620269],[-0.139959,53.6163139],[-0.1312802,53.6134097],[-0.1217446,53.6116955],[-0.1118093,53.6112534],[-0.0912212,53.6116656],[-0.091221,53.6116656],[0.1792548,53.498108],[0.1855924,53.4948674],[0.1908218,53.4909896],[0.2843803,53.4065316],[0.2892875,53.4006276],[0.3230201,53.343102],[0.3230211,53.3431023],[0.389539,53.3640568],[0.4602525,53.3986708],[0.5179544,53.4410347],[0.523152,53.4469798],[0.5602698,53.4894355],[0.5854273,53.5419101],[0.5923313,53.5962694],[0.5923381,53.5963225],[0.5899361,53.6511097],[0.5802869,53.6997509],[0.5559036,53.7465556],[0.5175463,53.7899724],[0.3180038,53.971966],[0.358841,54.0214367],[0.3819043,54.075741],[0.3854058,54.1316712],[0.3691162,54.1868217],[0.3336617,54.238811],[0.2805104,54.2853853],[0.2119186,54.3245184],[0.0000862,54.4219337],[-0.1460159,54.5963685],[-0.1986813,54.6449508],[-0.268034,54.6859549],[-0.3509417,54.717502],[-0.7714037,54.8413704],[-0.7717462,54.841781],[-0.8238906,54.8824373],[-0.8553002,54.8991563],[-0.9038171,55.0247889],[-0.9343276,55.0772759],[-1.0597613,55.2355166],[-1.1603525,55.6253334],[-1.182886,55.6764144],[-1.2226577,55.7240435],[-1.2782,55.7663918],[-1.3474202,55.8018278],[-1.4276766,55.8289821],[-1.491817,55.8460825],[-1.7288223,56.0584519],[-1.7952049,56.1050874],[-1.8784687,56.142408],[-1.9745335,56.1685659],[-2.1145443,56.1962473],[-2.1146124,56.1962607],[-2.1146182,56.1962619],[-2.2516433,56.223353],[-2.30571,56.2566245],[-2.375331,56.28629],[-2.4535214,56.3084705],[-2.5376954,56.322429],[-2.6250567,56.3277011],[-2.6320595,56.327763],[-2.632074,56.3277631],[-2.6320746,56.3277632],[-2.5506675,56.3005387],[-2.5430481,56.2973736],[-2.5366868,56.2934452],[-2.5318272,56.2889041],[-2.5286552,56.2839247],[-2.5272918,56.2786979],[-2.5277885,56.2734239],[-2.5301255,56.2683051],[-2.5342126,56.2635372],[-2.5398926,56.2593031],[-2.5469476,56.2557646],[-2.7556954,56.1696965],[-2.7637219,56.1670016],[-2.7725296,56.1652174],[-2.7817893,56.1644106],[-2.791155,56.1646113],[-2.9486085,56.1764423],[-3.0864199,56.1060739],[-3.1327943,56.0471119],[-3.1378212,56.0421904],[-3.144576,56.037964],[-3.1527606,56.034619],[-3.1620142,56.0323027],[-3.1621862,56.0322711],[-3.1540562,56.0196368],[-3.1421784,55.9810387],[-3.1421782,55.9810382],[-3.1712471,55.984299],[-3.2727609,55.9956864],[-3.1712471,55.984299],[-3.1421782,55.9810382],[-3.0820966,55.9742985],[-3.1421782,55.9810382],[-3.1712471,55.984299],[-3.3279533,56.0018776],[-3.3275166,56.0019287],[-3.3279533,56.0018776],[-3.3279534,56.0018776],[-3.3279535,56.0018776],[-3.3279535,56.0018776],[-3.3279535,56.0018776],[-3.6427883,56.0371944],[-3.6420666,56.036791],[-3.6375899,56.0360083],[-3.6287836,56.0332364],[-3.6212045,56.0295005],[-3.6151847,56.0249647],[-3.6109876,56.0198277],[-3.6109152,56.0197068],[-3.6109152,56.0197068],[-3.6109152,56.0197068],[-3.6021804,56.00512],[-3.6059404,56.005542],[-3.6567462,56.0112437],[-3.62,55.95],[-3.65,55.75],[-3.85,55.6],[-4.2,55.62],[-4.6,55.68],[-4.9157285,55.7115729],[-4.9194492,55.7084098],[-4.8799088,55.6805905],[-4.8799088,55.6805905],[-4.8186482,55.6374895],[-4.8799088,55.6805905],[-4.9239825,55.6849974],[-4.933104,55.6864329],[-4.9415463,55.6888523],[-4.9489795,55.6921608],[-4.9551126,55.6962293],[-4.9597054,55.7008985],[-4.9625777,55.705986],[-4.9636163,55.7112924],[-4.9627798,55.7166103],[-4.9601003,55.7217312],[-4.9556821,55.7264545],[-4.9556614,55.7264721],[-4.955661,55.7264724],[-4.9556633,55.7264708],[-4.9593821,55.7233065],[-4.9640191,55.7182834],[-4.9666915,55.7128256],[-4.9672822,55.7071736],[-4.9657663,55.7015765],[-4.9622112,55.6962807],[-4.9567743,55.6915193],[-4.8559498,55.6206295],[-4.8479095,55.6161638],[-4.8382414,55.6128859],[-4.7312311,55.5856533],[-4.7193434,55.5657776],[-4.7272799,55.5575764],[-4.7309249,55.5527417],[-4.7328425,55.5475989],[-4.7329607,55.5423433],[-4.7312755,55.5371744],[-4.7278518,55.5322882],[-4.7228198,55.5278703],[-4.6771574,55.4952198],[-4.7732197,55.4222845],[-4.8710784,55.3479854],[-4.8765027,55.3426781],[-4.8796752,55.3368108],[-4.9128938,55.2351918],[-4.9562209,55.2101619],[-5.0054258,55.1959446],[-5.0931741,55.1817226],[-5.1761429,55.1777081],[-5.1933536,55.1659068],[-5.2869342,55.1138158],[-5.3655251,55.078399],[-5.455284,55.0532052],[-5.5522249,55.0393486],[-5.6379879,55.0377099],[-5.6407747,54.9912926]],[[-0.5487014,53.71],[-0.5362922,53.71],[-0.5331267,53.7103007],[-0.5331264,53.7103007],[-0.5331264,53.7103007],[-0.5331246,53.7103009],[-0.300061,53.7324411],[-0.3000607,53.7324411],[-0.3000503,53.7324421],[-0.3000503,53.7324421],[-0.279788,53.734367],[-0.279788,53.734367],[-0.279788,53.734367],[-0.279788,53.734367],[-0.2797818,53.7343676],[-0.2797818,53.7343676],[-0.2797818,53.7343676],[-0.2797818,53.7343676],[-0.2610026,53.7361515],[-0.2797818,53.7343676],[-0.2797818,53.7343676],[-0.2797818,53.7343676],[-0.2797818,53.7343676],[-0.279788,53.734367],[-0.279788,53.734367],[-0.279788,53.734367],[-0.279788,53.734367],[-0.3000503,53.7324421],[-0.3000503,53.7324421],[-0.3000607,53.7324411],[-0.300061,53.7324411],[-0.5331246,53.7103009],[-0.5331264,53.7103007],[-0.5331264,53.7103007],[-0.5331267,53.7103007],[-0.5362922,53.71],[-0.5362922,53.71],[-0.5362922,53.71],[-0.5454055,53.7091343],[-0.5487014,53.71]],[[0.0645917,53.5648289],[0.0663547,53.5701002],[0.0804378,53.5975207],[0.0787181,53.5924774],[0.0786514,53.5873064],[0.0802479,53.5822228],[0.0834486,53.5774131],[0.0881352,53.573054],[0.0941354,53.5693055],[0.1012286,53.5663052],[0.1091544,53.5641632],[0.1106849,53.5639454],[0.1239248,53.5896729],[0.1379959,53.5885003],[0.1386014,53.5774252],[0.112552,53.5636796],[0.117622,53.562958],[0.1316844,53.5617862],[0.1404572,53.5615633],[0.1491381,53.5623465],[0.1574034,53.5641066],[0.1649446,53.5667778],[0.1714802,53.5702606],[0.176766,53.574425],[0.1806043,53.5791154],[0.1828512,53.5841568],[0.1834217,53.5893554],[0.1840146,53.5782941],[0.1832417,53.5724083],[0.180332,53.566763],[0.1754255,53.5616285],[0.1687577,53.5572504],[0.1399604,53.5420604],[0.1326346,53.5389093],[0.1244043,53.536683],[0.1155956,53.5354698],[0.1065574,53.5353177],[0.0976477,53.5362327],[0.0892193,53.5381786],[0.0816062,53.5410784],[0.0751103,53.544817],[0.0699891,53.5492464],[0.0664463,53.554191],[0.0646228,53.5594548],[0.0645917,53.5648289]]]}}
