{"type":"Feature","properties":{"family":"norway","name":"Norwegian petty kingdoms, 872 – 899"},"geometry":{"type":"Polygon","coordinates":[[[7.2,58.6],[7.2333333,58.3666667],[7.2666667,58.1333333],[7.2799227,58.0405409],[7.3302031,58.0365436],[7.3282021,58.0319263],[7.3240202,58.0270321],[7.3180918,58.0226737],[7.3106524,58.0190235],[7.3019967,58.0162261],[7.2924676,58.0143922],[7.2824422,58.0135943],[7.2723393,58.0138634],[7.5721463,57.990029],[7.581859,57.9897381],[7.5914995,57.9904317],[7.6007161,57.9920846],[7.6091724,57.9946364],[7.6099544,57.9949919],[7.6104811,57.9949341],[7.6204696,57.9948937],[7.6302816,57.9958874],[7.6395398,57.9978772],[7.6478882,58.0007865],[7.6550056,58.0045035],[7.6606178,58.0088852],[7.6948061,58.0421624],[7.7875764,58.0477468],[7.7849651,58.005837],[7.7616548,57.9535591],[7.7193842,57.9047572],[7.6598869,57.8613481],[7.5855488,57.8250302],[7.4993092,57.7972196],[7.404546,57.7789979],[7.3049482,57.7710726],[7.2944355,57.7713564],[7.2912705,57.7703552],[7.5549199,57.7539291],[7.655339,57.7528069],[7.7542352,57.7622242],[7.8477859,57.7818176],[7.9323618,57.8108296],[7.9352295,57.8123116],[7.9709621,57.8144342],[8.0755026,57.8266433],[8.1058651,57.8339906],[8.1781979,57.8346003],[8.2697657,57.8444424],[8.3564688,57.8630044],[8.4354115,57.8896686],[8.5039411,57.9235462],[8.6267001,57.9962377],[8.6608086,58.0001531],[8.7565695,58.0227194],[8.8417341,58.055134],[8.9127262,58.0960489],[8.9665299,58.1437571],[9.0030407,58.1852239],[9.2718361,58.3131022],[9.3472709,58.3575498],[9.3914863,58.3992295],[9.5446983,58.4707384],[9.6158688,58.5112995],[9.6435843,58.5355211],[9.6739807,58.5483839],[9.7747781,58.6004407],[9.839677,58.6411154],[9.8882302,58.6875798],[9.8884536,58.6879527],[9.9492369,58.6908987],[10.1136214,58.7076548],[10.2092754,58.7223673],[10.2978634,58.7462408],[10.3109275,58.7516158],[10.3314263,58.7541967],[10.4323421,58.7727252],[10.5239505,58.8015059],[10.5552684,58.8166231],[10.5934081,58.8296605],[10.6158921,58.8412936],[10.6423638,58.8345036],[10.6700586,58.806994],[10.6786108,58.8014878],[10.6684295,58.7770234],[10.6567703,58.7218844],[10.6670772,58.6666732],[10.6988131,58.6137185],[10.736255,58.5681744],[10.7260223,58.5462528],[10.7233139,58.508411],[10.7194148,58.5038314],[10.6970847,58.4508321],[10.6955128,58.3965674],[10.7073675,58.3240035],[10.7265726,58.2704766],[10.7657421,58.2200585],[10.8232118,58.1747866],[10.8966035,58.1364832],[10.8979325,58.1360253],[10.8965346,58.1182685],[10.9107098,58.0678516],[10.9424933,58.0197372],[10.9935076,57.9608236],[11.0140335,57.9421891],[11.0220858,57.9193734],[11.0229686,57.9181823],[11.0240473,57.9176213],[11.0370088,57.9108801],[11.0916642,57.8688989],[11.1303581,57.8221822],[11.135336,57.8106054],[11.1355415,57.8101274],[11.1573944,57.7951067],[11.1606567,57.7814323],[11.189936,57.7333226],[11.2044672,57.7191641],[11.2008282,57.6966329],[11.2121674,57.6432794],[11.2421404,57.5935355],[11.2428562,57.5934765],[11.3132597,57.5876763],[11.4028052,57.5705245],[11.4097772,57.5683182],[11.4140308,57.5859932],[11.445354,57.6359309],[11.4943093,57.6816396],[11.5590717,57.7213576],[11.6371836,57.7535487],[11.7256461,57.7769644],[11.7323292,57.7779263],[11.7323402,57.7779279],[11.7401348,57.7750405],[11.6636152,57.7142944],[11.6588712,57.7095614],[11.6559766,57.7044198],[11.6550452,57.6990735],[11.6561132,57.6937342],[11.6591372,57.6886135],[11.6639969,57.6839141],[11.6704993,57.6798218],[11.6783866,57.6764987],[11.6873466,57.674076],[11.6970248,57.6726496],[11.7070388,57.6722758],[11.7896069,57.6735457],[11.7896065,57.6735452],[11.7866303,57.6695302],[11.7896065,57.6735452],[11.7896069,57.6735457],[11.8630601,57.6746754],[11.8630601,57.6746754],[11.9163819,57.6986852],[11.9165087,57.6987423],[11.9190941,57.7025269],[11.9190055,57.7025255],[11.9190055,57.7025255],[11.9190055,57.7025255],[11.8647898,57.7016917],[11.925,57.79],[12,57.9],[12,58.3],[11.85,58.7],[11.775,58.925],[11.7290789,59.0627633],[11.797952,59.2404384],[11.8060632,59.2613631],[11.8099181,59.2713078],[11.6695167,59.5803174],[11.6947169,59.6225319],[11.8927189,59.7052722],[11.903519,59.7846353],[11.8423184,59.8386698],[11.8495185,59.8724413],[11.9431194,59.9028357],[12.1447214,59.89777],[12.2923229,59.9585588],[12.5119251,60.117285],[12.4903249,60.3114714],[12.5947259,60.3942117],[12.6091261,60.4870834],[12.3499235,60.7927159],[12.2527225,61.0020995],[12.5119251,61.0493797],[12.702727,61.0460025],[12.7387274,61.1422514],[12.8395284,61.2266803],[12.8899289,61.3499464],[12.6127261,61.54751],[12.4147241,61.5829701],[12.1627216,61.7248106],[12.236943,62],[12.3139231,62.2854182],[12.0907209,62.585985],[12.097989,62.6],[12.1555216,62.7109397],[12.097989,62.6],[11.5,62.6],[10.5,62.5],[10.02,62.54],[9.78,62.56],[9.54,62.58],[9.3,62.6],[9.1,62.46],[8.9,62.32],[8.7,62.18],[8.5,62.04],[8.3,61.9],[8.2,61.7],[8.1,61.5],[8,61.3],[8.0666667,61.0666667],[8.1333333,60.8333333],[8.2,60.6],[8.0666667,60.4],[7.8,60],[7.6,59.65],[7.5,59.475],[7.4,59.3],[7.3333333,59.0666667],[7.2666667,58.8333333],[7.2,58.6]],[[9.7830978,59.0517928],[9.8338322,59],[9.8338322,59],[9.7830978,59.0517928]],[[10.0171002,59.0332184],[10.0318546,59],[10.0351004,58.9926926],[10.0318546,59],[10.0171002,59.0332184]],[[10.9495095,59.1835018],[11,59.1495228],[11.0323103,59.1277787],[11,59.1495228],[10.9495095,59.1835018]],[[10.9927099,59.0332184],[11,59.0696917],[11.00351,59.0872529],[11,59.0696917],[10.9927099,59.0332184]],[[11.1187112,59.0213984],[11.1215625,59],[11.1223112,58.9943811],[11.1215625,59],[11.1187112,59.0213984]],[[11.3203132,59.0990729],[11.429225,59],[11.4391144,58.991004],[11.429225,59],[11.3203132,59.0990729]]]}}
