{"type":"Feature","properties":{"family":"norway","name":"Norwegian petty kingdoms, 789 – 873"},"geometry":{"type":"Polygon","coordinates":[[[4.0866482,61.0793049],[4.0889427,61.0266839],[4.1122585,60.9752913],[4.1527685,60.914668],[4.1974569,60.8651495],[4.261409,60.8209535],[4.2746828,60.8148502],[4.27777,60.8108192],[4.3025631,60.791511],[4.2998979,60.7894958],[4.2596025,60.7390435],[4.2408219,60.6856862],[4.2311806,60.6181069],[4.2351342,60.5619627],[4.2626192,60.507452],[4.3123349,60.4569267],[4.3820485,60.4125564],[4.4070176,60.4021063],[4.4178747,60.3527953],[4.3974238,60.3062941],[4.3955166,60.2534275],[4.414406,60.2014065],[4.4532721,60.1522222],[4.5105481,60.1077486],[4.5839914,60.0696732],[4.6324632,60.0489861],[4.6392538,60.0049567],[4.6394408,60.0046083],[4.5966702,59.959361],[4.5708534,59.9055727],[4.5690742,59.8762996],[4.5630649,59.8695387],[4.5398606,59.8194896],[4.5359841,59.7681522],[4.5514865,59.7173913],[4.5807409,59.6760846],[4.5768101,59.6532433],[4.5851692,59.606022],[4.609696,59.5602817],[4.6535679,59.4998286],[4.6549473,59.4792907],[4.6691307,59.4197121],[4.6561093,59.3850288],[4.6467433,59.3374749],[4.6483621,59.3268217],[4.637005,59.2797511],[4.6450929,59.2261613],[4.690228,59.0963343],[4.7169029,59.0469778],[4.7611496,59.0011129],[4.8213195,58.9603789],[4.8952178,58.9262262],[4.9801847,58.899867],[5.0187446,58.8925674],[4.9853073,58.8412432],[4.9632014,58.7928873],[4.9586027,58.7432664],[4.9715916,58.6940661],[5.0016548,58.6469503],[5.1731423,58.4416099],[5.22002,58.3970777],[5.2819038,58.3579462],[5.3565749,58.3255892],[5.4413881,58.3011391],[5.5419311,58.2782552],[5.5642632,58.2512836],[5.6295046,58.2039541],[5.712426,58.165134],[5.8091325,58.1366228],[6.0272624,58.0875077],[6.0276615,58.083087],[6.0511772,58.0324682],[6.0925458,57.9852001],[6.1501674,57.9430327],[6.236688,57.8909581],[6.3122688,57.8537429],[6.4003058,57.8254002],[6.4971997,57.8070808],[6.599014,57.7995271],[6.6592126,57.7983236],[6.6803962,57.7868183],[6.7596246,57.7576505],[6.8476926,57.7369968],[6.9414501,57.7255932],[7.0375573,57.7238455],[7.1325962,57.7318162],[7.2231839,57.7492222],[7.2819029,57.7678049],[7.502725,57.7500578],[7.604359,57.7473009],[7.705021,57.7554204],[7.8007036,57.7740937],[7.8875847,57.8025775],[7.9034667,57.8105001],[7.9702298,57.814472],[8.0746524,57.8266701],[8.1662598,57.8488176],[8.2650786,57.8554136],[8.3628336,57.8671806],[8.4544495,57.8889044],[8.5363957,57.9197517],[8.6054908,57.9585367],[8.6539578,57.9994905],[8.6602667,58.0002159],[8.7558902,58.0227891],[8.8409517,58.0552043],[8.9118802,58.0961142],[8.965663,58.1438131],[9.0021326,58.1852231],[9.2708795,58.3130552],[9.3463997,58.357546],[9.3905966,58.3992033],[9.5437928,58.4706932],[9.6149676,58.5112433],[9.6427335,58.5354898],[9.6731142,58.5483464],[9.7739144,58.6003961],[9.8388159,58.6410581],[9.8874035,58.6875137],[9.8876666,58.6879519],[9.9486835,58.6909085],[10.1130535,58.7076592],[10.2086615,58.722367],[10.2972199,58.7462452],[10.3102211,58.7515978],[10.3308414,58.7541933],[10.4317128,58.7727167],[10.5232956,58.8015028],[10.5545138,58.8165799],[10.5929766,58.8297513],[10.6154865,58.8414151],[10.6429702,58.8343682],[10.6706257,58.8068741],[10.6792477,58.8013202],[10.6691147,58.7769608],[10.6574494,58.7217551],[10.6677724,58.6664836],[10.6995434,58.6134827],[10.7369334,58.5680139],[10.7267455,58.546183],[10.7240348,58.5083428],[10.7201565,58.5037852],[10.6978145,58.4507161],[10.6962527,58.3963841],[10.7081193,58.3238238],[10.7273012,58.270331],[10.7663961,58.2199504],[10.823744,58.1747155],[10.896974,58.1364447],[10.8987139,58.1358443],[10.8973211,58.1180936],[10.9115172,58.0676265],[10.9433306,58.0194757],[10.9943482,57.9605682],[11.0148738,57.9419303],[11.0229174,57.9191458],[11.0240473,57.9176213],[11.0370088,57.9108801],[11.0916642,57.8688989],[11.1303581,57.8221822],[11.135336,57.8106054],[11.1582404,57.7948637],[11.1614593,57.7813308],[11.1907142,57.7331867],[11.2052994,57.7189607],[11.2016793,57.6966982],[11.2129312,57.6433335],[11.2428562,57.5934765],[11.3132597,57.5876763],[11.4028052,57.5705245],[11.4097772,57.5683182],[11.4140308,57.5859932],[11.445354,57.6359309],[11.4943093,57.6816396],[11.5590717,57.7213576],[11.6371836,57.7535487],[11.7256461,57.7769644],[11.7323292,57.7779263],[11.7323402,57.7779279],[11.732361,57.7779309],[11.7402,57.7750271],[11.6637122,57.7143047],[11.6589673,57.7095717],[11.6560686,57.7044295],[11.6551304,57.6990822],[11.6561888,57.6937416],[11.6592012,57.6886194],[11.6640473,57.6839183],[11.6705347,57.6798245],[11.6784061,57.6765],[11.6873499,57.6740763],[11.6970121,57.6726492],[11.7070105,57.6722751],[11.7896065,57.6735452],[11.7896369,57.6735457],[11.7896369,57.6735457],[11.7896369,57.6735457],[11.7896369,57.6735457],[11.8630588,57.6746748],[11.8630601,57.6746754],[11.8630601,57.6746754],[11.9163819,57.6986852],[11.9190055,57.7025255],[11.8647898,57.7016917],[11.925,57.79],[12,57.9],[12,58.3],[11.85,58.7],[11.775,58.925],[11.7290789,59.0627633],[11.797952,59.2404384],[11.8060632,59.2613631],[11.8099181,59.2713078],[11.6695167,59.5803174],[11.6947169,59.6225319],[11.8927189,59.7052722],[11.903519,59.7846353],[11.8423184,59.8386698],[11.8495185,59.8724413],[11.9431194,59.9028357],[12.1447214,59.89777],[12.2923229,59.9585588],[12.5119251,60.117285],[12.4903249,60.3114714],[12.5947259,60.3942117],[12.6091261,60.4870834],[12.3499235,60.7927159],[12.2527225,61.0020995],[12.5119251,61.0493797],[12.702727,61.0460025],[12.7387274,61.1422514],[12.8395284,61.2266803],[12.8899289,61.3499464],[12.6127261,61.54751],[12.4147241,61.5829701],[12.1627216,61.7248106],[12.236943,62],[12.3139231,62.2854182],[12.0907209,62.585985],[12.097989,62.6],[12.1555216,62.7109397],[12.0943209,62.9068147],[12.2239222,63.001375],[11.9935199,63.2884331],[12.2203222,63.4741766],[12.1699217,63.5974428],[12.2923229,63.656543],[12.6811268,63.9571097],[12.9835298,64.0584244],[13.2355324,64.0905073],[13.9627396,64.0094556],[14.1004491,64.1285073],[14.0666667,64.1333333],[13.8333333,64.1666667],[13.6,64.2],[13.5333333,64.4],[13.4666667,64.6],[13.4,64.8],[13.5333333,65],[13.6666667,65.2],[13.8,65.4],[13.96,65.58],[14.12,65.76],[14.28,65.94],[14.6,66.3],[14.8,66.42],[15,66.54],[15.6,66.9],[15.75,67.025],[15.9,67.15],[16.05,67.275],[16.1805546,67.3837955],[16.1263613,67.4220703],[16.198362,67.5081877],[16.3498032,67.524836],[16.35,67.525],[16.65,67.775],[16.7601443,67.8667869],[16.7815678,67.8965605],[16.8202268,67.909194],[17.02,68],[17.24,68.1],[17.46,68.2],[17.68,68.3],[17.9,68.4],[18.6,68.9],[19,69.06],[19.2,69.14],[19.4,69.22],[19.4164201,69.226568],[19.301593,69.2237822],[19.4164201,69.226568],[19.5103951,69.228848],[19.4721901,69.248876],[19.6,69.3],[19.8,69.375],[20,69.45],[20.2,69.525],[20.2821427,69.5558035],[20.2736027,69.5598091],[20.2821427,69.5558035],[20.3060031,69.5446119],[20.2700027,69.5175947],[20.2712614,69.5119859],[20.3382046,69.5373296],[20.3475805,69.5415849],[20.3543678,69.5464038],[20.3566676,69.5494436],[20.429032,69.5715645],[20.4398806,69.5756333],[20.44812,69.5803904],[20.4533993,69.5856341],[20.4554924,69.5911423],[20.4589805,69.6333968],[20.4577927,69.6389407],[20.4533631,69.6442797],[20.4340866,69.6608202],[20.4341013,69.6608447],[20.459567,69.7033755],[20.4244307,69.7392867],[20.4243677,69.739351],[20.4343301,69.7601274],[20.4419563,69.7760315],[20.4419571,69.7760331],[20.4461449,69.7847666],[20.4419571,69.7760331],[20.4419563,69.7760315],[20.4343301,69.7601274],[20.4243677,69.739351],[20.4005218,69.6896212],[20.4243677,69.739351],[20.4343301,69.7601274],[20.4419563,69.7760315],[20.4419571,69.7760331],[20.4461449,69.7847666],[20.4477757,69.7881676],[20.4478787,69.7881844],[20.4560284,69.7895155],[20.4944663,69.7942737],[20.4707598,69.8023425],[20.4611658,69.8062969],[20.4576225,69.8085039],[20.457549,69.8085496],[20.4948812,69.8864044],[20.4958404,69.8922536],[20.4931063,69.8980336],[20.4868051,69.9034714],[20.4867176,69.9035278],[20.4867299,69.9035437],[20.4880657,69.9052682],[20.494616,69.9099055],[20.5036197,69.9140286],[20.5147483,69.9174866],[20.5275949,69.9201526],[20.541689,69.9219289],[20.6930645,69.9354545],[20.7086197,69.9362775],[20.7243435,69.9360191],[20.7383802,69.9347962],[20.7371831,69.9354124],[20.7314435,69.9400588],[20.684481,69.9906964],[20.6813123,69.9957133],[20.680977,70.000844],[20.6834894,70.0059027],[20.6887606,70.0107061],[20.6966011,70.0150802],[20.7831052,70.0542741],[20.7747623,70.0551822],[20.7605628,70.0579251],[20.74873,70.061476],[20.7146143,70.0670419],[20.7136669,70.0668838],[20.7136215,70.0668762],[20.7082696,70.0561695],[20.7040267,70.0476813],[20.6992404,70.0419791],[20.6909202,70.0367729],[20.6794704,70.0323141],[20.6545711,70.0245344],[20.642195,70.0213667],[20.6282496,70.0190841],[20.6132691,70.0177741],[20.6128943,70.0177671],[20.6126571,70.0177627],[20.6277659,70.0190613],[20.6418709,70.0213563],[20.654387,70.0245551],[20.6792857,70.0323349],[20.6907775,70.0368102],[20.6991284,70.0420354],[20.7039302,70.0477567],[20.7137183,70.0671881],[20.6876069,70.071448],[20.6261089,70.0522178],[20.601206,70.0444308],[20.6261089,70.0522178],[20.7,70.2],[20.7181655,70.2363311],[20.5508055,70.2301743],[20.7181655,70.2363311],[20.7344073,70.2369286],[20.7907075,70.2200279],[20.796652,70.231829],[20.7977604,70.2373342],[20.7955358,70.242798],[20.7901034,70.2479587],[20.7901034,70.2479587],[20.7900688,70.2479917],[20.7901034,70.2479587],[20.7901159,70.2479518],[20.7956153,70.2427453],[20.7978475,70.2372985],[20.7978592,70.23727],[20.7967559,70.231756],[20.7908057,70.2199985],[20.7907992,70.2200004],[20.7907343,70.2200199],[20.7907992,70.2200004],[20.7908057,70.2199985],[20.8244082,70.2099114],[20.7980545,70.1637633],[20.7704077,70.115351],[20.7980545,70.1637633],[20.8062522,70.166563],[20.8192383,70.16952],[20.833685,70.1715549],[20.8490309,70.1725886],[20.8646794,70.172581],[20.8800217,70.1715322],[20.8944614,70.1694832],[20.9074372,70.1665135],[20.9184455,70.1627386],[20.9270598,70.1583051],[20.9845706,70.121134],[20.9901313,70.1165532],[20.9931339,70.1117043],[20.9934787,70.1067511],[20.991156,70.1018607],[20.9706581,70.0747544],[20.9784508,70.0781022],[20.9892491,70.0819032],[21.0020232,70.084911],[21.0162804,70.0870094],[21.0314703,70.0881173],[21.0470057,70.0881919],[21.0622862,70.0872302],[21.0767212,70.0852695],[21.0897533,70.0823856],[21.1008795,70.0786897],[21.1096715,70.0743247],[21.1157915,70.0694589],[21.1190053,70.06428],[21.1261241,70.0423253],[21.1262367,70.0367676],[21.1256578,70.0357901],[21.1311514,70.0351289],[21.1441402,70.0325317],[21.1554492,70.0291399],[21.1646679,70.0250771],[21.171462,70.0204909],[21.1755861,70.0155482],[21.1768923,70.0104286],[21.1763414,70.0086209],[21.1800179,70.0126176],[21.1866119,70.0168992],[21.1953424,70.020708],[21.2745336,70.0494389],[21.2856251,70.0527668],[21.2983426,70.0553307],[21.3122407,70.0570409],[21.3268324,70.0578373],[21.3416058,70.0576919],[21.3560427,70.05661],[21.369637,70.0546293],[21.423477,70.044605],[21.4403123,70.0759482],[21.4364377,70.0767162],[21.4240744,70.0805459],[21.4143381,70.0851734],[21.4076632,70.090393],[21.3606978,70.1410305],[21.3599321,70.1422695],[21.3227484,70.1408864],[21.307475,70.1408185],[21.2924427,70.1417447],[21.2782063,70.1436308],[21.2652914,70.1464072],[21.2541752,70.1499715],[21.1497477,70.190463],[21.1403903,70.1949214],[21.1338738,70.1999269],[21.130468,70.205274],[21.1303153,70.2107431],[21.1334244,70.2161092],[21.1396698,70.2211516],[21.1487965,70.2256625],[21.1604302,70.2294562],[21.3909229,70.2903071],[21.4041334,70.2931219],[21.4187199,70.2950144],[21.4327838,70.2958339],[21.4347301,70.2996065],[21.4394565,70.3040189],[21.4681519,70.3248731],[21.4408233,70.3516612],[21.356896,70.3989955],[21.2456074,70.4395146],[21.111592,70.4714781],[20.9605449,70.4935057],[20.9404868,70.4948882],[20.7989708,70.5046419],[20.6338804,70.5044021],[20.4643617,70.4981732],[20.3076984,70.4869237],[20.2511253,70.4786534],[20.1492552,70.5090885],[20.0176224,70.535246],[19.8732368,70.5525073],[19.7214692,70.5602271],[19.567997,70.5581158],[19.418569,70.5462519],[19.2787662,70.5250787],[19.2698048,70.5229556],[19.2659869,70.5232431],[19.1036896,70.5242715],[18.9441081,70.5143004],[18.7939302,70.4937474],[18.6594074,70.4634722],[18.5799454,70.4413037],[18.4694056,70.4035775],[18.3832661,70.3593038],[18.3823458,70.3585338],[18.2669141,70.3363883],[18.1519261,70.3031243],[18.0579188,70.263102],[17.9882135,70.2177897],[17.9451891,70.1688398],[17.8942928,70.0808068],[17.880075,70.0185995],[17.8864841,70.0044635],[17.8366705,69.9907759],[17.7862445,69.9737386],[17.6928267,69.9356045],[17.6217056,69.8922022],[17.6134821,69.883877],[17.5934549,69.8763807],[17.5787931,69.8680429],[17.5619898,69.8678749],[17.5569886,69.8674758],[17.4364573,69.8698184],[17.2835291,69.8621956],[17.1381033,69.8442452],[17.0060245,69.8166912],[16.8925466,69.7806417],[16.8021123,69.7375403],[16.7980106,69.7344402],[16.7265326,69.7194993],[16.6160643,69.6847716],[16.5270403,69.6433134],[16.4887226,69.6155803],[16.3919332,69.5883653],[16.3479923,69.5703495],[16.2023596,69.5824037],[16.0496185,69.5841071],[15.8989707,69.5751409],[15.7565264,69.5558685],[15.6280287,69.5270706],[15.3895405,69.4605839],[15.2765445,69.4214484],[15.1892103,69.3749357],[15.1358072,69.3272251],[15.1299134,69.3257393],[15.0133227,69.2893774],[14.9888581,69.2778152],[14.8722853,69.2697851],[14.7377287,69.2504485],[14.616261,69.2223151],[14.5123812,69.18644],[14.4298759,69.1441628],[14.4242528,69.1405886],[14.4145535,69.1382135],[14.309134,69.0991697],[14.242438,69.0614963],[14.1265729,69.0305672],[14.1236558,69.0294122],[14.0912021,69.023557],[13.977422,68.9919406],[13.882837,68.9530757],[13.8108832,68.9084182],[13.7614037,68.869386],[13.715104,68.8210263],[13.7120683,68.8133836],[13.6976381,68.8037686],[13.6548247,68.7546425],[13.6386604,68.7034622],[13.6495565,68.6521013],[13.6809671,68.610375],[13.6811096,68.592642],[13.6866162,68.583013],[13.5851498,68.5636255],[13.5820119,68.5627069],[13.5027965,68.5604175],[13.3570201,68.5446581],[13.2234561,68.5181809],[13.1079073,68.4821463],[12.9711982,68.4293778],[12.8826277,68.3873819],[12.8378097,68.3541724],[12.7295658,68.3386044],[12.6116518,68.3109884],[12.5104245,68.2755126],[12.429596,68.2335073],[12.3720648,68.1865398],[12.1094196,67.8984051],[12.0773839,67.8460289],[12.073578,67.7922967],[12.0979628,67.7393433],[12.1493927,67.6892584],[12.2256889,67.6440063],[12.323746,67.6053512],[12.4396666,67.5747924],[12.5689158,67.5535103],[12.7064908,67.5423244],[12.8470994,67.5416645],[12.9853449,67.5515559],[13.115912,67.5716186],[13.233752,67.6010804],[13.4634507,67.6713816],[13.5559076,67.7050917],[13.6311722,67.7445263],[13.6573626,67.7652359],[13.6717405,67.7706374],[13.7435231,67.7839878],[13.7656125,67.7903483],[13.8132931,67.7960986],[13.9301586,67.8206569],[13.9707017,67.8247294],[14.0504161,67.8394748],[14.0413561,67.8124294],[14.0514421,67.7593393],[14.0578374,67.7505597],[14.0260229,67.7053814],[14.020382,67.6726538],[13.9586305,67.6590094],[13.849487,67.6213913],[13.7021415,67.5584454],[13.6207457,67.5156671],[13.5629936,67.4676158],[13.5309896,67.4161642],[13.5258063,67.3633052],[13.5458125,67.3150753],[13.4885875,67.2894284],[13.4214103,67.2434279],[13.3577746,67.187454],[13.3566905,67.186146],[13.2463619,67.1655461],[13.1343351,67.1391862],[13.0373051,67.1050623],[12.9587374,67.0644174],[12.9013832,67.0187253],[12.8671887,66.9696341],[12.8617415,66.9418854],[12.8042021,66.9275532],[12.7072976,66.8912319],[12.6304649,66.8481841],[12.5765655,66.8000753],[12.5521036,66.7568464],[12.5283767,66.7285586],[12.5274181,66.7256143],[12.5228021,66.7242912],[12.4310668,66.6848306],[12.3678691,66.6433652],[12.3493781,66.6375647],[12.263135,66.5972884],[12.1985823,66.5510777],[12.1581112,66.5007342],[12.143143,66.4482094],[12.1444056,66.4421474],[12.1396423,66.4319995],[12.0548003,66.4013026],[11.9325878,66.3468824],[11.8535438,66.3034778],[11.7977366,66.2546141],[11.7814304,66.2266163],[11.7535783,66.2095338],[11.7044241,66.1605031],[11.6852881,66.1197597],[11.6521728,66.0823273],[11.6330703,66.0296949],[11.6397814,65.9765634],[11.654991,65.9521616],[11.5794786,65.943428],[11.4562462,65.916643],[11.3498445,65.8798215],[11.2650471,65.8346436],[11.2055834,65.7831611],[11.1423325,65.7086079],[11.1130298,65.6594448],[11.1065918,65.608891],[11.1231138,65.5587294],[11.1618878,65.5107186],[11.2214448,65.466533],[11.2996208,65.4277054],[11.3936413,65.3955765],[11.4665961,65.3789389],[11.4647954,65.3746056],[11.3785824,65.3667423],[11.2576439,65.3440746],[11.1505819,65.3115202],[11.0619443,65.2704801],[11.0197397,65.2401914],[10.9043966,65.2284253],[10.5704183,65.1789862],[10.4592235,65.157084],[10.3602065,65.1266254],[10.2770266,65.0887508],[10.2127132,65.044873],[10.1416913,64.9838135],[10.0972439,64.9331223],[10.0776732,64.8796925],[10.0836208,64.8256799],[10.1146978,64.7732512],[10.1695248,64.7244973],[10.245807,64.6813518],[10.2553574,64.6777425],[10.2070461,64.6694497],[10.1034878,64.640438],[10.0154109,64.6032655],[9.9462135,64.5593958],[9.914172,64.5339478],[9.867162,64.4859145],[9.8487143,64.4475967],[9.7874553,64.4224901],[9.7361289,64.3907101],[9.6949882,64.3735483],[9.6239879,64.3286704],[9.6160489,64.320486],[9.6024116,64.3164563],[9.5168013,64.2785063],[9.4694486,64.2468663],[9.4550141,64.2427353],[9.3663526,64.2041526],[9.2975851,64.1585671],[9.2514629,64.1078715],[9.229764,64.0541601],[9.2327818,64.006813],[9.2321415,64.0066396],[9.1873879,64.0258791],[9.086805,64.0546904],[8.9751856,64.0743268],[8.8568707,64.0840217],[8.7364834,64.0833961],[8.6187348,64.0724746],[8.5082236,64.0516848],[7.9723401,63.9205599],[7.8771172,63.8913774],[7.7963072,63.8547812],[7.7327986,63.8121075],[7.6888172,63.7649079],[7.6658534,63.7148904],[7.665409,63.6964849],[7.4644909,63.6424351],[7.3682962,63.6101591],[7.288574,63.5700332],[7.2284474,63.523668],[7.1902178,63.4729157],[7.1752853,63.4197937],[7.1841107,63.3664019],[7.2095271,63.3255998],[7.1849966,63.3174664],[7.1626017,63.3065414],[7.098463,63.2933816],[7.000003,63.2608589],[6.9994248,63.2605697],[6.9390996,63.2483521],[6.6097719,63.1615314],[6.5172559,63.1311706],[6.4394462,63.0933595],[6.4107606,63.076378],[6.3688376,63.0456465],[6.311482,63.016129],[6.2531183,62.9703983],[6.2156568,62.9203697],[6.1948124,62.8797594],[6.1917352,62.8694295],[6.1801793,62.8598096],[6.1542733,62.8575153],[6.0446961,62.8426153],[5.9436017,62.8182982],[5.8548356,62.7854957],[5.7817406,62.7454609],[5.727028,62.6997173],[5.7158453,62.6835486],[5.7087008,62.6826679],[5.6011294,62.657659],[5.5351616,62.6333712],[5.5118469,62.6344416],[5.3992191,62.6295326],[5.2908147,62.6146984],[5.1907572,62.5905053],[5.1028283,62.5578742],[5.0303185,62.5180437],[4.9759014,62.4725199],[4.9689853,62.4625702],[4.8866518,62.4448383],[4.7817338,62.4159051],[4.6856156,62.3826059],[4.6064876,62.3408436],[4.5476914,62.2924238],[4.5116529,62.23943],[4.4997914,62.1841311],[4.5058387,62.1578255],[4.4783906,62.1389204],[4.433733,62.0885329],[4.420662,62.0566984],[4.3747323,62.0281282],[4.3140279,61.9806309],[4.2674332,61.9347178],[4.2401042,61.8855104],[4.2329241,61.8347704],[4.2460486,61.7843054],[4.2789144,61.7359042],[4.2832582,61.7321353],[4.2755876,61.7183299],[4.2684994,61.6666732],[4.2823325,61.6153353],[4.316477,61.5662016],[4.369592,61.5210682],[4.411784,61.4973076],[4.3901995,61.4546929],[4.3852801,61.4031945],[4.4009104,61.352199],[4.4047287,61.3469778],[4.3881087,61.3401278],[4.3183632,61.2967157],[4.2872586,61.2659885],[4.2794089,61.2627472],[4.2037556,61.2246739],[4.1450785,61.180236],[4.1055672,61.1311504],[4.0866482,61.0793049]],[[20.2736027,69.5598091],[20.3456527,69.5796198],[20.3782671,69.5918502],[20.3816038,69.6341065],[20.3782671,69.5918502],[20.3780038,69.5885149],[20.3456527,69.5796198],[20.2736027,69.5598091]],[[4.7070471,60.9885909],[4.7216416,61],[4.7216416,61],[4.7394474,61.0139195],[4.7216416,61],[4.7216416,61],[4.7070471,60.9885909]],[[4.8654487,61.8886026],[5,61.873303],[5,61.873303],[4.8654487,61.8886026]],[[4.9374494,60.2743227],[5,60.2828799],[5.0238502,60.2861427],[5,60.2828799],[4.9374494,60.2743227]],[[4.9482495,60.4398033],[5,60.3967182],[5,60.3967182],[4.9482495,60.4398033]],[[4.9482495,61.4158009],[5,61.4281243],[5.1822518,61.471524],[5,61.4281243],[4.9482495,61.4158009]],[[4.9626496,61.2655176],[5,61.2580094],[5.0634506,61.2452546],[5,61.2580094],[4.9626496,61.2655176]],[[4.9626496,61.2655176],[5,61.2777278],[5.200252,61.3431921],[5,61.2777278],[4.9626496,61.2655176]],[[4.9698497,61.635316],[5,61.6360025],[5.3406534,61.6437589],[5,61.6360025],[4.9698497,61.635316]],[[4.9878499,61.2249917],[5,61.2247637],[5.1678517,61.2216145],[5,61.2247637],[4.9878499,61.2249917]],[[4.9878499,61.2249917],[5,61.2282482],[5.0634506,61.2452546],[5,61.2282482],[4.9878499,61.2249917]],[[5,60.5122158],[5,60.5122158],[5.1318513,60.4431804],[5,60.5122158]],[[5,60.9196758],[5,60.9196758],[5.0454505,60.8450618],[5,60.9196758]],[[5,61.7452804],[5,61.7452804],[5.1179871,61.7308916],[5.1678517,61.7248106],[5.1179871,61.7308916],[5,61.7452804]],[[5,61.8111573],[5,61.8111573],[5.1246512,61.8565196],[5,61.8111573]],[[5.0130501,60.9818366],[5.0140692,61],[5.0166502,61.0460025],[5.0140692,61],[5.0130501,60.9818366]],[[5.4342543,61.0274282],[5.4465652,61],[5.4486545,60.9953452],[5.4465652,61],[5.4342543,61.0274282]],[[5.6537497,59],[5.6537497,59],[5.7150572,58.9774954],[5.6537497,59]],[[6.1254613,58.9622982],[6.3323655,59],[6.3323655,59],[6.1254613,58.9622982]],[[6.8742687,60.9379336],[6.9939916,61],[6.9939916,61],[7,61.0031149],[7.0110701,61.0088538],[7,61.0031149],[6.9939916,61],[6.9939916,61],[6.8742687,60.9379336]],[[6.899469,60.5056578],[7,60.5756736],[7.0182702,60.5883981],[7,60.5756736],[6.899469,60.5056578]],[[6.9102691,62.9287662],[7,62.9523538],[7.181253,63],[7.181253,63],[7,62.9523538],[6.9102691,62.9287662]],[[6.9354694,58.0454007],[7,58.0618171],[7,58.0618171],[6.9354694,58.0454007]],[[6.9462695,62.9051261],[7,62.8572423],[7.0182702,62.8409602],[7,62.8572423],[6.9462695,62.9051261]],[[6.9570696,61.0882169],[7,61.0251233],[7.0110701,61.0088538],[7,61.0251233],[6.9570696,61.0882169]],[[6.9714697,62.7261369],[7,62.728854],[7.6806768,62.79368],[7,62.728854],[6.9714697,62.7261369]],[[6.9786698,62.1131833],[7,62.115312],[7.1478715,62.1300691],[7,62.115312],[6.9786698,62.1131833]],[[7,61.1248913],[7,61.1248913],[7.2126721,61.1844658],[7,61.1248913]],[[7.00027,61.0932827],[7.0674236,61],[7.0674236,61],[7.00027,61.0932827]],[[7.275234,63],[7.275234,63],[7.500675,62.9101918],[7.275234,63]],[[7.310763,62.2816093],[7.310763,62.2816093],[7.3746737,62.2735982],[7.310763,62.2816093]],[[7.3674737,62.9963093],[7.3781525,63],[7.3781525,63],[7.3674737,62.9963093]],[[7.5258753,62.9456519],[7.6868054,63],[7.6868054,63],[7.7058771,63.0064407],[7.6868054,63],[7.6868054,63],[7.5258753,62.9456519]],[[7.9830798,63.0267037],[8.041277,63],[8.041277,63],[7.9830798,63.0267037]],[[8.2449141,63],[8.2449141,63],[8.3358834,62.9676034],[8.2449141,63]],[[8.3178832,62.9996864],[8.3202231,63],[8.4690847,63.0199493],[8.3202231,63],[8.3178832,62.9996864]],[[8.3754838,62.9726692],[8.472599,63],[8.472599,63],[8.5554856,63.0233265],[8.472599,63],[8.472599,63],[8.3754838,62.9726692]],[[8.5230852,62.989555],[8.545354,63],[8.545354,63],[8.5230852,62.989555]],[[8.9658897,63.4336508],[9,63.4539165],[9.0198902,63.4657337],[9,63.4539165],[8.9658897,63.4336508]],[[9,63.5156633],[9,63.5156633],[9.1062911,63.5332768],[9,63.5156633]],[[9.7830978,59.0517928],[9.8338322,59],[9.8338322,59],[9.7830978,59.0517928]],[[10.0171002,59.0332184],[10.0318546,59],[10.0351004,58.9926926],[10.0318546,59],[10.0171002,59.0332184]],[[10.5751058,63.8085149],[11,63.9493337],[11,63.9493337],[10.5751058,63.8085149]],[[10.7191072,63.6041971],[11,63.7071751],[11,63.7071751],[10.7191072,63.6041971]],[[10.8271083,64.8503671],[11,64.9154556],[11,64.9154556],[11.100711,64.9533703],[11,64.9154556],[11,64.9154556],[10.8271083,64.8503671]],[[10.9099091,63.7308404],[11,63.787795],[11.0755108,63.8355322],[11,63.787795],[10.9099091,63.7308404]],[[10.9351094,63.8980095],[11,63.8691338],[11.0755108,63.8355322],[11,63.8691338],[10.9351094,63.8980095]],[[10.9495095,59.1835018],[11,59.1495228],[11.0323103,59.1277787],[11,59.1495228],[10.9495095,59.1835018]],[[10.9927099,59.0332184],[11,59.0696917],[11.00351,59.0872529],[11,59.0696917],[10.9927099,59.0332184]],[[11.1187112,59.0213984],[11.1215625,59],[11.1223112,58.9943811],[11.1215625,59],[11.1187112,59.0213984]],[[11.3203132,59.0990729],[11.429225,59],[11.4391144,58.991004],[11.429225,59],[11.3203132,59.0990729]],[[12.7135271,66.0425027],[13,66.0779405],[13.0411304,66.0830285],[13,66.0779405],[12.7135271,66.0425027]],[[12.9259293,65.9935339],[13,65.9745835],[13.1239312,65.9428766],[13,65.9745835],[12.9259293,65.9935339]],[[12.9727297,66.5220586],[13,66.5256663],[13.1131311,66.5406329],[13,66.5256663],[12.9727297,66.5220586]],[[12.9763298,67.9691693],[13,67.9651075],[13.1239312,67.9438407],[13,67.9651075],[12.9763298,67.9691693]],[[12.9799298,68.0367124],[13,68.0448983],[13,68.0448983],[12.9799298,68.0367124]],[[13,67.9293031],[13,67.9293031],[13.0483305,67.9151348],[13,67.9293031]],[[14.0306311,67],[14.0306311,67],[14.0455405,66.9813516],[14.0306311,67]],[[14.0599406,67.0607147],[14.1209988,67],[14.1209988,67],[14.0599406,67.0607147]],[[14.7259473,67.4879248],[15,67.5619767],[15.0064959,67.563732],[15.0064959,67.563732],[15,67.5619767],[14.7259473,67.4879248]],[[14.7727477,67.8155088],[15,67.8398394],[15.103951,67.8509689],[15,67.8398394],[14.7727477,67.8155088]],[[14.8483485,67.8442146],[15,67.848222],[15.103951,67.8509689],[15,67.848222],[14.8483485,67.8442146]],[[14.898749,68.4335281],[15,68.4410267],[15.1723517,68.453791],[15,68.4410267],[14.898749,68.4335281]],[[14.9311493,67.1535865],[15,67.1787041],[15.0931509,67.2126867],[15,67.1787041],[14.9311493,67.1535865]],[[14.9599496,68.7070776],[15,68.7103927],[15,68.7103927],[14.9599496,68.7070776]],[[14.9707497,67.9168234],[15,67.915788],[15.1615516,67.9100691],[15,67.915788],[14.9707497,67.9168234]],[[14.9923499,67.7699172],[15,67.7615447],[15,67.7615447],[14.9923499,67.7699172]],[[14.99955,67.8948719],[15,67.8948297],[15.2335523,67.8729204],[15,67.8948297],[14.99955,67.8948719]],[[15,68.2815052],[15,68.2815052],[15.1939519,68.4352166],[15,68.2815052]],[[15,68.5804542],[15,68.5804542],[15.0643506,68.5787457],[15,68.5804542]],[[15,68.673384],[15,68.673384],[15.1651517,68.7020119],[15,68.673384]],[[15.0064959,67.563732],[15.0067501,67.5639108],[15.0064959,67.563732],[15.0064959,67.563732]],[[15.0067079,67.5637893],[15.0067603,67.5638034],[15.0069894,67.5638653],[15.0067501,67.5639108],[15.0069894,67.5638653],[15.0067603,67.5638034],[15.0067079,67.5637893]],[[15.0683275,69],[15.0859509,69.0110215],[15.0683275,69],[15.0683275,69]],[[15.1543515,69.0025786],[15.1559685,69],[15.1559685,69],[15.1723517,68.9738728],[15.1559685,69],[15.1559685,69],[15.1543515,69.0025786]],[[15.4624264,69],[15.5683557,69.1055818],[15.4624264,69],[15.4624264,69]],[[15.5287553,69.0093329],[15.540275,69],[15.540275,69],[15.5683557,68.97725],[15.540275,69],[15.540275,69],[15.5287553,69.0093329]],[[15.6331563,68.9873814],[15.6977229,69],[15.6977229,69],[15.6331563,68.9873814]],[[16.8247682,68.3237705],[17,68.3521462],[17.1271713,68.3727393],[17,68.3521462],[16.8247682,68.3237705]],[[16.8787688,69.2220937],[17,69.237462],[17.1451715,69.2558652],[17,69.237462],[16.8787688,69.2220937]],[[16.8787688,69.3588684],[17,69.3608636],[17.0839708,69.3622456],[17,69.3608636],[16.8787688,69.3588684]],[[16.9795698,69.2761281],[17,69.2733097],[17.0407704,69.2676852],[17,69.2733097],[16.9795698,69.2761281]],[[16.9939699,68.7087662],[17,68.7058062],[17.1487715,68.6327802],[17,68.7058062],[16.9939699,68.7087662]],[[18.7363874,69.3234083],[19,69.2880808],[19,69.2880808],[18.7363874,69.3234083]],[[18.9919899,69.4838231],[19,69.4775971],[19.1179912,69.3858856],[19,69.4775971],[18.9919899,69.4838231]],[[18.9919899,69.4838231],[19,69.4913373],[19,69.4913373],[18.9919899,69.4838231]],[[19,69.4325822],[19,69.4325822],[19.0099901,69.4281001],[19,69.4325822]],[[19,69.7451524],[19,69.7451524],[19.0567906,69.764127],[19,69.7451524]],[[19.3484626,69.2519659],[19.3485327,69.2519677],[19.3769695,69.2526665],[19.3770127,69.2526676],[19.3770318,69.2526484],[19.348463,69.2519568],[19.3484626,69.2519659]],[[20.5335,70.0305967],[20.5335064,70.0305937],[20.5369593,70.0289646],[20.536294,70.0292664],[20.5337451,70.030423],[20.5335523,70.0305596],[20.5335,70.0305967]],[[20.5419957,70.2569817],[20.7095696,70.2631469],[20.7096939,70.263147],[20.7259319,70.2631708],[20.7260336,70.2631638],[20.7098279,70.2631397],[20.5422546,70.2569757],[20.5420036,70.2569577],[20.5419984,70.2569733],[20.5419957,70.2569817]],[[20.5421651,70.0265085],[20.5428443,70.0262942],[20.544476,70.0257794],[20.5459689,70.0253084],[20.5536273,70.0228923],[20.5459689,70.0253084],[20.5456835,70.0253956],[20.5430554,70.0261984],[20.5428653,70.0262847],[20.5428443,70.0262942],[20.544476,70.0257794],[20.5428443,70.0262942],[20.5421651,70.0265085]],[[20.5544155,70.0227283],[20.5573691,70.0221136],[20.5545936,70.0226739],[20.5544155,70.0227283]],[[20.5677194,70.0200242],[20.5715802,70.0195449],[20.5816093,70.0182996],[20.5715802,70.0195449],[20.5715494,70.0195486],[20.5679168,70.0199844],[20.5677194,70.0200242]],[[20.5816093,70.0182996],[20.5822239,70.0182678],[20.5892688,70.0179038],[20.5970348,70.0175025],[20.5892688,70.0179038],[20.5879937,70.0179659],[20.5825142,70.018233],[20.5822651,70.0182629],[20.5822239,70.0182678],[20.5816093,70.0182996]],[[20.5973843,70.0175083],[20.611543,70.0177419],[20.6126233,70.0177598],[20.611543,70.0177419],[20.6067695,70.0176531],[20.597827,70.0174867],[20.597512,70.017502],[20.5973843,70.0175083]]]}}
