{"type":"Feature","properties":{"family":"other","name":"Obotrites, 804 – 866"},"geometry":{"type":"Polygon","coordinates":[[[10.2,54.3],[10.25,54.1],[10.35,53.9],[10.5,53.7],[10.6,53.5],[10.6,53.37],[10.9,53.2],[11.6,53.2],[11.8,53.3],[12,53.4],[12.2,53.5],[12.2333333,53.6666667],[12.2666667,53.8333333],[12.3,54],[12.2375879,54.2496483],[12.2722787,54.2674217],[12.2719983,54.2676451],[12.2699157,54.268763],[12.2699157,54.268763],[12.2653809,54.2711972],[12.2577098,54.2739333],[12.2532199,54.2749002],[12.2532199,54.2749002],[12.2492757,54.2757496],[12.2447647,54.2761703],[12.2447647,54.2761703],[12.2403984,54.2765775],[12.2314145,54.2763853],[12.2226647,54.2751804],[12.2144809,54.2730086],[12.2074761,54.2700788],[12.2071731,54.2699521],[12.2074761,54.2700788],[12.3067579,54.3209708],[12.4723472,54.4808402],[12.4723456,54.4808407],[12.4443719,54.4910575],[12.4138025,54.4978884],[12.4018218,54.4729803],[12.3597508,54.4250317],[12.3022626,54.3828704],[12.2316614,54.3481544],[12.1507456,54.3222452],[12.0626979,54.3061565],[11.9709647,54.300517],[11.8791283,54.3055468],[11.7907747,54.3210495],[11.7093617,54.3464194],[11.6615389,54.3694085],[11.5440347,54.3592255],[11.4391447,54.3570464],[11.336068,54.3686034],[11.2657191,54.3866994],[11.3123803,54.3862948],[11.3218565,54.3867759],[11.3309649,54.3883731],[11.3393221,54.3910192],[11.3465764,54.3946029],[11.352422,54.3989733],[11.3566124,54.4039464],[11.3589705,54.4093128],[11.3593961,54.4148464],[11.3578707,54.420314],[11.3544577,54.425485],[11.2969063,54.491359],[11.2910111,54.4965235],[11.2832409,54.5007701],[11.150008,54.558212],[11.1426299,54.5608065],[11.1345517,54.5625658],[11.1260517,54.5634294],[11.1174229,54.5633674],[11.1089624,54.562382],[11.100962,54.5605071],[11.0109225,54.5334741],[11.0028955,54.5304102],[10.9961263,54.526454],[10.9909043,54.5217746],[10.9874518,54.5165721],[10.9722145,54.4838234],[10.9722143,54.4838235],[10.9206198,54.5012617],[10.8543963,54.4825287],[10.7618683,54.4688929],[10.6862206,54.4669677],[10.6665235,54.4664664],[10.6664339,54.4664748],[10.6664242,54.4365867],[10.6507653,54.3877483],[10.639413,54.3706204],[10.3420063,54.4672604],[10.3337022,54.4693506],[10.3248577,54.4704643],[10.3158093,54.4705591],[10.3069015,54.4696312],[10.2984735,54.4677161],[10.2494486,54.4532024],[10.2494484,54.4532019],[10.2494472,54.4531963],[10.2494307,54.4531233],[10.2472771,54.4435752],[10.2438505,54.4283829],[10.2414776,54.422711],[10.2393329,54.4201632],[10.2331023,54.4183367],[10.2327761,54.417994],[10.2327761,54.417994],[10.2,54.3]]]}}
