{"type":"Feature","properties":{"family":"steppe","name":"Oghuz, 789 – 803"},"geometry":{"type":"Polygon","coordinates":[[[49.9065343,44.5813698],[49.9198778,44.5285789],[49.9475978,44.4787256],[50.1662281,44.175101],[50.2005566,44.1358328],[50.2437204,44.1013613],[50.2944392,44.0726976],[50.3512183,44.0506812],[50.4856465,44.0086933],[50.4976761,43.9546059],[50.5267345,43.9010382],[50.5708577,43.8531338],[50.6628733,43.7730577],[50.7644718,43.5693102],[50.7905875,43.5280116],[50.8258679,43.4904816],[50.8693016,43.4577788],[50.9142346,43.4291739],[50.944505,43.141527],[50.9576306,43.087999],[50.9851651,43.0374977],[51.0259592,42.9920681],[51.0783371,42.9535457],[51.1401673,42.9234836],[51.208949,42.9030922],[51.2819115,42.8931916],[51.3561219,42.89418],[51.4164213,42.8994356],[51.6053642,42.6931204],[51.6524306,42.651294],[51.7098902,42.6172463],[51.775418,42.592346],[51.8463757,42.5775929],[51.9199147,42.573579],[51.9930865,42.5804655],[52.0552732,42.5910528],[52.0990414,42.5648154],[52.1683349,42.5388484],[52.2434887,42.5242285],[52.2895585,42.5226809],[52.2578406,42.443194],[52.0872102,42.2282384],[52.0547658,42.1744583],[52.0388583,42.1167554],[52.0402007,42.0578872],[52.0586802,42.0006587],[52.1121176,41.8898168],[52.0867281,41.816283],[52.0762255,41.7680932],[52.0775289,41.7192954],[52.090568,41.6714875],[52.1148906,41.6262312],[52.1496805,41.5850014],[52.1937869,41.5491392],[52.2056286,41.5411031],[52.2026721,41.5170804],[52.210539,41.4632414],[52.2325618,41.4116846],[52.267822,41.3644817],[52.3148784,41.3235251],[52.4336181,41.2388291],[52.497949,41.0189658],[52.5189494,40.9698489],[52.5451691,40.9339143],[52.4900952,40.8018897],[52.4763751,40.754336],[52.4741424,40.7057022],[52.4780177,40.6856588],[52.4759964,40.6829229],[52.4492416,40.637227],[52.4340554,40.5885771],[52.4309337,40.538649],[52.4399558,40.489158],[52.6133968,39.9210834],[52.6368147,39.8687152],[52.6568851,39.8427793],[52.6542406,39.8095226],[52.6633215,39.7575173],[52.675205,39.7185817],[52.6784189,39.7113333],[52.6797065,39.7038325],[52.6826037,39.6943395],[52.701531,39.649958],[52.7300763,39.6087761],[52.7673701,39.5720236],[52.7853473,39.557154],[52.7970395,39.5492251],[52.7859453,39.5295456],[52.771508,39.4812145],[52.7687493,39.4316737],[52.7777362,39.3825983],[52.8394287,39.1803997],[52.8610074,39.1311933],[52.8942942,39.086137],[52.9380361,39.0468967],[52.990602,39.0149204],[53.0334797,38.9979442],[53.0334769,38.9980011],[53.0334037,38.9994606],[53.0333766,39],[53.0333766,39],[53.0303303,39.0607265],[53.0879309,39.0911209],[53.0555306,39.0269549],[53.0601708,39],[53.0601708,39],[53.0618826,38.9900566],[53.0621092,38.9887402],[53.0621147,38.9887083],[53.1141668,38.9771606],[53.180611,38.9727665],[53.2469331,38.9783659],[53.3106938,38.9937532],[53.3266508,39.000431],[53.3345389,38.9936417],[53.370426,38.973223],[53.3929238,38.938385],[53.4344942,38.8968037],[53.4856044,38.8623344],[53.5054825,38.8535187],[53.5055501,38.8534729],[53.5141501,38.8487607],[53.5273855,38.836662],[53.5621287,38.8148973],[53.527398,38.7458648],[53.5046957,38.6697648],[53.4893039,38.5265836],[53.4889456,38.5232502],[53.4950832,38.5593168],[53.5158709,38.607483],[53.54815,38.6517534],[53.5907604,38.6905122],[53.6421573,38.7223426],[53.7004674,38.7460804],[53.763558,38.7608574],[53.8291166,38.7661338],[53.8711267,38.7661277],[53.8155671,38.6569538],[53.8134605,38.650702],[53.7919207,38.529118],[53.7920054,38.5212431],[53.796839,38.4969323],[53.7965427,38.5009448],[53.7974189,38.5059713],[53.7995133,38.5107812],[53.8027501,38.5152],[53.8070121,38.5190673],[53.8121446,38.5222426],[53.8179613,38.5246106],[53.824251,38.5260854],[53.8260778,38.526233],[53.8259383,38.5254475],[53.8309851,38.5],[55.5,38.5],[55.7272727,38.5454545],[55.9545455,38.5909091],[56.1818182,38.6363636],[56.4090909,38.6818182],[56.6363636,38.7272727],[56.8636364,38.7727273],[57.0909091,38.8181818],[57.3181818,38.8636364],[57.5454545,38.9090909],[57.7727273,38.9545455],[58,39],[58.2380952,39.047619],[58.4761905,39.0952381],[58.7142857,39.1428571],[58.952381,39.1904762],[59.1904762,39.2380952],[59.4285714,39.2857143],[59.6666667,39.3333333],[59.9047619,39.3809524],[60.1428571,39.4285714],[60.3809524,39.4761905],[60.6190476,39.5238095],[60.8571429,39.5714286],[61.0952381,39.6190476],[61.3333333,39.6666667],[61.5714286,39.7142857],[61.8095238,39.7619048],[62.047619,39.8095238],[62.2857143,39.8571429],[62.5238095,39.9047619],[62.7619048,39.952381],[63,40],[63,40.0261908],[63.0065507,40.0257788],[63.0132723,40.0243191],[63.0194682,40.0218969],[63.024893,40.0186081],[63.029332,40.014583],[63.0326096,40.0099809],[63.0345965,40.004984],[63.0351149,40.0006253],[63.0351149,40.0006253],[63.0351149,40.0006452],[63.0351149,40.0006452],[63.0352471,40.2155928],[63.0352742,40.2596848],[63.0659208,40.2577428],[63.133318,40.24307],[63.1953796,40.2187533],[63.2496363,40.1857674],[63.2939402,40.1454304],[63.3265494,40.0993496],[63.3461958,40.0493562],[63.3511818,40.0057344],[63.3511831,40.0059395],[63.3860198,45.6710793],[63.3791963,45.7235349],[63.3578566,45.7740701],[63.3227799,45.820748],[63.1978179,45.953116],[63.1944787,45.970027],[63.2118142,46.0280847],[63.3154111,46.1266549],[63.356373,46.1755612],[63.381744,46.2293053],[63.3903659,46.2855329],[63.4868451,56.4951089],[63.4868462,56.4952218],[63.4868814,56.4989476],[63.4777725,56.553926],[63.4485235,56.6066729],[63.4002913,56.6549611],[63.3350545,56.6967438],[63.255538,56.7302441],[63.1651022,56.7540327],[63.0675975,56.7670923],[63.0493572,56.767414],[63.0493553,56.7674141],[63.0493553,56.7674141],[63.0487716,56.5001673],[63.0486887,56.4996045],[63.048689,56.4999746],[63.0477177,56.50547],[63.0447415,56.510736],[63.0398849,56.5155513],[63.0333512,56.5197135],[63.0254148,56.5230476],[63.0164092,56.5254133],[63.0067132,56.5267112],[63,56.5268291],[63,56.5268291],[63,56.5268152],[63,56.5268152],[63,56.5266095],[63,56.5266095],[63,56.5],[62.7608696,56.4565217],[62.5217391,56.4130435],[62.0434783,56.326087],[61.8043478,56.2826087],[61.5652174,56.2391304],[61.326087,56.1956522],[61.0869565,56.1521739],[60.8478261,56.1086957],[60.6086957,56.0652174],[60.6086957,56.0652174],[60.3695652,56.0217391],[60.1304348,55.9782609],[59.8913043,55.9347826],[59.8913043,55.9347826],[59.6521739,55.8913043],[59.4130435,55.8478261],[59.173913,55.8043478],[58.9347826,55.7608696],[58.6956522,55.7173913],[58.4565217,55.673913],[57.9782609,55.5869565],[57.7391304,55.5434783],[57.5,55.5],[57.2666667,55.4333333],[57.0333333,55.3666667],[56.8,55.3],[56.5666667,55.2333333],[56.3333333,55.1666667],[56.1,55.1],[55.8666667,55.0333333],[55.6333333,54.9666667],[55.4,54.9],[55.1666667,54.8333333],[54.9333333,54.7666667],[54.7,54.7],[54.4666667,54.6333333],[54.2333333,54.5666667],[54,54.5],[52,52.5],[51.5714286,52.3],[51.3571429,52.2],[51.1428571,52.1],[50.9285714,52],[50.5,51.8],[50.68,51.7],[50.86,51.6],[51.04,51.5],[51.4,51.3],[51.4166667,51.0833333],[51.4333333,50.8666667],[51.4666667,50.4333333],[51.4833333,50.2166667],[51.5,50],[51.5428571,49.7857143],[51.5857143,49.5714286],[51.6285714,49.3571429],[51.6714286,49.1428571],[51.7142857,48.9285714],[51.7571429,48.7142857],[51.8,48.5],[51.8285714,48.2857143],[51.8571429,48.0714286],[51.8857143,47.8571429],[51.9142857,47.6428571],[51.9428571,47.4285714],[52,47],[52,46.9224528],[52.0187202,46.9362508],[52.00072,46.8906593],[52.0058258,46.8871056],[51.9789567,46.8673087],[51.9789658,46.8673023],[52.0841828,46.7940972],[52.0898914,46.7908071],[52.0964037,46.7883125],[52.1034865,46.7867027],[52.1108858,46.7860356],[52.2440201,46.7826594],[52.2515033,46.7829533],[52.2587703,46.7842115],[52.2655585,46.7863885],[52.2716225,46.7894056],[52.2767429,46.7931536],[52.2807344,46.7974972],[52.2834522,46.8022792],[52.2847978,46.8073266],[52.284722,46.8124568],[52.2832273,46.8174841],[52.2803672,46.8222265],[52.2506506,46.8606196],[52.3605184,46.8671687],[52.368326,46.8681788],[52.37568,46.8702368],[52.3822827,46.8732595],[52.3877626,46.8770527],[52.3878664,46.8771245],[52.3886914,46.8779899],[52.3878021,46.8718401],[52.3671545,46.8237071],[52.3338247,46.7790167],[52.2889915,46.7393105],[52.2320958,46.6975301],[52.1687909,46.659918],[52.0953492,46.632302],[52.015078,46.6159223],[51.9315792,46.6115146],[51.8485942,46.6192775],[51.8359983,46.6214021],[51.8888354,46.5910203],[51.9537788,46.5661703],[52.0243344,46.5501387],[52.0980027,46.5434932],[52.2305382,46.5401256],[52.3050367,46.5430485],[52.3774137,46.5555723],[52.4450843,46.5772507],[52.5056245,46.6073099],[52.5568551,46.644675],[52.5857439,46.6759286],[52.5986075,46.6818033],[52.6330683,46.6803099],[52.6819683,46.681727],[52.6798123,46.6790003],[52.6369973,46.6096355],[52.614363,46.5600338],[52.6060177,46.5083718],[52.6122308,46.4565712],[52.6327312,46.4065534],[52.6667225,46.3601683],[52.7015918,46.3291979],[52.7076824,46.3213352],[52.748451,46.2789395],[52.7148249,46.115668],[52.4174231,45.7812076],[52.3835012,45.7311747],[52.3075378,45.6876771],[52.2712952,45.6621148],[52.0343601,45.645451],[52.0294267,45.649574],[51.9715948,45.6822914],[51.9057805,45.7066042],[51.8344545,45.7215968],[51.7603031,45.7267042],[51.6861235,45.7217341],[51.6147135,45.7068746],[51.548762,45.6826865],[51.4942305,45.6520427],[51.4719417,45.6560914],[51.3924496,45.6587081],[51.313885,45.6498223],[51.2396346,45.629818],[51.1728911,45.5995579],[51.1165114,45.5603447],[51.0728921,45.513863],[50.9047365,45.2854057],[50.8886413,45.2563134],[50.7852885,45.2187073],[50.784294,45.218258],[50.7543743,45.2207527],[50.8060373,45.2058856],[50.8635538,45.1846171],[50.9248145,45.1563451],[50.9772503,45.1203604],[51.0189417,45.0779942],[51.0429897,45.0394451],[50.9428773,45.003155],[50.9370268,45.0005242],[50.931946,44.9971888],[50.9278026,44.9932591],[50.9247332,44.9888649],[50.9228391,44.9841513],[50.9156565,44.9571319],[50.9150107,44.9515232],[50.9160245,44.945943],[50.9186533,44.9406344],[50.9227823,44.9358286],[50.9282312,44.9317347],[50.9347627,44.9285309],[50.9420925,44.9263566],[50.9467239,44.9253701],[50.9270514,44.871039],[50.9259175,44.8658304],[50.926235,44.8605662],[50.9279915,44.8554473],[50.9311195,44.8506693],[50.9354992,44.8464147],[50.9409633,44.8428457],[51.0096176,44.8059333],[50.9924286,44.7857833],[50.9437232,44.7475809],[50.9123231,44.7272266],[50.8548537,44.6964893],[50.7902738,44.6739789],[50.7208858,44.6604962],[50.6491568,44.656521],[50.577634,44.6621952],[50.5088581,44.6773183],[50.4797663,44.6883225],[50.4566565,44.6704433],[50.3190462,44.6882686],[50.3113648,44.6886827],[50.3037222,44.6879848],[50.2964341,44.6862036],[50.2898014,44.6834128],[50.2840981,44.6797276],[50.2795593,44.6753001],[50.2763722,44.6703133],[50.2482175,44.6108071],[50.2465361,44.6055747],[50.2463442,44.6002105],[50.247649,44.5949268],[50.2499106,44.590819],[50.2015226,44.5791062],[50.1293829,44.5670288],[50.0553096,44.5651367],[49.9821031,44.5735023],[49.912533,44.5918103],[49.9069186,44.5942547],[49.9065343,44.5813698]],[[50.2259023,44.5671769],[50.2691027,44.5705541],[50.2841146,44.6022396],[50.3123031,44.6617373],[50.2841146,44.6022396],[50.4166667,44.4166667],[50.5014803,44.2979276],[50.4533528,44.3060311],[50.45335,44.3060315],[50.45335,44.3060315],[50.2763028,44.3358419],[50.2295023,44.3915649],[50.2259023,44.5671769]],[[51.2627126,43.1639692],[51.2649949,43.1706216],[51.2649965,43.1706261],[51.2650226,43.1707022],[51.2785264,43.210063],[51.3129352,43.1618907],[51.2700529,43.1636654],[51.2699698,43.1636689],[51.2699648,43.1636691],[51.2627126,43.1639692]],[[52.699127,40.2731249],[52.7351274,40.4841971],[52.7588579,40.5160433],[52.7588614,40.516048],[52.7589054,40.5161069],[52.7847592,40.5508025],[52.8461538,40.3461538],[52.9153846,40.1153846],[52.955361,39.9821299],[52.9439294,39.9810011],[52.9151292,40.0215269],[52.9096931,40.0143877],[52.897129,39.9978868],[52.9295293,39.8965722],[52.9833367,39.8409],[53,39.8236592],[53,39.8236592],[53.0042086,39.8193048],[53.0159015,39.7803284],[53.0051301,39.7834375],[53.0203081,39.7656395],[53.023159,39.7561366],[53.0411304,39.7412231],[53.023159,39.7561366],[53,39.7753551],[52.9943299,39.7800604],[52.904329,39.8746207],[52.8827288,39.9455409],[52.7387274,40.0536099],[52.7675277,40.153236],[52.699127,40.2731249]],[[53.0843308,39.4001305],[53.0913059,39.4098218],[53.09131,39.4098276],[53.1165365,39.4448782],[53.1772593,39.2424689],[53.1701036,39.2162284],[53.1700764,39.2161288],[53.1700764,39.2161288],[53.1599316,39.1789269],[53.1531866,39.2232191],[53.1383314,39.3207674],[53.1021787,39.3739],[53.1021787,39.3739],[53.0843308,39.4001305]],[[53.1700764,39.2161288],[53.1700764,39.2161288],[53.1701036,39.2162284],[53.1772593,39.2424689],[53.1772593,39.2424689],[53.1701036,39.2162284],[53.1700764,39.2161288],[53.1700764,39.2161288]],[[53.1855978,41.3891331],[53.2632365,41.6052553],[53.2750009,41.6587781],[53.2722272,41.7129662],[53.2549903,41.7656275],[53.2374948,41.7932592],[53.2649024,41.8111903],[53.2921691,41.8085053],[53.3781953,41.8154754],[53.5455871,41.8442604],[53.5455918,41.8442187],[53.56456,41.79442],[53.5958904,41.7482483],[53.6635919,41.6683491],[53.7042436,41.4631438],[53.7210984,41.4123547],[53.7506635,41.3649728],[53.791804,41.322773],[53.8429606,41.2873328],[54.106893,41.1365165],[54.080586,41.1281009],[54.0226914,41.0983663],[53.9736294,41.0606665],[53.9361886,41.017508],[53.901019,41.0581806],[53.8495877,41.097132],[53.7886847,41.1273447],[53.7208616,41.1475471],[53.6489708,41.1568879],[53.5760421,41.1549733],[53.5051507,41.1418846],[53.4392823,41.118174],[53.4119267,41.102482],[53.4005426,41.1041103],[53.3298428,41.1034958],[53.3097068,41.1002522],[53.2987207,41.1049233],[53.2590855,41.1680308],[53.253915,41.1910518],[53.1855978,41.3891331]]]}}
