{"type":"Feature","properties":{"family":"steppe","name":"Oghuz, 965 – 971"},"geometry":{"type":"Polygon","coordinates":[[[47,51.5],[47.0454545,51.2727273],[47.0909091,51.0454545],[47.1363636,50.8181818],[47.1818182,50.5909091],[47.2272727,50.3636364],[47.2727273,50.1363636],[47.3181818,49.9090909],[47.3636364,49.6818182],[47.4090909,49.4545455],[47.4545455,49.2272727],[47.5,49],[47.5588235,48.7647059],[47.6176471,48.5294118],[47.6764706,48.2941176],[47.7352941,48.0588235],[47.7941176,47.8235294],[47.8529412,47.5882353],[47.9117647,47.3529412],[47.9705882,47.1176471],[48.0294118,46.8823529],[48.0882353,46.6470588],[48.1470588,46.4117647],[48.2058824,46.1764706],[48.25,46],[48.7007797,46],[48.7282873,46.0193534],[48.7007797,46],[48.6624696,45.9730463],[48.6624696,45.9730463],[48.6490865,45.9636303],[48.6520997,45.9657503],[48.6525998,45.9636872],[48.7534875,45.9653189],[48.7426874,45.9146616],[48.7930879,45.8403642],[48.7210872,45.8386756],[48.7174872,45.813347],[48.6850869,45.8488071],[48.7102871,45.8825786],[48.6664667,45.9064783],[48.6729401,45.8797718],[48.6776957,45.8291587],[48.6687004,45.7788464],[48.6463101,45.7306201],[48.6461817,45.7304569],[48.6993411,45.7304526],[48.7757388,45.7355829],[48.8492237,45.7510926],[48.9169335,45.7763792],[48.976221,45.8104586],[48.9767738,45.8108462],[49.0005404,45.8201078],[49.0064333,45.820481],[49.0795733,45.8355374],[49.1471222,45.8602417],[49.1973052,45.8884878],[49.2074048,45.8895176],[49.2793609,45.9073506],[49.3449632,45.9346083],[49.4016843,45.9702462],[49.4338466,46.0003085],[49.4379952,46.0011202],[49.5041145,46.0241352],[49.5163895,46.0306768],[49.5314765,46.01807],[49.5928196,45.9839585],[49.6627408,45.9590858],[49.7384023,45.9444587],[49.8167435,45.9406686],[49.8945997,45.9478693],[49.9688248,45.9657706],[50.0364124,45.9936492],[50.0946144,46.0303772],[50.141049,46.0744656],[50.1737983,46.1241229],[50.191489,46.1773258],[50.2102137,46.2802754],[50.2124393,46.3315325],[50.200554,46.3821488],[50.1885372,46.4047551],[50.2784315,46.4580936],[50.3468236,46.4678675],[50.4179416,46.4886348],[50.4818291,46.5185647],[50.5360181,46.5565081],[50.5422711,46.561845],[50.598952,46.5610432],[50.6760458,46.5706035],[50.7488922,46.5904494],[50.814621,46.6198011],[50.8574408,46.648632],[50.9242812,46.667256],[50.9887931,46.6963375],[51.043856,46.733472],[51.0873484,46.7772437],[51.0895325,46.7799838],[51.2466879,46.8320785],[51.2761135,46.8261111],[51.2897345,46.8149005],[51.3444174,46.777877],[51.4084975,46.7487967],[51.4784874,46.7290547],[51.5065118,46.7113733],[51.5705249,46.6842779],[51.6408399,46.6659935],[51.6534964,46.6644913],[51.6898847,46.6502237],[51.7590098,46.6337948],[51.837384,46.6205662],[51.8888987,46.5909426],[51.9538424,46.566092],[52.0243947,46.550061],[52.0980564,46.5434168],[52.2305922,46.540052],[52.3050914,46.5429778],[52.3774667,46.5555074],[52.4451333,46.5771939],[52.5056674,46.6072632],[52.5568902,46.6446399],[52.5857205,46.6758466],[52.5986193,46.6817384],[52.6331065,46.6802444],[52.6818687,46.6816586],[52.6798226,46.6790709],[52.637005,46.6097046],[52.6143646,46.5600903],[52.6060159,46.5084132],[52.6122286,46.4565959],[52.6327312,46.4065608],[52.6667274,46.3601591],[52.7016276,46.3291541],[52.7077102,46.3213022],[52.7484372,46.2789502],[52.7148251,46.115747],[52.4174227,45.7812953],[52.3835098,45.7312725],[52.3075321,45.6877689],[52.2712701,45.6621918],[52.0342783,45.6455288],[52.0294059,45.6496022],[51.9715761,45.6823333],[51.9057659,45.7066601],[51.8344453,45.7216666],[51.7602997,45.7267873],[51.6861255,45.7218293],[51.61472,45.7069799],[51.5487715,45.6827993],[51.4941781,45.6521243],[51.4718926,45.6561753],[51.3924158,45.658801],[51.313867,45.649925],[51.239631,45.6299306],[51.1728987,45.5996795],[51.1165255,45.5604734],[51.0729072,45.513996],[50.9047418,45.2855345],[50.8886479,45.2564426],[50.7860168,45.2191018],[50.7117879,45.2307021],[50.6656256,45.2345351],[50.6560295,45.2459331],[50.605152,45.2856078],[50.5440741,45.3174037],[50.4752088,45.3400571],[50.4012902,45.3526663],[50.3252611,45.3547294],[50.2501518,45.3461646],[50.177843,45.3325883],[50.1707014,45.3307142],[50.1109299,45.3399909],[50.0313926,45.3404817],[49.9534305,45.3293848],[49.8804374,45.3071844],[49.8155822,45.2748473],[49.7616663,45.2337795],[49.7210013,45.1857627],[49.6641723,45.0991866],[49.6390453,45.0477345],[49.6290809,44.9937771],[49.6346417,44.9395151],[49.6554581,44.8871554],[49.6906455,44.8388214],[49.7371645,44.7978623],[49.7432686,44.7738316],[49.770547,44.7245977],[49.7810663,44.7099915],[49.8245047,44.6626307],[49.8808174,44.6227379],[49.9073926,44.6105221],[49.9065267,44.5814437],[49.9198833,44.5286081],[49.9476268,44.4787113],[50.1662681,44.1750801],[50.2006248,44.1357819],[50.24382,44.1012848],[50.2945716,44.0726014],[50.3513828,44.0505721],[50.485674,44.0086289],[50.4976805,43.954654],[50.5267683,43.901035],[50.5709338,43.8530852],[50.6629067,43.7730484],[50.7644868,43.5693464],[50.7906291,43.528009],[50.8259435,43.4904439],[50.8694167,43.4577118],[50.9142315,43.4291829],[50.9444961,43.1416404],[50.9576331,43.0880751],[50.985187,43.0375352],[51.0260068,42.9920684],[51.0784145,42.9535127],[51.1402762,42.9234233],[51.2090883,42.9030123],[51.2820772,42.8931009],[51.3563074,42.8940878],[51.4165632,42.8993408],[51.6054253,42.6931226],[51.6525196,42.6512712],[51.710006,42.6172018],[51.7755578,42.5922841],[51.8465347,42.5775187],[51.9200866,42.5734982],[51.9932639,42.5803839],[52.0554616,42.5909745],[52.099171,42.5647714],[52.1684855,42.5387906],[52.2436538,42.5241607],[52.2894556,42.5226189],[52.2578313,42.4433674],[52.0871887,42.2284035],[52.0547467,42.174619],[52.0388448,42.1169034],[52.040196,42.0580151],[52.058687,42.0007608],[52.1120966,41.8899769],[52.0867183,41.8164756],[52.076213,41.7682565],[52.0775248,41.7194235],[52.0905831,41.6715771],[52.1149346,41.6262817],[52.1497614,41.5850149],[52.1939102,41.5491202],[52.2056064,41.541183],[52.2026619,41.5172422],[52.2105427,41.4633606],[52.232593,41.4117587],[52.2678922,41.3645119],[52.3149958,41.3235163],[52.4336382,41.238892],[52.4979478,41.019117],[52.5189742,40.9699481],[52.5451411,40.9340899],[52.4900819,40.8021011],[52.4763612,40.7545327],[52.4741339,40.7058773],[52.4780044,40.6858719],[52.4759689,40.6831169],[52.4492217,40.6374296],[52.4340412,40.5887819],[52.4309234,40.5388491],[52.4399472,40.4893466],[52.6133983,39.9212558],[52.636843,39.868838],[52.6568679,39.8429611],[52.6542308,39.8097296],[52.6633177,39.7577121],[52.6752018,39.7187754],[52.6784144,39.7115307],[52.6797029,39.704028],[52.6826003,39.6945348],[52.7015533,39.6500969],[52.7301395,39.6088596],[52.7674864,39.5720567],[52.7854644,39.557187],[52.7969759,39.5493795],[52.7859204,39.5297655],[52.7714917,39.4814388],[52.7687396,39.431895],[52.777731,39.382809],[52.8394272,39.1806046],[52.8610138,39.1313748],[52.8943081,39.0862884],[52.9380567,39.0470123],[52.9906279,39.0149958],[53.0334769,38.9980011],[53.0334037,38.9994606],[53.0333766,39],[53.0333766,39],[53.0303303,39.0607265],[53.0879309,39.0911209],[53.0555306,39.0269549],[53.0601708,39],[53.0601708,39],[53.0618826,38.9900566],[53.0621092,38.9887402],[53.1141986,38.9771482],[53.1806432,38.9727094],[53.2469639,38.9782655],[53.3107219,38.9936124],[53.3268884,39.0003684],[53.3345677,38.9937539],[53.3705216,38.973274],[53.392952,38.938536],[53.4345331,38.8969239],[53.4856519,38.862419],[53.5056566,38.8535346],[53.5057114,38.8534976],[53.5142964,38.8487927],[53.5275012,38.8367209],[53.5620678,38.8150626],[53.5273755,38.7461043],[53.5046873,38.6700453],[53.4888763,38.5229706],[53.4903177,38.4668233],[53.5064992,38.4121364],[53.5366872,38.3612731],[53.5795506,38.3164257],[53.6332224,38.2795232],[53.695382,38.2521501],[53.7633549,38.2354798],[53.8173421,38.2314779],[53.8173451,38.2314915],[53.8342937,38.3078775],[53.7969254,38.4958432],[53.796845,38.4969023],[53.7968422,38.4969389],[53.7920048,38.5212685],[53.7968422,38.4969389],[53.7970641,38.4958228],[53.7988366,38.4905181],[53.8019376,38.4856055],[53.8062388,38.4812881],[53.8115623,38.4777442],[53.8176879,38.4751201],[53.8243627,38.4735243],[53.831311,38.4730227],[53.8363354,38.4730227],[53.8363346,38.4730267],[53.8363205,38.4730978],[53.8363205,38.4730978],[53.8359162,38.4751362],[53.8309851,38.5],[55.5,38.5],[55.7272727,38.5454545],[55.9545455,38.5909091],[56.1818182,38.6363636],[56.4090909,38.6818182],[56.6363636,38.7272727],[56.8636364,38.7727273],[57.0909091,38.8181818],[57.3181818,38.8636364],[57.5454545,38.9090909],[57.7727273,38.9545455],[58,39],[58.2380952,39.047619],[58.4761905,39.0952381],[58.7142857,39.1428571],[58.952381,39.1904762],[59.1904762,39.2380952],[59.4285714,39.2857143],[59.6666667,39.3333333],[59.9047619,39.3809524],[60.1428571,39.4285714],[60.3809524,39.4761905],[60.6190476,39.5238095],[60.8571429,39.5714286],[61.0952381,39.6190476],[61.3333333,39.6666667],[61.5714286,39.7142857],[61.8095238,39.7619048],[62.047619,39.8095238],[62.2857143,39.8571429],[62.5238095,39.9047619],[62.7619048,39.952381],[63,40],[63,39.972317],[63,39.9721658],[63.0072962,39.973625],[63.0138082,39.9751869],[63.0197978,39.9776882],[63.0250382,39.9810345],[63.0293311,39.9850989],[63.0325137,39.9897279],[63.0344653,39.994746],[63.0351119,39.9999633],[63.0351121,40.0002794],[63.0351146,40.000259],[63.0351458,40.0000133],[63.0350247,39.7286927],[63.0727413,39.7362347],[63.1376486,39.7518002],[63.1973993,39.7767317],[63.249748,39.8100949],[63.2927189,39.8506385],[63.3246794,39.8968392],[63.3444023,39.9469581],[63.351115,39.9991046],[63.3511349,40.0023315],[63.3860094,45.6708321],[63.3792224,45.7233062],[63.3578943,45.7738657],[63.3228053,45.8205694],[63.197823,45.9529633],[63.1944648,45.9699714],[63.211835,46.0281464],[63.3154804,46.1267646],[63.3564624,46.1757149],[63.3818089,46.2295087],[63.3903597,46.2857834],[63.4868995,56.4959566],[63.4869273,56.498888],[63.4779289,56.5538451],[63.4487784,56.6065735],[63.4006286,56.6548463],[63.3354548,56.6966169],[63.25598,56.7301081],[63.1655632,56.7538904],[63.0680554,56.7669464],[63.049348,56.7672759],[63.0493436,56.7652403],[63.0487642,56.50016],[63.0487375,56.4999789],[63.0486934,56.4996798],[63.0486937,56.4999687],[63.0477333,56.5054622],[63.0447668,56.5107265],[63.0399181,56.5155403],[63.0333904,56.5197013],[63.0254578,56.5230344],[63.0164539,56.5253994],[63.0067574,56.5266967],[63,56.5268152],[63,56.5266095],[63,56.5266095],[63,56.5],[62.7608696,56.4565217],[62.5217391,56.4130435],[62.0434783,56.326087],[61.8043478,56.2826087],[61.5652174,56.2391304],[61.326087,56.1956522],[61.0869565,56.1521739],[60.8478261,56.1086957],[60.6086957,56.0652174],[60.6086957,56.0652174],[60.3695652,56.0217391],[60.1304348,55.9782609],[59.8913043,55.9347826],[59.8913043,55.9347826],[59.6521739,55.8913043],[59.4130435,55.8478261],[59.173913,55.8043478],[58.9347826,55.7608696],[58.6956522,55.7173913],[58.4565217,55.673913],[57.9782609,55.5869565],[57.7391304,55.5434783],[57.5,55.5],[57.2666667,55.4333333],[57.0333333,55.3666667],[56.8,55.3],[56.5666667,55.2333333],[56.3333333,55.1666667],[56.1,55.1],[55.8666667,55.0333333],[55.6333333,54.9666667],[55.4,54.9],[55.1666667,54.8333333],[54.9333333,54.7666667],[54.7,54.7],[54.4666667,54.6333333],[54.2333333,54.5666667],[54,54.5],[52,52.5],[51.5714286,52.3],[51.3571429,52.2],[51.1428571,52.1],[50.9285714,52],[50.5,51.8],[50.2666667,51.78],[50.0333333,51.76],[49.8,51.74],[49.5666667,51.72],[49.3333333,51.7],[49.1,51.68],[48.8666667,51.66],[48.6333333,51.64],[48.4,51.62],[48.1666667,51.6],[47.9333333,51.58],[47.4666667,51.54],[47.2333333,51.52],[47,51.5]],[[49.9846998,44.9471068],[49.9896858,44.9546311],[50.010245,44.985657],[50.0270195,44.9621726],[50.0207002,44.9437297],[50.0380085,44.9364231],[50.038932,44.9365674],[50.0380085,44.9364231],[50.0486081,44.9319486],[50.0567006,44.9285325],[50.0486081,44.9319486],[50.0600645,44.9159096],[50.0747007,44.8609894],[50.0761012,44.8604263],[50.0761311,44.8604143],[50.1092006,44.8471191],[50.1196571,44.83248],[50.1719017,44.830595],[50.1196571,44.83248],[50.0783008,44.8339721],[50.0722149,44.8413282],[50.072189,44.8413594],[50.0725652,44.8398441],[50.072189,44.8413594],[49.9846998,44.9471068]],[[50.2259023,44.5671769],[50.2691027,44.5705541],[50.2841146,44.6022396],[50.3123031,44.6617373],[50.2841146,44.6022396],[50.4166667,44.4166667],[50.5014803,44.2979276],[50.4533528,44.3060311],[50.45335,44.3060315],[50.2763028,44.3358419],[50.2295023,44.3915649],[50.2259023,44.5671769]],[[51.2627126,43.1639692],[51.2649949,43.1706216],[51.2649965,43.1706261],[51.2650226,43.1707022],[51.2785264,43.210063],[51.3129352,43.1618907],[51.2700529,43.1636654],[51.2699698,43.1636689],[51.2699648,43.1636691],[51.2627126,43.1639692]],[[52.699127,40.2731249],[52.7351274,40.4841971],[52.7588579,40.5160433],[52.7588614,40.516048],[52.7589054,40.5161069],[52.7847592,40.5508025],[52.8461538,40.3461538],[52.9153846,40.1153846],[52.955361,39.9821299],[52.9439294,39.9810011],[52.9151292,40.0215269],[52.9096931,40.0143877],[52.897129,39.9978868],[52.9295293,39.8965722],[52.9833367,39.8409],[53,39.8236592],[53,39.8236592],[53.0042086,39.8193048],[53.0159015,39.7803284],[53.0051301,39.7834375],[53.0203081,39.7656395],[53.023159,39.7561366],[53.0411304,39.7412231],[53.023159,39.7561366],[53,39.7753551],[52.9943299,39.7800604],[52.904329,39.8746207],[52.8827288,39.9455409],[52.7387274,40.0536099],[52.7675277,40.153236],[52.699127,40.2731249]],[[52.7588614,40.516048],[52.7589054,40.5161069],[52.7847592,40.5508025],[52.7847592,40.5508025],[52.7589054,40.5161069],[52.7588614,40.516048]],[[53.0843308,39.4001305],[53.0913059,39.4098218],[53.09131,39.4098276],[53.1165365,39.4448782],[53.1772593,39.2424689],[53.1701036,39.2162284],[53.1700764,39.2161288],[53.1700764,39.2161288],[53.1599316,39.1789269],[53.1531866,39.2232191],[53.1383314,39.3207674],[53.1021787,39.3739],[53.1021787,39.3739],[53.0843308,39.4001305]],[[53.1856078,41.3889505],[53.2632407,41.6050581],[53.275009,41.6586065],[53.2722286,41.7128275],[53.2549743,41.7655262],[53.2375082,41.7931097],[53.2650717,41.8111437],[53.292394,41.8084535],[53.3784034,41.8154226],[53.5456561,41.8441879],[53.5645762,41.7945244],[53.595932,41.7483179],[53.6635947,41.6684665],[53.7042409,41.4633034],[53.721113,41.4124734],[53.7507082,41.3650497],[53.7918894,41.3228109],[53.8430938,41.2873375],[54.1068625,41.1366164],[54.0804084,41.1281538],[54.0225539,41.0984361],[53.9735308,41.0607559],[53.9360454,41.0175264],[53.9010093,41.0580653],[53.8495726,41.0970509],[53.7886641,41.1273009],[53.7208354,41.1475419],[53.6489394,41.1569208],[53.5760062,41.1550421],[53.5051114,41.1419853],[53.4392414,41.1183011],[53.4117379,41.1025334],[53.4005215,41.104144],[53.3298207,41.1035667],[53.3094782,41.1003],[53.2986369,41.1049091],[53.2590828,41.1678909],[53.2539119,41.1909076],[53.1856078,41.3889505]]]}}
