{"type":"Feature","properties":{"family":"norse","name":"Earldom of Orkney, 985 – 1066"},"geometry":{"type":"Polygon","coordinates":[[[-5.9575542,57.8936861],[-5.9071729,57.8640184],[-5.8772832,57.8425688],[-5.8600597,57.8414809],[-5.8600588,57.8414808],[-5.8600587,57.8414808],[-5.8568657,57.8454483],[-5.8208966,57.880921],[-5.8149919,57.8855253],[-5.8074322,57.8893859],[-5.7985402,57.8923382],[-5.7886957,57.8942557],[-5.7783194,57.8950566],[-5.7042824,57.8966367],[-5.7042127,57.8985384],[-5.7016894,57.90416],[-5.6969695,57.909367],[-5.6573941,57.943152],[-5.6513243,57.9473463],[-5.6512612,57.9473756],[-5.6573921,57.9431457],[-5.6855646,57.9190951],[-5.6900097,57.9142911],[-5.692581,57.9091157],[-5.6931782,57.9037727],[-5.6917786,57.8984724],[-5.6884381,57.8934233],[-5.683289,57.8888242],[-5.6765343,57.8848557],[-5.66844,57.881674],[-5.6593245,57.879404],[-5.649546,57.8781348],[-5.6394886,57.8779165],[-5.6356465,57.8780347],[-5.6538565,57.8951173],[-5.6424466,57.9048478],[-5.6142561,57.9288889],[-5.6424466,57.9048478],[-5.5833333,57.9066667],[-5.5515168,57.9076456],[-5.5494555,57.9153803],[-5.5515168,57.9076456],[-5.5566556,57.888363],[-5.541591,57.8812971],[-5.5388087,57.8815284],[-5.5294768,57.8833459],[-5.5209886,57.886095],[-5.5136694,57.8896703],[-5.5077998,57.893935],[-5.5036052,57.8987258],[-5.5012471,57.9038589],[-5.4991766,57.9115873],[-5.4991705,57.9115868],[-5.5025502,57.8989762],[-5.4836728,57.8901196],[-5.4637664,57.9181598],[-5.4594005,57.9228613],[-5.4534038,57.9270253],[-5.4460025,57.9304946],[-5.4376204,57.9330932],[-5.441654,57.9289903],[-5.4443889,57.9242382],[-5.445436,57.9193004],[-5.4447602,57.9143446],[-5.4423853,57.9095388],[-5.4383925,57.9050459],[-5.4329176,57.9010183],[-5.4261465,57.8975923],[-5.4245669,57.8969288],[-5.4162542,57.9086259],[-5.3485524,57.8868678],[-5.3484394,57.8868713],[-5.3207926,57.8877219],[-5.3807164,57.912901],[-5.3666667,57.9133333],[-5.2937198,57.9155779],[-5.3658537,57.9423975],[-5.2937198,57.9155779],[-5.2522624,57.9001639],[-5.2519302,57.9003922],[-5.2424553,57.8965842],[-5.2348689,57.8940601],[-5.2265669,57.892283],[-5.2178071,57.8913082],[-5.2088613,57.8911658],[-5.1493751,57.892996],[-5.2118122,57.9180981],[-5.15,57.92],[-4.8,57.97],[-4.4,57.92],[-4.2,57.895],[-4.007151,57.8708939],[-3.9870399,57.9086259],[-4.007151,57.8708939],[-4.0086401,57.8681001],[-4.1823102,57.8650831],[-4.0190575,57.8446684],[-4.0094627,57.8439425],[-3.9997836,57.844201],[-3.9903732,57.8454347],[-3.9815749,57.8475986],[-3.9737097,57.8506135],[-3.9670651,57.8543697],[-3.961884,57.8587298],[-3.958356,57.8635348],[-3.9381978,57.9012585],[-3.9381925,57.9012577],[-3.9571479,57.8657897],[-3.9563806,57.8655881],[-3.94808,57.8621075],[-3.9091816,57.8419446],[-3.806506,57.8786818],[-3.7977463,57.8811847],[-3.7977203,57.8811889],[-3.8065362,57.8786691],[-3.8536265,57.8618081],[-3.8615192,57.8583115],[-3.8679244,57.8540401],[-3.8725795,57.8491695],[-3.875294,57.8438996],[-3.8759575,57.8384467],[-3.8745436,57.8330345],[-3.8711113,57.827885],[-3.8671961,57.824437],[-3.825312,57.8394296],[-3.8048353,57.8358462],[-3.8349427,57.8127158],[-3.8206579,57.8102162],[-3.8116262,57.8091101],[-3.8023675,57.8088988],[-3.7931913,57.8095894],[-3.7844043,57.8111588],[-3.7763002,57.8135546],[-3.76915,57.8166967],[-3.7632199,57.820463],[-3.7632617,57.8204228],[-3.9455494,57.6805017],[-3.9517486,57.6765779],[-3.959225,57.6733529],[-3.9677076,57.6709436],[-3.9691262,57.6707109],[-4.0186348,57.6149549],[-3.8511351,57.6194724],[-3.6551794,57.6833511],[-3.6551671,57.6833641],[-3.649117,57.6874877],[-3.6416883,57.6909077],[-3.6331615,57.6934951],[-3.6238587,57.6951519],[-3.6141315,57.6958156],[-3.6043477,57.6954609],[-3.5656999,57.6920139],[-3.5355283,57.724698],[-3.530878,57.7287753],[-3.5249534,57.7323508],[-3.5179401,57.7353125],[-3.5100577,57.7375674],[-3.5015533,57.7390448],[-3.4186953,57.7491836],[-3.4100002,57.749827],[-3.4012276,57.7496575],[-3.3926424,57.7486802],[-3.3255691,57.7376217],[-3.3142842,57.748302],[-3.2831909,57.7989218],[-3.271302,57.8518109],[-3.279165,57.9049133],[-3.2885171,57.922424],[-3.1920937,57.9698384],[-2.781513,58.1717335],[-2.7090248,58.2154088],[-2.6557715,58.266218],[-2.5790976,58.3621827],[-2.5509194,58.4086786],[-2.5391311,58.4570729],[-2.544185,58.5057877],[-2.5520684,58.5229586],[-2.5492691,58.5260755],[-2.5149305,58.576937],[-2.5145184,58.5784756],[-2.4778902,58.6077004],[-2.4394107,58.6582506],[-2.4125976,58.7073079],[-2.37492,58.723281],[-2.3035685,58.7599485],[-2.2469881,58.8030217],[-2.2073205,58.8509145],[-2.1948304,58.8809235],[-2.1263441,58.9128815],[-2.0652698,58.9550665],[-2.0211087,59.0025521],[-1.9955988,59.0535472],[-1.9897904,59.1061204],[-1.9911449,59.1111002],[-1.976211,59.1192282],[-1.9237143,59.1610548],[-1.8869736,59.2071015],[-1.8672926,59.2558167],[-1.8662072,59.2845281],[-1.8167393,59.2734645],[-1.7185312,59.2620966],[-1.6179101,59.2603871],[-1.5643354,59.2620629],[-1.4551099,59.2713552],[-1.35197,59.2920015],[-1.2593694,59.3231129],[-1.1813364,59.3633472],[-1.121304,59.4109635],[-1.0819599,59.4638933],[-1.0671522,59.4925412],[-1.0507008,59.5444849],[-1.054432,59.5970604],[-1.0597471,59.6084786],[-1.0126895,59.6190419],[-0.9291938,59.6483865],[-0.8580691,59.6851617],[-0.801899,59.7280545],[-0.7627565,59.7755278],[-0.7421243,59.8258738],[-0.7365944,59.8514821],[-0.7134381,59.8707261],[-0.6771979,59.9215289],[-0.6740329,59.9324998],[-0.6520282,59.9445461],[-0.5969894,59.9900777],[-0.5607566,60.040117],[-0.5448152,60.0927328],[-0.536261,60.1754384],[-0.5370421,60.1838484],[-0.516937,60.1965656],[-0.458954,60.2419576],[-0.4100789,60.2901494],[-0.3814054,60.3421904],[-0.3741703,60.3960135],[-0.3765111,60.4045972],[-0.3542223,60.4141689],[-0.2878157,60.4567054],[-0.2396421,60.5048654],[-0.2116726,60.5567621],[-0.2051061,60.6103529],[-0.2203079,60.6635187],[-0.2567786,60.7141468],[-0.2662354,60.721885],[-0.2491464,60.7460204],[-0.2242473,60.7961943],[-0.219343,60.8477629],[-0.2347086,60.8988399],[-0.2698742,60.9475485],[-0.3236281,60.9920904],[-0.3940503,61.0308142],[-0.4785751,61.0622784],[-0.5291955,61.0775848],[-0.6313142,61.1017624],[-0.7415663,61.1153423],[-0.855269,61.1177465],[-0.9133757,61.1131675],[-0.952258,61.1125585],[-1.0586018,61.1005585],[-1.1579578,61.0787104],[-1.2464559,61.047869],[-1.3206769,61.0092381],[-1.377789,60.9643209],[-1.3906163,60.947583],[-1.4549922,60.927565],[-1.5321144,60.8917078],[-1.5416062,60.8851636],[-1.5451981,60.8845021],[-1.6365181,60.8568186],[-1.642625,60.854036],[-1.7048216,60.8397563],[-1.7959078,60.8061077],[-1.8552036,60.7727355],[-1.864991,60.7697399],[-1.9453643,60.7322544],[-2.0085731,60.687632],[-2.0906334,60.6147293],[-2.131491,60.5685384],[-2.1540746,60.5194187],[-2.1576765,60.469091],[-2.1457866,60.4307154],[-2.1594347,60.4207684],[-2.2585311,60.4060939],[-2.3503931,60.3822903],[-2.4082236,60.3635882],[-2.4950517,60.3286183],[-2.5654283,60.2855703],[-2.6164108,60.2362867],[-2.6459171,60.182868],[-2.6528011,60.1275805],[-2.636885,60.0727584],[-2.5989473,60.0207048],[-2.5406729,59.9735962],[-2.4645677,59.9333936],[-2.4178391,59.9132549],[-2.3320429,59.8829528],[-2.2362817,59.861516],[-2.1341362,59.8497425],[-2.0294082,59.84807],[-1.9259885,59.8565605],[-1.9047997,59.8605226],[-1.8821728,59.8159216],[-1.8577525,59.7907377],[-1.93518,59.7625396],[-2.0036745,59.7319618],[-2.073162,59.6942812],[-2.1270542,59.6506072],[-2.1634297,59.6025487],[-2.1782539,59.559875],[-2.2286704,59.5721046],[-2.3272508,59.5850655],[-2.4289347,59.5882142],[-2.5299189,59.5814329],[-2.5655118,59.5753733],[-2.5714711,59.5753791],[-2.629712,59.5696922],[-2.7057632,59.5964002],[-2.798284,59.6170394],[-2.8969213,59.6284002],[-2.9980509,59.6300644],[-3.0979502,59.6219709],[-3.1929453,59.6044174],[-3.3051692,59.577205],[-3.3978682,59.548375],[-3.4768965,59.5105533],[-3.5389517,59.4653447],[-3.5814827,59.4146608],[-3.6027891,59.3606352],[-3.6027259,59.3557392],[-3.6350626,59.3459035],[-3.7088469,59.3125259],[-3.7690579,59.2727104],[-3.8136233,59.2278612],[-3.8410411,59.179554],[-3.8826268,59.0679401],[-3.891922,59.0175385],[-3.8909302,59.0120881],[-3.9180149,58.9849084],[-3.9459816,58.9348018],[-3.9546941,58.882856],[-3.9502152,58.8613386],[-4.0231896,58.8656458],[-4.126484,58.8610028],[-4.2258909,58.845812],[-4.3174056,58.8206867],[-4.3193387,58.8200195],[-4.3320515,58.8232391],[-4.4262623,58.8414554],[-4.5255413,58.8498951],[-4.5501786,58.8494961],[-4.6153112,58.8643699],[-4.7182187,58.8758467],[-4.772593,58.8761058],[-4.8382658,58.8863538],[-4.9419999,58.8966964],[-5.0476538,58.895954],[-5.1508026,58.8841579],[-5.2471337,58.8618022],[-5.3326382,58.8298213],[-5.4037854,58.7895491],[-5.4576727,58.7426596],[-5.4921421,58.6910948],[-5.4961319,58.682337],[-5.5209721,58.6680818],[-5.5724577,58.6237015],[-5.6065758,58.5750067],[-5.6221314,58.523809],[-5.621449,58.513728],[-5.6297823,58.4998799],[-5.6681045,58.4874254],[-5.6536596,58.4534516],[-5.6515869,58.400058],[-5.6600132,58.3754865],[-5.6548776,58.3547957],[-5.6580591,58.3315338],[-5.6528208,58.3236918],[-5.6385671,58.2726629],[-5.6430494,58.2211402],[-5.6544366,58.1789695],[-5.6761249,58.1307573],[-5.7140681,58.085442],[-5.7669396,58.0445383],[-5.8329309,58.0094091],[-5.8760171,57.9902988],[-5.8834326,57.9737328],[-5.9211177,57.9284968],[-5.9575542,57.8936861]],[[-5.6512597,57.9473766],[-5.6450116,57.9502663],[-5.6511219,57.9474404],[-5.6438279,57.9508312],[-5.6437165,57.9508652],[-5.6436767,57.9508836],[-5.6512597,57.9473766]],[[-5.6436767,57.9508836],[-5.6416518,57.9514968],[-5.6351931,57.9534725],[-5.6350317,57.9535015],[-5.6349399,57.9535293],[-5.6436767,57.9508836]],[[-5.6318392,57.9540751],[-5.6257521,57.9551687],[-5.6255439,57.9551831],[-5.6318392,57.9540751]],[[-5.6253918,57.9552099],[-5.6216341,57.9554543],[-5.6158685,57.9558542],[-5.6156205,57.9558455],[-5.6156902,57.955841],[-5.6253918,57.9552099]],[[-5.6113252,57.9556938],[-5.6059227,57.9555029],[-5.6056452,57.9554633],[-5.6113252,57.9556938]],[[-5.6053767,57.9554524],[-5.6012689,57.9548382],[-5.5962979,57.9541281],[-5.596004,57.954051],[-5.595695,57.9540048],[-5.6053767,57.9554524]],[[-5.4085395,57.9570453],[-5.4080199,57.9573902],[-5.4075563,57.9578295],[-5.4044771,57.9597424],[-5.4085395,57.9570453]],[[-5.4016227,57.9615156],[-5.4010867,57.9618486],[-5.397209,57.9634705],[-5.4016227,57.9615156]],[[-5.3943459,57.9647386],[-5.3918603,57.9654499],[-5.3938117,57.9648915],[-5.3932628,57.965121],[-5.38868,57.9663599],[-5.3853701,57.9673071],[-5.3943459,57.9647386]],[[-5.3848935,57.9673836],[-5.3843851,57.967521],[-5.3792132,57.968295],[-5.3848935,57.9673836]],[[-5.3752198,57.9688926],[-5.3747947,57.9689563],[-5.3691438,57.9691925],[-5.365453,57.9693746],[-5.3752198,57.9688926]],[[-5.365453,57.9693746],[-5.3593096,57.9690206],[-5.3651729,57.9693585],[-5.3648604,57.9693715],[-5.3587546,57.9689886],[-5.355314,57.9687903],[-5.365453,57.9693746]],[[-5.355314,57.9687903],[-5.35515,57.9687625],[-5.3549644,57.9687509],[-5.3479262,57.9675384],[-5.3455997,57.9671441],[-5.355314,57.9687903]],[[-5.3455471,57.9671285],[-5.3454871,57.9671182],[-5.3367931,57.9645362],[-5.3367027,57.9645028],[-5.3455471,57.9671285]],[[-5.3366455,57.9644816],[-5.2635189,57.9374054],[-5.2636742,57.9372714],[-5.2645445,57.9376661],[-5.3366455,57.9644816]],[[-3.796494,57.8813882],[-3.7882357,57.8827304],[-3.788177,57.8827336],[-3.791401,57.882212],[-3.796494,57.8813882]],[[-3.7881285,57.8827414],[-3.7846354,57.8829229],[-3.7783403,57.8832595],[-3.7782486,57.8832548],[-3.7811713,57.8831029],[-3.7881285,57.8827414]],[[-3.7740825,57.883041],[-3.768441,57.8827516],[-3.7683192,57.8827321],[-3.7740825,57.883041]],[[-3.7640931,57.8820551],[-3.7589188,57.8812262],[-3.7587735,57.8811851],[-3.7640931,57.8820551]],[[-3.7548152,57.880065],[-3.7501401,57.8787421],[-3.7499819,57.8786733],[-3.7548152,57.880065]],[[-3.746513,57.8771649],[-3.7424425,57.8753948],[-3.7422861,57.8752938],[-3.746513,57.8771649]],[[-3.7394589,57.8734681],[-3.736122,57.8713132],[-3.7359852,57.8711776],[-3.7358209,57.8710693],[-3.7394589,57.8734681]],[[-3.7363545,57.8411239],[-3.735319,57.8421143],[-3.7317168,57.8455595],[-3.7336888,57.8436735],[-3.7360187,57.8413426],[-3.7363545,57.8411239]],[[-3.7339009,57.8691119],[-3.7314211,57.8666542],[-3.7313238,57.8664847],[-3.7339009,57.8691119]],[[-3.7315855,57.8457776],[-3.7298933,57.8485874],[-3.7313526,57.8460105],[-3.7315855,57.8457776]],[[-3.730046,57.8642573],[-3.7285198,57.861597],[-3.7284823,57.8613977],[-3.7294236,57.8631192],[-3.730046,57.8642573]],[[-3.728618,57.8508395],[-3.7279912,57.8537935],[-3.7284858,57.8510731],[-3.728618,57.8508395]],[[-3.7280468,57.8590854],[-3.727529,57.8563359],[-3.7275693,57.8561143],[-3.7278488,57.8578534],[-3.7275389,57.8559251],[-3.7280468,57.8590854]]]}}
