{"type":"Feature","properties":{"family":"norway","name":"Orkney and Shetland, under Norway, 1261 – 1349"},"geometry":{"type":"Polygon","coordinates":[[[-3.9546774,58.8828418],[-3.9502039,58.8613304],[-3.9502039,58.8613303],[-3.9502037,58.8613291],[-3.9438968,58.8310018],[-3.91411,58.7811986],[-3.8665005,58.7352794],[-3.7325712,58.63104],[-3.7301296,58.6294658],[-3.7301292,58.6294655],[-3.6174355,58.6530199],[-3.6075562,58.6544995],[-3.5973098,58.6549351],[-3.5870998,58.6543097],[-3.4566953,58.6393098],[-3.4576189,58.6398927],[-3.4623686,58.6444454],[-3.4653597,58.6493867],[-3.4664813,58.6545344],[-3.4656911,58.6596988],[-3.4630175,58.6646895],[-3.4585584,58.6693222],[-3.4524776,58.6734261],[-3.41288,58.695389],[-3.4050247,58.6989471],[-3.395959,58.7016177],[-3.3860486,58.7032932],[-3.3756936,58.7039059],[-3.3653118,58.703431],[-3.3553226,58.7018877],[-3.3461291,58.6993384],[-3.3381022,58.6958859],[-3.3315653,58.6916695],[-3.3100491,58.674503],[-3.0158797,58.6667213],[-3.0058986,58.6659339],[-2.9964008,58.6641551],[-2.9877468,58.6614525],[-2.9802647,58.6579286],[-2.9742381,58.653717],[-2.969895,58.6489777],[-2.9673994,58.6438902],[-2.966845,58.6386473],[-2.9682519,58.6334477],[-2.9715662,58.6284883],[-3.0696819,58.5173699],[-3.015018,58.4831425],[-3.0097149,58.4791284],[-3.0058823,58.4746803],[-3.0036451,58.4699439],[-3.0030759,58.4650741],[-3.0034229,58.4635688],[-3.00342,58.4635684],[-2.9968345,58.4628314],[-2.8928943,58.4622625],[-2.7908012,58.4725246],[-2.6946135,58.4932104],[-2.6081702,58.5234971],[-2.5349458,58.5621779],[-2.5146908,58.578348],[-2.5146356,58.5783921],[-2.5145933,58.5784258],[-2.4779155,58.6077066],[-2.4394342,58.658257],[-2.4126221,58.7073089],[-2.3749517,58.7232784],[-2.3035962,58.7599465],[-2.2470116,58.8030211],[-2.20734,58.8509158],[-2.1948497,58.880922],[-2.1263659,58.9128778],[-2.065289,58.9550634],[-2.0211248,59.0025499],[-1.995612,59.0535464],[-1.9898011,59.1061213],[-1.9911546,59.111098],[-1.9762265,59.1192225],[-1.9237269,59.1610498],[-1.8869835,59.2070977],[-1.8673003,59.2558146],[-1.866214,59.2845249],[-1.8167366,59.2734584],[-1.7185291,59.2620894],[-1.6179085,59.260379],[-1.5643344,59.2620543],[-1.4551124,59.2713454],[-1.3519751,59.2919902],[-1.259376,59.3231004],[-1.1813433,59.3633337],[-1.12131,59.4109495],[-1.081964,59.4638796],[-1.0671553,59.4925277],[-1.0507018,59.5444734],[-1.0544313,59.5970516],[-1.0597431,59.6084638],[-1.0126922,59.6190246],[-0.9291962,59.6483672],[-0.8580705,59.6851411],[-0.8018986,59.7280332],[-0.7627539,59.7755067],[-0.7421193,59.8258538],[-0.7365885,59.8514613],[-0.7134299,59.8707071],[-0.6771892,59.9215104],[-0.6740253,59.9324771],[-0.6520253,59.9445198],[-0.5969832,59.9900513],[-0.5607473,60.0400916],[-0.5448034,60.0927097],[-0.5362469,60.1754164],[-0.5370276,60.1838227],[-0.516923,60.1965391],[-0.458938,60.2419308],[-0.4100656,60.2901173],[-0.3813908,60.3421536],[-0.3741501,60.3959731],[-0.3764928,60.4045693],[-0.354182,60.4141506],[-0.2877772,60.4566886],[-0.2396071,60.5048511],[-0.2116429,60.556751],[-0.2050837,60.6103458],[-0.2202945,60.6635159],[-0.2567757,60.7141484],[-0.2662013,60.7218602],[-0.2491182,60.7459864],[-0.2242168,60.7961648],[-0.2193138,60.8477393],[-0.2346844,60.8988231],[-0.2698585,60.9475389],[-0.323624,60.9920879],[-0.3940603,61.030818],[-0.4786006,61.0622874],[-0.5292222,61.0775938],[-0.6313494,61.1017736],[-0.741608,61.1153554],[-0.8553151,61.1177615],[-0.9134402,61.1131821],[-0.9522776,61.1125754],[-1.058628,61.1005789],[-1.157989,61.0787333],[-1.2464904,61.0478936],[-1.320713,61.0092636],[-1.3778251,60.9643464],[-1.3906585,60.9475997],[-1.4550488,60.9275762],[-1.5321635,60.8917204],[-1.5416542,60.8851765],[-1.5452229,60.8845194],[-1.6365457,60.8568377],[-1.6426721,60.8540465],[-1.704866,60.8397676],[-1.7959484,60.8061202],[-1.8552484,60.772745],[-1.8650298,60.7697513],[-1.9454009,60.7322666],[-2.0086065,60.6876449],[-2.0906634,60.614742],[-2.1315196,60.5685497],[-2.1541001,60.5194282],[-2.1576976,60.4690984],[-2.145806,60.4307296],[-2.159467,60.4207724],[-2.2585635,60.4060975],[-2.350427,60.3822928],[-2.4082568,60.36359],[-2.4950825,60.3286194],[-2.5654555,60.285571],[-2.6164336,60.2362872],[-2.645935,60.1828686],[-2.6528143,60.1275815],[-2.6368939,60.0727598],[-2.5989528,60.0207065],[-2.5406759,59.9735979],[-2.464569,59.933395],[-2.4178415,59.9132566],[-2.3320447,59.8829535],[-2.2362833,59.8615151],[-2.1341377,59.8497395],[-2.0294094,59.8480646],[-1.925989,59.8565524],[-1.9047985,59.8605142],[-1.8821759,59.8159241],[-1.8577602,59.7907458],[-1.9351869,59.762547],[-2.0036802,59.7319685],[-2.0731668,59.6942868],[-2.1270576,59.6506115],[-2.1634313,59.6025516],[-2.1782539,59.5598771],[-2.2286755,59.5721077],[-2.3272554,59.585068],[-2.4289384,59.5882159],[-2.5299212,59.5814337],[-2.5655128,59.575374],[-2.571471,59.5753798],[-2.6297121,59.5696924],[-2.7057646,59.5964002],[-2.7982854,59.6170387],[-2.8969226,59.6283984],[-2.9980517,59.6300616],[-3.0979503,59.6219671],[-3.1929442,59.6044128],[-3.3051677,59.5771991],[-3.3978666,59.5483679],[-3.4768943,59.5105451],[-3.5389485,59.465336],[-3.5814783,59.414652],[-3.6027837,59.3606269],[-3.6027204,59.3557289],[-3.6350549,59.3458934],[-3.7088401,59.3125138],[-3.7690513,59.2726964],[-3.8136159,59.2278456],[-3.8410323,59.1795373],[-3.8826142,59.0679245],[-3.8919085,59.0175242],[-3.8909161,59.0120711],[-3.9179979,58.9848938],[-3.9459646,58.9347871],[-3.9546774,58.8828418]],[[-3.3678337,59.0163326],[-3.348191,59],[-3.348191,59],[-3.3678337,59.0163326]],[[-3.2682275,59],[-3.2682275,59],[-3.2562326,58.9774954],[-3.2682275,59]],[[-3.202232,58.9167066],[-3,58.9571369],[-2.9826298,58.9606096],[-3,58.9571369],[-3.202232,58.9167066]],[[-3.1194312,59.1767475],[-3,59.1816187],[-2.9538295,59.1835018],[-3,59.1816187],[-3.1194312,59.1767475]],[[-3.1158312,58.9977583],[-3.1042811,59],[-3.1042811,59],[-3.1158312,58.9977583]],[[-3.0366304,58.8204577],[-3,58.8294218],[-3,58.8294218],[-3.0366304,58.8204577]],[[-3.0150302,58.8120148],[-3,58.7959009],[-3,58.7959009],[-2.9394294,58.7309631],[-3,58.7959009],[-3,58.7959009],[-3.0150302,58.8120148]],[[-3.0078301,59.2713078],[-3,59.2739003],[-2.9466295,59.2915707],[-3,59.2739003],[-3.0078301,59.2713078]],[[-3.00423,59.1277787],[-3,59.1324555],[-2.9538295,59.1835018],[-3,59.1324555],[-3.00423,59.1277787]],[[-2.950843,59],[-2.950843,59],[-2.8638286,58.9741182],[-2.950843,59]],[[-1.1142111,60.7150414],[-1,60.7307973],[-0.9918099,60.7319271],[-1,60.7307973],[-1.1142111,60.7150414]],[[-1.0638106,60.6626955],[-1,60.6387514],[-0.9918099,60.6356782],[-1,60.6387514],[-1.0638106,60.6626955]],[[-1.0350104,60.3401772],[-1,60.3540328],[-0.9198092,60.3857688],[-1,60.3540328],[-1.0350104,60.3401772]]]}}
