{"type":"Feature","properties":{"family":"other","name":"Kingdom of Pamplona, 843 – 864"},"geometry":{"type":"Polygon","coordinates":[[[-2.4523272,43.3437538],[-2.4185831,43.3327518],[-2.45,43.05],[-2.45,42.75],[-2,42.6],[-1.8333333,42.55],[-1.6666667,42.5],[-1.5,42.45],[-1.3,42.4333333],[-1.1,42.4166667],[-0.9,42.4],[-0.7,42.4166667],[-0.5,42.4333333],[-0.3,42.45],[-0.3,42.8],[-0.5,42.85],[-0.7,42.9],[-1,43],[-1.35,43.1],[-1.6,43.25],[-1.7,43.35],[-1.7412605,43.3912605],[-1.7412605,43.3912605],[-1.7412605,43.3912605],[-1.7412605,43.3912605],[-1.7727335,43.3876697],[-1.7777412,43.3870983],[-1.7777419,43.3870983],[-1.7777419,43.3870983],[-1.7777565,43.3870966],[-1.7777566,43.3870966],[-1.7946179,43.3851728],[-1.7777566,43.3870966],[-1.7777565,43.3870966],[-1.7777419,43.3870983],[-1.7777419,43.3870983],[-1.7777412,43.3870983],[-1.7727335,43.3876697],[-1.7412605,43.3912605],[-1.7000677,43.3959603],[-1.7000677,43.3959603],[-1.7000672,43.3959603],[-1.7000672,43.3959603],[-1.7000677,43.3959603],[-1.7000677,43.3959603],[-1.7412605,43.3912605],[-1.7727335,43.3876697],[-1.7777412,43.3870983],[-1.7777419,43.3870983],[-1.7777419,43.3870983],[-1.7777565,43.3870966],[-1.778365,43.3907978],[-1.7777176,43.3962843],[-1.7755505,43.4015616],[-1.7719536,43.4064099],[-1.7670767,43.4106268],[-1.7611228,43.4140365],[-1.7543403,43.4164967],[-1.7470119,43.4179048],[-1.7468659,43.4179214],[-1.7470101,43.4179147],[-1.8003903,43.4118244],[-1.809777,43.4098016],[-1.9394201,43.3675701],[-1.9422398,43.3663938],[-1.9456722,43.3677776],[-1.9529891,43.3694205],[-1.9606142,43.3699363],[-1.9682225,43.3693029],[-1.9754896,43.3675474],[-2.0496654,43.3431218],[-2.0997995,43.3266129],[-2.0997995,43.3266129],[-2.1344498,43.3152028],[-2.3562424,43.341992],[-2.4034185,43.3573734],[-2.4034886,43.3573906],[-2.4034889,43.3573906],[-2.4033416,43.3573426],[-2.3967819,43.3545757],[-2.391134,43.3508967],[-2.3866341,43.3464595],[-2.3834699,43.3414497],[-2.3817734,43.3360766],[-2.3816151,43.3305648],[-2.3826786,43.3210454],[-2.3826786,43.3210454],[-2.4185831,43.3327518],[-2.4185831,43.3327518],[-2.4523272,43.3437538],[-2.4523272,43.3437538]]]}}
