{"type":"Feature","properties":{"family":"steppe","name":"Pechenegs, 985 – 1014"},"geometry":{"type":"Polygon","coordinates":[[[22.6,44.2],[22.8,44.12],[23,44.04],[23.2,43.96],[23.4,43.88],[23.6,43.8],[23.8125,43.7875],[24.025,43.775],[24.45,43.75],[24.66,43.74],[24.87,43.73],[25.08,43.72],[25.5,43.7],[25.7142857,43.7714286],[25.9285714,43.8428571],[26.1428571,43.9142857],[26.1428571,43.9142857],[26.3571429,43.9857143],[26.3571429,43.9857143],[26.5714286,44.0571429],[26.7857143,44.1285714],[27,44.2],[27.1714286,44.3571429],[27.3428571,44.5142857],[27.5142857,44.6714286],[27.6857143,44.8285714],[27.8571429,44.9857143],[28.0285714,45.1428571],[28.2,45.3],[28.4,45.2833333],[28.6,45.2666667],[28.8,45.25],[29.25,45.225],[29.475,45.2125],[29.6334359,45.203698],[29.6228962,45.2105249],[29.6588966,45.2155906],[29.667529,45.2182224],[29.667529,45.2182224],[29.667529,45.2182224],[29.6675477,45.2182282],[29.6675477,45.2182282],[29.6675567,45.2182309],[29.6810068,45.2095164],[29.6838802,45.2076547],[29.683329,45.2080119],[29.6983767,45.1982623],[29.74606,45.2127983],[29.7524689,45.2152846],[29.7580913,45.2185831],[29.7627222,45.2225734],[29.7661925,45.2271101],[29.7683754,45.2320276],[29.7936303,45.3164488],[29.7944537,45.3220883],[29.7935814,45.3277229],[29.7681801,45.4098292],[29.7886095,45.4325675],[29.7918364,45.437025],[29.793836,45.4418228],[29.7945393,45.4467961],[29.7945299,45.4468719],[29.8273692,45.4364416],[29.8928344,45.4022966],[29.8928344,45.4022966],[29.9579266,45.3600163],[30.0091857,45.3191412],[30.0476464,45.2718255],[30.0717592,45.2200157],[30.0805734,45.1658375],[30.0751889,45.1228362],[30.0973502,45.1600556],[30.1123646,45.2144832],[30.1389942,45.4237986],[30.1384106,45.4760769],[30.1367049,45.481912],[30.170313,45.5079579],[30.1796876,45.5188607],[30.2122864,45.5384372],[30.2359167,45.5597893],[30.2990103,45.5752172],[30.3622167,45.6008268],[30.41746,45.6342838],[30.7740244,45.8934344],[30.8290034,45.9437314],[31.0243568,46.1728069],[31.0496287,46.209915],[31.0932272,46.2447924],[31.1297407,46.2881325],[31.1334971,46.2954357],[31.1524659,46.2587913],[31.2286193,46.1475892],[31.2644774,46.1054397],[31.310679,46.068461],[31.3656984,46.0378591],[31.4277318,46.0146302],[31.4947555,45.9995296],[31.8531092,45.9423818],[31.9282616,45.9355245],[31.9871718,45.9381669],[32.0190165,45.9167431],[32.0811627,45.8885607],[32.1498396,45.8690961],[32.3900029,45.8186718],[32.4672185,45.8081578],[32.4798732,45.8082476],[32.4859197,45.8062535],[32.5571558,45.7934712],[32.5614566,45.792996],[32.5515079,45.7838151],[32.5268032,45.7783374],[32.4432531,45.7517849],[32.3711194,45.7121937],[32.2091295,45.5986637],[32.1637093,45.5601563],[32.1292569,45.5164415],[32.1069333,45.4690271],[32.0974747,45.4195446],[32.1011712,45.3696919],[32.1178617,45.3211751],[32.1506472,45.2537418],[32.1785542,45.2096031],[32.2171455,45.1696735],[32.2651714,45.1352243],[32.3210899,45.1073502],[32.3831168,45.0869358],[32.4620039,45.0667635],[32.5289154,45.0543136],[32.5979013,45.0505609],[32.6667268,45.0556273],[32.7331618,45.0693487],[32.7848805,45.0837025],[33.0144532,44.9492304],[33.0797572,44.9182488],[33.1525991,44.8973784],[33.1951918,44.8919414],[33.1693395,44.8396043],[33.165223,44.8277155],[33.1859222,44.8671971],[33.2224464,44.9101578],[33.2696052,44.9475813],[33.3257721,44.9781633],[33.388997,45.0008359],[33.4570752,45.014807],[33.5276255,45.019588],[33.5398533,45.019587],[33.5801049,44.9294181],[33.5716716,44.8817724],[33.4844306,44.8014557],[33.4807054,44.7972769],[33.4781173,44.7926858],[33.476753,44.7878369],[33.476658,44.7828929],[33.4778352,44.7780201],[33.4910256,44.7430212],[33.4910585,44.7429582],[33.4910492,44.7429829],[33.4898214,44.7483888],[33.4901573,44.7538615],[33.4920435,44.759175],[33.4954025,44.7641099],[33.5000959,44.7684623],[33.5059301,44.7720525],[33.5126641,44.7747321],[33.5179511,44.775924],[33.5179516,44.7759227],[33.5179526,44.7759201],[33.5179572,44.7759079],[33.5203141,44.7696433],[33.5213092,44.7669985],[33.5229878,44.7625371],[33.5277046,44.75],[33.9,44.75],[33.9,44.3847608],[33.8754323,44.3868388],[33.8178337,44.3917106],[33.719839,44.3999992],[33.7197433,44.4000073],[33.7197372,44.4000078],[33.7197433,44.4000073],[33.719839,44.3999992],[33.8178337,44.3917106],[33.8754323,44.3868388],[33.9,44.3847608],[33.9000798,44.3847541],[33.9372881,44.3816069],[33.9372904,44.3816067],[33.9372908,44.3816067],[33.9372922,44.3816066],[33.9372931,44.3816065],[33.9370503,44.3797708],[33.9350794,44.3749094],[33.9318735,44.3703951],[33.9275457,44.3663868],[33.9222485,44.3630256],[33.9161686,44.3604298],[33.9095198,44.3586907],[33.9025361,44.3578695],[33.8954631,44.3579951],[33.7153454,44.3732283],[33.7153428,44.3732123],[33.9348437,44.3546464],[33.94392,44.3546561],[33.9527312,44.3562165],[34.114672,44.4000996],[34.1217638,44.4026525],[34.1279528,44.4062089],[34.2860994,44.5182499],[34.2779757,44.5124945],[34.2771664,44.3847042],[34.2693953,44.3313887],[34.2470608,44.2802028],[34.2110772,44.233162],[34.1628875,44.1921144],[34.1044024,44.1586696],[34.0379246,44.134137],[34.0379246,44.134137],[33.9660594,44.1194761],[33.8916147,44.11526],[33.8174958,44.1216543],[33.7900668,44.1260012],[33.7900525,44.1260249],[33.7899931,44.1261232],[33.6995242,44.2759291],[33.7899931,44.1261232],[33.7900525,44.1260249],[33.7900693,44.1259971],[33.7901138,44.1259234],[33.7901339,44.1258901],[33.7901547,44.1258556],[33.7920911,44.1226492],[33.7921384,44.1225708],[33.7923492,44.1222218],[33.7923622,44.1222003],[33.8945612,44.1135554],[33.9849444,44.1136509],[34.072722,44.1291893],[34.2341182,44.172894],[34.3232593,44.2073451],[34.5532537,44.3267685],[34.6167264,44.368186],[34.6655434,44.4187818],[34.7422934,44.5213945],[34.8304841,44.549691],[34.8997678,44.5576257],[34.9241283,44.5476686],[34.9931303,44.5309164],[35.065334,44.5238676],[35.138095,44.5267802],[35.208749,44.5395478],[35.2747058,44.5617027],[35.3335405,44.5924329],[35.3830801,44.6306104],[35.433986,44.6782514],[35.4385303,44.6785453],[35.5070462,44.6924742],[35.5707371,44.7152361],[35.6273757,44.7460376],[35.6491748,44.7633434],[35.7088277,44.7414276],[35.7861374,44.7264228],[35.866138,44.7232311],[36.0130394,44.7282732],[36.0951369,44.7374802],[36.1311303,44.7475532],[36.1746303,44.740517],[36.2432189,44.7383984],[36.3112315,44.7450513],[36.3764741,44.760261],[36.602464,44.8291866],[36.630135,44.839949],[36.6294455,44.8400618],[36.5804555,44.848078],[36.5155109,44.8682239],[36.4569083,44.896526],[36.34184,44.963824],[36.2870041,45.0031179],[36.2796635,45.0111328],[36.254261,44.9902873],[36.2796635,45.0111328],[36.2897104,45.0193773],[36.4617439,45.0510099],[36.468568,45.0527626],[36.4747994,45.0553966],[36.4802127,45.0588166],[36.4846121,45.0628991],[36.4878383,45.0674965],[36.4897744,45.0724424],[36.49035,45.0775581],[36.4895439,45.0826584],[36.4873849,45.0875588],[36.4481797,45.153531],[36.4632891,45.238255],[36.5255875,45.2806035],[36.5302603,45.284432],[36.5338384,45.2888062],[36.5361965,45.293573],[36.5372518,45.2985657],[36.5382892,45.3120694],[36.5372017,45.3070238],[36.5347127,45.3021283],[36.5309353,45.2976593],[36.52601,45.2937828],[36.5201198,45.2906425],[36.5134834,45.288355],[36.5063468,45.2870051],[36.4989749,45.2866428],[36.491641,45.2872817],[36.4846171,45.2888979],[36.4833462,45.2893969],[36.498965,45.3000195],[36.5,45.3136125],[36.502565,45.3472996],[36.5,45.3136125],[36.5,45.4],[36.6025434,45.4146491],[36.6321663,45.3405453],[36.6025434,45.4146491],[36.599766,45.421597],[36.5060649,45.4283988],[36.5948999,45.4410898],[36.6020438,45.4416262],[36.6092053,45.4412203],[36.6161338,45.4398862],[36.6225873,45.4376707],[36.6283401,45.4346512],[36.6331913,45.4309332],[36.6369716,45.4266467],[36.6394972,45.4220363],[36.6367634,45.4288863],[36.6339863,45.4338699],[36.6298621,45.4383708],[36.6245529,45.4422118],[36.6182676,45.4452416],[36.6112536,45.447341],[36.603787,45.4484272],[36.3268369,45.4685641],[36.3198179,45.4850456],[36.3167601,45.4902032],[36.3122528,45.4948087],[36.306489,45.4986646],[36.2997158,45.5016055],[36.2922236,45.5035051],[36.284334,45.504282],[36.2763855,45.5039027],[36.1376174,45.4869229],[36.1441502,45.502336],[36.1792072,45.548957],[36.2265977,45.5898976],[36.2845225,45.623582],[36.3507647,45.6487113],[36.4227751,45.6643147],[36.5257802,45.6790333],[36.5975221,45.6844202],[36.6537661,45.6812363],[36.6678824,45.6856954],[36.6682333,45.6858063],[36.6401587,45.6898918],[36.4962864,45.7004436],[36.4511596,45.7200587],[36.3759711,45.7391347],[36.2967401,45.7469382],[36.2169097,45.7431298],[36.0505349,45.7227695],[35.9994429,45.7125133],[35.9614446,45.7249265],[35.8891028,45.737482],[35.8146415,45.7400571],[35.7408716,45.7325546],[35.6705768,45.7152578],[35.6064042,45.6888191],[35.5507611,45.6542348],[35.5396128,45.6439874],[35.3428304,45.8575313],[35.3269682,45.8827243],[35.3309257,45.8840388],[35.3878297,45.9072438],[35.4383117,45.9368044],[35.4809147,45.9718745],[35.7722535,46.2557944],[36.0425541,46.3901624],[36.0475446,46.3904565],[36.059125,46.3838368],[36.1253193,46.3589235],[36.1971647,46.3431971],[36.2720229,46.3372342],[36.3471498,46.3412531],[36.4197921,46.3551066],[36.4872834,46.3782867],[36.5471387,46.4099425],[36.5513754,46.4132471],[36.6177975,46.3884672],[36.6934631,46.3726467],[36.7721702,46.3675961],[36.850748,46.3735185],[36.9260305,46.3901753],[36.994979,46.4168951],[37.0547998,46.4525994],[37.1030548,46.495845],[37.1377596,46.54488],[37.1413657,46.5516285],[37.1414553,46.5518719],[37.1416204,46.5521056],[37.1734116,46.6117144],[37.2141829,46.6265674],[37.2413277,46.6200584],[37.317834,46.6126762],[37.3469756,46.613814],[37.3495692,46.6025741],[37.3752842,46.5539919],[37.5530151,46.2961879],[37.5917408,46.2514352],[37.6421265,46.2126466],[37.6555795,46.2041044],[37.6315846,46.1864573],[37.5914751,46.1422128],[37.5644881,46.0934321],[37.4964324,45.9216653],[37.4846445,45.919336],[37.4176112,45.8955385],[37.3585204,45.8631409],[37.3096089,45.8233782],[37.2772998,45.7912033],[37.2401248,45.7450557],[37.2166347,45.6947223],[37.2077003,45.6421506],[37.2069016,45.6139276],[37.2716904,45.5910397],[37.2720293,45.5914587],[37.3218227,45.6317347],[37.3820253,45.6643566],[37.4502817,45.6880393],[37.5239077,45.7018486],[37.5999987,45.7052393],[37.6587337,45.6996714],[37.7974037,45.7689829],[37.6587337,45.6996714],[37.6434624,45.6920384],[37.6426525,45.6923879],[37.6353724,45.6942571],[37.6277047,45.6950719],[37.619959,45.6947994],[37.6124484,45.6934506],[37.6054761,45.6910801],[37.5993236,45.6877835],[37.5942392,45.683694],[37.5618478,45.6516018],[37.5581134,45.6469972],[37.5557378,45.6419709],[37.5548123,45.6367167],[37.5478909,45.4363601],[37.5488075,45.4415589],[37.5512002,45.4466116],[37.5549611,45.4512361],[37.559944,45.4552522],[37.565955,45.4585034],[37.5727596,45.460863],[37.5800929,45.4622388],[37.5872623,45.4625591],[37.5863128,45.4356145],[37.5861759,45.4317285],[37.5863128,45.4356145],[37.6,45.4333333],[37.6294033,45.4284328],[37.6381181,45.4547105],[37.6383009,45.4546801],[37.6455955,45.4529035],[37.6522366,45.4501403],[37.6579563,45.4465017],[37.6625239,45.4421348],[37.6657556,45.4372156],[37.6675212,45.4319426],[37.6677501,45.4265283],[37.666595,45.4218458],[37.6665813,45.4217904],[37.6668321,45.422309],[37.6687178,45.4279909],[37.6723406,45.4110454],[37.6719628,45.4161901],[37.6730356,45.4213938],[37.6755263,45.4263526],[37.6793406,45.4308781],[37.6843339,45.4347983],[37.6903165,45.4379641],[37.6970612,45.4402552],[37.7043115,45.4415844],[37.7046725,45.4415997],[37.7103562,45.4149406],[37.8,45.4],[37.6,45],[37.1636119,45],[37.1901719,44.9910098],[37.2157407,44.9730205],[37.1637149,44.9730205],[37.1551754,44.9736885],[37.1471624,44.9756669],[37.1471739,44.9756619],[37.1679068,44.9686457],[37.2633313,44.9015447],[37.2539846,44.8740844],[37.2529267,44.8680642],[37.253793,44.862028],[37.2565393,44.8562813],[37.3357973,44.7364167],[37.3395482,44.7319221],[37.3417061,44.7302054],[37.3416783,44.7302054],[37.1646374,44.7302049],[37.0795931,44.7368572],[36.9987557,44.7568057],[36.9508291,44.773039],[36.9700188,44.7609043],[37.0053387,44.6738392],[37.0305672,44.6278246],[37.0671063,44.5858415],[37.113717,44.5492865],[37.2216656,44.4786178],[37.2783232,44.4479089],[37.3419783,44.4252893],[37.4103963,44.41155],[37.7255835,44.3700474],[37.7488858,44.3537719],[37.8099753,44.3251246],[37.8254608,44.3206113],[37.9014643,44.238316],[37.9486804,44.1967186],[38.0063624,44.1626074],[38.0722387,44.1373154],[38.143729,44.1218293],[38.4479869,44.0784674],[38.7368378,43.9403245],[38.7111608,43.9596036],[38.6658716,44.0001095],[38.6321682,44.0460999],[38.6113223,44.0958772],[38.6041377,44.1476],[38.6109167,44.1993501],[38.631443,44.2492033],[38.6544478,44.2808193],[38.6544478,44.2808193],[38.6544503,44.2808227],[38.6544543,44.2808282],[38.6544581,44.2808335],[38.7353545,44.2519684],[38.8273276,44.1673194],[38.8317811,44.1638775],[38.8369976,44.1610412],[38.8428191,44.1588964],[38.9566915,44.1254828],[38.9506019,44.1310426],[38.9465166,44.1356563],[38.943811,44.140766],[38.9425963,44.146162],[38.942923,44.1516227],[38.9447779,44.1569239],[38.9456287,44.1581905],[38.9793898,44.1484098],[38.9801311,44.1477327],[39.15,44.2],[39.3666667,44.2666667],[39.5833333,44.3333333],[39.8,44.4],[40.0428571,44.4285714],[40.2857143,44.4571429],[40.5285714,44.4857143],[40.7714286,44.5142857],[41.0142857,44.5428571],[41.2571429,44.5714286],[41.5,44.6],[41.7222222,44.5888889],[41.9444444,44.5777778],[42.1666667,44.5666667],[42.3888889,44.5555556],[42.6111111,44.5444444],[42.8333333,44.5333333],[43.0555556,44.5222222],[43.2777778,44.5111111],[43.5,44.5],[43.7142857,44.4285714],[43.9285714,44.3571429],[44.1428571,44.2857143],[44.3571429,44.2142857],[44.5714286,44.1428571],[44.7857143,44.0714286],[45,44],[45.3,43.65],[45.45,43.475],[45.6,43.3],[46.5,43.6],[47.3740979,43.6],[47.3674737,43.6198851],[47.3926739,43.6063765],[47.4014102,43.6181875],[47.4044912,43.6155985],[47.4080082,43.6111648],[47.4103067,43.6063301],[47.4170574,43.5860433],[47.4216006,43.589378],[47.425515,43.5936383],[47.4455573,43.6207469],[47.4415287,43.6060421],[47.4415304,43.6060474],[47.4415304,43.6060474],[47.4415315,43.6060505],[47.4415315,43.6060505],[47.4416592,43.6064282],[47.4439841,43.6112602],[47.4475273,43.6156872],[47.4521617,43.6195499],[47.4577205,43.6227093],[47.4640037,43.6250515],[47.4707851,43.6264922],[47.4778205,43.6269795],[47.4852869,43.6269795],[47.4778361,43.6],[47.5405155,43.6],[47.5305867,43.5731094],[47.5352188,43.5856549],[47.5305811,43.5730941],[47.530559,43.5730344],[47.4898749,43.4628474],[47.530559,43.5730344],[47.5305811,43.5730941],[47.5358588,43.5873881],[47.5367203,43.5897214],[47.5405155,43.6],[47.5500985,43.6259544],[47.5552838,43.6247687],[47.561895,43.6220939],[47.5676222,43.6185061],[47.5722285,43.6141538],[47.575524,43.6092168],[47.5773726,43.6038992],[47.5776984,43.5984208],[47.5765038,43.5930767],[47.5764995,43.5930576],[47.5764981,43.5930512],[47.6359642,43.7538551],[47.7131799,43.8378772],[47.7394802,43.8282456],[47.7947159,43.7974727],[47.8410078,43.759806],[47.8767466,43.7165693],[47.9007022,43.6692794],[47.9120641,43.6195916],[47.9104666,43.5692409],[47.9073203,43.5497141],[47.9073,43.5495876],[47.907293,43.5495446],[47.94577,43.6521545],[48.0134554,43.7253807],[48.0154081,43.7280096],[48.0910695,43.7682988],[48.1466515,43.8046132],[48.1910239,43.8482212],[48.2223754,43.8973681],[48.239408,43.9500715],[48.2413939,44.0042007],[48.2282108,44.0575608],[48.2003535,44.1079822],[48.1589202,44.1534085],[48.1055735,44.1919824],[48.0424761,44.2221225],[47.9722033,44.2425903],[47.8976364,44.2525432],[47.6951066,44.26445],[47.6238943,44.2637121],[47.5898118,44.3196827],[47.5511373,44.3684891],[47.499093,44.4105407],[47.4359265,44.4439978],[47.3643871,44.4673932],[47.3578356,44.4684455],[47.3299597,44.5026988],[47.2921672,44.5409914],[47.2731354,44.5545126],[47.3212688,44.5773116],[47.3747032,44.6155204],[47.4163664,44.6605399],[47.444567,44.7105735],[47.4581411,44.7636198],[47.4589955,44.7712668],[47.4757326,44.7834821],[47.5298419,44.8335675],[47.5660054,44.8912188],[47.6012321,44.9716102],[47.6244209,44.9834786],[47.6736336,45.0204305],[47.712157,45.0632497],[47.7386042,45.1104224],[47.752007,45.1602767],[47.7593052,45.2155629],[47.7843914,45.2455815],[47.8213477,45.2286809],[47.8923734,45.208837],[47.9675219,45.1992302],[48.043842,45.2002361],[48.1183393,45.211814],[48.188089,45.2335084],[48.2503457,45.2644663],[48.3026479,45.3034699],[48.3429139,45.3489825],[48.3695238,45.3992073],[48.3813875,45.4521569],[48.3808492,45.4606497],[48.4099525,45.4680223],[48.4750758,45.4956868],[48.5311404,45.5317738],[48.5759452,45.5748779],[48.6077152,45.6233173],[48.6251735,45.675198],[48.6265526,45.7055784],[48.6460995,45.730464],[48.2743003,45.7304959],[48.2661149,45.7510142],[48.2969179,45.762746],[48.3026722,45.7654299],[48.3076419,45.7687866],[48.3116672,45.7727081],[48.3146182,45.7770684],[48.3163998,45.7817269],[48.3289102,45.8323535],[48.3294028,45.836377],[48.2907596,45.8369617],[48.2890829,45.836987],[48.2907596,45.8369617],[48.2647059,45.9411765],[48.25,46],[47.5,46],[47.5,49],[47.4545455,49.2272727],[47.4090909,49.4545455],[47.3636364,49.6818182],[47.3181818,49.9090909],[47.2727273,50.1363636],[47.2272727,50.3636364],[47.1818182,50.5909091],[47.1363636,50.8181818],[47.0909091,51.0454545],[47.0454545,51.2727273],[47,51.5],[46.5384615,51.5769231],[46.3076923,51.6153846],[45.8461538,51.6923077],[45.8461538,51.6923077],[45.6153846,51.7307692],[45.3846154,51.7692308],[45.1538462,51.8076923],[45.1538462,51.8076923],[44.6923077,51.8846154],[44.4615385,51.9230769],[44,52],[43.7666667,52.04],[43.5333333,52.08],[43.3,52.12],[43.0666667,52.16],[42.8333333,52.2],[42.6,52.24],[42.3666667,52.28],[42.1333333,52.32],[41.9,52.36],[41.6666667,52.4],[41.4333333,52.44],[41.2,52.48],[40.9666667,52.52],[40.7333333,52.56],[40.5,52.6],[38.5,52.6],[37.9,52.27],[37.7,52.16],[37.5,52.05],[36.5,51.5],[36.3111111,51.3666667],[36.1222222,51.2333333],[35.9333333,51.1],[35.7444444,50.9666667],[35.5555556,50.8333333],[35.440528,50.7521374],[35.4516762,50.7196013],[35.4516762,50.7196013],[35.440528,50.7521374],[35.3666667,50.7],[35.1777778,50.5666667],[34.8,50.3],[34.5833333,50.2166667],[34.3666667,50.1333333],[34.15,50.05],[33.9333333,49.9666667],[33.7166667,49.8833333],[33.5,49.8],[33.0714286,49.7428571],[32.8571429,49.7142857],[32.6428571,49.6857143],[32.4285714,49.6571429],[32.2142857,49.6285714],[32,49.6],[31.7857143,49.5428571],[31.5714286,49.4857143],[31.3571429,49.4285714],[31.1428571,49.3714286],[30.9285714,49.3142857],[30.7142857,49.2571429],[30.5,49.2],[30.2857143,49.1142857],[30.0714286,49.0285714],[29.8571429,48.9428571],[29.6428571,48.8571429],[29.4285714,48.7714286],[29.2142857,48.6857143],[29,48.6],[28.7857143,48.5285714],[28.5714286,48.4571429],[28.3571429,48.3857143],[28.1428571,48.3142857],[27.9285714,48.2428571],[27.7142857,48.1714286],[27.5,48.1],[27.2857143,48.1285714],[27.0714286,48.1571429],[26.8571429,48.1857143],[26.6428571,48.2142857],[26.4285714,48.2428571],[26.2142857,48.2714286],[26,48.3],[25.8,48.2],[25.6,48.1],[25.2,47.9],[25,47.8],[24.8,47.7],[25.5,47.2],[25.625,47.025],[25.75,46.85],[26,46.5],[26,45.8],[25.825,45.725],[25.65,45.65],[25.3,45.5],[25.0833333,45.4833333],[24.8666667,45.4666667],[24.65,45.45],[24.4333333,45.4333333],[24.2166667,45.4166667],[24,45.4],[23,45.2],[22.8,44.875],[22.7,44.7125],[22.6,44.55],[22.6,44.2]],[[29.6675567,45.2182309],[29.6808369,45.2096265],[29.6808387,45.2096253],[29.6675567,45.2182309]],[[47.4954441,43.8697954],[47.514185,43.8697955],[47.5071208,43.844291],[47.5045646,43.8459339],[47.4980684,43.8486626],[47.4957207,43.8492367],[47.4966731,43.8513764],[47.4982245,43.8566133],[47.4983008,43.8619716],[47.4968987,43.8672384],[47.4954441,43.8697954]]]}}
