{"type":"Feature","properties":{"family":"steppe","name":"Pechenegs, 882 – 957"},"geometry":{"type":"Polygon","coordinates":[[[26,47.7],[26.0666667,47.4666667],[26.1333333,47.2333333],[26.2,47],[26.4,46.6],[26.5,46.4],[26.6,46.2],[26.725,46.05],[26.85,45.9],[26.975,45.75],[27.1,45.6],[27.3333333,45.5333333],[27.5666667,45.4666667],[27.8,45.4],[28,45.35],[28.2,45.3],[28.4,45.2833333],[28.6,45.2666667],[28.8,45.25],[29.25,45.225],[29.475,45.2125],[29.6334359,45.203698],[29.6228962,45.2105249],[29.6588966,45.2155906],[29.667529,45.2182224],[29.667529,45.2182224],[29.667529,45.2182224],[29.6675477,45.2182282],[29.6675477,45.2182282],[29.6675567,45.2182309],[29.6675693,45.2182347],[29.6675706,45.2182351],[29.698399,45.1982607],[29.7460661,45.2127917],[29.7524737,45.2152777],[29.758095,45.2185758],[29.762725,45.2225657],[29.7661947,45.227102],[29.7683773,45.2320195],[29.7936322,45.3164405],[29.7944558,45.3220822],[29.793583,45.3277192],[29.7681828,45.4098218],[29.7886109,45.4325588],[29.7918384,45.4370174],[29.7938382,45.4418166],[29.7945413,45.4467916],[29.794541,45.4467942],[29.7945378,45.4468198],[29.7945414,45.4468187],[29.8279268,45.4362121],[29.893443,45.4020354],[29.958529,45.3597492],[30.0097289,45.3189188],[30.0481377,45.2716732],[30.0722124,45.2199514],[30.0810072,45.1658708],[30.0757036,45.1235815],[30.0973743,45.1599845],[30.1123857,45.2144142],[30.1390129,45.4237262],[30.1384292,45.4760264],[30.1367303,45.4818385],[30.1703518,45.5078997],[30.1797104,45.518787],[30.212317,45.5383696],[30.2359516,45.5597286],[30.2990322,45.5751491],[30.3622396,45.6007569],[30.4174828,45.6342145],[30.7740379,45.8933666],[30.8290162,45.9436648],[31.0243626,46.1727393],[31.0496333,46.2098475],[31.0932474,46.2447414],[31.1297584,46.2880858],[31.1335179,46.2953968],[31.1524664,46.2587931],[31.2286216,46.1475891],[31.2644901,46.1054277],[31.3107037,46.0684386],[31.3657361,46.0378284],[31.4277825,46.0145937],[31.4948184,45.9994902],[31.8531761,45.9423455],[31.9283332,45.9354892],[31.9872223,45.9381326],[32.0190444,45.9167235],[32.0812058,45.8885336],[32.1498977,45.8690647],[32.3900642,45.8186422],[32.4672793,45.808129],[32.4799325,45.8082189],[32.4859734,45.8062268],[32.5572155,45.7934437],[32.5613752,45.7929841],[32.5514762,45.7838492],[32.5267503,45.7783671],[32.4432163,45.7518211],[32.3710962,45.7122392],[32.2091023,45.5987098],[32.1636839,45.5602036],[32.1292336,45.5164885],[32.1069123,45.4690722],[32.0974564,45.4195862],[32.1011558,45.3697285],[32.1178492,45.3212056],[32.1506355,45.253771],[32.1785525,45.2096172],[32.2171577,45.1696736],[32.2652003,45.1352122],[32.3211374,45.1073288],[32.3831832,45.0869083],[32.4620715,45.0667366],[32.5289865,45.0542864],[32.5979731,45.0505334],[32.6667966,45.0555994],[32.7332276,45.0693205],[32.7849424,45.0836739],[33.0144864,44.9492224],[33.0798027,44.9182357],[33.1526553,44.8973614],[33.1951402,44.8919375],[33.1693169,44.8396595],[33.1652479,44.8279067],[33.1859269,44.8673765],[33.2224172,44.9103244],[33.2695326,44.9477351],[33.3256502,44.9783057],[33.3888235,45.00097],[33.4568519,45.0149366],[33.5273584,45.0197174],[33.5397956,45.0197167],[33.5801029,44.9294231],[33.5716695,44.8817774],[33.4844272,44.8014597],[33.4807025,44.7972812],[33.4781148,44.7926905],[33.4767508,44.7878417],[33.476656,44.7828979],[33.4778334,44.7780249],[33.4910238,44.7430259],[33.4910882,44.7429025],[33.4910546,44.7429918],[33.4898255,44.7483994],[33.4901592,44.7538732],[33.4920423,44.7591874],[33.4953975,44.7641227],[33.5000867,44.7684753],[33.5059164,44.7720656],[33.512646,44.7747451],[33.517945,44.7759403],[33.5179511,44.775924],[33.5179516,44.7759227],[33.5179526,44.7759201],[33.5179572,44.7759079],[33.5203141,44.7696433],[33.5213092,44.7669985],[33.5229878,44.7625371],[33.5277046,44.75],[33.9,44.75],[33.9,44.3847608],[33.8754323,44.3868388],[33.8178337,44.3917106],[33.719839,44.3999992],[33.7197433,44.4000073],[33.7197372,44.4000078],[33.7197433,44.4000073],[33.719839,44.3999992],[33.8178337,44.3917106],[33.8754323,44.3868388],[33.9,44.3847608],[33.9000798,44.3847541],[33.9372881,44.3816069],[33.9372904,44.3816067],[33.9372908,44.3816067],[33.9372922,44.3816066],[33.9370471,44.3797529],[33.9350777,44.3748918],[33.9318743,44.3703781],[33.9275499,44.3663705],[33.9222569,44.3630101],[33.9161814,44.360415],[33.9095371,44.3586764],[33.9025576,44.3578554],[33.8954882,44.3579809],[33.7153521,44.3732162],[33.7153512,44.3732109],[33.9348523,44.3546452],[33.9439287,44.3546549],[33.9527395,44.3562152],[34.1146802,44.4000985],[34.1217705,44.4026508],[34.1279579,44.4062064],[34.2779404,44.5124637],[34.2771313,44.3845292],[34.2693628,44.3312092],[34.2470432,44.2800243],[34.2110858,44.2329885],[34.1629314,44.1919484],[34.1044881,44.1585119],[34.0380555,44.1339871],[33.9662351,44.1193321],[33.8918309,44.1151193],[33.8177444,44.1215135],[33.7901339,44.1258901],[33.7901547,44.1258556],[33.7920911,44.1226492],[33.7921384,44.1225708],[33.7923492,44.1222218],[33.7923622,44.1222003],[33.7923659,44.1221942],[33.8946524,44.1135431],[33.9759276,44.1129203],[34.0555123,44.1248185],[34.1297257,44.1486878],[34.5210817,44.3118033],[34.5782365,44.340814],[34.626963,44.3768726],[34.6655762,44.4187451],[34.729147,44.5037708],[34.9284368,44.5466115],[34.9941555,44.5307573],[35.0668952,44.5238285],[35.1401416,44.5270006],[35.2111756,44.5401558],[35.2773568,44.5628057],[35.3362181,44.5941084],[35.385555,44.6328989],[35.4235068,44.6777309],[35.4314152,44.6895164],[35.4637897,44.6985342],[35.4735654,44.702144],[35.407104,44.6867788],[35.3343854,44.6804259],[35.2613181,44.6840657],[35.1905891,44.6975635],[35.1248024,44.7204221],[35.0663868,44.7517993],[35.017509,44.790538],[35.0151086,44.7933962],[35.0585076,44.7714738],[35.0648971,44.7688647],[35.071875,44.7671805],[35.079179,44.7664846],[35.0865347,44.7668031],[35.0936654,44.7681241],[35.100303,44.7703979],[35.1061981,44.773539],[35.1111287,44.7774293],[35.1149092,44.7819225],[35.1830776,44.8841579],[35.26669,44.9301322],[35.3176364,44.9231907],[35.3181361,44.9231592],[35.3176014,44.923232],[35.3106381,44.9246766],[35.3041898,44.9270287],[35.2984905,44.930203],[35.293747,44.9340845],[35.2901314,44.9385322],[35.2877754,44.9433849],[35.2867646,44.9484664],[35.2871362,44.9535923],[35.2875445,44.954761],[35.3048366,44.9524063],[35.3248411,44.9496822],[35.3423773,44.9472942],[35.3626886,44.9445283],[35.3248411,44.9496822],[35.4,45.1],[35.5,45.3],[35.5051463,45.3027711],[35.4801548,45.2983309],[35.4627977,45.3068693],[35.4638347,45.308946],[35.4669796,45.3136832],[35.4713678,45.3179058],[35.4768343,45.3214545],[35.4831734,45.3241958],[35.4901463,45.3260265],[35.5089371,45.3295269],[35.5089371,45.3295269],[35.5031545,45.3297139],[35.4957537,45.3289297],[35.4877839,45.3275144],[35.3607305,45.3900186],[35.2539589,45.5054885],[35.2675094,45.5143114],[35.3310349,45.5418297],[35.4010004,45.5602163],[35.4712353,45.5733581],[35.5055259,45.6122539],[35.5396199,45.6436245],[35.3428405,45.8574997],[35.3269663,45.8827112],[35.3309722,45.8840419],[35.3878702,45.9072452],[35.4383457,45.9368033],[35.4809423,45.9718699],[35.7722795,46.2557974],[36.0425897,46.3901749],[36.0475615,46.390468],[36.0591273,46.3838568],[36.125327,46.3589418],[36.1971779,46.3432138],[36.2720412,46.3372496],[36.3471723,46.3412675],[36.4198174,46.3551202],[36.4873101,46.3782995],[36.5471651,46.4099545],[36.5514045,46.4132614],[36.6178012,46.3884914],[36.693471,46.3726694],[36.7721819,46.3676171],[36.8507628,46.3735375],[36.9260473,46.390192],[36.9949966,46.4169089],[37.054817,46.4526101],[37.1030705,46.4958522],[37.1377729,46.5448834],[37.1413787,46.5516317],[37.1414688,46.5518764],[37.1416348,46.5521113],[37.1734332,46.6117364],[37.2142075,46.6265912],[37.2413336,46.6200869],[37.3178468,46.612704],[37.3475326,46.6138628],[37.3594605,46.5803168],[37.4578307,46.3881299],[37.4911459,46.3391111],[37.5379026,46.2956508],[37.6571595,46.2050529],[37.6584255,46.2059838],[37.6349557,46.2240777],[37.5962145,46.2690468],[37.5707284,46.3183352],[37.5594895,46.3700946],[37.5629612,46.4223783],[37.5810542,46.4732147],[37.6131242,46.5206812],[37.6579901,46.5629777],[37.7139744,46.5984958],[37.7226106,46.6021351],[37.7903687,46.4681299],[37.7932557,46.4637212],[37.7972387,46.4597381],[37.8764517,46.3939046],[37.8800318,46.3912985],[37.9235226,46.3635647],[37.9184806,46.3674679],[37.9146219,46.3719752],[37.9120989,46.3769118],[37.911007,46.3820916],[37.9113878,46.3873194],[37.9132272,46.3923981],[37.9164565,46.3971361],[37.920954,46.4013548],[37.9214096,46.4016429],[37.9302083,46.3960302],[37.9500739,46.383358],[37.985361,46.3951203],[37.9893799,46.4026604],[38.0008287,46.4004834],[38.2,46.5166667],[38.4,46.6333333],[38.4534468,46.6645106],[38.477428,46.6625075],[38.5761858,46.6542584],[38.4541905,46.6644485],[38.4534468,46.6645106],[38.4534468,46.6645106],[38.4525096,46.6645889],[38.4511298,46.6647042],[38.4003724,46.6689439],[38.428086,46.6851146],[38.4347458,46.6882279],[38.4421922,46.6903446],[38.450112,46.6913756],[38.4581721,46.6912775],[38.4583184,46.6912653],[38.4582236,46.6912798],[38.4225106,46.6942799],[38.4710057,46.7126478],[38.5205453,46.6923124],[38.5205573,46.6923086],[38.5205573,46.6923086],[38.5145724,46.6953225],[38.509517,46.6990568],[38.505576,46.703376],[38.5028902,46.7081262],[38.5015557,46.7131378],[38.5016207,46.7182319],[38.5030831,46.7232267],[38.5058912,46.7279439],[38.5071284,46.7292475],[38.5314443,46.7192679],[38.5407613,46.7154441],[38.6,46.75],[38.8,46.8666667],[39,46.9833333],[39.0831713,47.0318499],[39.0765908,47.0324998],[39.0123714,47],[39.0123714,47],[39,46.9937391],[39,46.9937391],[38.802988,46.8940364],[38.7813607,46.8912517],[39.0575594,47.0524148],[39.0644681,47.0556186],[39.0722113,47.0577629],[39.0804436,47.0587521],[39.0887959,47.0585421],[39.0822599,47.0591875],[39.0745552,47.0594311],[39.0669277,47.0586527],[39.0596674,47.0568817],[39.0530498,47.0541855],[38.7867445,46.9194049],[38.428376,46.8732479],[38.4215029,46.8719],[38.4150993,46.8697261],[38.4093759,46.8667976],[38.4045205,46.863211],[38.4006926,46.859084],[38.3323351,46.7678793],[38.3293661,46.7626136],[38.3280633,46.7570396],[38.3284833,46.7514017],[38.3393171,46.7041249],[38.3404404,46.7011306],[38.3384853,46.7012931],[38.3049406,46.744587],[38.3005561,46.7490848],[38.2949493,46.752893],[38.2883456,46.7558584],[38.2810108,46.7578615],[38.2732401,46.7588218],[38.2653462,46.7587005],[38.257647,46.7575025],[38.2504526,46.7552762],[37.9725999,46.6445058],[37.8639022,46.6487536],[37.8374837,46.6589584],[38.1989442,46.8702853],[38.2433605,46.8910962],[38.2832474,46.9196055],[38.5975252,47.1034761],[38.9415334,47.1581967],[38.9492479,47.1599926],[38.9562595,47.1628221],[38.9622725,47.1665659],[38.9670328,47.1710659],[38.9703392,47.1761324],[38.9720516,47.1815513],[38.9801727,47.2321228],[39.0899632,47.2578622],[39.2240548,47.2386231],[39.2241441,47.1212669],[39.2248173,47.1262254],[39.2268242,47.131021],[39.2300957,47.1354832],[39.2345201,47.1394593],[39.2399462,47.1428133],[39.2461887,47.1454304],[39.2637926,47.1512993],[39.2637926,47.1212642],[39.4,47.1666667],[39.6,47.2333333],[39.8,47.3],[39.975,47.375],[40.15,47.45],[40.5,47.6],[41.5,48],[42.1,48.36],[42.3,48.48],[42.5,48.6],[43,49.5],[42.5,50.5],[42.25,50.85],[42.125,51.025],[42,51.2],[41.7857143,51.1571429],[41.5714286,51.1142857],[41.3571429,51.0714286],[41.1428571,51.0285714],[40.9285714,50.9857143],[40.7142857,50.9428571],[40.5,50.9],[40.2857143,50.8571429],[40.0714286,50.8142857],[39.8571429,50.7714286],[39.6428571,50.7285714],[39.4285714,50.6857143],[39.2142857,50.6428571],[39,50.6],[38.7857143,50.5571429],[38.5714286,50.5142857],[38.3571429,50.4714286],[38.1428571,50.4285714],[37.9285714,50.3857143],[37.7142857,50.3428571],[37.5537584,50.3107517],[37.5570884,50.3093791],[37.5731886,50.3027427],[37.5731886,50.3027427],[37.600576,50.2914539],[37.5731886,50.3027427],[37.5731886,50.3027427],[37.5570884,50.3093791],[37.5537584,50.3107517],[37.5,50.3],[37.0714286,50.1857143],[36.8571429,50.1285714],[36.6428571,50.0714286],[36.4285714,50.0142857],[36.2142857,49.9571429],[36,49.9],[35.7857143,49.8428571],[35.5714286,49.7857143],[35.3571429,49.7285714],[35.1428571,49.6714286],[34.9285714,49.6142857],[34.7142857,49.5571429],[34.5,49.5],[34.0714286,49.4428571],[33.8571429,49.4142857],[33.6428571,49.3857143],[33.4285714,49.3571429],[33.2142857,49.3285714],[33,49.3],[32.5714286,49.2714286],[32.3571429,49.2571429],[32.1428571,49.2428571],[31.9285714,49.2285714],[31.7142857,49.2142857],[31.5,49.2],[31.1,49],[30.9,48.9],[30.7,48.8],[30.5,48.7],[30.2857143,48.6285714],[30.0714286,48.5571429],[29.8571429,48.4857143],[29.6428571,48.4142857],[29.4285714,48.3428571],[29.2142857,48.2714286],[29,48.2],[28.7857143,48.1714286],[28.5714286,48.1428571],[28.3571429,48.1142857],[28.1428571,48.0857143],[27.9285714,48.0571429],[27.7142857,48.0285714],[27.5,48],[27.02,48.08],[26.78,48.12],[26.54,48.16],[26.3,48.2],[26.2,48.0333333],[26,47.7]]]}}
