{"type":"Feature","properties":{"family":"steppe","name":"Pechenegs, 965 – 971"},"geometry":{"type":"Polygon","coordinates":[[[24.8,47.7],[25.5,47.2],[25.625,47.025],[25.75,46.85],[26,46.5],[26,45.8],[25.825,45.725],[25.65,45.65],[25.3,45.5],[25.7,45.56],[25.9,45.59],[26.1,45.62],[26.3,45.65],[26.5,45.6375],[26.7,45.625],[26.9,45.6125],[27.1,45.6],[27.3333333,45.5333333],[27.5666667,45.4666667],[27.8,45.4],[28,45.35],[28.2,45.3],[28.4,45.2833333],[28.6,45.2666667],[28.8,45.25],[29.25,45.225],[29.475,45.2125],[29.6334359,45.203698],[29.6228962,45.2105249],[29.6588966,45.2155906],[29.667529,45.2182224],[29.667529,45.2182224],[29.667529,45.2182224],[29.6675477,45.2182282],[29.6675477,45.2182282],[29.6675567,45.2182309],[29.6675693,45.2182347],[29.6675706,45.2182351],[29.6675724,45.2182357],[29.6983811,45.1982741],[29.7460565,45.2128076],[29.7524664,45.2152942],[29.7580898,45.2185929],[29.7580898,45.2185929],[29.7627214,45.2225832],[29.7661922,45.2271197],[29.7683751,45.2320368],[29.7936302,45.3164581],[29.7944531,45.3220942],[29.7935814,45.3277251],[29.7681784,45.4098374],[29.7886104,45.4325787],[29.7918362,45.4370344],[29.7938353,45.4418298],[29.7945387,45.4468005],[29.7945292,45.4468775],[29.8278077,45.4363033],[29.8933564,45.4021089],[29.9584463,45.3598219],[30.0096957,45.3189533],[30.0481444,45.2716625],[30.0722465,45.2198921],[30.0810542,45.1657634],[30.0758189,45.1239981],[30.0973429,45.1601375],[30.1123588,45.2145558],[30.1389899,45.4238753],[30.1384053,45.4761255],[30.1366881,45.4819989],[30.1702928,45.5080362],[30.17969,45.5189612],[30.2122594,45.5385152],[30.2359074,45.5598768],[30.2990088,45.5753106],[30.3622169,45.6009223],[30.4174612,45.6343787],[30.7740366,45.8935291],[30.8290092,45.9438184],[31.0243699,46.1728961],[31.0496433,46.2100051],[31.093222,46.2448613],[31.1297348,46.2881915],[31.1334772,46.2954655],[31.1524505,46.2588097],[31.2286014,46.1476092],[31.264448,46.105473],[31.3106375,46.0685056],[31.3656449,46.0379123],[31.4276671,46.014689],[31.4946811,45.9995908],[31.8530316,45.9424387],[31.9281812,45.9355797],[31.9871056,45.9382197],[32.0189744,45.9167814],[32.0811044,45.8886082],[32.1497655,45.8691483],[32.3899261,45.8187213],[32.4671504,45.8082053],[32.4798013,45.8082951],[32.4858521,45.8062996],[32.5570838,45.7935178],[32.5615593,45.7930232],[32.5515203,45.7837592],[32.5268455,45.7782877],[32.4432722,45.7517267],[32.3711202,45.7121239],[32.2091351,45.5985936],[32.1637168,45.5600891],[32.129265,45.51638],[32.1069404,45.4689739],[32.0974792,45.4195018],[32.1011714,45.369661],[32.1178561,45.3211571],[32.1506405,45.2537249],[32.1785355,45.2096046],[32.2171114,45.1696916],[32.2651195,45.1352562],[32.321019,45.1073925],[32.3830271,45.0869841],[32.4619132,45.066811],[32.5288296,45.0543598],[32.5978241,45.0506069],[32.6666608,45.0556741],[32.7331088,45.0693976],[32.7848044,45.0837441],[33.0143904,44.9492594],[33.0796869,44.9182809],[33.1525252,44.8974129],[33.1952412,44.8919612],[33.1693422,44.83953],[33.1651811,44.8275136],[33.1859758,44.8671794],[33.222501,44.9101446],[33.2696603,44.9475722],[33.325827,44.9781575],[33.3890509,45.0008327],[33.4571266,45.0148051],[33.5276732,45.0195863],[33.5398523,45.0195853],[33.5801055,44.9294128],[33.5716719,44.8817654],[33.4844318,44.8014493],[33.4807064,44.7972705],[33.478118,44.7926796],[33.4767534,44.7878311],[33.4766582,44.7828878],[33.477835,44.7780158],[33.4910254,44.7430169],[33.4910784,44.7429154],[33.4910543,44.7429793],[33.4898264,44.7483855],[33.4901624,44.7538586],[33.4920486,44.7591727],[33.4954077,44.7641081],[33.5001012,44.7684611],[33.5059354,44.7720518],[33.5126693,44.7747317],[33.5179516,44.7759227],[33.5179526,44.7759201],[33.5179572,44.7759079],[33.5203141,44.7696433],[33.5213092,44.7669985],[33.5229878,44.7625371],[33.5277046,44.75],[33.5378345,44.7230756],[33.5378525,44.7230278],[33.5378345,44.7230756],[33.5277046,44.75],[33.9,44.75],[33.9,44.3847608],[33.8754323,44.3868388],[33.8178337,44.3917106],[33.8754323,44.3868388],[33.9,44.3847608],[33.9000798,44.3847541],[33.9,44.3847608],[33.8754323,44.3868388],[33.719839,44.3999992],[33.8754323,44.3868388],[33.9,44.3847608],[33.9372881,44.3816069],[33.9370457,44.3797739],[33.9350748,44.374912],[33.9318689,44.3703973],[33.9275411,44.3663885],[33.922244,44.3630268],[33.9161642,44.3604306],[33.9095156,44.3586912],[33.9025322,44.3578697],[33.8954597,44.3579952],[33.7153346,44.373229],[33.7153324,44.3732154],[33.9348332,44.3546492],[33.9439107,44.354659],[33.9527237,44.3562197],[34.1146648,44.4001026],[34.1217589,44.4026563],[34.12795,44.4062139],[34.2779275,44.512467],[34.2771201,44.3847401],[34.2693498,44.3314217],[34.2470164,44.2802317],[34.2110342,44.233186],[34.1628461,44.1921331],[34.1043632,44.1586831],[34.0378882,44.1341457],[33.9660264,44.1194808],[33.8915863,44.1152617],[33.817473,44.1216541],[33.7900693,44.1259971],[33.7901138,44.1259234],[33.7901339,44.1258901],[33.7901547,44.1258556],[33.7920911,44.1226492],[33.7921384,44.1225708],[33.7923492,44.1222218],[33.8944495,44.1135839],[33.9757379,44.1129601],[34.0553445,44.1248614],[34.1295856,44.1487379],[34.5209552,44.3118464],[34.578142,44.340872],[34.6268973,44.3769492],[34.6655337,44.4188425],[34.7290667,44.5038107],[34.9283305,44.5466401],[34.9930661,44.5309245],[35.0652727,44.5238791],[35.138039,44.5267961],[35.2087005,44.5395688],[35.2746661,44.5617295],[35.3335102,44.5924658],[35.383059,44.6306496],[35.4339372,44.6782626],[35.4384552,44.6785549],[35.5069829,44.6924868],[35.5706869,44.7152534],[35.6273387,44.7460611],[35.6491079,44.7633419],[35.708761,44.7414262],[35.7860567,44.7264245],[35.8660466,44.7232329],[36.0129482,44.728273],[36.0950616,44.7374813],[36.1310431,44.7475512],[36.1745483,44.7405138],[36.2431366,44.7383954],[36.3111519,44.7450486],[36.3763999,44.7602591],[36.6023933,44.8291823],[36.6300998,44.8399656],[36.6495719,44.8367747],[36.720326,44.8347108],[36.7641757,44.836312],[36.9672696,44.7676034],[37.0053357,44.6737763],[37.0305579,44.6277697],[37.0670874,44.5857951],[37.113686,44.5492484],[37.2216317,44.4785794],[37.2782708,44.4478795],[37.3419063,44.4252662],[37.4103054,44.4115301],[37.7255252,44.3700187],[37.7488461,44.3537294],[37.8099154,44.3250906],[37.8254294,44.3205688],[37.9014503,44.2382514],[37.9486499,44.1966663],[38.0063113,44.1625655],[38.0721652,44.1372811],[38.1436334,44.1217991],[38.4479154,44.0784295],[38.7371226,43.9401106],[38.7368378,43.9403245],[38.7111608,43.9596036],[38.6658716,44.0001095],[38.6321682,44.0460999],[38.6113223,44.0958772],[38.6041377,44.1476],[38.6109167,44.1993501],[38.631443,44.2492033],[38.6544478,44.2808193],[38.6544478,44.2808193],[38.6544503,44.2808227],[38.6544543,44.2808282],[38.7353514,44.2519627],[38.8273261,44.167312],[38.831778,44.1638713],[38.8369926,44.161036],[38.8428119,44.1588919],[38.9567024,44.1254729],[38.9566915,44.1254828],[38.9506019,44.1310426],[38.9465166,44.1356563],[38.943811,44.140766],[38.9425963,44.146162],[38.942923,44.1516227],[38.9447779,44.1569239],[38.9456287,44.1581905],[38.9793898,44.1484098],[38.9801311,44.1477327],[39.15,44.2],[39.3666667,44.2666667],[39.5833333,44.3333333],[39.8,44.4],[40.0428571,44.4285714],[40.2857143,44.4571429],[40.5285714,44.4857143],[40.7714286,44.5142857],[41.0142857,44.5428571],[41.2571429,44.5714286],[41.5,44.6],[41.7222222,44.5888889],[41.9444444,44.5777778],[42.1666667,44.5666667],[42.3888889,44.5555556],[42.6111111,44.5444444],[42.8333333,44.5333333],[43.0555556,44.5222222],[43.2777778,44.5111111],[43.5,44.5],[43.7142857,44.4285714],[43.9285714,44.3571429],[44.1428571,44.2857143],[44.3571429,44.2142857],[44.5714286,44.1428571],[44.7857143,44.0714286],[45,44],[45.3,43.65],[45.45,43.475],[45.6,43.3],[46.5,43.6],[47.3740979,43.6],[47.3827924,43.5739001],[47.388585,43.5751788],[47.3951351,43.5777526],[47.3986174,43.5798711],[47.404308,43.5807881],[47.4107979,43.5828301],[47.4166309,43.5857263],[47.4170585,43.5860402],[47.4170604,43.5860346],[47.4258424,43.5596435],[47.4415287,43.6060421],[47.4415304,43.6060474],[47.4415304,43.6060474],[47.4415315,43.6060505],[47.4413324,43.605324],[47.4406246,43.6000657],[47.4413524,43.5948051],[47.4434874,43.5897451],[47.4469469,43.5850809],[47.4515973,43.5809924],[47.4572589,43.577637],[47.4637136,43.5751442],[47.4705575,43.5736439],[47.4759462,43.5931567],[47.4778361,43.6],[47.5405155,43.6],[47.5367203,43.5897214],[47.5358588,43.5873881],[47.5352188,43.5856549],[47.5305867,43.5731094],[47.5305811,43.5730941],[47.5406361,43.5730942],[47.5475425,43.5735603],[47.5542046,43.5749461],[47.560391,43.5772035],[47.5658864,43.580254],[47.5704997,43.5839915],[47.5740704,43.5882861],[47.5764739,43.5929885],[47.5764995,43.5930576],[47.5764981,43.5930512],[47.5764884,43.5930079],[47.5271132,43.4595031],[47.5294656,43.3472052],[47.547693,43.3565616],[47.5542592,43.3592497],[47.5614373,43.3609171],[47.568931,43.3614949],[47.5764306,43.3609593],[47.5836264,43.3593324],[47.5902212,43.3566813],[47.5959429,43.3531156],[47.6005552,43.3487826],[47.603868,43.343861],[47.6081441,43.3354278],[47.6105658,43.3355914],[47.67694,43.3494001],[47.7386241,43.3718934],[47.7934919,43.4022975],[47.8396438,43.4395659],[47.8754717,43.4824136],[47.8997151,43.5293608],[47.9073,43.5495876],[47.945752,43.652129],[48.0133937,43.725307],[48.0153187,43.7278983],[48.0909186,43.7681539],[48.1465345,43.8044882],[48.190944,43.8481224],[48.2223338,43.8973003],[48.2394044,43.9500382],[48.241426,44.0042034],[48.228275,44.0575992],[48.2004448,44.1080542],[48.159033,44.1535104],[48.1057015,44.1921089],[48.0426129,44.2222671],[47.9723425,44.2427459],[47.8977721,44.252702],[47.6952417,44.2646062],[47.6239369,44.263864],[47.6239186,44.2638613],[47.5898038,44.3198799],[47.5511369,44.3686777],[47.4991122,44.4107184],[47.4359747,44.4441645],[47.3644699,44.4675507],[47.3578457,44.4686145],[47.3299465,44.5028948],[47.2921628,44.5411786],[47.2733606,44.5545375],[47.3212744,44.5772557],[47.3747091,44.6154963],[47.4163736,44.6605479],[47.4445768,44.7106128],[47.4581545,44.7636886],[47.4589963,44.7712223],[47.4756289,44.783361],[47.5297935,44.8334982],[47.5659973,44.8912127],[47.6011866,44.9715148],[47.6243735,44.9833886],[47.6736063,45.0203732],[47.7121472,45.0632295],[47.7386077,45.1104416],[47.7520189,45.1603356],[47.7593078,45.215549],[47.7842911,45.2454443],[47.8213816,45.2284854],[47.89241,45.2086519],[47.9675597,45.1990621],[48.0438797,45.200091],[48.1183761,45.2116971],[48.1881239,45.2334239],[48.2503778,45.2644173],[48.3026767,45.3034581],[48.3429386,45.3490083],[48.3695441,45.3992697],[48.3814029,45.4522532],[48.3808775,45.4605345],[48.4099472,45.4679081],[48.4750805,45.4956057],[48.5311533,45.5317308],[48.5759633,45.5748764],[48.607735,45.6233587],[48.6251907,45.6752815],[48.626559,45.7055275],[48.6461817,45.7304569],[48.6463101,45.7306201],[48.6687004,45.7788464],[48.6776957,45.8291587],[48.6729401,45.8797718],[48.6664667,45.9064783],[48.5554856,45.9670075],[48.4654847,45.9399903],[48.3934839,45.8673814],[48.3646836,45.8758243],[48.400684,45.8352985],[48.3294135,45.8363768],[48.3294028,45.836377],[48.2907596,45.8369617],[48.2890829,45.836987],[48.2907596,45.8369617],[48.2647059,45.9411765],[48.25,46],[48.2058824,46.1764706],[48.1470588,46.4117647],[48.0882353,46.6470588],[48.0294118,46.8823529],[47.9705882,47.1176471],[47.9117647,47.3529412],[47.8529412,47.5882353],[47.7941176,47.8235294],[47.7352941,48.0588235],[47.6764706,48.2941176],[47.6176471,48.5294118],[47.5588235,48.7647059],[47.5,49],[47.4545455,49.2272727],[47.4090909,49.4545455],[47.3636364,49.6818182],[47.3181818,49.9090909],[47.2727273,50.1363636],[47.2272727,50.3636364],[47.1818182,50.5909091],[47.1363636,50.8181818],[47.0909091,51.0454545],[47.0454545,51.2727273],[47,51.5],[46.5384615,51.5769231],[46.3076923,51.6153846],[45.8461538,51.6923077],[45.8461538,51.6923077],[45.6153846,51.7307692],[45.3846154,51.7692308],[45.1538462,51.8076923],[45.1538462,51.8076923],[44.6923077,51.8846154],[44.4615385,51.9230769],[44,52],[43.7666667,52.04],[43.5333333,52.08],[43.3,52.12],[43.0666667,52.16],[42.8333333,52.2],[42.6,52.24],[42.3666667,52.28],[42.1333333,52.32],[41.9,52.36],[41.6666667,52.4],[41.4333333,52.44],[41.2,52.48],[40.9666667,52.52],[40.7333333,52.56],[40.5,52.6],[38.5,52.6],[37.9,52.27],[37.7,52.16],[37.5,52.05],[36.5,51.5],[36.3111111,51.3666667],[36.1222222,51.2333333],[35.9333333,51.1],[35.7444444,50.9666667],[35.5555556,50.8333333],[35.440528,50.7521374],[35.4369544,50.7625669],[35.4161647,50.7753655],[35.4161647,50.7753655],[35.4369544,50.7625669],[35.440528,50.7521374],[35.440528,50.7521374],[35.440528,50.7521374],[35.4516762,50.7196013],[35.4516762,50.7196013],[35.4516762,50.7196013],[35.4693547,50.6680066],[35.4516762,50.7196013],[35.4516762,50.7196013],[35.4516762,50.7196013],[35.440528,50.7521374],[35.3666667,50.7],[35.1777778,50.5666667],[34.8,50.3],[34.5833333,50.2166667],[34.3666667,50.1333333],[34.15,50.05],[33.9333333,49.9666667],[33.7166667,49.8833333],[33.5,49.8],[33.0714286,49.7428571],[32.8571429,49.7142857],[32.6428571,49.6857143],[32.4285714,49.6571429],[32.2142857,49.6285714],[32,49.6],[31.7857143,49.5428571],[31.5714286,49.4857143],[31.3571429,49.4285714],[31.1428571,49.3714286],[30.9285714,49.3142857],[30.7142857,49.2571429],[30.5,49.2],[30.2857143,49.1142857],[30.0714286,49.0285714],[29.8571429,48.9428571],[29.6428571,48.8571429],[29.4285714,48.7714286],[29.2142857,48.6857143],[29,48.6],[28.7857143,48.5285714],[28.5714286,48.4571429],[28.3571429,48.3857143],[28.1428571,48.3142857],[27.9285714,48.2428571],[27.7142857,48.1714286],[27.5,48.1],[27.2857143,48.1285714],[27.0714286,48.1571429],[26.8571429,48.1857143],[26.6428571,48.2142857],[26.4285714,48.2428571],[26.2142857,48.2714286],[26,48.3],[25.8,48.2],[25.6,48.1],[25.2,47.9],[25,47.8],[24.8,47.7]],[[47.4705575,43.5736439],[47.4759462,43.5931567],[47.4778361,43.6],[47.4778361,43.6],[47.4759462,43.5931567],[47.4705575,43.5736439]],[[35.3269729,45.8827521],[35.330887,45.8840522],[35.3877996,45.9072597],[35.4382899,45.9368236],[35.4809005,45.9718975],[35.77224,46.2558095],[36.0425202,46.3901624],[36.047509,46.3904563],[36.0591042,46.383828],[36.1252953,46.3589163],[36.1971387,46.3431915],[36.2719961,46.3372302],[36.3471235,46.3412509],[36.4197674,46.3551063],[36.4872616,46.3782884],[36.5471206,46.4099465],[36.5513409,46.4132383],[36.6177734,46.3884542],[36.6934382,46.3726347],[36.772146,46.3675857],[36.8507257,46.3735106],[36.9260112,46.3901706],[36.9949634,46.4168943],[37.0547884,46.4526031],[37.1030475,46.4958536],[37.137756,46.5448937],[37.1413621,46.5516423],[37.1414512,46.5518841],[37.1416152,46.5521163],[37.1733984,46.6117075],[37.2141471,46.6265516],[37.2413056,46.6200392],[37.3178088,46.6126579],[37.3469724,46.6137969],[37.3495706,46.6025372],[37.3752879,46.5539517],[37.553012,46.2961513],[37.5917351,46.2513988],[37.6421177,46.2126111],[37.6555573,46.2040773],[37.6315985,46.1864553],[37.5914803,46.1421977],[37.564488,46.0934034],[37.4964508,45.9216751],[37.4846618,45.9193444],[37.4176299,45.8955407],[37.358539,45.8631376],[37.3096259,45.8233706],[37.2773178,45.7911959],[37.240132,45.7450343],[37.2166354,45.6946864],[37.2076991,45.6421008],[37.2069006,45.6139845],[37.0064971,45.6846995],[36.9356039,45.703747],[36.8607159,45.7126827],[36.7847701,45.7111557],[36.7107472,45.6992261],[36.6683003,45.6858215],[36.6402225,45.6899006],[36.4963387,45.7004514],[36.4511906,45.7200735],[36.3760132,45.7391432],[36.2967926,45.7469426],[36.2169709,45.7431325],[36.0505972,45.7227701],[35.9995046,45.7125128],[35.9614458,45.7249408],[35.8891046,45.7374869],[35.8146441,45.7400526],[35.7408753,45.7325412],[35.6705816,45.7152363],[35.6064099,45.6887907],[35.5507673,45.6542012],[35.5396529,45.6439841],[35.342838,45.8575545],[35.3269729,45.8827521]]]}}
