{"type":"Feature","properties":{"family":"celts","name":"Kingdom of the Picts, 789 – 842"},"geometry":{"type":"Polygon","coordinates":[[[-8.0506951,56.9280151],[-8.0318744,56.875806],[-7.9947393,56.8266244],[-7.9407915,56.7823685],[-7.8721605,56.7447398],[-7.7915161,56.7151805],[-7.7019654,56.6948208],[-7.6069363,56.6844374],[-7.5100528,56.6844263],[-7.4150053,56.6947882],[-7.289349,56.7155732],[-7.260512,56.7285558],[-7.1748297,56.7535153],[-7.0817951,56.7687007],[-7.0765115,56.7692563],[-7.0623214,56.7744076],[-6.9934884,56.8117631],[-6.9392044,56.8557477],[-6.9092433,56.8947449],[-6.8639758,56.8506374],[-6.8608404,56.8485993],[-6.7621882,56.8908097],[-6.6810271,56.918851],[-6.5913644,56.9377276],[-6.502588,56.9461506],[-6.4508564,56.962339],[-6.3763573,56.9219563],[-6.3693416,56.9187891],[-6.3613815,56.9163778],[-6.3527468,56.9148039],[-6.34373,56.9141208],[-6.3346364,56.9143516],[-6.325774,56.9154885],[-6.261013,56.9273003],[-6.251443,56.9296863],[-6.2430132,56.9331227],[-6.236105,56.9374542],[-6.2310315,56.9424849],[-6.228023,56.9479872],[-6.2027283,57.0222748],[-6.2024974,57.0239051],[-6.1824722,57.0288063],[-6.1813331,57.0290052],[-6.1440302,57.0473022],[-6.0762741,57.069107],[-6.0769666,57.0677959],[-6.0778692,57.0630844],[-6.0772425,57.0583597],[-6.0751062,57.0537676],[-6.0534685,57.0200042],[-6.0495168,57.015325],[-6.0440049,57.0111397],[-6.037134,57.0076007],[-6.0291544,57.0048368],[-6.0203566,57.0029485],[-6.0110606,57.0020046],[-6.0016046,57.0020393],[-5.9923325,57.0030514],[-5.9203774,57.0148631],[-5.9118104,57.0167565],[-5.9040373,57.0194829],[-5.8973284,57.0229475],[-5.840145,57.0585082],[-5.839237,57.0538056],[-5.8362831,57.0486829],[-5.8315239,57.0439798],[-5.8251483,57.0398823],[-5.8201036,57.0377118],[-5.8295697,57.0362283],[-5.8379444,57.0344539],[-5.8455921,57.0318854],[-5.8522611,57.0286075],[-5.8577322,57.024728],[-5.8618259,57.0203746],[-5.926535,56.9325447],[-5.9292828,56.9273491],[-5.9300764,56.9219589],[-5.9296948,56.9202398],[-5.9384458,56.9188747],[-5.9471107,56.9164359],[-5.954729,56.9131156],[-5.9610041,56.9090432],[-5.9656919,56.9043774],[-5.9686106,56.8992999],[-5.9696472,56.8940084],[-5.9687622,56.8887089],[-5.9659907,56.8836074],[-5.9614415,56.8789023],[-5.9552917,56.8747765],[-5.9477811,56.8713904],[-5.9392015,56.8688754],[-5.9298863,56.8673293],[-5.9201974,56.866812],[-5.8311504,56.8668459],[-5.8313212,56.8665869],[-5.8320322,56.8639299],[-5.7649033,56.8801826],[-5.7540002,56.8820272],[-5.7527921,56.8821481],[-5.7366574,56.893791],[-5.7527921,56.8821481],[-5.7834578,56.8600195],[-5.7449547,56.8555045],[-5.7412663,56.855072],[-5.7449547,56.8555045],[-5.6333333,56.8666667],[-5.4666667,56.8833333],[-5.3,56.9],[-5.125,56.85],[-4.95,56.8],[-4.75,56.6],[-4.7,56.4],[-4.75,56.22],[-4.55,56.25],[-4.3,56.15],[-4,56.1],[-3.7751965,56.0730236],[-3.8358384,56.106914],[-3.6702367,56.0511909],[-3.6674685,56.0509912],[-3.6427883,56.0371944],[-3.3279535,56.0018776],[-3.3279535,56.0018776],[-3.3279535,56.0018776],[-3.3279534,56.0018776],[-3.3279533,56.0018776],[-3.3275166,56.0019287],[-3.1621862,56.0322711],[-3.1540562,56.0196368],[-3.1621862,56.0322711],[-3.1620142,56.0323027],[-3.1527606,56.034619],[-3.144576,56.037964],[-3.1378212,56.0421904],[-3.1327943,56.0471119],[-3.0864199,56.1060739],[-2.9486085,56.1764423],[-2.791155,56.1646113],[-2.7817893,56.1644106],[-2.7725296,56.1652174],[-2.7637219,56.1670016],[-2.7556954,56.1696965],[-2.5469476,56.2557646],[-2.5398926,56.2593031],[-2.5342126,56.2635372],[-2.5301255,56.2683051],[-2.5277885,56.2734239],[-2.5272918,56.2786979],[-2.5286552,56.2839247],[-2.5318272,56.2889041],[-2.5366868,56.2934452],[-2.5430481,56.2973736],[-2.5506675,56.3005387],[-2.6320746,56.3277632],[-2.632074,56.3277631],[-2.6320595,56.327763],[-2.6250567,56.3277011],[-2.5376954,56.322429],[-2.4535214,56.3084705],[-2.375331,56.28629],[-2.30571,56.2566245],[-2.2516433,56.223353],[-2.1146182,56.1962619],[-2.09592,56.2362475],[-2.0903514,56.2889662],[-2.1034015,56.3412803],[-2.1346442,56.3911792],[-2.1550628,56.4104549],[-2.0957051,56.4523147],[-2.0473515,56.5112921],[-1.9841969,56.6215636],[-1.8099415,56.7375442],[-1.7505851,56.7870134],[-1.7122254,56.8423768],[-1.696793,56.9009872],[-1.6962038,56.9107117],[-1.6180418,56.9859366],[-1.5751203,57.0401842],[-1.5548357,57.0982149],[-1.5577602,57.1485922],[-1.5327517,57.1917843],[-1.3657976,57.3057226],[-1.3148304,57.3478575],[-1.2791515,57.3943585],[-1.2600523,57.4436207],[-1.2582621,57.4939375],[-1.2739145,57.5435584],[-1.3441694,57.6839793],[-1.3733428,57.727016],[-1.4158024,57.7667879],[-1.4703543,57.8021373],[-1.6359184,57.8921043],[-1.7180357,57.9280417],[-1.8125901,57.9540378],[-1.9153724,57.9689288],[-2.0217824,57.9720467],[-3.0191123,57.9413527],[-3.1926424,57.9699768],[-2.7814658,58.1717539],[-2.7089833,58.2154288],[-2.6557364,58.2662357],[-2.5790687,58.3622005],[-2.5508952,58.4086925],[-2.5391104,58.4570819],[-2.5441662,58.5057914],[-2.5520545,58.5229707],[-2.5492479,58.5260958],[-2.5149135,58.576955],[-2.5145007,58.5784968],[-2.4778718,58.6077239],[-2.439396,58.6582736],[-2.412585,58.7073328],[-2.3749109,58.7233054],[-2.3035613,58.7599739],[-2.2469833,58.8030468],[-2.2073181,58.8509379],[-2.1948254,58.8809544],[-2.1263588,58.9129027],[-2.0652828,58.9550874],[-2.02112,59.0025715],[-1.9956082,59.0535642],[-1.9897976,59.1061341],[-1.9911568,59.1111319],[-1.9762266,59.1192581],[-1.9237296,59.1610855],[-1.8869892,59.2071319],[-1.8673086,59.2558457],[-1.866224,59.2845416],[-1.8167922,59.2734867],[-1.7185925,59.2621214],[-1.6179779,59.2604135],[-1.5644021,59.26209],[-1.4551651,59.2713851],[-1.3520134,59.2920359],[-1.2594026,59.3231528],[-1.181362,59.363393],[-1.1213256,59.4110144],[-1.0819813,59.4639481],[-1.0671754,59.4925957],[-1.050728,59.5445334],[-1.0544604,59.5971008],[-1.0597785,59.608524],[-1.0127112,59.6190935],[-0.9292174,59.6484445],[-0.8580955,59.6852247],[-0.801929,59.7281204],[-0.7627907,59.7755943],[-0.7421629,59.8259385],[-0.736635,59.8515456],[-0.7134851,59.8707849],[-0.6772444,59.9215884],[-0.6740782,59.9325637],[-0.6520597,59.9446204],[-0.5970289,59.9901536],[-0.560803,60.0401912],[-0.5448667,60.0928022],[-0.5363167,60.1755061],[-0.5370982,60.1839183],[-0.5169998,60.1966323],[-0.45902,60.2420249],[-0.4101486,60.2902136],[-0.3814747,60.3422484],[-0.3742345,60.3960625],[-0.3765792,60.4046646],[-0.3543506,60.4142097],[-0.2879367,60.4567426],[-0.2397509,60.5048972],[-0.2117646,60.5567867],[-0.2051767,60.610369],[-0.220353,60.6635255],[-0.256795,60.714144],[-0.2663314,60.7219499],[-0.2492308,60.7461036],[-0.224336,60.7962673],[-0.2194277,60.8478223],[-0.2347805,60.8988835],[-0.269925,60.9475753],[-0.3236504,60.9921005],[-0.3940382,61.0308088],[-0.4785248,61.0622599],[-0.5291434,61.077566],[-0.6312401,61.1017372],[-0.7414743,61.1153108],[-0.8551636,61.117709],[-0.9132193,61.1131307],[-0.9522187,61.1125154],[-1.0585437,61.1005051],[-1.157884,61.0786491],[-1.2463701,61.0478024],[-1.3205834,61.0091688],[-1.377692,60.9642513],[-1.3905014,60.947538],[-1.4548442,60.9275317],[-1.531984,60.8916696],[-1.5414775,60.8851251],[-1.5451402,60.8844501],[-1.6364487,60.8567606],[-1.6424989,60.8540033],[-1.7047056,60.8397196],[-1.7957989,60.8060663],[-1.8550795,60.7727027],[-1.8648873,60.7697004],[-1.9452633,60.7322123],[-2.0084773,60.6875877],[-2.0905429,60.6146858],[-2.1314023,60.5684997],[-2.1539931,60.5193863],[-2.1576072,60.4690658],[-2.1457204,60.4306652],[-2.1593306,60.4207478],[-2.258429,60.4060718],[-2.3502829,60.3822709],[-2.4081142,60.3635699],[-2.4949469,60.3286015],[-2.5653324,60.2855551],[-2.616327,60.2362729],[-2.6458475,60.1828557],[-2.6527468,60.1275697],[-2.636846,60.0727493],[-2.5989228,60.0206979],[-2.5406615,59.9735922],[-2.4645677,59.9333935],[-2.4178377,59.9132542],[-2.3320491,59.8829567],[-2.236294,59.8615256],[-2.1341534,59.8497588],[-2.0294297,59.8480937],[-1.9260141,59.856592],[-1.9047961,59.8605612],[-1.882145,59.8159028],[-1.85771,59.7907008],[-1.9351219,59.7625091],[-2.0036181,59.7319325],[-2.0731069,59.694255],[-2.1270038,59.6505852],[-2.163387,59.6025316],[-2.1782201,59.5598612],[-2.2286531,59.5720933],[-2.3272243,59.5850504],[-2.4289,59.5881967],[-2.5298777,59.5814144],[-2.5654539,59.5753574],[-2.5714187,59.5753633],[-2.6296671,59.569676],[-2.7057516,59.596395],[-2.7982618,59.617031],[-2.8968888,59.6283898],[-2.9980094,59.6300535],[-3.0979017,59.6219606],[-3.1928924,59.604409],[-3.3051166,59.5771986],[-3.3978186,59.5483701],[-3.4768521,59.5105495],[-3.538914,59.4653417],[-3.5814524,59.4146579],[-3.6027661,59.3606321],[-3.6027036,59.3557324],[-3.6350293,59.345901],[-3.7088184,59.3125238],[-3.7690348,59.2727082],[-3.8136054,59.2278582],[-3.8410277,59.1795498],[-3.88262,59.0679347],[-3.891917,59.0175356],[-3.8909256,59.0120857],[-3.9180085,58.9849104],[-3.9459789,58.9348057],[-3.9546955,58.8828613],[-3.9502171,58.8613384],[-4.0231878,58.8656466],[-4.1264858,58.8610051],[-4.2258966,58.8458155],[-4.3174153,58.820691],[-4.3193496,58.8200234],[-4.3320561,58.8232416],[-4.4262669,58.8414592],[-4.5255457,58.8499008],[-4.550195,58.8495022],[-4.6153117,58.864374],[-4.7182178,58.8758537],[-4.7726167,58.8761146],[-4.8382852,58.8863627],[-4.9420159,58.8967065],[-5.0476658,58.8959665],[-5.150811,58.8841736],[-5.2471394,58.8618214],[-5.3326426,58.8298442],[-5.4037901,58.789575],[-5.4576791,58.7426879],[-5.4921514,58.6911242],[-5.4961428,58.6823641],[-5.5209901,58.6681056],[-5.5724768,58.6237255],[-5.6065955,58.5750297],[-5.6221509,58.5238299],[-5.621469,58.5137578],[-5.6298052,58.4999065],[-5.6680147,58.4874985],[-5.6756908,58.5055388],[-5.7171489,58.5543474],[-5.8171697,58.6458812],[-5.8724969,58.6868978],[-5.941592,58.7218542],[-6.0220704,58.749525],[-6.1111272,58.7689377],[-6.2056373,58.7794087],[-6.3022717,58.7805689],[-6.3976212,58.7723775],[-6.488325,58.7551235],[-6.5711971,58.7294149],[-7.0224733,58.5561064],[-7.0783262,58.5310094],[-7.1184489,58.5101607],[-7.1288366,58.5096736],[-7.2268144,58.4944773],[-7.3170258,58.4694319],[-7.3958866,58.4355383],[-7.4602908,58.3941476],[-7.4953803,58.35922],[-7.5317967,58.3370353],[-7.5826648,58.2887643],[-7.6136681,58.2360581],[-7.6235918,58.1811356],[-7.6224026,58.0984009],[-7.6122699,58.0468832],[-7.6101002,58.0431161],[-7.6131701,58.0373303],[-7.620679,57.9837017],[-7.6079821,57.9303502],[-7.6049105,57.9255125],[-7.6063184,57.9226213],[-7.7030318,57.9030317],[-7.7909357,57.8729508],[-7.8652223,57.8338887],[-7.9227394,57.7875291],[-7.990513,57.7180579],[-8.0268319,57.6698397],[-8.045111,57.6187921],[-8.0447459,57.5668177],[-8.025829,57.5158457],[-7.9891349,57.4677598],[-7.9360812,57.4243303],[-7.925355,57.4184221],[-7.9267342,57.4146963],[-7.9270255,57.362509],[-7.916921,57.3342675],[-7.9402257,57.2966655],[-7.9522979,57.2423603],[-7.9438734,57.1878573],[-7.923964,57.1512061],[-7.9929017,57.08242],[-8.0309022,57.0333763],[-8.0503943,56.9812287],[-8.0506951,56.9280151]]]}}
