{"type":"Feature","properties":{"family":"celts","name":"Kingdom of the Picts, 855 – 878"},"geometry":{"type":"Polygon","coordinates":[[[-6.2862129,56.7191809],[-6.2851092,56.7141502],[-6.2823112,56.7093216],[-6.2779183,56.7048651],[-6.2720858,56.7009379],[-6.2023247,56.6620043],[-6.2023246,56.6620043],[-6.1854977,56.6713339],[-6.1778179,56.6748005],[-6.1690237,56.6773459],[-6.1627107,56.6783506],[-6.1614616,56.6776531],[-6.1287386,56.6772383],[-6.1287386,56.6772383],[-6.046038,56.6667943],[-6.0374557,56.6652375],[-6.0295391,56.662842],[-6.0225566,56.6596893],[-6.0167452,56.6558863],[-6.0123015,56.6515621],[-6.0045159,56.6420004],[-6.0066601,56.642193],[-6.0027552,56.6398382],[-5.9387594,56.561244],[-5.9387594,56.561244],[-5.9387594,56.561244],[-5.9387594,56.5612439],[-5.9129381,56.5456811],[-5.9280701,56.5481163],[-5.9129381,56.5456811],[-5.9129381,56.5456811],[-5.9129381,56.5456811],[-5.9129381,56.5456811],[-5.912938,56.5456811],[-5.7140116,56.5136682],[-5.7140116,56.5136682],[-5.7140116,56.5136682],[-5.7140116,56.5136682],[-5.7140116,56.5136682],[-5.6754568,56.4969753],[-5.6698709,56.5002079],[-5.6359654,56.4807602],[-5.364872,56.6385266],[-5.4518511,56.5606294],[-5.4542866,56.5599178],[-5.4620082,56.5563842],[-5.4682585,56.5520568],[-5.4727751,56.5471177],[-5.5159108,56.4846246],[-5.518476,56.4793424],[-5.5190592,56.4738832],[-5.5176372,56.4684713],[-5.5142694,56.4633289],[-5.5090947,56.4586671],[-5.5023261,56.4546775],[-5.4993736,56.4535257],[-5.5051336,56.4478811],[-5.5040405,56.4479572],[-5.4946243,56.4475999],[-5.4855089,56.446247],[-5.4770359,56.4439494],[-5.4695223,56.4407929],[-5.4632494,56.4368958],[-5.4617445,56.4354868],[-5.5219696,56.3765339],[-5.5316192,56.3670882],[-5.5343665,56.3643989],[-5.5359568,56.3628422],[-5.535957,56.3628419],[-5.5386554,56.3602006],[-5.535957,56.3628419],[-5.5359568,56.3628422],[-5.5343665,56.3643989],[-5.5359568,56.3628422],[-5.535957,56.3628419],[-5.5366463,56.3626188],[-5.5464266,56.3608402],[-5.556663,56.3602391],[-5.5854429,56.3602391],[-5.5947008,56.3607296],[-5.5971846,56.3611349],[-5.6001372,56.3596165],[-5.6055027,56.3555983],[-5.6094373,56.3511008],[-5.6097747,56.350414],[-5.6005058,56.3520862],[-5.5915668,56.3531945],[-5.582411,56.3533548],[-5.5733632,56.3525615],[-5.5647443,56.3508427],[-5.5568598,56.3482594],[-5.5499891,56.3449031],[-5.5488001,56.3440537],[-5.5638556,56.3416262],[-5.5926559,56.2504431],[-5.5629837,56.2534254],[-5.562487,56.2521736],[-5.5621666,56.247321],[-5.5634168,56.2425152],[-5.5886859,56.1834247],[-5.5918475,56.1783397],[-5.5967584,56.173705],[-5.6032227,56.1697048],[-5.6109832,56.1664979],[-5.6197314,56.1642118],[-5.6291198,56.1629371],[-5.6340867,56.1628279],[-5.636733,56.1609345],[-5.6439839,56.1574529],[-5.6496716,56.1556656],[-5.6535628,56.1482048],[-5.6553061,56.1429644],[-5.6551924,56.138635],[-5.6472937,56.125905],[-5.6438711,56.1231648],[-5.6369732,56.1194746],[-5.6289097,56.1166118],[-5.6199949,56.1146881],[-5.6149302,56.1141989],[-5.6173862,56.1126439],[-5.6219988,56.1082994],[-5.7514637,55.954593],[-5.7545869,55.9496841],[-5.7559658,55.9445306],[-5.7555497,55.9393249],[-5.7533548,55.9342612],[-5.7494636,55.9295283],[-5.7440219,55.9253026],[-5.7427107,55.924615],[-5.7447841,55.9196373],[-5.7450942,55.9143493],[-5.7435571,55.9091292],[-5.7402325,55.9041776],[-5.7150081,55.8754808],[-5.7098901,55.8708843],[-5.7057853,55.8684591],[-5.7157023,55.8599288],[-5.7198835,55.8554696],[-5.7225138,55.8506518],[-5.7235018,55.8456436],[-5.7228138,55.8406197],[-5.7083577,55.7933452],[-5.7056504,55.787937],[-5.7010105,55.7829613],[-5.6946397,55.7786337],[-5.6426407,55.7499591],[-5.7210226,55.6907585],[-5.7260356,55.6860201],[-5.7292332,55.680806],[-5.7304823,55.6753342],[-5.7297313,55.6698337],[-5.7212363,55.643375],[-5.7669468,55.5743271],[-5.7693477,55.5692079],[-5.7699334,55.5639223],[-5.7631456,55.4562291],[-5.764508,55.4550888],[-5.7645084,55.4550886],[-6.0160854,55.3567529],[-6.1005591,55.330283],[-6.1601366,55.319752],[-6.160137,55.3197521],[-6.2157475,55.3356947],[-6.160137,55.3197521],[-6.1601366,55.319752],[-6.1509178,55.3171091],[-6.1434574,55.3144454],[-6.1369931,55.3110417],[-6.131748,55.3070158],[-6.127903,55.3025066],[-6.1255906,55.2976702],[-6.1248901,55.2926734],[-6.125825,55.2876889],[-6.1283624,55.2828888],[-6.1499904,55.2525021],[-6.1545013,55.247647],[-6.1553928,55.2470324],[-6.1151211,55.2437372],[-6.1053831,55.2423237],[-6.0963896,55.2397687],[-6.0885471,55.2361878],[-6.002146,55.1871959],[-5.9964757,55.1833041],[-5.99218,55.1788755],[-5.9894098,55.1740664],[-5.9882623,55.1690462],[-5.9887772,55.1639917],[-6.0084769,55.0904317],[-5.9563683,55.0782001],[-5.9476202,55.0754943],[-5.9400604,55.0717972],[-5.9340256,55.0672735],[-5.9297844,55.0621251],[-5.9297844,55.0621251],[-5.9278428,55.0573608],[-5.9278428,55.0573608],[-5.927842,55.057359],[-5.927842,55.057359],[-5.9278418,55.0573583],[-5.9278417,55.0573582],[-5.907789,55.0529963],[-5.8166323,55.0441624],[-5.652148,55.0374519],[-5.6379877,55.0377223],[-5.6379871,55.0377223],[-5.6373907,55.0476562],[-5.6135856,55.1023817],[-5.5703241,55.1530658],[-5.5094437,55.197474],[-5.4578893,55.2220656],[-5.4472093,55.2427685],[-5.4046522,55.289223],[-5.3470182,55.3300898],[-5.3087998,55.352311],[-5.2998359,55.3805972],[-5.2732855,55.4306493],[-5.2732855,55.4306494],[-5.1271407,55.4135127],[-5.1177001,55.4129472],[-5.1082496,55.4134576],[-5.0991655,55.4150235],[-5.0908097,55.4175825],[-5.0512215,55.432771],[-5.0441841,55.436068],[-5.0383851,55.4400668],[-5.0340383,55.4446202],[-5.031304,55.4495607],[-5.0310181,55.4510028],[-5.0302837,55.4547064],[-5.0310156,55.4598678],[-5.0400712,55.4886601],[-5.0362078,55.4905258],[-5.0302366,55.4948824],[-5.0259528,55.4998357],[-5.0235359,55.5051788],[-5.0230876,55.5106887],[-5.0246275,55.5161349],[-5.028092,55.5212898],[-5.0333369,55.5259377],[-5.0401433,55.5298843],[-5.0482269,55.5329642],[-5.0629437,55.5374059],[-5.0506638,55.5579249],[-5.0486393,55.5626963],[-5.048176,55.567596],[-5.0492898,55.5724621],[-5.0519444,55.5771335],[-5.0560524,55.5814557],[-5.0614783,55.5852854],[-5.0925335,55.6035076],[-5.0985342,55.6561217],[-5.1003949,55.6620306],[-5.1045261,55.667561],[-5.1548894,55.7182356],[-5.1599288,55.7223506],[-5.1662307,55.7258709],[-5.1735788,55.7286755],[-5.1817207,55.7306678],[-5.2825812,55.7492544],[-5.2924952,55.7504413],[-5.3026313,55.7504276],[-5.310345,55.7494823],[-5.2851799,55.7636086],[-5.2790878,55.7677913],[-5.2745993,55.7725732],[-5.2718952,55.7777624],[-5.2710849,55.7831506],[-5.2722017,55.7885213],[-5.2752014,55.7936588],[-5.2987183,55.8234307],[-5.2169946,55.8063891],[-5.2080929,55.8050586],[-5.1989031,55.8047076],[-5.1897628,55.8053489],[-5.181008,55.8069589],[-5.1806765,55.8070627],[-5.1586536,55.7747519],[-5.1554667,55.7709766],[-5.1512821,55.7675234],[-5.0648604,55.7067611],[-5.058323,55.7029813],[-5.0506058,55.6999906],[-5.0420039,55.6979034],[-5.0328462,55.6967994],[-5.0328461,55.6967994],[-5.0234822,55.6967207],[-5.0142698,55.6976705],[-5.0055609,55.6996123],[-4.9976883,55.702472],[-4.990953,55.7061404],[-4.9856128,55.7104772],[-4.9818724,55.7153166],[-4.9798753,55.7204737],[-4.9796988,55.725751],[-4.9829157,55.7485832],[-4.9725169,55.803499],[-4.9723857,55.8084115],[-4.9738421,55.8132558],[-4.9768382,55.8178712],[-4.99972,55.8450902],[-4.9939161,55.8440848],[-4.984666,55.843535],[-4.984666,55.843535],[-4.9754004,55.8439955],[-4.9664657,55.845449],[-4.9581962,55.8478414],[-4.9509013,55.8510829],[-4.9448544,55.8550525],[-4.9402821,55.8596014],[-4.9283582,55.8746803],[-4.92836,55.8746918],[-4.9350099,55.9171213],[-4.9349141,55.9224066],[-4.9329807,55.92758],[-4.9292834,55.9324428],[-4.9239635,55.9368083],[-4.9172249,55.9405086],[-4.866676,55.9632552],[-4.8740636,55.9650058],[-4.8817988,55.9679318],[-4.8883823,55.9716371],[-4.8935673,55.9759829],[-4.897159,55.9808063],[-4.899022,55.9859266],[-4.8999753,55.9910341],[-4.8999737,55.991034],[-4.8942489,55.9904022],[-4.9066407,56.0775868],[-4.9066411,56.0775892],[-4.9056796,56.0804845],[-4.9023634,56.0864716],[-4.8655086,56.1328922],[-4.8655081,56.1328914],[-4.8510485,56.1119797],[-4.7927744,56.1686707],[-4.75,56.22],[-4.55,56.25],[-4.3,56.15],[-4,56.1],[-3.7751965,56.0730236],[-3.8358384,56.106914],[-3.6702367,56.0511909],[-3.6674685,56.0509912],[-3.6427883,56.0371944],[-3.3279535,56.0018776],[-3.3279507,56.0018779],[-3.327516,56.0019288],[-3.3275159,56.0019288],[-3.1621862,56.0322711],[-3.1621862,56.0322711],[-3.1621862,56.0322711],[-3.1621862,56.0322711],[-3.1621862,56.0322711],[-3.1621862,56.0322711],[-3.1540562,56.0196368],[-3.1621862,56.0322711],[-3.1621862,56.0322711],[-3.1621862,56.0322711],[-3.1621862,56.0322711],[-3.1621862,56.0322711],[-3.1621862,56.0322711],[-3.1620128,56.0323029],[-3.1620128,56.032303],[-3.1527556,56.0346202],[-3.1445677,56.0379664],[-3.1378104,56.042194],[-3.132782,56.0471168],[-3.0864088,56.1060777],[-2.9486083,56.1764408],[-2.7911656,56.1646106],[-2.7817959,56.1644099],[-2.772532,56.1652171],[-2.7637202,56.1670021],[-2.75569,56.1696982],[-2.5469416,56.2557668],[-2.5398855,56.2593057],[-2.5342045,56.2635401],[-2.5301165,56.2683079],[-2.5277785,56.2734266],[-2.5272809,56.2787002],[-2.5286433,56.2839267],[-2.5318145,56.2889056],[-2.5366734,56.2934463],[-2.5430343,56.2973744],[-2.5506535,56.3005393],[-2.6320595,56.327763],[-2.6250567,56.3277011],[-2.5376954,56.322429],[-2.4535214,56.3084705],[-2.375331,56.28629],[-2.30571,56.2566245],[-2.2516433,56.223353],[-2.1146182,56.1962619],[-2.1146124,56.1962607],[-2.1145443,56.1962473],[-2.114544,56.1962481],[-2.0958166,56.2362834],[-2.0902415,56.2889995],[-2.1032861,56.3413094],[-2.1345238,56.3912031],[-2.1549711,56.4105051],[-2.095622,56.4523615],[-2.0472622,56.5113493],[-1.9841207,56.6216099],[-1.8098881,56.7375826],[-1.7505229,56.787063],[-1.7121596,56.8424354],[-1.6967286,56.9010517],[-1.6961406,56.9107686],[-1.6179941,56.985985],[-1.5750712,57.0402389],[-1.5547867,57.0982728],[-1.5577126,57.1486552],[-1.5327201,57.1918254],[-1.3657904,57.3057546],[-1.3148148,57.3478998],[-1.2791307,57.3944101],[-1.2600294,57.4436798],[-1.2582402,57.4940018],[-1.2738963,57.5436253],[-1.344162,57.6840443],[-1.3733334,57.7270731],[-1.4157871,57.7668359],[-1.4703294,57.8021762],[-1.6358959,57.892138],[-1.7180064,57.9280696],[-1.8125537,57.9540593],[-1.9153292,57.968944],[-2.0217335,57.9720563],[-3.0190531,57.9413554],[-3.1926249,57.9699845],[-2.7814964,58.1717646],[-2.7090262,58.2154401],[-2.6557868,58.2662456],[-2.5791236,58.3622141],[-2.5509499,58.4087129],[-2.5391663,58.4571086],[-2.5442246,58.5058231],[-2.5521101,58.5229951],[-2.5493176,58.526105],[-2.514984,58.5769688],[-2.5145933,58.5784258],[-2.5146356,58.5783921],[-2.5146908,58.578348],[-2.5349458,58.5621779],[-2.6081702,58.5234971],[-2.6946135,58.4932104],[-2.7908012,58.4725246],[-2.8928943,58.4622625],[-2.9968345,58.4628314],[-3.00342,58.4635684],[-3.003073,58.4650737],[-3.0036423,58.4699433],[-3.0058795,58.4746796],[-3.009712,58.4791276],[-3.0150151,58.4831417],[-3.0696793,58.5173693],[-2.9715627,58.6284884],[-2.9682485,58.6334478],[-2.9668417,58.6386473],[-2.9673964,58.6438902],[-2.9698923,58.6489776],[-2.9742358,58.653717],[-2.9802629,58.6579285],[-2.9877454,58.6614524],[-2.9964,58.6641551],[-3.0058984,58.6659339],[-3.01588,58.6667213],[-3.3100468,58.674503],[-3.3315618,58.6916687],[-3.3380991,58.6958853],[-3.3461268,58.699338],[-3.3553212,58.7018875],[-3.3653113,58.7034309],[-3.3756941,58.7039059],[-3.3860502,58.7032932],[-3.3959615,58.7016176],[-3.4050279,58.6989468],[-3.4128838,58.6953885],[-3.4524814,58.6734256],[-3.458562,58.6693218],[-3.4630209,58.6646892],[-3.4656944,58.6596987],[-3.4664845,58.6545345],[-3.4653629,58.649387],[-3.4623718,58.6444459],[-3.4576221,58.6398933],[-3.4566982,58.6393103],[-3.587099,58.6543096],[-3.5973101,58.6549351],[-3.6075576,58.6544994],[-3.6174378,58.6530197],[-3.7301296,58.6294658],[-3.7325712,58.63104],[-3.8665005,58.7352794],[-3.91411,58.7811986],[-3.9438968,58.8310018],[-3.9502037,58.8613291],[-3.9502039,58.8613303],[-3.9502039,58.8613304],[-4.0232006,58.8656482],[-4.126472,58.8610072],[-4.2258578,58.8458206],[-4.3173551,58.8207014],[-4.3193559,58.8200109],[-4.332135,58.8232473],[-4.4263271,58.8414605],[-4.5255833,58.8498999],[-4.5502568,58.8495007],[-4.6153787,58.8643737],[-4.7182635,58.8758515],[-4.7726848,58.8761125],[-4.8383671,58.8863621],[-4.9420747,58.8967033],[-5.0476983,58.8959631],[-5.1508163,58.8841728],[-5.247119,58.8618257],[-5.3326,58.8298555],[-5.4037305,58.7895946],[-5.4576089,58.742716],[-5.4920778,58.6911604],[-5.4960723,58.6823948],[-5.5209357,58.6681276],[-5.5724196,58.6237501],[-5.6065367,58.5750553],[-5.6220915,58.5238552],[-5.6214104,58.5137942],[-5.6297579,58.4999251],[-5.668055,58.4874793],[-5.668055,58.4874793],[-5.6535871,58.4534472],[-5.6515177,58.4000611],[-5.6599458,58.375489],[-5.65481,58.3547917],[-5.6579932,58.3315317],[-5.6527589,58.3236967],[-5.6385037,58.2726684],[-5.6429869,58.2211462],[-5.6543756,58.1789761],[-5.6760651,58.1307666],[-5.7140098,58.0854534],[-5.7668829,58.0445511],[-5.8328761,58.0094223],[-5.8759608,57.990313],[-5.8833797,57.9737415],[-5.9210637,57.92851],[-5.9575178,57.8936838],[-5.90712,57.8640057],[-5.8772407,57.8425626],[-5.8600624,57.8414776],[-5.860439,57.8410097],[-5.8624668,57.8363007],[-5.8628841,57.8314746],[-5.8555593,57.7419831],[-5.8539275,57.7362598],[-5.8500467,57.730854],[-5.8440964,57.7260142],[-5.836351,57.7219632],[-5.8271671,57.7188872],[-5.8210985,57.7173104],[-5.8276918,57.7142063],[-5.8338251,57.7098623],[-5.8338252,57.7098623],[-5.8382006,57.704949],[-5.8406407,57.6996665],[-5.854968,57.6456265],[-5.8553703,57.6401775],[-5.8537172,57.6347964],[-5.850077,57.6297031],[-5.8445993,57.6251054],[-5.8106957,57.6021263],[-5.8180117,57.6042366],[-5.8273327,57.6057799],[-5.8370344,57.6063306],[-5.8467521,57.6058682],[-5.8561203,57.6044098],[-5.8647866,57.6020105],[-5.8724253,57.5987604],[-5.8787497,57.5947818],[-5.8835223,57.5902241],[-5.8865646,57.5852586],[-5.9224549,57.4991275],[-5.9236565,57.4936533],[-5.9227624,57.4881621],[-5.9083098,57.4476419],[-5.9054533,57.4424793],[-5.9007488,57.4377247],[-5.8943843,57.4335675],[-5.8866137,57.4301733],[-5.8777467,57.427677],[-5.861624,57.4241897],[-5.8586593,57.3541688],[-5.8573772,57.3486833],[-5.8540498,57.3434538],[-5.8488176,57.3386999],[-5.8419009,57.3346211],[-5.8335902,57.3313884],[-5.8242343,57.3291373],[-5.8142254,57.3279622],[-5.8039833,57.3279124],[-5.7467718,57.3307975],[-5.7701912,57.3129738],[-5.7750101,57.308423],[-5.7781042,57.3034597],[-5.7781042,57.3034597],[-5.7715817,57.3040425],[-5.760319,57.3036606],[-5.7255796,57.3003058],[-5.7294573,57.297361],[-5.6059864,57.2808143],[-5.6059864,57.2808143],[-5.6059864,57.2808143],[-5.6059855,57.2808142],[-5.6017844,57.2770813],[-5.5984978,57.2723387],[-5.5969092,57.2673475],[-5.597074,57.2622837],[-5.5989857,57.2573258],[-5.5999282,57.2556718],[-5.5999318,57.2556699],[-5.6430564,57.233195],[-5.6250563,57.2163093],[-5.6773055,57.1626997],[-5.6773055,57.1626997],[-5.6773056,57.1626996],[-5.730031,57.1493916],[-5.730031,57.1493916],[-5.7292945,57.1478298],[-5.7276321,57.1460117],[-5.7318073,57.1454614],[-5.7412341,57.1429958],[-5.7422624,57.1425626],[-5.7530415,57.1173515],[-5.7555272,57.113138],[-5.7592471,57.1092016],[-5.7641009,57.1056481],[-5.8401378,57.0584459],[-5.8401378,57.0584459],[-5.8392414,57.0538067],[-5.8362868,57.0486843],[-5.8315269,57.0439814],[-5.8251507,57.0398839],[-5.8201022,57.0377121],[-5.8295765,57.0362273],[-5.8379514,57.0344529],[-5.8455991,57.0318846],[-5.8522679,57.028607],[-5.8577388,57.0247278],[-5.8618321,57.0203748],[-5.9265416,56.9325453],[-5.929289,56.9273504],[-5.9300825,56.921961],[-5.9297001,56.9202389],[-5.9384531,56.9188736],[-5.9471185,56.9164349],[-5.954737,56.9131147],[-5.961012,56.9090425],[-5.9656996,56.9043769],[-5.9686177,56.8992997],[-5.9696535,56.8940085],[-5.9687675,56.8887091],[-5.9659949,56.8836078],[-5.9614444,56.878903],[-5.9552933,56.8747774],[-5.9477812,56.8713913],[-5.9392003,56.8688764],[-5.9298838,56.8673303],[-5.9201936,56.8668129],[-5.8311572,56.8668464],[-5.8313285,56.8665865],[-5.8321702,56.8634399],[-5.8710298,56.8544822],[-5.8797443,56.851878],[-5.8873272,56.8483719],[-5.8934711,56.8441063],[-5.8979273,56.8392541],[-5.9005159,56.834012],[-5.9011328,56.8285926],[-5.8997537,56.8232154],[-5.8964354,56.8180982],[-5.8913129,56.8134481],[-5.8872156,56.811012],[-5.8879046,56.8110116],[-5.8979769,56.8104365],[-5.9076211,56.8087459],[-5.9164293,56.8060114],[-5.9240293,56.8023485],[-5.9295474,56.7983162],[-5.9594888,56.8064917],[-5.9675593,56.808227],[-5.9760609,56.8091605],[-5.98473,56.8092634],[-5.9932977,56.8085324],[-6.1914291,56.7814959],[-6.2006382,56.7796815],[-6.2090094,56.7769047],[-6.2162117,56.7732755],[-6.2738048,56.7377984],[-6.279268,56.7337122],[-6.2832405,56.7291375],[-6.2855829,56.7242361],[-6.2862129,56.7191809]],[[-5.7690577,56.5375012],[-5.7140148,56.5136696],[-5.7140116,56.5136682],[-5.7140116,56.5136682],[-5.7140148,56.5136696],[-5.7690577,56.5375012]],[[-5.4067996,55.9596103],[-5.4025963,55.9876554],[-5.388887,55.9842828],[-5.3858649,55.9837232],[-5.3878485,55.9358091],[-5.4067996,55.9596103]],[[-5.3934631,55.7027097],[-5.3928396,55.703061],[-5.3928396,55.703061],[-5.3554052,55.7241495],[-5.391877,55.6949755],[-5.3932943,55.6938417],[-5.3929744,55.7003268],[-5.391877,55.6949756],[-5.391877,55.6949755],[-5.391877,55.6949756],[-5.3929744,55.7003268],[-5.3934631,55.7027096],[-5.3934631,55.7027097]]]}}
