{"type":"Feature","properties":{"family":"other","name":"Polabian Slavs and Pomeranians, 1047 – 1066"},"geometry":{"type":"Polygon","coordinates":[[[10.2,54.3],[10.25,54.1],[10.35,53.9],[10.5,53.7],[10.6,53.5],[10.6,53.37],[10.9,53.2],[11.05,53.15],[11.2,53.1],[11.55,53],[11.85,52.85],[12,52.65],[11.95,52.4],[11.8,52.2],[11.7,52.05],[11.9,52.025],[12.1,52],[12.5,51.95],[13.5,51.95],[13.94,51.97],[14.16,51.98],[14.38,51.99],[14.6,52],[14.7,52.1],[14.6666667,52.2666667],[14.6333333,52.4333333],[14.6,52.6],[15.5,53],[15.9,53.08],[16.1,53.12],[16.3,53.16],[16.5,53.2],[17.5,53.2],[18.5,53.3],[19.3,53.95],[19,54.3],[18.9664981,54.3502529],[18.9212558,54.3558938],[18.8791752,54.3611405],[18.8783067,54.3612488],[18.866502,54.3627207],[18.866502,54.3627207],[18.866502,54.3627207],[18.7183872,54.381188],[18.866502,54.3627207],[18.866502,54.3627207],[18.866502,54.3627207],[18.8783067,54.3612488],[18.8791752,54.3611405],[18.9212558,54.3558938],[18.9664981,54.3502529],[19,54.3460758],[19.00279,54.3457279],[19.0182717,54.3470545],[19.0182793,54.3470552],[19.0182837,54.3470556],[19.0096497,54.3600267],[19.0055247,54.3647678],[18.9998822,54.3689451],[18.9929411,54.3723962],[18.9849712,54.3749868],[18.9762825,54.3766161],[18.9761869,54.376628],[18.9761909,54.3766278],[18.9763696,54.3766055],[18.9763773,54.3766045],[19.0042707,54.3731277],[19.3616145,54.4037517],[19.4200739,54.4235826],[19.4201332,54.4236027],[19.3832766,54.4683781],[19.3402189,54.5100233],[19.2848961,54.5464839],[19.2767277,54.550222],[19.2786588,54.5543496],[19.284519,54.608828],[19.2814379,54.6544291],[19.2701123,54.7038431],[19.2431934,54.7512015],[19.2015537,54.7948769],[19.1465838,54.8333635],[19.0801498,54.8653301],[18.5783045,55.0622872],[18.5017719,55.0863814],[18.4187079,55.1019194],[18.3320155,55.1083566],[18.2447322,55.1054672],[17.2592044,55.0154132],[17.1700978,55.0015968],[17.0874954,54.9780113],[16.7583086,54.8586116],[16.4640127,54.8196363],[16.3753867,54.8022034],[16.2946534,54.7748983],[16.2250794,54.7388318],[15.98049,54.582795],[15.924994,54.5389796],[15.9109857,54.5251718],[15.9025371,54.5218458],[15.8254907,54.5185202],[15.6979,54.5022114],[14.4002505,54.2108251],[14.2228323,54.3163384],[14.2274743,54.3522759],[14.2170482,54.4037761],[14.1898426,54.4531592],[14.1468106,54.49859],[14.0895074,54.5383745],[13.9158739,54.6372299],[13.8525787,54.66727],[13.7810949,54.6904039],[13.7036515,54.7059064],[13.3596623,54.7550608],[13.280902,54.7617393],[13.2031982,54.7774194],[13.1895597,54.7793682],[13.0952158,54.7870405],[13.0001391,54.7834572],[12.9083503,54.7687701],[12.8619182,54.7549602],[12.8618787,54.7549375],[12.8423893,54.743748],[12.7680152,54.7148807],[12.6855537,54.6946913],[12.6683058,54.6925674],[12.5979936,54.6839092],[12.5495788,54.6833843],[12.5329728,54.6694561],[12.528478,54.6656861],[12.4325242,54.5995364],[12.4335076,54.5785116],[12.4267588,54.5248246],[12.4138025,54.4978884],[12.4138025,54.4978884],[12.4018218,54.4729803],[12.3597508,54.4250317],[12.3022626,54.3828704],[12.2316614,54.3481544],[12.1507456,54.3222452],[12.0626979,54.3061565],[11.9709647,54.300517],[11.8791283,54.3055468],[11.7907747,54.3210495],[11.7093617,54.3464194],[11.6615389,54.3694085],[11.5440347,54.3592255],[11.4391447,54.3570464],[11.336068,54.3686034],[11.2657191,54.3866994],[11.2657191,54.3866994],[11.2657164,54.3867001],[11.2657143,54.3867006],[11.2657143,54.3867006],[11.2656952,54.3867056],[11.3123896,54.3863005],[11.3218642,54.3867814],[11.3309708,54.3883778],[11.3393261,54.3910227],[11.3465786,54.3946049],[11.3524227,54.3989735],[11.3566119,54.4039446],[11.3589692,54.4093091],[11.3593946,54.4148408],[11.3578694,54.4203068],[11.3544571,54.4254765],[11.2969052,54.4913508],[11.2910093,54.4965155],[11.2832382,54.5007626],[11.1500044,54.5582043],[11.1426248,54.5607992],[11.134545,54.562559],[11.1260435,54.5634229],[11.1174133,54.5633611],[11.1089521,54.5623758],[11.1009513,54.5605009],[11.0109124,54.5334677],[11.0028886,54.5304052],[10.9961226,54.526451],[10.990903,54.521774],[10.9874524,54.5165742],[10.9722143,54.4838235],[10.9206198,54.5012617],[10.8543963,54.4825287],[10.7618683,54.4688929],[10.6862206,54.4669677],[10.6665235,54.4664664],[10.6862206,54.4669677],[10.6952022,54.4275833],[10.6889784,54.3739352],[10.6838495,54.3561782],[10.6838478,54.3561722],[10.3420028,54.4672503],[10.3336966,54.469341],[10.3248498,54.4704551],[10.3157993,54.47055],[10.3068899,54.4696221],[10.298461,54.4677069],[10.2494472,54.4531963],[10.2494307,54.4531233],[10.2472771,54.4435752],[10.2438505,54.4283829],[10.2472771,54.4435752],[10.2479707,54.4434785],[10.2563396,54.4412153],[10.263771,54.4380294],[10.2699695,54.4340474],[10.2738241,54.4302744],[10.2393329,54.4201632],[10.2331023,54.4183367],[10.2327761,54.417994],[10.2,54.3]],[[13.0627306,54.468994],[13.0914376,54.5155089],[13.077881,54.5174456],[13.082736,54.5329717],[13.0861448,54.5438733],[13.102331,54.5956373],[13.1527315,54.6057688],[13.1491315,54.577063],[13.1419314,54.5973259],[13.1070461,54.5408],[13.1070461,54.5408],[13.0914376,54.5155089],[13.0627306,54.468994]],[[13.1419314,54.5432914],[13.2427324,54.5568001],[13.296733,54.5196514],[13.3687337,54.5855059],[13.3471335,54.5230285],[13.3831338,54.5314714],[13.3759338,54.565243],[13.4280194,54.4952089],[13.4280205,54.4952074],[13.4602534,54.4906026],[13.5055351,54.4875684],[13.5199352,54.5703087],[13.4407344,54.5568001],[13.3687337,54.6125231],[13.2535325,54.565243],[13.2931329,54.6429175],[13.2319323,54.653049],[13.3903339,54.6885091],[13.4443344,54.6800662],[13.3831338,54.6361632],[13.4263343,54.5855059],[13.6711367,54.5669315],[13.6783368,54.5399143],[13.5764574,54.4740026],[13.5764574,54.4740026],[13.5739357,54.4723712],[13.5911432,54.4441224],[13.6099361,54.413271],[13.5911432,54.4441224],[13.4333333,54.4666667],[13.2492192,54.4929687],[13.1419314,54.5432914]]]}}
