{"type":"Feature","properties":{"family":"other","name":"Duchy of Poland, 965 – 971"},"geometry":{"type":"Polygon","coordinates":[[[14.2841255,53.8042493],[14.3015229,53.7960916],[14.3085011,53.7933923],[14.3161933,53.7914868],[14.3243432,53.7904384],[14.3326796,53.7902823],[14.340925,53.7910235],[14.3488047,53.7926373],[14.3560564,53.7950701],[14.4424345,53.8305114],[14.4494803,53.8340736],[14.4551623,53.8384017],[14.4567837,53.8403536],[14.5343616,53.8315051],[14.5403686,53.8081123],[14.5425948,53.8029493],[14.5464957,53.798145],[14.5519188,53.7938867],[14.552759,53.7934442],[14.5502921,53.7927023],[14.5435114,53.7895988],[14.5378345,53.7858007],[14.5334618,53.7814422],[14.5305473,53.7766773],[14.5018118,53.7108128],[14.5004145,53.7052787],[14.5006926,53.7025198],[14.3521781,53.7594624],[14.3584264,53.7565604],[14.3638275,53.7529595],[14.3680565,53.7488456],[14.3709785,53.7443502],[14.3725006,53.7396172],[14.3760565,53.7181479],[14.369045,53.7208387],[14.3376794,53.7328757],[14.3271827,53.7369039],[14.3333333,53.7],[14.3666667,53.5],[14.4,53.3],[14.4666667,53.0666667],[14.5333333,52.8333333],[14.6,52.6],[14.6333333,52.4333333],[14.6666667,52.2666667],[14.7,52.1],[14.85,51.9],[15,51.7],[16,51.55],[17,51.35],[17.4,51.29],[17.6,51.26],[17.8,51.23],[18,51.2],[18.2,51.16],[18.4,51.12],[18.6,51.08],[19,51],[20,50.9],[20.6,50.93],[20.8,50.94],[21,50.95],[22,51.15],[22.4,51.21],[22.6,51.24],[22.8,51.27],[23,51.3],[23.2,51.4],[23.4,51.5],[23.6,51.6],[23.4666667,51.8],[23.3333333,52],[23.2,52.2],[23.0666667,52.3666667],[22.9333333,52.5333333],[22.8,52.7],[22.7,52.8833333],[22.6,53.0666667],[22.5,53.25],[21.5,53.35],[21.3,53.37],[21.1,53.39],[20.9,53.41],[20.7,53.43],[20.5,53.45],[20.2666667,53.5166667],[20.0333333,53.5833333],[19.8,53.65],[19.6333333,53.75],[19.4666667,53.85],[19.3,53.95],[19,54.3],[18.9664981,54.3502529],[18.9212558,54.3558938],[18.8791752,54.3611405],[18.8783067,54.3612488],[18.866502,54.3627207],[18.866502,54.3627207],[18.866502,54.3627207],[18.7183872,54.381188],[18.866502,54.3627207],[18.866502,54.3627207],[18.866502,54.3627207],[18.8783067,54.3612488],[18.8791752,54.3611405],[18.9212558,54.3558938],[18.9664981,54.3502529],[19,54.3460758],[19.00279,54.3457279],[19.0182717,54.3470545],[19.0182793,54.3470552],[19.0096436,54.3600287],[19.0055168,54.364772],[18.9998724,54.3689512],[18.9929296,54.3724037],[18.9849581,54.3749953],[18.9762681,54.376625],[18.9763773,54.3766045],[19.0042707,54.3731277],[19.3616145,54.4037517],[19.4200739,54.4235826],[19.4201332,54.4236027],[19.4201334,54.4236028],[19.3831791,54.4684431],[19.3400978,54.5101012],[19.2847544,54.5465712],[19.2767371,54.5502399],[19.2786203,54.5542669],[19.2844775,54.6087599],[19.2813946,54.6543641],[19.270058,54.7038149],[19.2431171,54.751209],[19.2014462,54.7949166],[19.1464388,54.8334294],[19.0799638,54.8654146],[18.5780814,55.0623568],[18.5015402,55.0864492],[18.4184777,55.101984],[18.3317966,55.1084172],[18.2445332,55.1055236],[17.2590408,55.0154335],[17.1699627,55.00162],[17.0873931,54.9780394],[16.7581829,54.8586151],[16.463845,54.8196233],[16.375257,54.8021956],[16.2945641,54.7749009],[16.2250292,54.7388494],[15.9804644,54.5828168],[15.9249878,54.5390155],[15.9109467,54.5251744],[15.9023938,54.5218069],[15.8253204,54.5184774],[15.698832,54.5024018],[14.3996205,54.2110331],[14.4354671,54.1896997],[14.4813313,54.18302],[14.5601469,54.161612],[14.6305581,54.1318468],[14.6900329,54.0948034],[14.7364519,54.0518212],[14.7367913,54.0513146],[14.3977089,53.9498399],[14.3354332,53.955245],[14.3440404,53.9539767],[14.3521142,53.9517317],[14.3592898,53.948604],[14.3652934,53.944713],[14.3698963,53.9402071],[14.3729235,53.9352584],[14.37426,53.9300553],[14.3738555,53.9247964],[14.3737956,53.9246527],[14.3669942,53.9252435],[14.3285801,53.9285801],[14.3,53.9],[14.3124304,53.8254175],[14.3299433,53.8172032],[14.3577608,53.8286199],[14.357847,53.8280995],[14.3578452,53.8228454],[14.3561195,53.8176893],[14.3527358,53.8128268],[14.3478233,53.8084425],[14.3415685,53.8047025],[14.3342091,53.8017489],[14.326024,53.7996934],[14.3173238,53.7986141],[14.3084381,53.7985519],[14.2997037,53.799509],[14.2914517,53.8014493],[14.2841255,53.8042493]]]}}
