{"type":"Feature","properties":{"family":"other","name":"Duchy of Poland, 1047 – 1066"},"geometry":{"type":"Polygon","coordinates":[[[14.6,52.6],[14.6333333,52.4333333],[14.6666667,52.2666667],[14.7,52.1],[14.85,51.9],[15,51.7],[15,51.2],[15.05,50.95],[15.43,50.81],[15.62,50.74],[15.81,50.67],[16,50.6],[16.2,50.5],[16.4,50.4],[16.6,50.3],[16.8,50.2],[17,50.175],[17.2,50.15],[17.4,50.125],[17.6,50.1],[17.8333333,50.0333333],[18.0666667,49.9666667],[18.3,49.9],[18.3666667,49.7],[18.4333333,49.5],[18.476087,49.3717391],[18.5,49.3],[18.7,49.32],[18.9,49.34],[19.1,49.36],[19.3,49.38],[19.5,49.4],[21,49.4],[21.2142857,49.3428571],[21.4285714,49.2857143],[21.6428571,49.2285714],[21.8571429,49.1714286],[22.0714286,49.1142857],[22.2857143,49.0571429],[22.5,49],[22.5333333,49.1666667],[22.5666667,49.3333333],[22.6,49.5],[22.6666667,49.6666667],[22.7333333,49.8333333],[22.8,50],[22.9333333,50.1666667],[23.0666667,50.3333333],[23.2,50.5],[23.3333333,50.6666667],[23.4666667,50.8333333],[23.6,51],[23.6,51.6],[23.4666667,51.8],[23.3333333,52],[23.2,52.2],[23.0666667,52.3666667],[22.9333333,52.5333333],[22.8,52.7],[22.7,52.8833333],[22.6,53.0666667],[22.5,53.25],[21.5,53.35],[21.3,53.37],[21.1,53.39],[20.9,53.41],[20.7,53.43],[20.5,53.45],[20.2666667,53.5166667],[20.0333333,53.5833333],[19.8,53.65],[19.6333333,53.75],[19.4666667,53.85],[19.3,53.95],[18.5,53.3],[17.5,53.2],[16.5,53.2],[16.3,53.16],[16.1,53.12],[15.9,53.08],[15.5,53],[14.6,52.6]]]}}
