{"type":"Feature","properties":{"family":"other","name":"Duchy of Poland, 985 – 1035"},"geometry":{"type":"Polygon","coordinates":[[[14.2841902,53.8042258],[14.3015346,53.7960929],[14.3085124,53.7933936],[14.3162037,53.7914879],[14.3243523,53.7904392],[14.3326871,53.7902826],[14.3409306,53.7910231],[14.3488083,53.7926362],[14.356058,53.7950682],[14.4424363,53.8305097],[14.4494806,53.8340714],[14.455161,53.8383992],[14.4567852,53.8403553],[14.5343691,53.831506],[14.5403745,53.8081189],[14.5426006,53.8029556],[14.5465013,53.7981508],[14.5519239,53.7938917],[14.5527656,53.7934483],[14.5502896,53.7927036],[14.5435117,53.7896014],[14.5378373,53.7858047],[14.5334664,53.7814478],[14.530553,53.7766844],[14.5018172,53.7108199],[14.5004199,53.7052855],[14.5006995,53.7025112],[14.3522504,53.759429],[14.3584559,53.7565475],[14.3638736,53.7529375],[14.3681157,53.7488144],[14.3710468,53.7443103],[14.3725733,53.7395693],[14.3761252,53.7181216],[14.3760565,53.7181479],[14.369045,53.7208387],[14.3376794,53.7328757],[14.3271827,53.7369039],[14.3333333,53.7],[14.3666667,53.5],[14.4,53.3],[14.4666667,53.0666667],[14.5333333,52.8333333],[14.6,52.6],[14.6333333,52.4333333],[14.6666667,52.2666667],[14.7,52.1],[14.85,51.9],[15,51.7],[15,51.2],[15.05,50.95],[15.43,50.81],[15.62,50.74],[15.81,50.67],[16,50.6],[16.2,50.5],[16.4,50.4],[16.6,50.3],[16.8,50.2],[17,50.175],[17.2,50.15],[17.4,50.125],[17.6,50.1],[17.8333333,50.0333333],[18.0666667,49.9666667],[18.3,49.9],[18.3666667,49.7],[18.4333333,49.5],[18.476087,49.3717391],[18.5,49.3],[18.7,49.32],[18.9,49.34],[19.1,49.36],[19.3,49.38],[19.5,49.4],[21,49.4],[21.2142857,49.3428571],[21.4285714,49.2857143],[21.6428571,49.2285714],[21.8571429,49.1714286],[22.0714286,49.1142857],[22.2857143,49.0571429],[22.5,49],[22.5333333,49.1666667],[22.5666667,49.3333333],[22.6,49.5],[22.6666667,49.6666667],[22.7333333,49.8333333],[22.8,50],[22.9333333,50.1666667],[23.0666667,50.3333333],[23.2,50.5],[23.3333333,50.6666667],[23.4666667,50.8333333],[23.6,51],[23.6,51.6],[23.4666667,51.8],[23.3333333,52],[23.2,52.2],[23.0666667,52.3666667],[22.9333333,52.5333333],[22.8,52.7],[22.7,52.8833333],[22.6,53.0666667],[22.5,53.25],[21.5,53.35],[21.3,53.37],[21.1,53.39],[20.9,53.41],[20.7,53.43],[20.5,53.45],[20.2666667,53.5166667],[20.0333333,53.5833333],[19.8,53.65],[19.6333333,53.75],[19.4666667,53.85],[19.3,53.95],[19,54.3],[18.9664981,54.3502529],[18.9212558,54.3558938],[18.8791752,54.3611405],[18.8783067,54.3612488],[18.866502,54.3627207],[18.866502,54.3627207],[18.866502,54.3627207],[18.7183872,54.381188],[18.866502,54.3627207],[18.866502,54.3627207],[18.866502,54.3627207],[18.8783067,54.3612488],[18.8791752,54.3611405],[18.9212558,54.3558938],[18.9664981,54.3502529],[19,54.3460758],[19.00279,54.3457279],[19.0182717,54.3470545],[19.0096344,54.3600303],[19.0055079,54.3647734],[18.9998642,54.3689524],[18.9929224,54.3724046],[18.9849523,54.3749959],[18.9763696,54.3766055],[18.9763773,54.3766045],[19.0042707,54.3731277],[19.3616145,54.4037517],[19.4200739,54.4235826],[19.3830846,54.4684628],[19.3400066,54.5101181],[19.2846701,54.5465849],[19.2766467,54.5502565],[19.2785259,54.5542765],[19.284378,54.6087678],[19.2812929,54.6543719],[19.2699532,54.7038288],[19.2430088,54.751228],[19.2013347,54.7949387],[19.1463248,54.8334525],[19.0798488,54.8654362],[18.5779714,55.0623696],[18.5014503,55.0864564],[18.4184123,55.1019869],[18.3317587,55.1084174],[18.2445244,55.1055229],[17.2590568,55.0154373],[17.1700038,55.0016298],[17.0874569,54.9780561],[16.7582126,54.8586221],[16.463835,54.8196268],[16.3752826,54.8022072],[16.2946214,54.7749237],[16.2251116,54.7388854],[15.9805458,54.5828584],[15.9250773,54.539066],[15.91102,54.5252095],[15.9023782,54.521807],[15.8252537,54.518476],[15.6987755,54.5023993],[14.3997131,54.2110705],[14.4363137,54.1892857],[14.4721413,54.1841227],[14.5494927,54.163527],[14.6189761,54.1349273],[14.6782109,54.0993109],[14.7251853,54.0579051],[14.7311727,54.049635],[14.3977008,53.9498393],[14.3287917,53.9558202],[14.3376686,53.9544886],[14.3460749,53.9520738],[14.353472,53.9487047],[14.3595516,53.9445218],[14.3640608,53.9396995],[14.3668123,53.9344387],[14.3676921,53.9289585],[14.3669942,53.9252435],[14.3737956,53.9246527],[14.4055441,53.921895],[14.3737956,53.9246527],[14.3669942,53.9252435],[14.3285801,53.9285801],[14.3285801,53.9285801],[14.3218721,53.9291628],[14.3,53.9],[14.3124304,53.8254175],[14.3299433,53.8172032],[14.3577608,53.8286199],[14.3578236,53.8286457],[14.3579227,53.8280473],[14.3579199,53.822792],[14.3561914,53.8176367],[14.3528031,53.8127769],[14.3478842,53.8083968],[14.3416216,53.8046626],[14.3342529,53.8017157],[14.3260574,53.7996677],[14.3173458,53.7985964],[14.308448,53.7985421],[14.2997011,53.7995071],[14.2914363,53.8014547],[14.2841902,53.8042258]]]}}
