{"type":"Feature","properties":{"family":"other","name":"Polabian Slavs, 985 – 1035"},"geometry":{"type":"Polygon","coordinates":[[[10.2,54.3],[10.25,54.1],[10.35,53.9],[10.5,53.7],[10.6,53.5],[10.6,53.37],[10.9,53.2],[11.05,53.15],[11.2,53.1],[11.55,53],[11.85,52.85],[12,52.65],[11.95,52.4],[11.8,52.2],[11.7,52.05],[11.9,52.025],[12.1,52],[12.5,51.95],[13.5,51.95],[13.94,51.97],[14.16,51.98],[14.38,51.99],[14.6,52],[14.7,52.1],[14.6666667,52.2666667],[14.6333333,52.4333333],[14.6,52.6],[14.5333333,52.8333333],[14.4666667,53.0666667],[14.4,53.3],[14.3666667,53.5],[14.3333333,53.7],[14.3271827,53.7369039],[14.3376794,53.7328757],[14.369045,53.7208387],[14.3760565,53.7181479],[14.3761252,53.7181216],[14.3725733,53.7395693],[14.3710468,53.7443103],[14.3681157,53.7488144],[14.3638736,53.7529375],[14.3584559,53.7565475],[14.3522504,53.759429],[14.3520359,53.7595286],[14.3522504,53.759429],[14.5006995,53.7025112],[14.5004199,53.7052855],[14.5018172,53.7108199],[14.530553,53.7766844],[14.5334664,53.7814478],[14.5378373,53.7858047],[14.5435117,53.7896014],[14.5502896,53.7927036],[14.5527656,53.7934483],[14.5519239,53.7938917],[14.5465013,53.7981508],[14.5426006,53.8029556],[14.5403745,53.8081189],[14.5343691,53.831506],[14.4567852,53.8403553],[14.455161,53.8383992],[14.4494806,53.8340714],[14.4424363,53.8305097],[14.356058,53.7950682],[14.3488083,53.7926362],[14.3409306,53.7910231],[14.3326871,53.7902826],[14.3243523,53.7904392],[14.3162037,53.7914879],[14.3085124,53.7933936],[14.3015346,53.7960929],[14.2841902,53.8042258],[14.2839668,53.8043112],[14.2841902,53.8042258],[14.2914363,53.8014547],[14.2997011,53.7995071],[14.308448,53.7985421],[14.3173458,53.7985964],[14.3260574,53.7996677],[14.3342529,53.8017157],[14.3416216,53.8046626],[14.3478842,53.8083968],[14.3528031,53.8127769],[14.3561914,53.8176367],[14.3579199,53.822792],[14.3579227,53.8280473],[14.3578236,53.8286457],[14.3577608,53.8286199],[14.3299433,53.8172032],[14.3124304,53.8254175],[14.200342,53.877992],[14.3124304,53.8254175],[14.3,53.9],[14.3218721,53.9291628],[14.2111421,53.9387808],[14.3218721,53.9291628],[14.3285801,53.9285801],[14.3285801,53.9285801],[14.3669942,53.9252435],[14.3737956,53.9246527],[14.4055441,53.921895],[14.3737956,53.9246527],[14.3669942,53.9252435],[14.3676921,53.9289585],[14.3668123,53.9344387],[14.3640608,53.9396995],[14.3595516,53.9445218],[14.353472,53.9487047],[14.3460749,53.9520738],[14.3376686,53.9544886],[14.3287917,53.9558202],[14.3977008,53.9498393],[14.7311727,54.049635],[14.7251853,54.0579051],[14.6782109,54.0993109],[14.6189761,54.1349273],[14.5494927,54.163527],[14.4721413,54.1841227],[14.4363137,54.1892857],[14.3997131,54.2110705],[14.2228227,54.3163564],[14.227468,54.3523054],[14.2170463,54.4038009],[14.1898473,54.4531787],[14.1468235,54.4986041],[14.0895298,54.5383834],[13.9159055,54.6372385],[13.8526249,54.6672738],[13.7811557,54.6904046],[13.7037259,54.7059056],[13.3597443,54.7550668],[13.2809796,54.7617472],[13.2032744,54.7774296],[13.1896362,54.7793787],[13.0952906,54.7870521],[13.0002083,54.7834681],[12.9084108,54.7687781],[12.8618787,54.7549375],[12.8423893,54.743748],[12.7680152,54.7148807],[12.6855537,54.6946913],[12.6683058,54.6925674],[12.5979936,54.6839092],[12.5495788,54.6833843],[12.5329728,54.6694561],[12.528478,54.6656861],[12.4325242,54.5995364],[12.4335076,54.5785116],[12.4267588,54.5248246],[12.4138025,54.4978884],[12.4138025,54.4978884],[12.4018218,54.4729803],[12.3597508,54.4250317],[12.3022626,54.3828704],[12.2316614,54.3481544],[12.1507456,54.3222452],[12.0626979,54.3061565],[11.9709647,54.300517],[11.8791283,54.3055468],[11.7907747,54.3210495],[11.7093617,54.3464194],[11.6615389,54.3694085],[11.5440347,54.3592255],[11.4391447,54.3570464],[11.336068,54.3686034],[11.2657191,54.3866994],[11.2657191,54.3866994],[11.2657164,54.3867001],[11.3123844,54.3862954],[11.3218598,54.3867765],[11.3309672,54.3883736],[11.3393234,54.3910195],[11.3465767,54.394603],[11.3524214,54.3989731],[11.3566109,54.4039459],[11.3589683,54.409312],[11.3593935,54.4148453],[11.3578678,54.4203126],[11.3544548,54.4254834],[11.2969032,54.4913575],[11.2910073,54.4965224],[11.2832365,54.5007693],[11.1500033,54.558211],[11.1426254,54.5608055],[11.1345475,54.5625648],[11.126048,54.5634285],[11.1174197,54.5633666],[11.10896,54.5623813],[11.1009603,54.5605067],[11.0109211,54.5334737],[11.0028954,54.5304104],[10.9961275,54.5264548],[10.9909063,54.5217761],[10.9874544,54.5165743],[10.9623089,54.4625307],[10.9722158,54.483823],[10.9722145,54.4838234],[10.9722143,54.4838235],[10.9206198,54.5012617],[10.8543963,54.4825287],[10.7618683,54.4688929],[10.6862206,54.4669677],[10.6665235,54.4664664],[10.6862206,54.4669677],[10.6952022,54.4275833],[10.6889784,54.3739352],[10.6838495,54.3561782],[10.3420016,54.4672583],[10.3336975,54.4693486],[10.324853,54.4704624],[10.3158049,54.4705573],[10.3068976,54.4696296],[10.2984701,54.4677147],[10.2494484,54.4532019],[10.2494472,54.4531963],[10.2494307,54.4531233],[10.2472771,54.4435752],[10.2438505,54.4283829],[10.2472771,54.4435752],[10.2479707,54.4434785],[10.2563396,54.4412153],[10.263771,54.4380294],[10.2699695,54.4340474],[10.2738241,54.4302744],[10.2393329,54.4201632],[10.2331023,54.4183367],[10.2327761,54.417994],[10.2,54.3]],[[13.077881,54.5174456],[13.082736,54.5329717],[13.0861448,54.5438733],[13.102331,54.5956373],[13.1527315,54.6057688],[13.1491315,54.577063],[13.1419314,54.5973259],[13.1070461,54.5408],[13.1107134,54.5400603],[13.1070461,54.5408],[13.0914376,54.5155089],[13.077881,54.5174456]],[[13.1419314,54.5432914],[13.2427324,54.5568001],[13.296733,54.5196514],[13.3687337,54.5855059],[13.3471335,54.5230285],[13.3831338,54.5314714],[13.3759338,54.565243],[13.4280194,54.4952089],[13.4280205,54.4952074],[13.4299343,54.4926341],[13.4602534,54.4906026],[13.5055351,54.4875684],[13.5199352,54.5703087],[13.4407344,54.5568001],[13.3687337,54.6125231],[13.2535325,54.565243],[13.2931329,54.6429175],[13.2319323,54.653049],[13.3903339,54.6885091],[13.4443344,54.6800662],[13.3831338,54.6361632],[13.4263343,54.5855059],[13.6711367,54.5669315],[13.6783368,54.5399143],[13.5764574,54.4740026],[13.6023362,54.4703055],[13.5764574,54.4740026],[13.5739357,54.4723712],[13.5911432,54.4441224],[13.6099361,54.413271],[13.5911432,54.4441224],[13.4333333,54.4666667],[13.2492192,54.4929687],[13.1419314,54.5432914]]]}}
