{"type":"Feature","properties":{"family":"franks","name":"Kingdom of Provence, 855 – 916"},"geometry":{"type":"Polygon","coordinates":[[[4.5918459,43.3598442],[4.6237676,43.3573941],[4.6605576,43.3545704],[4.6605722,43.3545693],[4.6605724,43.3545692],[4.6594207,43.3499502],[4.6566883,43.3449594],[4.6526503,43.3404622],[4.6474672,43.3366369],[4.6413445,43.333635],[4.6345252,43.3315757],[4.6272795,43.3305405],[4.6198946,43.3305705],[4.6198664,43.3305726],[4.6198664,43.3305726],[4.6198018,43.3305776],[4.6198737,43.330567],[4.619907,43.3305621],[4.785914,43.3178204],[4.7938383,43.3178255],[4.8015806,43.3190552],[4.8087877,43.3214532],[4.8151307,43.3249104],[4.8206065,43.3286209],[4.8266791,43.3235503],[4.8316892,43.3200806],[4.8374975,43.3173482],[4.8439019,43.3154479],[4.8506798,43.3144458],[4.8575956,43.3143768],[4.8644091,43.3152433],[4.8708833,43.3170151],[4.8767932,43.3196306],[4.9235863,43.34495],[4.9290095,43.3485383],[4.9333572,43.3528319],[4.9364594,43.3576632],[4.9381949,43.3628436],[4.9384955,43.3681709],[4.9373489,43.3734371],[4.9347998,43.3784363],[4.9309473,43.3829733],[4.9259417,43.3868707],[4.9199786,43.3899761],[4.9132909,43.3921682],[4.9061741,43.3933555],[4.9061753,43.3953308],[4.9763265,43.3985703],[4.9737461,43.3953391],[4.9707879,43.3906529],[4.9691107,43.3856433],[4.9687754,43.3804935],[4.9697938,43.3753915],[4.9721286,43.3705235],[4.9920299,43.339047],[4.9921492,43.3388584],[4.9882581,43.3079174],[4.9688405,43.2588739],[4.9371221,43.2133723],[4.8942585,43.1730327],[4.8417931,43.1392883],[4.7816007,43.1133357],[4.7158213,43.0960942],[4.647956,43.0883082],[4.6469523,43.088193],[4.6476634,43.0881776],[4.7188977,43.0915198],[4.747587,43.0830063],[4.8151113,43.0730243],[4.8839939,43.0723359],[4.9283704,43.0779825],[4.9977304,43.0677586],[5.0411375,43.06776],[5.0567046,43.0500594],[5.1046955,43.013139],[5.1612675,42.983445],[5.2244147,42.9620247],[5.2919075,42.9496323],[5.4971481,42.9264765],[5.5914248,42.8558453],[5.6509728,42.8196471],[5.7194625,42.7933419],[5.7938917,42.7780792],[5.8710077,42.7745253],[5.9474453,42.7828352],[5.947546,42.7828628],[6.0028276,42.7579957],[6.0677413,42.7399837],[6.0686195,42.7398073],[6.1180594,42.7298726],[6.1803331,42.7214824],[6.2436375,42.7210414],[6.3061152,42.7285626],[6.3659319,42.7438251],[6.3961517,42.7537389],[6.4019016,42.7556252],[6.4630778,42.7810776],[6.5165874,42.8145931],[6.5604763,42.8549567],[6.5655285,42.8620396],[6.5806685,42.8679879],[6.6383404,42.9033024],[6.6473973,42.9116663],[6.7446569,42.928059],[6.8188149,42.9467662],[6.8859446,42.976501],[6.9430256,43.0159307],[6.987474,43.0632857],[7.0172593,43.116436],[7.0433841,43.1821831],[7.0903733,43.1993248],[7.1480302,43.2320011],[7.1958243,43.2722711],[7.2052433,43.2843734],[7.2172136,43.2856949],[7.2843523,43.3031278],[7.3457135,43.3295591],[7.3990443,43.364022],[7.4423764,43.4052544],[7.474098,43.4517434],[7.4810944,43.4702597],[7.6300237,43.5212458],[7.7072653,43.5476895],[7.7730818,43.5764504],[7.8294138,43.614362],[7.8738638,43.6598242],[7.9045233,43.7109143],[7.920056,43.7654664],[7.9197597,43.8211617],[7.9191676,43.8251109],[7.9191322,43.8251009],[7.7088494,43.7653575],[7.7018493,43.763905],[7.6945922,43.7634603],[7.5478051,43.7647359],[7.5477926,43.764736],[7.5547148,43.7651458],[7.5614845,43.766499],[7.567784,43.7687431],[7.5733908,43.7717989],[7.5781069,43.7755584],[7.5817654,43.7798888],[7.5842368,43.7846372],[7.5854335,43.7896357],[7.5853919,43.7913841],[7.5853883,43.7913841],[7.5741714,43.7914816],[7.5656763,43.7915554],[7.5613964,43.7915925],[7.5481707,43.7917074],[7.5,44.1],[7.3333333,44.1666667],[7.1666667,44.2333333],[7,44.3],[7,44.7],[6.9,45],[7.1,45.3],[7,45.6],[6.86,45.83],[6.5,46],[6.1,46.1],[5.75,46.15],[5.525,46.225],[5.3,46.3],[5.075,46.35],[4.85,46.4],[4.83,46],[4.83,45.75],[4.82,45.5],[4.85,45.2],[4.83,44.9],[4.79,44.725],[4.75,44.55],[4.68,44.2],[4.69,44.075],[4.7,43.95],[4.62,43.7],[4.6,43.5],[4.6237676,43.3573941],[4.6605576,43.3545704],[4.6605722,43.3545693],[4.6605724,43.3545692],[4.7898479,43.344647],[4.6605724,43.3545692],[4.6605722,43.3545693],[4.6605576,43.3545704],[4.6237676,43.3573941],[4.5918459,43.3598442]],[[7.5853919,43.7913841],[7.5853883,43.7913841],[7.5741714,43.7914816],[7.5656763,43.7915554],[7.5613964,43.7915925],[7.5481707,43.7917074],[7.5481707,43.7917074],[7.5613964,43.7915925],[7.5656763,43.7915554],[7.5741714,43.7914816],[7.5853883,43.7913841],[7.5853919,43.7913841]]]}}
