{"type":"Feature","properties":{"family":"rus","name":"Kievan Rus’, 985 – 1066"},"geometry":{"type":"Polygon","coordinates":[[[22.5,49],[22.6666667,48.8333333],[22.8333333,48.6666667],[23.1666667,48.3333333],[23.3333333,48.1666667],[23.5,48],[23.7166667,47.95],[23.9333333,47.9],[24.15,47.85],[24.3666667,47.8],[24.5833333,47.75],[24.8,47.7],[25,47.8],[25.2,47.9],[25.6,48.1],[25.8,48.2],[26,48.3],[26.2142857,48.2714286],[26.4285714,48.2428571],[26.6428571,48.2142857],[26.8571429,48.1857143],[27.0714286,48.1571429],[27.2857143,48.1285714],[27.5,48.1],[27.7142857,48.1714286],[27.9285714,48.2428571],[28.1428571,48.3142857],[28.3571429,48.3857143],[28.5714286,48.4571429],[28.7857143,48.5285714],[29,48.6],[29.2142857,48.6857143],[29.4285714,48.7714286],[29.6428571,48.8571429],[29.8571429,48.9428571],[30.0714286,49.0285714],[30.2857143,49.1142857],[30.5,49.2],[30.7142857,49.2571429],[30.9285714,49.3142857],[31.1428571,49.3714286],[31.3571429,49.4285714],[31.5714286,49.4857143],[31.7857143,49.5428571],[32,49.6],[32.2142857,49.6285714],[32.4285714,49.6571429],[32.6428571,49.6857143],[32.8571429,49.7142857],[33.0714286,49.7428571],[33.5,49.8],[33.7166667,49.8833333],[33.9333333,49.9666667],[34.15,50.05],[34.3666667,50.1333333],[34.5833333,50.2166667],[34.8,50.3],[35.1777778,50.5666667],[35.3666667,50.7],[35.440528,50.7521374],[35.4369544,50.7625669],[35.440528,50.7521374],[35.440528,50.7521374],[35.4516762,50.7196013],[35.4516762,50.7196013],[35.4516762,50.7196013],[35.440528,50.7521374],[35.5555556,50.8333333],[35.7444444,50.9666667],[35.9333333,51.1],[36.1222222,51.2333333],[36.3111111,51.3666667],[36.5,51.5],[37.5,52.05],[37.7,52.16],[37.9,52.27],[38.5,52.6],[40.5,52.6],[40.5,53.2],[40.5,54],[40.6428571,54.1857143],[40.7857143,54.3714286],[40.9285714,54.5571429],[41.0714286,54.7428571],[41.2142857,54.9285714],[41.3571429,55.1142857],[41.5,55.3],[41.9,55.5],[42.1,55.6],[42.3,55.7],[42.5,55.8],[42.3333333,55.9666667],[42.1666667,56.1333333],[42,56.3],[41.8333333,56.4666667],[41.6666667,56.6333333],[41.5,56.8],[41.3375,56.95],[41.175,57.1],[41.0125,57.25],[40.6875,57.55],[40.525,57.7],[40.3625,57.85],[40.2,58],[39.5,59],[38.5,60],[38.2857143,60.0714286],[38.0714286,60.1428571],[37.8571429,60.2142857],[37.8571429,60.2142857],[37.6428571,60.2857143],[37.6428571,60.2857143],[37.4285714,60.3571429],[37.2142857,60.4285714],[37,60.5],[36.7857143,60.5428571],[36.5714286,60.5857143],[36.3571429,60.6285714],[36.1428571,60.6714286],[35.9285714,60.7142857],[35.7142857,60.7571429],[35.5,60.8],[35.0555556,60.8444444],[34.8333333,60.8666667],[34.6111111,60.8888889],[34.3888889,60.9111111],[34.1666667,60.9333333],[33.9444444,60.9555556],[33.7222222,60.9777778],[33.5,61],[32.8,61],[31.5,61],[31.2857143,60.8857143],[31.0714286,60.7714286],[30.8571429,60.6571429],[30.6428571,60.5428571],[30.4285714,60.4285714],[30.2142857,60.3142857],[30,60.2],[29.8596706,60.1599059],[29.8496985,60.1662538],[29.8142317,60.1743686],[29.8115694,60.1723084],[29.80774,60.1675506],[29.8057882,60.1625168],[29.8057837,60.1573891],[29.8077258,60.1523526],[29.8115435,60.1475894],[29.8170982,60.1432713],[29.8174405,60.1430537],[29.8173896,60.14308],[29.8173896,60.14308],[29.8169392,60.143313],[29.8150271,60.1445294],[29.6896411,60.173213],[29.5401484,60.1746476],[29.4455111,60.1465346],[29.4352666,60.1441659],[29.4242606,60.1429026],[29.41297,60.1427994],[29.0460671,60.1579868],[29.0356809,60.1589137],[29.0258549,60.1608224],[29.0169609,60.1636407],[29.0093359,60.167262],[28.938892,60.2077556],[28.7299517,60.1479238],[28.640733,60.1157022],[28.5771771,60.0808505],[28.4827165,60.0706376],[28.3833802,60.0486806],[28.1541823,59.9830482],[28.0699682,59.9530235],[28.063574,59.9496441],[28.060634,59.9493423],[27.9579667,59.9268608],[27.7683364,59.872559],[27.6832635,59.8421599],[27.6832635,59.8421599],[27.6117049,59.8040008],[27.5563665,59.7595511],[27.5193043,59.7105162],[27.5018537,59.6587697],[27.504589,59.6062802],[27.5087675,59.5968704],[27.4809953,59.5629689],[27.4486915,59.5068954],[27.4446191,59.4759983],[27.8553828,59.4372166],[27.9322872,59.4769022],[27.9323621,59.4769408],[27.9329753,59.4773309],[27.926182,59.4730091],[27.921271,59.4680717],[27.9184486,59.462727],[27.9178326,59.4572004],[27.9194481,59.4517247],[27.9273474,59.4359792],[27.9708006,59.4583989],[28,59.4],[28.1,59.2],[27.9333333,59.1],[27.85,59.05],[27.7666667,59],[27.6,58.9],[27.5666667,58.7],[27.55,58.6],[27.5333333,58.5],[27.5,58.3],[27.55,58.1],[27.6,57.9],[27.55,57.725],[27.5,57.55],[27.5247637,57.5128544],[27.5276753,57.5286961],[27.5247637,57.5128544],[27.5247637,57.5128544],[27.5132579,57.4502525],[27.5132579,57.4502525],[27.5247637,57.5128544],[27.5247637,57.5128544],[27.5276753,57.5286961],[27.5247637,57.5128544],[27.7737371,57.1393943],[27.746297,57.1285038],[27.7320278,57.1228406],[27.7320255,57.1228396],[27.7319536,57.1228111],[27.7319536,57.1228111],[27.6824768,57.1031746],[27.7319536,57.1228111],[27.7319536,57.1228111],[27.7320255,57.1228396],[27.7320278,57.1228406],[27.746297,57.1285038],[27.7737371,57.1393943],[27.7737371,57.1393943],[27.746297,57.1285038],[27.7320278,57.1228406],[27.7320255,57.1228396],[27.7319622,57.1228145],[27.7319622,57.1228145],[27.7320255,57.1228396],[27.7320278,57.1228406],[27.746297,57.1285038],[27.7737371,57.1393943],[28,56.8],[28,56],[27.75,55.65],[27.625,55.475],[27.5,55.3],[27,54.4],[26.68,54.12],[26.52,53.98],[26.36,53.84],[26.2,53.7],[26,53.6333333],[25.8,53.5666667],[25.4,53.4333333],[25.2,53.3666667],[25,53.3],[23.8,53.1],[23.5833333,53.125],[23.3666667,53.15],[23.15,53.175],[22.9333333,53.2],[22.7166667,53.225],[22.5,53.25],[22.6,53.0666667],[22.7,52.8833333],[22.8,52.7],[22.9333333,52.5333333],[23.0666667,52.3666667],[23.2,52.2],[23.3333333,52],[23.4666667,51.8],[23.6,51.6],[23.6,51],[23.4666667,50.8333333],[23.3333333,50.6666667],[23.2,50.5],[23.0666667,50.3333333],[22.9333333,50.1666667],[22.8,50],[22.7333333,49.8333333],[22.6666667,49.6666667],[22.6,49.5],[22.5666667,49.3333333],[22.5333333,49.1666667],[22.5,49]],[[27.938831,59.7011548],[27.9390881,59.7070995],[27.9534028,59.761139],[27.9560017,59.7665641],[27.9607696,59.7716054],[27.9675025,59.7760463],[28.0466956,59.8182845],[28.0541834,59.8215934],[28.0627608,59.8241506],[28.0721314,59.8258676],[28.0819709,59.826685],[28.0919389,59.8265745],[28.1016903,59.8255399],[28.1108877,59.823617],[28.119213,59.8208723],[28.2200392,59.7803206],[28.2280258,59.7763373],[28.2341739,59.7716013],[28.2382122,59.7663222],[28.2665304,59.7130371],[28.2391779,59.7176674],[28.2283028,59.718885],[28.2171667,59.7189375],[28.208472,59.7180493],[28.2084745,59.7180445],[28.2223091,59.6920883],[28.1333333,59.6666667],[28.0335496,59.638157],[28.0169169,59.6643984],[28.0169164,59.6643993],[28.007195,59.6616211],[27.9987116,59.6585985],[27.9915511,59.6548008],[27.985985,59.6503722],[27.9822238,59.6454806],[27.9804093,59.6403118],[27.9806096,59.6350617],[27.9828161,59.6299292],[27.9830873,59.6295024],[27.9830063,59.6295969],[27.9827293,59.6299198],[27.9411711,59.695329],[27.938831,59.7011548]],[[28.3675688,59.7502021],[28.3741158,59.8146782],[28.3752812,59.819051],[28.3778538,59.8232709],[28.3817651,59.8272244],[28.4285297,59.8660779],[28.4350668,59.8704358],[28.4432202,59.8740462],[28.4526561,59.8767609],[28.4629876,59.8784685],[28.5242343,59.8852287],[28.5359942,59.8858565],[28.5477392,59.8851805],[28.5588996,59.8832335],[28.5689344,59.8801099],[28.7378007,59.8133032],[28.737754,59.8133032],[28.6822325,59.8352614],[28.6733539,59.838108],[28.663542,59.8400274],[28.6531755,59.8409455],[28.6426547,59.8408268],[28.6323857,59.8396759],[28.6227648,59.8375372],[28.6036209,59.8320663],[28.6491766,59.8140504],[28.6,59.8],[28.421033,59.7488666],[28.4212886,59.7513439],[28.4243303,59.780829],[28.3945159,59.7723088],[28.3858108,59.769189],[28.3785132,59.7652583],[28.3729143,59.7606736],[28.369237,59.7556181],[28.3676271,59.7502936],[28.3675921,59.7499495],[28.36758,59.7500809],[28.3675688,59.7502021]],[[28.924679,59.929126],[28.9253427,59.9340949],[28.9278245,59.938919],[28.9320402,59.9434334],[28.9378463,59.9474835],[28.9450445,59.9509306],[29.1286865,60.0235872],[29.1385081,60.0266664],[29.1494196,60.0286288],[29.1609169,60.0293835],[29.1724685,60.0288958],[29.2807409,60.0183399],[29.2719414,60.0187833],[29.2624948,60.0184243],[29.253322,60.0172426],[29.2447071,60.0152745],[29.1902617,59.9997152],[29.271337,59.9918106],[29.0666667,59.9333333],[28.99921,59.91406],[29,59.9134579],[28.99921,59.91406],[28.9784898,59.9298529],[28.9784898,59.9298529],[28.9898344,59.9343394],[29,59.9383596],[29,59.9383596],[29.0636612,59.9635356],[28.9724542,59.9374706],[28.9635566,59.9342669],[28.9561425,59.9302236],[28.9505196,59.9255089],[28.946921,59.9203189],[28.9454952,59.9148694],[28.9463006,59.9093867],[28.9493025,59.9040984],[28.9543754,59.8992241],[28.9729441,59.8850923],[28.9547988,59.8989019],[28.954725,59.8989479],[28.9542342,59.8992544],[28.9335023,59.91504],[28.9288305,59.9194329],[28.9258553,59.9241823],[28.924679,59.929126]]]}}
