{"type":"Feature","properties":{"family":"rus","name":"Kievan Rus’, 941 – 957"},"geometry":{"type":"Polygon","coordinates":[[[25.4,52.9],[25.42,52.7],[25.44,52.5],[25.46,52.3],[25.5,51.9],[25.6666667,51.75],[25.8333333,51.6],[26.1666667,51.3],[26.3333333,51.15],[26.5,51],[26.6833333,50.8666667],[26.8666667,50.7333333],[27.05,50.6],[27.2333333,50.4666667],[27.4166667,50.3333333],[27.6,50.2],[27.4333333,50.3333333],[27.2666667,50.4666667],[27.1,50.6],[26.9333333,50.7333333],[26.7666667,50.8666667],[26.6,51],[26.775,51.15],[26.95,51.3],[27.125,51.45],[27.3,51.6],[27.54,51.62],[27.78,51.64],[28.02,51.66],[28.26,51.68],[28.5,51.7],[28.7142857,51.6714286],[28.9285714,51.6428571],[29.1428571,51.6142857],[29.3571429,51.5857143],[29.5714286,51.5571429],[29.7857143,51.5285714],[30,51.5],[30.0666667,51.2666667],[30.1333333,51.0333333],[30.2,50.8],[30.0666667,50.6333333],[29.9333333,50.4666667],[29.8,50.3],[29.6,50.2],[29.4,50.1],[29.2,50],[29,49.9],[29.2,49.8333333],[29.4,49.7666667],[29.6,49.7],[30,49.5666667],[30.2,49.5],[30.4166667,49.5166667],[30.6333333,49.5333333],[30.85,49.55],[31.0666667,49.5666667],[31.2833333,49.5833333],[31.5,49.6],[31.7142857,49.6428571],[31.9285714,49.6857143],[32.1428571,49.7285714],[32.3571429,49.7714286],[32.5714286,49.8142857],[32.7857143,49.8571429],[33,49.9],[33.2285714,50],[33.4571429,50.1],[33.6857143,50.2],[33.9142857,50.3],[34.1428571,50.4],[34.3714286,50.5],[34.6,50.6],[34.74,50.8],[34.88,51],[35.02,51.2],[35.0219783,51.2028261],[35.0296839,51.2036006],[35.0534442,51.2059887],[35.0679053,51.2074422],[35.0683136,51.2074832],[35.068744,51.2075265],[35.0695108,51.2076036],[35.0724099,51.2078949],[35.0724099,51.2078949],[35.0725348,51.2079075],[35.0769508,51.2083513],[35.0725348,51.2079075],[35.0695108,51.2076036],[35.068744,51.2075265],[35.0534442,51.2059887],[35.0296839,51.2036006],[35.0219783,51.2028261],[35.0219783,51.2028261],[35,51.2006171],[35.0219783,51.2028261],[35.16,51.4],[35.3,51.6],[35.1666667,51.7666667],[35.0333333,51.9333333],[34.9,52.1],[34.7666667,52.2666667],[34.6333333,52.4333333],[34.5,52.6],[33.8,53.5],[33.88,53.7],[33.96,53.9],[34.04,54.1],[34.12,54.3],[34.2,54.5],[34.3857143,54.6428571],[34.5714286,54.7857143],[34.7571429,54.9285714],[34.9428571,55.0714286],[35.1285714,55.2142857],[35.3142857,55.3571429],[35.5,55.5],[35.7222222,55.5444444],[35.9444444,55.5888889],[36.1666667,55.6333333],[36.3888889,55.6777778],[36.6111111,55.7222222],[36.8333333,55.7666667],[37.0555556,55.8111111],[37.2777778,55.8555556],[37.5,55.9],[38.3571429,55.9],[39.5,55.9],[39.7222222,55.8333333],[39.9444444,55.7666667],[40.1666667,55.7],[40.3888889,55.6333333],[40.6111111,55.5666667],[40.8333333,55.5],[41.0555556,55.4333333],[41.2777778,55.3666667],[41.5,55.3],[41.9,55.5],[42.1,55.6],[42.3,55.7],[42.5,55.8],[42.3333333,55.9666667],[42.1666667,56.1333333],[42,56.3],[41.8333333,56.4666667],[41.6666667,56.6333333],[41.5,56.8],[41.3375,56.95],[41.175,57.1],[41.0125,57.25],[40.6875,57.55],[40.525,57.7],[40.3625,57.85],[40.2,58],[39.5,59],[38.5,60],[38.2857143,60.0714286],[38.0714286,60.1428571],[37.8571429,60.2142857],[37.8571429,60.2142857],[37.6428571,60.2857143],[37.6428571,60.2857143],[37.4285714,60.3571429],[37.2142857,60.4285714],[37,60.5],[36.7857143,60.5428571],[36.5714286,60.5857143],[36.3571429,60.6285714],[36.1428571,60.6714286],[35.9285714,60.7142857],[35.7142857,60.7571429],[35.5,60.8],[35.0555556,60.8444444],[34.8333333,60.8666667],[34.6111111,60.8888889],[34.3888889,60.9111111],[34.1666667,60.9333333],[33.9444444,60.9555556],[33.7222222,60.9777778],[33.5,61],[32.8,61],[31.5,61],[31.2857143,60.8857143],[31.0714286,60.7714286],[30.8571429,60.6571429],[30.6428571,60.5428571],[30.4285714,60.4285714],[30.2142857,60.3142857],[30,60.2],[29.8596706,60.1599059],[29.8496985,60.1662538],[29.8142317,60.1743686],[29.8142105,60.1743735],[29.811539,60.1723065],[29.8077111,60.1675514],[29.8057604,60.1625206],[29.8057564,60.1573957],[29.8076984,60.1523618],[29.8115154,60.1476006],[29.817069,60.1432838],[29.8173675,60.143094],[29.8173675,60.143094],[29.8173896,60.14308],[29.8173896,60.14308],[29.8429545,60.1268252],[29.8173896,60.14308],[29.8173896,60.14308],[29.8173675,60.143094],[29.8169372,60.1433166],[29.8150272,60.1445317],[29.6896474,60.173214],[29.5401582,60.1746485],[29.4455204,60.1465353],[29.4352761,60.1441668],[29.4242698,60.1429035],[29.4129786,60.1428004],[29.0460754,60.1579878],[29.0356865,60.158915],[29.0258578,60.1608243],[29.0169614,60.1636434],[29.0093343,60.1672657],[28.9388732,60.2077692],[28.93887,60.2077683],[28.729608,60.1478391],[28.6404092,60.1156254],[28.5768379,60.0807708],[28.4824811,60.0705699],[28.3830575,60.0485933],[28.1538621,59.982956],[28.069652,59.9529326],[28.0632759,59.949563],[28.0604205,59.9492699],[27.9576606,59.9267678],[27.7680323,59.8724619],[27.6829751,59.8420696],[27.611433,59.803927],[27.5561088,59.759502],[27.5190561,59.7104977],[27.5016082,59.6587851],[27.5043387,59.6063298],[27.5085457,59.5968567],[27.4807208,59.5628877],[27.4484457,59.506858],[27.4443834,59.4760206],[27.4443832,59.4760185],[27.8553724,59.4372155],[27.9323229,59.4769249],[27.9322872,59.4769022],[27.9261545,59.4730008],[27.9212458,59.4680666],[27.9184247,59.4627257],[27.917809,59.457203],[27.9194236,59.4517312],[27.9273306,59.4359706],[27.9273306,59.4359706],[27.9273474,59.4359792],[27.9708006,59.4583989],[28,59.4],[28.1,59.2],[27.9333333,59.1],[27.85,59.05],[27.7666667,59],[27.6,58.9],[27.5666667,58.7],[27.55,58.6],[27.5333333,58.5],[27.5,58.3],[27.55,58.1],[27.6,57.9],[27.55,57.725],[27.5,57.55],[27.5247637,57.5128544],[27.5276753,57.5286961],[27.5247637,57.5128544],[27.5247637,57.5128544],[27.5132579,57.4502525],[27.5132579,57.4502525],[27.5132553,57.4502381],[27.5132553,57.4502381],[27.5132579,57.4502525],[27.5132579,57.4502525],[27.5247637,57.5128544],[27.5247637,57.5128544],[27.5276753,57.5286961],[27.5247637,57.5128544],[27.7737371,57.1393943],[27.746297,57.1285038],[27.7320278,57.1228406],[27.7320255,57.1228396],[27.7319622,57.1228145],[27.7319622,57.1228145],[27.7319536,57.1228111],[27.7319536,57.1228111],[27.7319622,57.1228145],[27.7319622,57.1228145],[27.7320255,57.1228396],[27.7320278,57.1228406],[27.746297,57.1285038],[27.7737371,57.1393943],[28,56.8],[28,56],[27.75,55.65],[27.625,55.475],[27.5,55.3],[27,54.4],[26.68,54.12],[26.52,53.98],[26.36,53.84],[26.2,53.7],[25.4,52.9]],[[35.0683136,51.2074832],[35.0534442,51.2059887],[35.0296839,51.2036006],[35.0219783,51.2028261],[35.0219783,51.2028261],[35.0296839,51.2036006],[35.0534442,51.2059887],[35.068744,51.2075265],[35.0695108,51.2076036],[35.0725348,51.2079075],[35.0695108,51.2076036],[35.068744,51.2075265],[35.0683136,51.2074832]],[[27.9388268,59.7011598],[27.9390838,59.7071038],[27.9533986,59.7611432],[27.9559968,59.7665668],[27.9607633,59.7716066],[27.9674942,59.7760462],[28.0466873,59.8182844],[28.0541752,59.8215932],[28.0627532,59.8241502],[28.0721246,59.825867],[28.0819653,59.826684],[28.0919347,59.8265731],[28.1016876,59.825538],[28.1108866,59.8236145],[28.1192133,59.8208693],[28.2200395,59.7803176],[28.2280279,59.7763334],[28.2341773,59.7715966],[28.2382122,59.7663222],[28.2382163,59.7663168],[28.2665349,59.7130312],[28.2665334,59.7130315],[28.2391915,59.7176598],[28.2283053,59.7188787],[28.2171577,59.7189314],[28.2084745,59.7180445],[28.2223091,59.6920883],[28.1333333,59.6666667],[28.0335496,59.638157],[28.0169169,59.6643984],[28.0169164,59.6643993],[28.0157949,59.6661685],[27.9968322,59.696086],[27.9920799,59.7035836],[27.9968322,59.696086],[28.0157949,59.6661685],[28.0169164,59.6643993],[28.0169169,59.6643984],[28.0335496,59.638157],[28.0335496,59.638157],[28.0169169,59.6643984],[28.007166,59.6616118],[27.998684,59.6585901],[27.991525,59.6547942],[27.98596,59.6503681],[27.9821994,59.6454796],[27.9803849,59.6403141],[27.9805845,59.6350673],[27.9827896,59.6299379],[27.9830053,59.6295984],[27.982725,59.6299253],[27.9411669,59.6953345],[27.9388268,59.7011598]],[[28.0169169,59.6643984],[28.0335496,59.638157],[28.0335496,59.638157],[28.0169169,59.6643984]],[[28.3675648,59.7502067],[28.3741118,59.8146828],[28.3752769,59.8190545],[28.3778488,59.8232733],[28.3817591,59.8272257],[28.4285237,59.8660792],[28.4350595,59.8704362],[28.4432117,59.8740458],[28.4526463,59.87676],[28.4629767,59.8784674],[28.5242234,59.8852276],[28.5359857,59.8858554],[28.5477336,59.8851791],[28.558897,59.8832315],[28.5689345,59.880107],[28.7378074,59.8132978],[28.737767,59.8132978],[28.6822586,59.8352507],[28.6733721,59.8380997],[28.6635506,59.8400208],[28.6531736,59.8409398],[28.6426421,59.8408211],[28.6323632,59.8396693],[28.622734,59.8375289],[28.6036202,59.8320666],[28.6036209,59.8320663],[28.6491766,59.8140504],[28.6,59.8],[28.421033,59.7488666],[28.4212886,59.7513439],[28.4243303,59.780829],[28.4243303,59.7808291],[28.3944854,59.7723],[28.3857813,59.7691809],[28.3784851,59.7652518],[28.3728874,59.7606694],[28.369211,59.7556166],[28.3676018,59.7502951],[28.36758,59.7500809],[28.3675781,59.7500622],[28.3675648,59.7502067]],[[28.421033,59.7488666],[28.4212886,59.7513439],[28.4243303,59.780829],[28.4243303,59.7808291],[28.4243303,59.780829],[28.4212886,59.7513439],[28.421033,59.7488666],[28.421033,59.7488666]],[[28.9246754,59.9291291],[28.9253384,59.9340972],[28.9278193,59.9389206],[28.9320339,59.9434342],[28.9378388,59.9474836],[28.9450357,59.9509302],[29.1286776,60.0235866],[29.1384991,60.0266657],[29.1494109,60.0286279],[29.1609089,60.0293825],[29.1724616,60.0288947],[29.2808159,60.0183308],[29.2719323,60.0187784],[29.2624767,60.0184192],[29.2532957,60.0172366],[29.2446739,60.0152671],[29.1902568,59.9997157],[29.1902617,59.9997152],[29.271337,59.9918106],[29.0666667,59.9333333],[28.99921,59.91406],[29,59.9134579],[28.99921,59.91406],[28.9784898,59.9298529],[28.9784898,59.9298529],[28.9898344,59.9343394],[29,59.9383596],[29,59.9383596],[29.0636612,59.9635356],[29.0636758,59.9635414],[28.9724213,59.9374626],[28.9635255,59.9342598],[28.9561133,59.9302184],[28.950492,59.9255065],[28.9468944,59.9203198],[28.9454691,59.9148737],[28.946274,59.9093942],[28.9492747,59.9041087],[28.9543459,59.8992365],[28.954707,59.8989616],[28.9542312,59.8992588],[28.9334993,59.9150444],[28.9288275,59.919437],[28.9258521,59.924186],[28.9246754,59.9291291]]]}}
