{"type":"Feature","properties":{"family":"rus","name":"Bulgaria, held by Sviatoslav’s Rus’, 969 – 971"},"geometry":{"type":"Polygon","coordinates":[[[24.3,42.9],[24.45,42.75],[24.6,42.6],[25,42.4],[25.2,42.2666667],[25.4,42.1333333],[25.6,42],[25.7666667,42.0666667],[25.9333333,42.1333333],[26.1,42.2],[26.3,42.2666667],[26.5,42.3333333],[26.7,42.4],[26.9,42.45],[27.1,42.5],[27.3,42.55],[27.4833333,42.6166667],[27.6666667,42.6833333],[27.7272938,42.7053796],[27.7148771,42.6844133],[27.7253625,42.6745771],[27.7434702,42.681161],[27.7489881,42.6836158],[27.7538366,42.6867427],[27.7545428,42.6873916],[27.7561305,42.6874387],[27.7621545,42.6883743],[27.7678812,42.6900368],[27.8276626,42.7117764],[27.7328773,42.7148077],[27.7515766,42.7142097],[27.85,42.75],[27.8903754,42.75],[27.8909799,42.7230655],[27.8976081,42.7235488],[27.9045639,42.7251143],[27.9109635,42.727656],[27.9165561,42.7310743],[27.9211222,42.7352352],[27.9244825,42.7399756],[27.9265051,42.7451095],[27.92711,42.7504355],[27.9270966,42.7503174],[27.9279742,42.7101775],[27.9273332,42.7047055],[27.9251984,42.6994424],[27.9216585,42.6946063],[27.9168605,42.6903974],[27.9110034,42.6869902],[27.9043296,42.6845255],[27.8971157,42.6831056],[27.8896601,42.682789],[27.7587519,42.6869805],[27.768945,42.6774116],[27.7729789,42.672689],[27.7729789,42.672689],[27.7756062,42.6674573],[27.7767148,42.6619401],[27.7762578,42.6563733],[27.7742551,42.6509948],[27.7707926,42.6460342],[27.7660186,42.6417035],[27.760137,42.6381875],[27.7533992,42.6356363],[27.6711165,42.6119963],[27.6858052,42.5636617],[27.6866718,42.5585901],[27.6862246,42.5534892],[27.6844802,42.5485422],[27.6815013,42.5439266],[27.6773951,42.5398079],[27.6723092,42.536334],[27.6664259,42.5336293],[27.6599564,42.5317909],[27.6531328,42.5308847],[27.6461995,42.5309432],[27.5585737,42.537801],[27.4990941,42.4809187],[27.523109,42.4645345],[27.6186988,42.4841417],[27.625866,42.4850545],[27.6331365,42.4849023],[27.6402225,42.4836913],[27.6468433,42.4814692],[27.6527368,42.4783242],[27.6576697,42.4743808],[27.6614469,42.4697951],[27.6778167,42.4445528],[27.7223318,42.4410691],[27.729281,42.4400124],[27.7358226,42.437984],[27.7358226,42.437984],[27.7417096,42.4350604],[27.7467201,42.431352],[27.7506653,42.4269985],[27.7533966,42.4221643],[27.7541357,42.4194823],[28.0236464,42.498657],[28.0895086,42.5234404],[28.1473283,42.5574467],[28.1947536,42.5993016],[28.2298416,42.6473102],[28.2511386,42.6995244],[28.2577428,42.7538205],[28.2539273,42.985966],[28.2844478,43.0483582],[28.3162383,43.0743798],[28.3481016,43.1137567],[28.3584994,43.1103929],[28.4300557,43.0987678],[28.5033373,43.0976375],[28.5754979,43.1070456],[28.6437327,43.1266264],[28.7053843,43.1556185],[28.7580423,43.1928934],[28.7996357,43.2369979],[28.9298761,43.4088595],[28.9587304,43.4575427],[28.9739515,43.5093798],[28.9749181,43.5623756],[28.9565331,43.718058],[29.0347317,43.9288226],[29.0457216,43.9722494],[29.0467325,44.0163846],[29.0268631,44.2337813],[29.1259319,44.3124028],[29.1623894,44.3463183],[29.190932,44.3839207],[29.249155,44.4774343],[29.2724888,44.4961153],[29.2762594,44.4997812],[29.3369748,44.5330495],[29.599465,44.5520599],[29.6834107,44.5649836],[29.7611743,44.5909972],[29.8287938,44.6287781],[29.8863859,44.6691715],[29.9352328,44.71106],[29.9713274,44.7590478],[29.9931785,44.8111957],[30.0742507,45.1114882],[30.0810542,45.1657634],[30.0722465,45.2198921],[30.0481444,45.2716625],[30.0096957,45.3189533],[29.9584463,45.3598219],[29.8933564,45.4021089],[29.8278077,45.4363033],[29.7945292,45.4468775],[29.7945387,45.4468005],[29.7938353,45.4418298],[29.7918362,45.4370344],[29.7886104,45.4325787],[29.7681784,45.4098374],[29.7935814,45.3277251],[29.7944531,45.3220942],[29.7936302,45.3164581],[29.7683751,45.2320368],[29.7661922,45.2271197],[29.7627214,45.2225832],[29.7580898,45.2185929],[29.7524664,45.2152942],[29.7460565,45.2128076],[29.6983811,45.1982741],[29.6675724,45.2182357],[29.6588966,45.2155906],[29.6228962,45.2105249],[29.6334359,45.203698],[29.475,45.2125],[29.25,45.225],[28.8,45.25],[28.6,45.2666667],[28.4,45.2833333],[28.2,45.3],[28.0285714,45.1428571],[27.8571429,44.9857143],[27.6857143,44.8285714],[27.5142857,44.6714286],[27.3428571,44.5142857],[27.1714286,44.3571429],[27,44.2],[26.7857143,44.1285714],[26.5714286,44.0571429],[26.3571429,43.9857143],[26.3571429,43.9857143],[26.1428571,43.9142857],[26.1428571,43.9142857],[25.9285714,43.8428571],[25.7142857,43.7714286],[25.5,43.7],[25.08,43.72],[24.87,43.73],[24.66,43.74],[24.45,43.75],[24.425,43.525],[24.4,43.3],[24.35,43.1],[24.3,42.9]]]}}
