{"type":"Feature","properties":{"family":"islam","name":"Rustamid imamate, 789 – 864"},"geometry":{"type":"Polygon","coordinates":[[[-2,30],[5,30],[4.9444444,30.2222222],[4.8888889,30.4444444],[4.8888889,30.4444444],[4.8333333,30.6666667],[4.7777778,30.8888889],[4.7222222,31.1111111],[4.6666667,31.3333333],[4.6111111,31.5555556],[4.6111111,31.5555556],[4.5555556,31.7777778],[4.5,32],[4.5,34],[4.8,35],[5.2,36],[5.2656113,36.6561128],[5.2982051,36.6449017],[5.2991142,36.6539545],[5.2989577,36.6595379],[5.2973708,36.6649746],[5.2944212,36.6700314],[5.2902352,36.6744912],[5.2849924,36.6781626],[5.2848068,36.6782459],[5.3089592,36.6699403],[5.4502424,36.6895253],[5.5236303,36.7282608],[5.5608194,36.7835317],[5.554175,36.7949914],[5.5123801,36.8396681],[5.4599283,36.8764657],[5.4026497,36.902189],[5.3857565,36.9281485],[5.3463378,36.9679978],[5.2982158,37.0012035],[5.2431028,37.0265769],[4.9255294,37.1417659],[4.8633804,37.1586001],[4.7982955,37.1655086],[3.8843415,37.1875809],[3.8115834,37.1827746],[3.7418262,37.1656031],[3.426911,37.0565599],[3.3097465,37.0768977],[3.2460126,37.0829327],[3.1819947,37.0792072],[3.1200256,37.0658567],[3.0819366,37.0510063],[3.0557455,37.059246],[2.9879074,37.0742614],[2.9176272,37.0776873],[2.8479871,37.0693731],[2.7820403,37.0496833],[2.7226735,37.0194803],[2.5117185,36.8850622],[2.3925976,36.9028673],[2.3185745,36.9072231],[2.2451605,36.8984727],[1.9263324,36.8305472],[1.3558739,36.8177919],[1.2893631,36.8107821],[0.9679543,36.7497936],[0.9023506,36.7313086],[0.8429303,36.7023761],[0.698105,36.6139773],[0.2159393,36.4546994],[0.1660728,36.4339928],[0.12123,36.4068638],[-0.0948731,36.2511311],[-0.1454992,36.2050633],[-0.1818022,36.1509151],[-0.1865651,36.1413257],[-0.2101397,36.1522709],[-0.2710238,36.1690297],[-0.3347663,36.176025],[-0.3989815,36.1729952],[-0.5326121,36.1560495],[-0.5921614,36.1438277],[-0.6478988,36.1229756],[-0.6979245,36.0942055],[-0.7405389,36.058499],[-0.7545357,36.0413247],[-0.7489609,36.0410846],[-0.6829503,36.0269367],[-0.6219401,36.0021786],[-0.5682668,35.9744505],[-0.5182357,35.9427348],[-0.4891073,35.9155457],[-0.4917275,35.9150081],[-0.4972895,35.9129286],[-0.5022863,35.9100586],[-0.5065486,35.9064952],[-0.5065486,35.9064952],[-0.5099322,35.9023592],[-0.5123228,35.8977907],[-0.5519886,35.7969237],[-0.6393767,35.74886],[-0.6843368,35.746517],[-0.7294791,35.7698074],[-0.7245168,35.766662],[-0.7203309,35.7627484],[-0.717147,35.7582565],[-0.7150828,35.7533524],[-0.7142143,35.7482174],[-0.7145735,35.7430415],[-0.7167801,35.7312978],[-0.7474178,35.7471053],[-0.775,35.6],[-0.8125,35.4],[-0.85,35.2],[-1,34.3],[-1.05,34.0833333],[-1.1,33.8666667],[-1.2,33.4333333],[-1.25,33.2166667],[-1.3,33],[-1.3428571,32.7857143],[-1.3857143,32.5714286],[-1.4285714,32.3571429],[-1.4714286,32.1428571],[-1.5142857,31.9285714],[-1.5571429,31.7142857],[-1.6,31.5],[-1.6571429,31.2857143],[-1.7142857,31.0714286],[-1.7714286,30.8571429],[-1.8285714,30.6428571],[-1.8857143,30.4285714],[-1.9428571,30.2142857],[-2,30]]]}}
