{"type":"Feature","properties":{"family":"islam","name":"Samanid emirate, 882 – 971"},"geometry":{"type":"Polygon","coordinates":[[[54.3,35.5],[54.5,35.0714286],[54.6,34.8571429],[54.7,34.6428571],[54.8,34.4285714],[55,34],[55.1071429,33.7857143],[55.2142857,33.5714286],[55.3214286,33.3571429],[55.4285714,33.1428571],[55.5357143,32.9285714],[55.6428571,32.7142857],[55.8571429,32.2857143],[55.9642857,32.0714286],[56.0714286,31.8571429],[56.1785714,31.6428571],[56.2857143,31.4285714],[56.3928571,31.2142857],[56.5,31],[56.5769231,30.7692308],[56.6538462,30.5384615],[56.7307692,30.3076923],[56.8846154,29.8461538],[56.9615385,29.6153846],[57.0384615,29.3846154],[57.1153846,29.1538462],[57.2692308,28.6923077],[57.3461538,28.4615385],[57.4230769,28.2307692],[57.5,28],[57.5,27],[57.4697851,27],[57.4697851,26.9999818],[57.4703847,26.9946382],[57.4721579,26.9895072],[57.4750341,26.9847922],[57.4788993,26.9806798],[57.4836003,26.977333],[57.4889508,26.9748844],[57.4947389,26.9734309],[57.4989588,26.9731488],[57.2008756,26.9731424],[57.2008761,26.9731385],[57.2039839,26.9460636],[57.2218287,26.8947923],[57.2506643,26.8476978],[57.2893385,26.8066393],[57.3363159,26.7732355],[57.389739,26.7488019],[57.4475013,26.7343],[57.4862051,26.7317125],[57.4870339,26.7316571],[57.5073289,26.7303003],[62.9932282,26.7304679],[63.0529784,26.7344575],[63.1106481,26.7489191],[63.1639725,26.773285],[63.2108541,26.806598],[63.2494438,26.8475491],[63.2782134,26.8945276],[63.2960164,26.9456832],[63.3021345,26.9989987],[63.3028044,27.2299244],[63.2972625,27.2819989],[63.2805208,27.3321653],[63.2531947,27.378532],[63.2163021,27.4193482],[63.1712268,27.45307],[63.1196672,27.4784207],[63.1180096,27.4788944],[63.1159761,27.5321709],[63.0430011,28.0015903],[63.0657897,28.2224091],[63.0653434,28.2754114],[63.0531362,28.327333],[63.0296224,28.3761642],[62.9956977,28.4200121],[62.9526657,28.4571743],[62.902189,28.4862061],[62.8462254,28.5059772],[62.7869505,28.5157172],[62.7266725,28.5150462],[62.6879698,28.5112325],[62.5804043,28.6079431],[62.5415597,28.6374254],[62.4976584,28.6608084],[62.449931,28.6774344],[62.0661842,28.7787245],[61.8226059,29.0227908],[61.7937373,29.0722091],[61.7949609,29.0923479],[61.7871582,29.1425554],[61.7687401,29.190611],[61.7403429,29.2348149],[61.6443625,29.3557339],[61.6447625,29.3658967],[61.6412916,29.4164752],[61.6270216,29.4656045],[61.6024412,29.5115476],[61.5684065,29.5526778],[61.2552422,29.8631138],[62.0433999,30.6733219],[62.0783822,30.7168755],[62.1028165,30.765468],[62.1157473,30.8172326],[62.1378968,30.9843341],[62.1394834,31.029019],[62.1324309,31.07332],[62.057748,31.360545],[62.0371044,31.413296],[62.0041967,31.4613125],[61.9430937,31.5323566],[61.9026068,31.5709658],[61.85418,31.6022613],[61.7996019,31.6250823],[61.7408942,31.6385812],[61.1184683,31.7264954],[61.0947285,32.0079573],[61.1428854,32.1903976],[61.1504918,32.2560209],[61.1390395,32.3212487],[60.8954878,33.0591613],[61.0775424,33.2446011],[61.1154807,33.2928186],[61.1199011,33.3024099],[61.1442238,33.3181767],[61.1859784,33.3584768],[61.2174672,33.404838],[61.2374495,33.4554587],[61.2451271,33.5083685],[61.2401782,33.5615046],[61.2227732,33.6127911],[61.1935717,33.6602213],[61.1536999,33.7019356],[61.1047088,33.7362963],[61.0485145,33.7619523],[60.9873228,33.7778937],[60.849166,33.8016236],[60.8527751,33.8180669],[60.8525101,33.8678488],[60.8316006,34.0462635],[60.9077947,34.0498938],[60.9716002,34.0582125],[61.0321931,34.0767688],[61.0872077,34.1048387],[61.1344906,34.1413265],[61.1721839,34.1848064],[61.1987973,34.2335771],[61.2132684,34.2857273],[61.2150067,34.33921],[61.2039198,34.3919219],[61.1804211,34.4417862],[61.1761786,34.4472491],[61.2018441,34.4691109],[61.2344606,34.5092489],[61.2578959,34.5535301],[61.2712605,34.6001008],[61.3043096,34.6288651],[61.3399157,34.6658149],[61.3671873,34.7072905],[61.3852823,34.7520307],[61.4691245,35.0405481],[61.478144,35.104036],[61.4696934,35.1605109],[61.4817107,35.1807374],[61.5437243,35.1653197],[61.6146132,35.1606759],[61.8968217,35.1667378],[61.9439584,35.1361179],[61.9692071,35.0649872],[61.993094,35.0160671],[62.0281138,34.9718788],[62.0729199,34.9341004],[62.1258009,34.9041644],[62.1847459,34.8832045],[62.2475208,34.8720135],[62.3117503,34.8710142],[62.3750063,34.8802438],[62.4348963,34.8993529],[62.4891521,34.9276181],[62.5349498,34.9633732],[62.5624972,34.9571717],[62.6222707,34.9529476],[62.6819956,34.9576543],[62.7397065,34.9711365],[62.7935023,34.9929499],[63.1719766,35.1822181],[63.2257859,35.2155576],[63.2702167,35.257118],[63.3034074,35.3051716],[63.3239561,35.3577177],[63.3309815,35.412565],[63.3514576,39.9996983],[63.3511596,40.0021295],[63.3511415,39.9991795],[63.3443831,39.9469966],[63.324612,39.8968403],[63.2926029,39.8506033],[63.2495852,39.8100262],[63.1971938,39.7766339],[63.1374068,39.7516791],[63.0724715,39.7360971],[63.0350247,39.7286098],[63.0350247,39.7286927],[63.0351458,40.0000133],[63.0351146,40.000259],[63.0351145,39.9999707],[63.0344634,39.9947499],[63.032507,39.9897282],[63.0293197,39.9850957],[63.0250224,39.9810279],[63.0197778,39.9776787],[63.0137848,39.975175],[63.0072701,39.9736114],[63,39.9721574],[63,39.9721658],[63,39.972317],[63,40],[62.7619048,39.952381],[62.5238095,39.9047619],[62.2857143,39.8571429],[62.047619,39.8095238],[61.8095238,39.7619048],[61.5714286,39.7142857],[61.3333333,39.6666667],[61.0952381,39.6190476],[60.8571429,39.5714286],[60.6190476,39.5238095],[60.3809524,39.4761905],[60.1428571,39.4285714],[59.9047619,39.3809524],[59.6666667,39.3333333],[59.4285714,39.2857143],[59.1904762,39.2380952],[58.952381,39.1904762],[58.7142857,39.1428571],[58.4761905,39.0952381],[58.2380952,39.047619],[58,39],[57.7727273,38.9545455],[57.5454545,38.9090909],[57.3181818,38.8636364],[57.0909091,38.8181818],[56.8636364,38.7727273],[56.6363636,38.7272727],[56.4090909,38.6818182],[56.1818182,38.6363636],[55.9545455,38.5909091],[55.7272727,38.5454545],[55.5,38.5],[55.5,37.2],[55.3,37.08],[55.1,36.96],[54.5,36.6],[54.46,36.38],[54.42,36.16],[54.38,35.94],[54.34,35.72],[54.3,35.5]]]}}
