{"type":"Feature","properties":{"family":"other","name":"Sámi, 789 – 899"},"geometry":{"type":"Polygon","coordinates":[[[13.4,64.8],[13.4666667,64.6],[13.5333333,64.4],[13.6,64.2],[13.8333333,64.1666667],[14.0666667,64.1333333],[14.1004491,64.1285073],[14.1463415,64.1681819],[14.1607416,64.2053306],[14.118118,64.3763764],[14.3,64.34],[14.5,64.3],[14.7,64.26],[14.9,64.22],[15.1,64.18],[15.3,64.14],[15.5,64.1],[15.7,64.04],[15.9,63.98],[16.1,63.92],[16.3,63.86],[16.5,63.8],[16.7,63.74],[16.9,63.68],[18.1,63.32],[18.3,63.26],[18.5,63.2],[18.7206324,63.2],[18.700387,63.2259558],[18.8227882,63.2192015],[18.7543875,63.2073814],[18.7578087,63.2],[18.7723877,63.1685441],[18.7578087,63.2],[18.8980462,63.2],[18.8947889,63.19725],[18.8980462,63.2],[18.9127891,63.2124472],[18.8630023,63.2269774],[18.8630022,63.2269775],[18.8630022,63.2269775],[18.7507875,63.2597273],[18.8630022,63.2269775],[18.8981302,63.2269774],[18.9101809,63.2264188],[18.9217335,63.2247776],[18.9323138,63.2221213],[18.9414881,63.2185588],[18.9488804,63.2142362],[18.9541886,63.2093309],[18.9569641,63.2044517],[18.9596174,63.2092082],[18.9649083,63.2141458],[18.972306,63.2184991],[18.9789257,63.2210816],[18.9789282,63.2210802],[18.9789282,63.2210802],[19,63.209048],[19,63.209048],[19.0158455,63.2],[19.0531905,63.1786756],[19.0834995,63.2],[19.1107911,63.2192015],[19.0831619,63.2269771],[19.0831617,63.2269771],[19.0835515,63.2269771],[19.0951276,63.2264648],[19.1062637,63.2249527],[19.1165383,63.2224981],[19.125563,63.2191937],[19.132997,63.2151647],[19.1385598,63.2105633],[19.1420422,63.2055635],[19.1433137,63.2003541],[19.1423275,63.1951318],[19.1391219,63.1900936],[19.1340515,63.1856341],[19.1611143,63.2046508],[19.1664907,63.2093927],[19.1696988,63.2145171],[19.1706126,63.2198245],[19.1698136,63.2228035],[19.1711984,63.2237638],[19.1756003,63.2287898],[19.211708,63.286187],[19.2138541,63.2917794],[19.213731,63.2931646],[19.2785084,63.3035627],[19.2889547,63.3057644],[19.298275,63.3088222],[19.3061255,63.3126233],[19.3122162,63.3170277],[19.3163216,63.3218729],[19.3182892,63.3269802],[19.3343917,63.4227906],[19.3549775,63.4198134],[19.3666909,63.4186788],[19.3786769,63.4186035],[19.3904622,63.4195905],[19.4015818,63.4216009],[19.4080172,63.4234996],[19.4767893,63.3952224],[19.4862526,63.3920341],[19.4969269,63.3897376],[19.5083996,63.3884217],[19.5122105,63.38833],[19.5122105,63.38833],[19.5122315,63.3883295],[19.512249,63.3883199],[19.5808024,63.3508761],[19.6358966,63.3046827],[19.669921,63.254564],[19.6816922,63.2024265],[19.6708836,63.1502433],[19.6380202,63.0999788],[19.586802,63.0555626],[19.6117088,63.072871],[19.6632039,63.1169533],[19.6778742,63.1382476],[19.7330714,63.1647783],[19.7402091,63.165907],[19.795076,63.1673466],[19.91027,63.1809697],[20.0173793,63.2045448],[20.1122304,63.2371593],[20.1841792,63.2673422],[20.2614125,63.3065634],[20.3205436,63.3517199],[20.336367,63.3719242],[20.3703194,63.3802018],[20.3911105,63.3880401],[20.4983068,63.3987015],[20.5426222,63.4074493],[20.5055882,63.3670183],[20.4830157,63.3156166],[20.4830218,63.2632359],[20.5054837,63.2118519],[20.5758176,63.1057637],[20.5797556,63.1015147],[20.549243,63.0577681],[20.5365809,63.004877],[20.5470251,62.9518983],[20.5800464,62.9008875],[20.5821711,62.8990458],[20.5746228,62.8929858],[20.5386567,62.8444455],[20.5235145,62.7936858],[20.5267052,62.7670516],[20.5169179,62.756346],[20.4941829,62.6988641],[20.4814299,62.6160716],[20.4850241,62.5616764],[20.512173,62.5087307],[20.5316869,62.48929],[20.5291608,62.4756965],[20.5414679,62.4235929],[20.5540495,62.4049735],[20.5526619,62.3936503],[20.5680847,62.3418592],[20.6046477,62.2924279],[20.6608879,62.247198],[20.6783386,62.2378998],[20.7021792,62.2103124],[20.7317844,62.1891588],[20.7387867,62.2017622],[20.7386272,62.2021072],[20.7369934,62.2548767],[20.7383345,62.2622498],[20.7195743,62.2867039],[20.703027,62.3378883],[20.7080265,62.3895983],[20.9117828,63.0394519],[20.9353841,63.0848685],[20.9795351,63.1453203],[20.9943136,63.160452],[21.0015281,63.1754356],[21.0487333,63.2400849],[21.0487508,63.2400578],[21.0910158,63.1745296],[21.0954791,63.1695218],[21.1020613,63.1650164],[21.1104981,63.1611938],[21.1204513,63.1582068],[21.1315224,63.156175],[21.1432687,63.1551795],[21.1552206,63.1552601],[21.1650315,63.1562292],[21.190326,63.1364649],[21.1974512,63.1320121],[21.2064247,63.1283054],[21.2168737,63.1254985],[21.2283647,63.1237077],[21.2404213,63.1230072],[21.252544,63.1234261],[21.2642301,63.124947],[21.2749955,63.127507],[21.2843933,63.1309998],[21.3833359,63.1760372],[21.4156839,63.1726614],[21.4156839,63.1726614],[21.4267241,63.171989],[21.4378506,63.172253],[21.4486775,63.1734444],[21.4540449,63.1745428],[21.45265,63.1715168],[21.4524646,63.1664337],[21.4597516,63.1242226],[21.4617558,63.1190857],[21.465908,63.1142201],[21.4720522,63.1098078],[21.4799579,63.1060135],[21.4893292,63.1029791],[21.4998161,63.1008176],[21.5004185,63.1007527],[21.499889,63.0990729],[21.4982719,63.0992002],[21.4862095,63.0990316],[21.4744683,63.0977655],[21.4635308,63.0954539],[21.4538467,63.0921917],[21.4458134,63.0881133],[21.3918403,63.054323],[21.3862572,63.0500398],[21.382504,63.0453652],[21.3807074,63.0404584],[21.3809275,63.0354862],[21.3979468,62.9669202],[21.3968733,62.9666911],[21.3876568,62.9642413],[21.379555,62.9610801],[21.3728302,62.9573099],[21.3676999,62.9530532],[21.3643296,62.9484477],[21.3412322,62.9037646],[21.2331956,62.8963321],[21.2224028,62.8951029],[21.2123046,62.8929742],[21.2032587,62.8900213],[21.1955849,62.8863489],[21.1895543,62.882087],[21.1853796,62.8773864],[21.140514,62.8088357],[21.1124377,62.8088311],[21.1012841,62.8083413],[21.0905329,62.8068954],[21.080573,62.8045457],[21.0717641,62.8013773],[21.0644244,62.7975046],[21.0588183,62.7930675],[21.0551475,62.7882264],[21.0535436,62.7831561],[21.0540634,62.7780394],[21.056687,62.773061],[21.0923635,62.7255811],[21.0362572,62.6968337],[21.0288455,62.6920819],[21.0238368,62.68671],[21.0214647,62.6809702],[21.007229,62.5982244],[21.0074913,62.5927833],[21.0074913,62.5927833],[21.0101194,62.5874784],[21.0150052,62.5825257],[21.0219488,62.5781264],[21.0306671,62.5744595],[21.0408052,62.5716741],[21.0519509,62.5698831],[21.0636515,62.5691595],[21.0754315,62.5695326],[21.08056,62.5701882],[21.0763557,62.5675216],[21.0715321,62.5626855],[21.0688616,62.5575079],[21.0684472,62.5521904],[21.0703037,62.54694],[21.0743578,62.541961],[21.0916049,62.5258154],[21.0583744,62.4880535],[21.0551463,62.4830263],[21.0540827,62.4778065],[21.0552228,62.4725913],[21.0585222,62.4675776],[21.0638555,62.4629548],[21.0710204,62.4588973],[21.079746,62.455558],[21.0920479,62.4517153],[21.0765917,62.4079526],[21.0758593,62.4027337],[21.077313,62.3975486],[21.0808968,62.392592],[21.0864753,62.3880503],[21.093838,62.3840938],[21.1027081,62.380871],[21.1127523,62.3785029],[21.1235938,62.3770782],[21.1348258,62.3766505],[21.1348886,62.3766537],[21.1302356,62.3557092],[21.1301113,62.3508097],[21.1318975,62.3459816],[21.1355343,62.3413842],[21.140901,62.337169],[21.1697152,62.3186047],[21.177127,62.3146887],[21.186022,62.31151],[21.1960674,62.3091875],[21.2068876,62.3078078],[21.2180785,62.3074226],[21.2292221,62.3080462],[21.2399023,62.3096552],[21.24972,62.3121898],[21.2583081,62.315555],[21.2653452,62.3196253],[21.2705676,62.3242483],[21.2708812,62.3247369],[21.2708833,62.32474],[21.2708833,62.32474],[21.2626633,62.3257978],[21.2526522,62.3281169],[21.2437899,62.3312806],[21.2364055,62.3351715],[21.2307738,62.3396454],[21.2271046,62.3445359],[21.2255353,62.3496616],[21.2261251,62.3548318],[21.2353406,62.3826429],[21.2353445,62.382646],[21.2708127,62.4103729],[21.2708127,62.4062191],[21.3333334,62.5000001],[21.3571429,62.5714286],[21.4285714,62.7857143],[21.5,63],[21.5452156,63.0602875],[21.5452156,63.0602875],[21.6092726,63.0452647],[21.4940149,63.0722952],[21.4891764,63.0692692],[21.4891764,63.0692692],[21.4891637,63.0692613],[21.4891637,63.0692613],[21.4891604,63.0692592],[21.4891502,63.0692529],[21.4400144,63.0385237],[21.4891502,63.0692529],[21.4891604,63.0692592],[21.4891637,63.0692613],[21.4891637,63.0692613],[21.4891662,63.0692639],[21.4934558,63.0735755],[21.5000055,63.0777721],[21.5082087,63.0813302],[21.5118543,63.0823944],[21.511109,63.0832],[21.508806,63.0886057],[21.5089978,63.0941094],[21.5116777,63.0994799],[21.5312014,63.1255801],[21.531205,63.1255799],[21.531205,63.1255799],[21.5732157,63.1229526],[21.5588156,63.0959353],[21.5681941,63.0909254],[21.6543664,63.2058218],[21.7190745,63.2007633],[21.7313684,63.1998022],[21.7424174,63.1989385],[21.7424173,63.1989385],[21.7260368,63.2002191],[21.5947161,63.210485],[21.5947126,63.2104852],[21.5976469,63.214408],[21.6026465,63.2193479],[21.6097601,63.2237359],[21.6186977,63.2273925],[21.6290946,63.2301682],[21.6405256,63.2319493],[21.6447058,63.2321981],[21.6458747,63.2338647],[21.6458747,63.2338647],[21.6458713,63.2338649],[21.5149822,63.2440971],[21.5038699,63.2444814],[21.4927904,63.2439307],[21.4826059,63.2425298],[21.4817713,63.2480778],[21.4797827,63.2533747],[21.4755001,63.258388],[21.4690926,63.2629187],[21.4608138,63.2667866],[21.4509921,63.2698379],[21.4400178,63.2719515],[21.4283273,63.273043],[21.3705543,63.2757634],[21.4274175,63.3207046],[21.4319699,63.3252125],[21.4346138,63.3300173],[21.4352591,63.3349574],[21.4338833,63.3398665],[21.4305315,63.3445793],[21.4017793,63.3749852],[21.3961788,63.3795923],[21.3886908,63.3836248],[21.3795988,63.3869299],[21.3692472,63.3893819],[21.3580287,63.390888],[21.3463692,63.3913909],[21.3347114,63.3908715],[21.323498,63.3893495],[21.3131545,63.3868827],[21.1943019,63.3513942],[21.1851795,63.348039],[21.1776928,63.3439495],[21.1721296,63.3392833],[21.1687033,63.3342202],[21.1675446,63.3289551],[21.1686968,63.3236906],[21.1721143,63.3186293],[21.1721143,63.3186293],[21.1776647,63.3139656],[21.1825943,63.3112685],[21.1089925,63.3143196],[21.108948,63.3143214],[21.1325711,63.3383291],[21.199396,63.3810399],[21.2836557,63.4171446],[21.3821769,63.4452565],[21.4129896,63.4522515],[21.4257818,63.4696027],[21.4697479,63.5146814],[21.5316336,63.5554227],[21.6094087,63.5904414],[21.6380571,63.5992816],[21.5765399,63.6138842],[21.5026093,63.6238278],[21.507861,63.6287643],[21.5372196,63.6856851],[21.5528817,63.744725],[21.5548982,63.7989175],[21.532298,63.8521844],[21.4858621,63.9023632],[21.4794285,63.9066015],[21.5004361,63.9351928],[21.5374721,64.020521],[21.7754134,64.1266351],[21.7773788,64.127679],[21.8478611,64.1574449],[22.0825125,64.2782517],[22.153912,64.3232647],[22.2031401,64.3735683],[22.2280737,64.4271228],[22.2275513,64.4817445],[22.2014427,64.5351929],[22.157262,64.5787814],[22.1221185,64.6303781],[22.0691105,64.6863168],[22.0174393,64.7291697],[21.9485417,64.7673756],[21.9372935,64.7717128],[21.9309897,64.8133599],[21.928671,64.8169881],[21.9815428,64.8422292],[22.0540165,64.8842693],[22.0610873,64.8906548],[22.0841282,64.9006124],[22.150372,64.9425966],[22.1971709,64.9890578],[22.2227984,65.0383864],[22.2262424,65.0888644],[22.2240843,65.0945418],[22.2480324,65.1425511],[22.2480593,65.1453347],[22.2522976,65.148325],[22.2574378,65.1482023],[22.3797451,65.1551717],[22.496753,65.1717532],[22.5638624,65.1877496],[22.6788552,65.2099075],[22.7876696,65.2364267],[22.88234,65.2712472],[22.9592655,65.3130678],[22.9927844,65.341271],[22.9947769,65.3417954],[23.0854783,65.3773542],[23.1371433,65.4071963],[23.2408722,65.4216325],[23.3518694,65.4479474],[23.3978236,65.4644944],[23.4047366,65.4656645],[23.4546995,65.4530865],[23.5772331,65.4347685],[23.7060018,65.4268765],[23.8359751,65.4297188],[23.9620791,65.4431847],[24.0793774,65.4667484],[24.1383928,65.4853684],[24.163264,65.4691758],[24.2544966,65.4300089],[24.3625566,65.3991913],[24.4830914,65.3779499],[24.6112927,65.3671281],[24.6229259,65.3671351],[24.6246189,65.3490096],[24.5481205,65.3367126],[24.2726435,65.278769],[24.16764,65.2508489],[24.0776435,65.2149527],[24.0060101,65.1724466],[23.9553591,65.1249408],[23.9274826,65.0742259],[23.9232932,65.0222027],[23.9428096,64.9708097],[23.9781946,64.9300019],[23.9789449,64.930507],[23.9458152,64.9718138],[23.9294013,65.0232498],[23.9367435,65.0750367],[23.9677036,65.1252429],[24.0212494,65.1719849],[24.0954746,65.2134995],[24.1876564,65.2482127],[24.2943495,65.2748018],[24.4115162,65.2922501],[24.5346854,65.2998878],[24.7725512,65.3046697],[24.8332195,65.3032697],[24.8945959,65.3071235],[25.0136496,65.3095168],[25.0228397,65.3097015],[25.1533123,65.3067508],[25.1981256,65.3018204],[25.2449794,65.3076759],[25.2449791,65.3076755],[25.2190388,65.2677627],[25.2169351,65.2625025],[25.2173453,65.2571721],[25.220252,65.2519797],[25.2255401,65.2471281],[25.2363519,65.2393471],[25.2307682,65.2369055],[25.2241437,65.2326152],[25.2195703,65.2278786],[25.1513746,65.1316017],[25.1489421,65.1261489],[25.1492127,65.1206023],[25.1521734,65.1151963],[25.1576976,65.1101595],[25.1655505,65.1057046],[25.1753996,65.1020196],[25.1868285,65.09926],[25.3074364,65.0766492],[25.3455708,65.0377917],[25.3459369,65.037505],[25.3459738,65.0374761],[25.3459739,65.0374761],[25.3455845,65.0378726],[25.3420171,65.0427854],[25.3407312,65.0478919],[25.341775,65.0530063],[25.3451117,65.0579421],[25.3506208,65.0625193],[25.3581025,65.0665709],[25.3672844,65.0699489],[25.3778317,65.0725299],[25.3803617,65.0729008],[25.3803616,65.0729009],[25.3803614,65.0729012],[25.3568536,65.0968994],[25.3803614,65.0729012],[25.3803616,65.0729009],[25.3803617,65.0729008],[25.380362,65.0729005],[25.380362,65.0729005],[25.4046623,65.0480932],[25.5,65.05],[26.1428571,64.8571429],[26.25,64.825],[26.3571429,64.7928571],[26.5714286,64.7285714],[26.7857143,64.6642857],[27,64.6],[27.2142857,64.5285714],[27.3214285,64.4928572],[27.4285714,64.4571429],[27.6428571,64.3857143],[27.6428571,64.3857143],[27.6428571,64.3857143],[27.6904762,64.3698413],[27.8571429,64.3142857],[27.857143,64.3142857],[28.0714286,64.2428571],[28.1785714,64.2071429],[28.2857143,64.1714286],[28.5,64.1],[28.7142857,64.0571429],[28.8571429,64.0285714],[28.9285714,64.0142857],[29.0357142,63.9928572],[29.1428571,63.9714286],[29.25,63.95],[29.3571429,63.9285714],[29.4642857,63.9071429],[29.5714286,63.8857143],[29.6428572,63.8714286],[29.7857143,63.8428571],[30,63.8],[30.1798655,63.788009],[30.1798656,63.788009],[30.202502,63.7933177],[30.2309494,63.811888],[30.2309494,63.811888],[30.230951,63.811889],[30.230951,63.811889],[30.2309515,63.8118894],[30.2309515,63.8118894],[30.230951,63.811889],[30.230951,63.811889],[30.2309494,63.811888],[30.2309494,63.811888],[30.202502,63.7933177],[30.1798656,63.788009],[30.1798657,63.788009],[30.2142857,63.7857143],[30.6428571,63.7571429],[30.75,63.75],[30.8571429,63.7428571],[31.0714286,63.7285714],[31.2857143,63.7142857],[31.5,63.7],[31.7142857,63.7142857],[31.9285714,63.7285714],[32.1428571,63.7428571],[32.25,63.75],[32.3571429,63.7571429],[33,63.8],[33.2142857,63.8571429],[33.4017857,63.9071429],[33.4285714,63.9142857],[33.4591836,63.922449],[33.6428571,63.9714286],[33.75,64],[33.8571429,64.0285714],[34.0408164,64.077551],[34.0714286,64.0857143],[34.0982143,64.0928571],[34.2857143,64.1428571],[34.5,64.2],[34.85,64.4],[34.9920163,64.4811522],[34.9920162,64.4811521],[34.9920163,64.4811522],[35,64.4873933],[35.0085501,64.4940773],[35,64.4960825],[34.9625129,64.504874],[34.9625129,64.504874],[34.9625117,64.5048743],[34.9722869,64.5067514],[34.9844691,64.5079228],[34.9969519,64.5080303],[35.0092381,64.5070697],[35.0208387,64.5050792],[35.0312922,64.502138],[35.0401827,64.4983633],[35.0471575,64.4939052],[35.0519401,64.4889409],[35.0543416,64.4836677],[35.054268,64.4782952],[35.0522926,64.4742126],[35.0522927,64.4742126],[35.0522965,64.4742148],[35.0522965,64.4742148],[35.0585187,64.4778091],[35.0647693,64.4821799],[35.068984,64.4869822],[35.071009,64.4920423],[35.0707695,64.4971766],[35.0682732,64.5021989],[35.0636092,64.5069272],[35.0569459,64.5111896],[35.0485243,64.5148314],[35.03865,64.5177202],[34.9091334,64.5481995],[35.0192077,64.5926097],[35.0276461,64.5967808],[35.033927,64.6016023],[35.0377859,64.6068721],[35.0390596,64.6123693],[35.037693,64.6178631],[35.033742,64.6231231],[35.0273711,64.6279281],[34.9231118,64.6904185],[35.0412109,64.7208915],[35.0507204,64.7238899],[35.0587552,64.7275924],[35.0587552,64.7275924],[35.0650336,64.7318695],[35.0693349,64.7365714],[35.0715075,64.7415336],[35.0714741,64.7465822],[35.0709986,64.747635],[35.0709955,64.7476419],[35.0709928,64.7476479],[35.0692347,64.7515403],[35.0709928,64.7476479],[35.0709955,64.7476419],[35.1656579,64.7402427],[35.282471,64.7201793],[35.3874526,64.6905545],[35.4305505,64.6721663],[35.4603092,64.676014],[35.5852393,64.6809934],[35.6207102,64.6793431],[35.6207118,64.6793472],[35.6280335,64.6979252],[35.6280359,64.6979314],[35.5799188,64.7012808],[35.4626638,64.7200242],[35.3561392,64.7481977],[35.2644671,64.7847206],[35.1912392,64.8281873],[35.1393782,64.8769181],[35.1110164,64.9290206],[35.0996304,64.9664843],[35.0965374,65.023003],[35.1214595,65.0785375],[35.173464,65.130634],[35.2488455,65.1880702],[35.3165817,65.2297028],[35.3278694,65.2344186],[35.329529,65.2376981],[35.3804085,65.2868803],[35.4302682,65.3242102],[35.5042377,65.3683488],[35.5980414,65.4054097],[35.696886,65.4310199],[35.6833602,65.4306737],[35.5611273,65.4172205],[35.3007722,65.3764927],[35.3087755,65.3854974],[35.3288943,65.436642],[35.3278532,65.4509835],[35.3487723,65.4666017],[35.4032993,65.520032],[35.4079596,65.5303372],[35.4654573,65.5528012],[35.5415051,65.5975973],[35.5943192,65.6477987],[35.6216112,65.7013626],[35.6221037,65.7560966],[35.5956073,65.8097464],[35.5465058,65.8567901],[35.5394627,65.8838695],[35.5081572,65.9268673],[35.5015848,65.9549435],[35.4613464,66.0077308],[35.3952772,66.0560536],[35.3481852,66.0781383],[35.3412372,66.0882407],[35.2786663,66.1372285],[35.2640044,66.1462734],[35.2913952,66.1398257],[35.442022,66.1214937],[36.6658557,66.0286275],[37.3446212,65.8852616],[37.4380544,65.868787],[37.5364797,65.8583099],[38.4275506,65.789835],[38.5747359,65.7849107],[38.7209327,65.7934227],[39.5017585,65.8736774],[39.6489195,65.8961522],[39.7828133,65.9238328],[39.7828863,65.9238479],[39.9619561,65.9886977],[40.1439558,66.1118747],[40.2347675,66.1597523],[40.3499549,66.1981715],[40.4837047,66.2251622],[40.9924555,66.2991372],[41.115112,66.3439168],[41.5674058,66.6621816],[41.6464775,66.7060498],[41.7462725,66.7427547],[41.7489607,66.7434033],[41.7458355,66.759556],[41.7627062,66.8130376],[41.8063252,66.8641194],[41.875092,66.9107427],[41.966351,66.9510171],[42.0416262,66.9780945],[42.0416394,66.9781206],[42.0462495,66.9872223],[42.0475227,67.0371599],[42.0469085,67.0400402],[42.0560335,67.0485842],[42.0827284,67.1023618],[42.0809268,67.1571298],[42.0505115,67.2106234],[42.0367608,67.2225063],[42.0301494,67.2661627],[41.9996776,67.3138778],[41.9470494,67.3586533],[41.8739207,67.3989789],[41.8494094,67.4082631],[41.8493774,67.4525185],[41.8207941,67.5057467],[41.7646515,67.5556841],[41.7451825,67.5663469],[41.7611853,67.6118929],[41.7522615,67.6647809],[41.7185178,67.7425939],[41.6794725,67.7964696],[41.6115909,67.8461217],[41.517663,67.889382],[41.4016808,67.92435],[41.2755839,67.9481798],[41.2564976,67.959445],[41.165734,68.002458],[41.0532431,68.037631],[40.923717,68.0634683],[40.9229547,68.0635519],[40.9120683,68.0684174],[40.6349558,68.1684335],[40.5999247,68.2081841],[40.5503643,68.2511724],[40.4812625,68.290313],[40.3946444,68.3244051],[40.2931069,68.3523976],[40.090266,68.3984547],[39.9633204,68.4211979],[39.8266651,68.434463],[39.6855322,68.43774],[39.5959246,68.4333832],[39.1527566,68.5805263],[39.0385892,68.6112637],[38.9101279,68.6333826],[38.8190036,68.6417609],[38.7547039,68.6628205],[38.6004814,68.7022171],[38.2952715,68.8661425],[38.2237568,68.898483],[38.139123,68.9264634],[36.4185923,69.3936767],[36.2377134,69.4285675],[35.4450491,69.5327937],[35.2991102,69.5460058],[35.1485055,69.5489169],[34.9992004,69.5414111],[34.9623457,69.5368533],[34.9015045,69.5587891],[34.7101702,69.6150479],[34.5916528,69.6435598],[34.4597289,69.6638414],[34.3190883,69.6751666],[34.1747652,69.6771288],[34.0319407,69.6696572],[33.9287449,69.6570635],[33.8982949,69.6643169],[33.8865452,69.666107],[33.8964278,69.7316357],[33.8893031,69.7847424],[33.8520665,69.8363216],[33.7859651,69.8843512],[33.6934221,69.9269353],[33.5779664,69.9623817],[33.444107,69.9892743],[33.2971557,70.0065336],[32.9904507,70.0308862],[32.4965215,70.175893],[32.362686,70.2072062],[32.2125089,70.2285177],[32.0524489,70.2389049],[31.8894391,70.237917],[31.8592783,70.23559],[31.8751813,70.2701365],[31.8697028,70.3214133],[31.8587111,70.3374626],[31.8643559,70.3825966],[31.8429159,70.4321728],[31.7943245,70.479549],[31.6814713,70.5627392],[31.6006296,70.609044],[31.4934539,70.6490646],[31.3641375,70.6811825],[31.2321636,70.7018567],[31.1604347,70.7317645],[31.0333856,70.7667853],[30.9644769,70.7789392],[30.9544961,70.7894202],[30.8721922,70.837753],[30.761141,70.8794738],[30.6601912,70.9101669],[30.5378065,70.9407713],[30.3998099,70.9632988],[30.2511466,70.9769348],[30.0971898,70.9811849],[30.0846343,70.9807575],[29.975575,70.9975571],[29.8836587,71.0051938],[29.6044397,71.0861897],[29.4639163,71.1187842],[29.3052558,71.1411406],[29.1774188,71.1495289],[29.0702413,71.1836295],[28.9498432,71.2092286],[28.9225201,71.2240245],[28.820247,71.2682076],[28.6917297,71.3047024],[28.5423632,71.3319405],[28.3785265,71.3487454],[28.2072927,71.3543889],[28.109104,71.3511027],[28.0227301,71.3684975],[27.8692796,71.3872337],[27.7071934,71.3959798],[27.542854,71.394391],[27.3827433,71.3825302],[27.2331568,71.3608644],[27.0999293,71.3302449],[26.9881881,71.2918703],[26.9508626,71.276184],[26.8221571,71.2562854],[26.7774298,71.2454131],[26.7466511,71.2557035],[26.7412895,71.2568878],[26.6691341,71.2907232],[26.5560338,71.3265587],[26.423543,71.3548435],[26.3059584,71.3705988],[26.3048666,71.3709135],[26.1693914,71.3971403],[26.0206814,71.414711],[25.8785252,71.4266871],[25.6979208,71.4352437],[25.5157917,71.4310819],[25.340961,71.4144035],[25.1818568,71.3860152],[25.0696315,71.3604032],[25.0536409,71.3559638],[24.976082,71.3642766],[24.8218148,71.3756926],[24.663538,71.3775629],[24.5070555,71.369819],[24.3580975,71.3527449],[24.2220866,71.3269653],[24.103922,71.2934202],[24.1024226,71.2927965],[24.0724833,71.2935451],[23.9169123,71.2880111],[23.7674483,71.273189],[23.5637349,71.2458299],[23.4186449,71.2204757],[23.2922628,71.1863577],[23.1895422,71.1448422],[23.1658486,71.1299652],[23.030567,71.1169246],[22.8897229,71.0929788],[22.7796042,71.0642732],[22.7185995,71.0573196],[22.5760612,71.0295465],[22.5064254,71.0087465],[22.4993126,71.0083423],[22.3429789,70.9881297],[22.2892415,70.9765699],[22.2280876,70.9746588],[22.0785304,70.9602968],[21.9402231,70.9369175],[21.8499864,70.9136117],[21.7607081,70.9096369],[21.6061369,70.8919387],[21.4657034,70.8644659],[21.3450792,70.828342],[21.249053,70.7850366],[21.1813397,70.7363012],[21.1444473,70.6840936],[21.1396064,70.6304954],[21.1667578,70.5776274],[21.1743601,70.5710623],[21.1068469,70.5517397],[21.0700914,70.5363871],[20.9770753,70.5102978],[20.9404868,70.4948882],[20.9605449,70.4935057],[21.111592,70.4714781],[21.2456074,70.4395146],[21.356896,70.3989955],[21.4408233,70.3516612],[21.4681519,70.3248731],[21.4394565,70.3040189],[21.4347301,70.2996065],[21.4327838,70.2958339],[21.4187199,70.2950144],[21.4041334,70.2931219],[21.3909229,70.2903071],[21.1604302,70.2294562],[21.1487965,70.2256625],[21.1396698,70.2211516],[21.1334244,70.2161092],[21.1303153,70.2107431],[21.130468,70.205274],[21.1338738,70.1999269],[21.1403903,70.1949214],[21.1497477,70.190463],[21.2541752,70.1499715],[21.2652914,70.1464072],[21.2782063,70.1436308],[21.2924427,70.1417447],[21.307475,70.1408185],[21.3227484,70.1408864],[21.3599321,70.1422695],[21.3606978,70.1410305],[21.4076632,70.090393],[21.4143381,70.0851734],[21.4240744,70.0805459],[21.4364377,70.0767162],[21.4403123,70.0759482],[21.423477,70.044605],[21.369637,70.0546293],[21.3560427,70.05661],[21.3416058,70.0576919],[21.3268324,70.0578373],[21.3122407,70.0570409],[21.2983426,70.0553307],[21.2856251,70.0527668],[21.2745336,70.0494389],[21.1953424,70.020708],[21.1866119,70.0168992],[21.1800179,70.0126176],[21.1763414,70.0086209],[21.1768923,70.0104286],[21.1755861,70.0155482],[21.171462,70.0204909],[21.1646679,70.0250771],[21.1554492,70.0291399],[21.1441402,70.0325317],[21.1311514,70.0351289],[21.1256578,70.0357901],[21.1262367,70.0367676],[21.1261241,70.0423253],[21.1190053,70.06428],[21.1157915,70.0694589],[21.1096715,70.0743247],[21.1008795,70.0786897],[21.0897533,70.0823856],[21.0767212,70.0852695],[21.0622862,70.0872302],[21.0470057,70.0881919],[21.0314703,70.0881173],[21.0162804,70.0870094],[21.0020232,70.084911],[20.9892491,70.0819032],[20.9784508,70.0781022],[20.9706581,70.0747544],[20.991156,70.1018607],[20.9934787,70.1067511],[20.9931339,70.1117043],[20.9901313,70.1165532],[20.9845706,70.121134],[20.9270598,70.1583051],[20.9184455,70.1627386],[20.9074372,70.1665135],[20.8944614,70.1694832],[20.8800217,70.1715322],[20.8646794,70.172581],[20.8490309,70.1725886],[20.833685,70.1715549],[20.8192383,70.16952],[20.8062522,70.166563],[20.7980545,70.1637633],[20.7704077,70.115351],[20.7980545,70.1637633],[20.8244082,70.2099114],[20.7908057,70.2199985],[20.7967559,70.231756],[20.7978592,70.23727],[20.7978475,70.2372985],[20.7956153,70.2427453],[20.7901159,70.2479518],[20.7901034,70.2479587],[20.7901034,70.2479587],[20.7955358,70.242798],[20.7977604,70.2373342],[20.796652,70.231829],[20.7907075,70.2200279],[20.7344073,70.2369286],[20.7181655,70.2363311],[20.5508055,70.2301743],[20.7181655,70.2363311],[20.7,70.2],[20.6261089,70.0522178],[20.601206,70.0444308],[20.6261089,70.0522178],[20.6876069,70.071448],[20.7137183,70.0671881],[20.7039302,70.0477567],[20.6991284,70.0420354],[20.6907775,70.0368102],[20.6792857,70.0323349],[20.654387,70.0245551],[20.6418709,70.0213563],[20.6277659,70.0190613],[20.6126571,70.0177627],[20.6128943,70.0177671],[20.6132691,70.0177741],[20.6282496,70.0190841],[20.642195,70.0213667],[20.6545711,70.0245344],[20.6794704,70.0323141],[20.6909202,70.0367729],[20.6992404,70.0419791],[20.7040267,70.0476813],[20.7082696,70.0561695],[20.7136215,70.0668762],[20.7136669,70.0668838],[20.7146143,70.0670419],[20.74873,70.061476],[20.7605628,70.0579251],[20.7747623,70.0551822],[20.7831052,70.0542741],[20.6966011,70.0150802],[20.6887606,70.0107061],[20.6834894,70.0059027],[20.680977,70.000844],[20.6813123,69.9957133],[20.684481,69.9906964],[20.7314435,69.9400588],[20.7371831,69.9354124],[20.7383802,69.9347962],[20.7243435,69.9360191],[20.7086197,69.9362775],[20.6930645,69.9354545],[20.541689,69.9219289],[20.5275949,69.9201526],[20.5147483,69.9174866],[20.5036197,69.9140286],[20.494616,69.9099055],[20.4880657,69.9052682],[20.4867299,69.9035437],[20.4867176,69.9035278],[20.4868051,69.9034714],[20.4931063,69.8980336],[20.4958404,69.8922536],[20.4948812,69.8864044],[20.457549,69.8085496],[20.4576225,69.8085039],[20.4611658,69.8062969],[20.4707598,69.8023425],[20.4944663,69.7942737],[20.4560284,69.7895155],[20.4478787,69.7881844],[20.4477757,69.7881676],[20.4461449,69.7847666],[20.4419571,69.7760331],[20.4419563,69.7760315],[20.4343301,69.7601274],[20.4243677,69.739351],[20.4005218,69.6896212],[20.4243677,69.739351],[20.4343301,69.7601274],[20.4243677,69.739351],[20.4244307,69.7392867],[20.459567,69.7033755],[20.4341013,69.6608447],[20.4340866,69.6608202],[20.4533631,69.6442797],[20.4577927,69.6389407],[20.4589805,69.6333968],[20.4554924,69.5911423],[20.4533993,69.5856341],[20.44812,69.5803904],[20.4398806,69.5756333],[20.429032,69.5715645],[20.3566676,69.5494436],[20.3543678,69.5464038],[20.3475805,69.5415849],[20.3382046,69.5373296],[20.2712614,69.5119859],[20.2700027,69.5175947],[20.3060031,69.5446119],[20.2821427,69.5558035],[20.2736027,69.5598091],[20.2821427,69.5558035],[20.2,69.525],[20,69.45],[19.8,69.375],[19.6,69.3],[19.4721901,69.248876],[19.5103951,69.228848],[19.4164201,69.226568],[19.301593,69.2237822],[19.4164201,69.226568],[19.4,69.22],[19.2,69.14],[19,69.06],[18.6,68.9],[17.9,68.4],[17.68,68.3],[17.46,68.2],[17.24,68.1],[17.02,68],[16.8202268,67.909194],[16.7815678,67.8965605],[16.7601443,67.8667869],[16.65,67.775],[16.35,67.525],[16.3498032,67.524836],[16.198362,67.5081877],[16.1263613,67.4220703],[16.1805546,67.3837955],[16.05,67.275],[15.9,67.15],[15.75,67.025],[15.6,66.9],[15,66.54],[14.8,66.42],[14.6,66.3],[14.28,65.94],[14.12,65.76],[13.96,65.58],[13.8,65.4],[13.6666667,65.2],[13.5333333,65],[13.4,64.8]],[[19.0531905,63.1786756],[19.0158455,63.2],[19.0834995,63.2],[19.0531905,63.1786756]],[[20.7804575,69.9227538],[20.7811018,69.9226545],[20.820103,69.9180881],[20.7908014,69.9112671],[20.7894427,69.9151912],[20.7845098,69.920321],[20.7804575,69.9227538]],[[21.0132328,69.8650912],[21.1373547,69.9242167],[21.1418469,69.9212457],[21.1353898,69.9164716],[21.1317306,69.9110692],[21.1313678,69.9055231],[21.132834,69.8992801],[21.1314483,69.8990682],[21.1192257,69.896137],[21.0132328,69.8650912]],[[21.1056572,69.974627],[21.154571,69.9918521],[21.1639667,69.9958583],[21.170891,70.0003484],[21.1491283,69.9661562],[21.1474005,69.9669068],[21.1354662,69.9703779],[21.121762,69.9729713],[21.1068306,69.9745841],[21.1056572,69.974627]],[[21.1207044,62.5855295],[21.1242714,62.5879619],[21.1262933,62.5874688],[21.1207044,62.5855295]],[[21.4185932,62.935678],[21.4412508,63.004056],[21.4436882,63.0085899],[21.4464649,63.0123019],[21.4464659,63.0122979],[21.4494912,63],[21.4494912,63],[21.4616146,62.9507177],[21.4220142,62.9422748],[21.4185992,62.9356896],[21.4185932,62.935678]]]}}
