{"type":"Feature","properties":{"family":"celts","name":"Kingdom of Scotland, 1261 – 1265"},"geometry":{"type":"Polygon","coordinates":[[[-6.2862131,56.7191816],[-6.2851092,56.7141509],[-6.2823111,56.7093222],[-6.277918,56.7048657],[-6.2720854,56.7009384],[-6.2023238,56.6620045],[-6.1854972,56.6713339],[-6.1778173,56.6748006],[-6.1690228,56.6773461],[-6.1627109,56.6783507],[-6.1627107,56.6783506],[-6.1627107,56.6783506],[-6.1614616,56.6776531],[-6.1287386,56.6772383],[-6.1287386,56.6772383],[-6.1287386,56.6772383],[-6.1287345,56.6772382],[-6.0460369,56.6667947],[-6.0374549,56.6652379],[-6.0295385,56.6628426],[-6.0225563,56.65969],[-6.016745,56.6558871],[-6.0123014,56.651563],[-6.0045149,56.6420003],[-5.8374584,56.6269958],[-6.0045149,56.6420003],[-6.0045149,56.6420003],[-6.0045159,56.6420004],[-6.0045159,56.6420004],[-6.0066601,56.642193],[-6.0027552,56.6398382],[-6.0027535,56.6398371],[-5.9387579,56.5612436],[-5.9387579,56.5612436],[-5.9387579,56.5612436],[-5.9387577,56.5612434],[-5.9129383,56.5456818],[-5.9129378,56.5456817],[-5.7140148,56.5136696],[-5.7140116,56.5136682],[-5.7140116,56.5136682],[-5.7140116,56.5136682],[-5.7140116,56.5136682],[-5.7140116,56.5136682],[-5.7140116,56.5136682],[-5.7140116,56.5136682],[-5.6754568,56.4969753],[-5.6698709,56.5002079],[-5.6698695,56.5002087],[-5.6692499,56.4998533],[-5.6687406,56.4995612],[-5.6630983,56.4963249],[-5.6359677,56.4807632],[-5.6359639,56.480761],[-5.6359632,56.4807606],[-5.3648818,56.6385186],[-5.451852,56.5606296],[-5.4542873,56.559918],[-5.4620089,56.5563845],[-5.4682592,56.5520572],[-5.4727757,56.5471182],[-5.5159115,56.4846251],[-5.5184767,56.479343],[-5.5190598,56.4738837],[-5.5176377,56.4684717],[-5.5142697,56.4633293],[-5.5090948,56.4586675],[-5.502326,56.4546777],[-5.4993743,56.4535263],[-5.5051345,56.4478814],[-5.5051333,56.4478815],[-5.5051247,56.4478821],[-5.5040379,56.4479577],[-5.4946217,56.4476005],[-5.4855064,56.4462477],[-5.4770335,56.4439501],[-5.4695202,56.4407936],[-5.4632475,56.4368966],[-5.4617431,56.4354881],[-5.4617445,56.4354868],[-5.4617445,56.4354868],[-5.5219696,56.3765339],[-5.5316192,56.3670882],[-5.5343665,56.3643989],[-5.5359568,56.3628422],[-5.5366478,56.3626185],[-5.5464289,56.3608397],[-5.5566659,56.3602386],[-5.5854458,56.3602385],[-5.5947038,56.360729],[-5.5971805,56.3611332],[-5.5971863,56.3611341],[-5.5971874,56.3611343],[-5.6001383,56.3596167],[-5.6055037,56.3555987],[-5.6094382,56.3511013],[-5.6097759,56.3504139],[-5.6097748,56.3504141],[-5.6097653,56.3504158],[-5.6005039,56.3520867],[-5.5915647,56.353195],[-5.5824089,56.3533554],[-5.5733611,56.3525622],[-5.5647423,56.3508436],[-5.5568579,56.3482604],[-5.5499873,56.3449042],[-5.5487974,56.3440541],[-5.5488001,56.3440537],[-5.5638556,56.3416262],[-5.5926559,56.2504431],[-5.5629837,56.2534254],[-5.5629815,56.2534256],[-5.5624854,56.2521751],[-5.562165,56.2473226],[-5.5634152,56.2425168],[-5.5886841,56.1834263],[-5.5918459,56.178341],[-5.596757,56.173706],[-5.6032217,56.1697054],[-5.6109826,56.1664982],[-5.6197313,56.1642117],[-5.6291202,56.1629368],[-5.6340873,56.1628274],[-5.6367328,56.1609347],[-5.6439843,56.1574528],[-5.64966,56.1556694],[-5.6496717,56.1556657],[-5.6496733,56.1556652],[-5.653564,56.1482054],[-5.6553073,56.1429649],[-5.6551937,56.1386419],[-5.6551926,56.1386403],[-5.6551832,56.1386252],[-5.647293,56.1259088],[-5.6472875,56.1259],[-5.6472874,56.1258999],[-5.6472874,56.1258999],[-5.6441232,56.1208003],[-5.6472874,56.1258999],[-5.6438715,56.1231651],[-5.6369733,56.1194748],[-5.6289095,56.116612],[-5.6199943,56.1146882],[-5.6149316,56.1141992],[-5.6173876,56.1126441],[-5.6220002,56.1082997],[-5.7514653,55.9545935],[-5.7545885,55.9496845],[-5.7559673,55.944531],[-5.755551,55.9393253],[-5.7533559,55.9342616],[-5.7494645,55.9295286],[-5.7440224,55.9253029],[-5.7427122,55.9246158],[-5.7447857,55.9196379],[-5.7450957,55.9143501],[-5.7435586,55.9091301],[-5.740234,55.9041786],[-5.7150096,55.8754817],[-5.7098914,55.870885],[-5.7057866,55.8684598],[-5.7157043,55.859929],[-5.7198853,55.85547],[-5.7225154,55.8506524],[-5.7235034,55.8456444],[-5.7228155,55.8406207],[-5.7083594,55.7933462],[-5.7056521,55.7879379],[-5.7010121,55.7829621],[-5.6946411,55.7786344],[-5.6426418,55.7499596],[-5.7210248,55.6907586],[-5.7260377,55.6860205],[-5.7292352,55.6808065],[-5.7304842,55.675335],[-5.7297333,55.6698347],[-5.7212381,55.6433757],[-5.766949,55.5743275],[-5.7693498,55.5692086],[-5.7699354,55.5639232],[-5.7631478,55.4562295],[-5.7645161,55.4550842],[-5.961196,55.3782057],[-6.0382119,55.5585182],[-5.961196,55.3782057],[-5.9227543,55.2882046],[-5.6097749,55.1068399],[-5.5551544,55.0751885],[-5.5524838,55.0735273],[-5.2533548,54.8739545],[-4.9554496,54.6876524],[-4.9554496,54.6598033],[-4.8752901,54.6375228],[-4.8582486,54.632786],[-4.8752901,54.6375228],[-4.8752901,54.6375228],[-4.8600834,54.6280129],[-4.7781841,54.5985161],[-4.7240197,54.620884],[-4.6381646,54.6428615],[-4.4933415,54.6700496],[-4.4893266,54.6705598],[-4.4893265,54.6705598],[-4.3966549,54.6542607],[-4.3882307,54.6532539],[-4.3796303,54.6531591],[-4.3711459,54.6539795],[-4.3630656,54.6556873],[-4.3556642,54.6582244],[-4.3491931,54.6615046],[-4.3152878,54.6821679],[-4.3152823,54.6821674],[-4.2290467,54.6736459],[-4.1456275,54.6553741],[-4.0698396,54.6282026],[-4.0044828,54.5931418],[-3.9519516,54.5514928],[-3.9144503,54.5051711],[-3.8898388,54.5075456],[-3.8023975,54.5269516],[-3.6481029,54.5717521],[-3.5523369,54.7311767],[-3.5477052,54.7367155],[-3.5410195,54.7415039],[-3.4822057,54.7749197],[-3.4350451,54.8889685],[-3.4322393,54.8937213],[-3.4279504,54.8980925],[-3.4223267,54.9019307],[-3.4155628,54.9051029],[-3.4078928,54.907499],[-3.3995826,54.9090361],[-3.3630713,54.9136761],[-3.3630701,54.9136762],[-3.3643301,54.9187463],[-3.3630701,54.9136762],[-3.3629942,54.9133707],[-3.3598135,54.9082575],[-3.3549174,54.903614],[-3.3485046,54.8996278],[-3.340835,54.8964604],[-3.3242246,54.890962],[-3.3242203,54.8909625],[-3.2562326,54.8995813],[-3.2910818,54.9111195],[-3.3174332,54.9198442],[-3.2910818,54.9111195],[-3.225,54.93],[-3.1964478,54.9381578],[-3.1498357,54.9351071],[-3.1496182,54.940159],[-3.1512093,54.9453985],[-3.1545595,54.9503569],[-3.1583109,54.9537354],[-3.0637418,54.9500694],[-3.0541582,54.9502572],[-3.0448403,54.9515583],[-3.037287,54.9536157],[-3.0372879,54.9536157],[-3.0906309,54.9536157],[-3.0222302,54.9755672],[-3.0605485,54.9769861],[-3.5694357,54.9958302],[-3.0605485,54.9769861],[-3.05,54.98],[-2.85,55.05],[-2.65,55.17],[-2.4,55.3],[-2.2,55.4],[-2.3,55.55],[-2.25,55.64],[-2.05,55.77],[-1.9881767,55.7823647],[-2.0144575,55.8057432],[-2.0144575,55.8057432],[-2.0144587,55.8057443],[-2.1366214,55.9144162],[-2.0144587,55.8057443],[-2.0144575,55.8057432],[-2.0144575,55.8057432],[-1.9881767,55.7823647],[-1.9625976,55.7596103],[-1.9625976,55.7596103],[-1.9625962,55.7596091],[-1.9625962,55.7596091],[-1.9625962,55.7596091],[-1.962596,55.759609],[-1.8234182,55.6358009],[-1.962596,55.759609],[-1.9625962,55.7596091],[-1.9625962,55.7596091],[-1.9625962,55.7596091],[-1.9625976,55.7596103],[-1.9625976,55.7596103],[-1.9881767,55.7823647],[-2.0144575,55.8057432],[-2.0144575,55.8057432],[-1.9881767,55.7823647],[-1.9625976,55.7596103],[-1.9625976,55.7596103],[-1.9625962,55.7596091],[-1.9558654,55.7624252],[-1.9494937,55.7664111],[-1.9446477,55.771027],[-1.9415191,55.7760907],[-1.940232,55.7814025],[-1.940838,55.7867526],[-1.943314,55.7919298],[-1.947517,55.7966779],[-1.9475628,55.7967296],[-1.947517,55.7966779],[-1.804537,55.6694462],[-1.7985476,55.6708498],[-1.7896176,55.6723852],[-1.7896176,55.6723852],[-1.7803286,55.6729119],[-1.7710354,55.6724098],[-1.7620929,55.6708981],[-1.7538423,55.6684345],[-1.7465985,55.665113],[-1.7406376,55.6610604],[-1.708252,55.634033],[-1.7035877,55.6291027],[-1.7028193,55.6276107],[-1.6207206,55.6113749],[-1.6207206,55.6113749],[-1.6207066,55.6113722],[-1.6207016,55.6113712],[-1.6206908,55.6113691],[-1.5964217,55.6272345],[-1.5502631,55.6729244],[-1.5206094,55.7227912],[-1.5086448,55.7749518],[-1.5148942,55.827429],[-1.5391925,55.8782259],[-1.5802284,55.9248882],[-1.5806797,55.9254014],[-1.7282687,56.0579427],[-1.7947121,56.1047893],[-1.8781668,56.1422784],[-1.974518,56.1685419],[-2.1145097,56.1963214],[-2.0958075,56.2362898],[-2.0902322,56.2890055],[-2.1032763,56.3413145],[-2.1345136,56.3912073],[-2.154965,56.4105129],[-2.0956173,56.452369],[-2.0472572,56.5113584],[-1.9841185,56.6216172],[-1.8098899,56.7375892],[-1.7505235,56.7870717],[-1.71216,56.8424458],[-1.6967295,56.9010634],[-1.6961418,56.9107785],[-1.6179986,56.9859933],[-1.5750755,57.0402488],[-1.5547912,57.0982837],[-1.5577175,57.1486669],[-1.5327283,57.1918328],[-1.3658033,57.3057608],[-1.3148262,57.3479082],[-1.2791413,57.3944205],[-1.2600398,57.443692],[-1.2582511,57.4940154],[-1.2739082,57.5436396],[-1.3441761,57.6840579],[-1.373347,57.727085],[-1.4157993,57.766846],[-1.4703394,57.8021842],[-1.6359059,57.8921449],[-1.718012,57.9280741],[-1.812554,57.9540617],[-1.9153237,57.9689447],[-2.0217222,57.9720557],[-3.019045,57.9413543],[-3.1926344,57.9699861],[-2.7815197,58.1717654],[-2.7090523,58.215441],[-2.6558145,58.2662465],[-2.5791527,58.3622158],[-2.5509786,58.4087166],[-2.5391951,58.4571143],[-2.5442538,58.5058306],[-2.5521385,58.5230006],[-2.5493502,58.5261058],[-2.5150167,58.5769706],[-2.5146356,58.5783921],[-2.5146908,58.578348],[-2.5349458,58.5621779],[-2.6081702,58.5234971],[-2.6946135,58.4932104],[-2.7908012,58.4725246],[-2.8928943,58.4622625],[-2.9968345,58.4628314],[-3.00342,58.4635684],[-3.0034229,58.4635688],[-3.0030759,58.4650741],[-3.0036451,58.4699439],[-3.0058823,58.4746803],[-3.0097149,58.4791284],[-3.015018,58.4831425],[-3.0696819,58.5173699],[-2.9715662,58.6284883],[-2.9682519,58.6334477],[-2.966845,58.6386473],[-2.9673994,58.6438902],[-2.969895,58.6489777],[-2.9742381,58.653717],[-2.9802647,58.6579286],[-2.9877468,58.6614525],[-2.9964008,58.6641551],[-3.0058986,58.6659339],[-3.0158797,58.6667213],[-3.3100491,58.674503],[-3.3315653,58.6916695],[-3.3381022,58.6958859],[-3.3461291,58.6993384],[-3.3553226,58.7018877],[-3.3653118,58.703431],[-3.3756936,58.7039059],[-3.3860486,58.7032932],[-3.395959,58.7016177],[-3.4050247,58.6989471],[-3.41288,58.695389],[-3.4524776,58.6734261],[-3.4585584,58.6693222],[-3.4630175,58.6646895],[-3.4656911,58.6596988],[-3.4664813,58.6545344],[-3.4653597,58.6493867],[-3.4623686,58.6444454],[-3.4576189,58.6398927],[-3.4566953,58.6393098],[-3.5870998,58.6543097],[-3.5973098,58.6549351],[-3.6075562,58.6544995],[-3.6174355,58.6530199],[-3.7301292,58.6294655],[-3.7301296,58.6294658],[-3.7325712,58.63104],[-3.8665005,58.7352794],[-3.91411,58.7811986],[-3.9438968,58.8310018],[-3.9502037,58.8613291],[-3.9502039,58.8613303],[-4.0232025,58.8656482],[-4.1264622,58.8610076],[-4.225837,58.8458226],[-4.3173252,58.8207058],[-4.319354,58.8200057],[-4.3321647,58.82325],[-4.4263478,58.8414615],[-4.5255937,58.8498999],[-4.550276,58.8495006],[-4.6154031,58.8643749],[-4.7182788,58.8758516],[-4.7727041,58.8761126],[-4.8383937,58.8863632],[-4.9420917,58.8967034],[-5.047705,58.8959631],[-5.1508125,58.8841734],[-5.2471055,58.8618276],[-5.3325781,58.8298592],[-5.4037023,58.7896006],[-5.4575768,58.7427245],[-5.4920442,58.6911711],[-5.4960389,58.6824057],[-5.5209063,58.6681363],[-5.5723901,58.6237585],[-5.6065072,58.5750628],[-5.622062,58.5238613],[-5.6213812,58.5138046],[-5.6297296,58.4999341],[-5.6681184,58.4874581],[-5.6681045,58.4874254],[-5.6536596,58.4534516],[-5.6515869,58.400058],[-5.6600132,58.3754865],[-5.6548776,58.3547957],[-5.6580591,58.3315338],[-5.6528208,58.3236918],[-5.6385671,58.2726629],[-5.6430494,58.2211402],[-5.6544366,58.1789695],[-5.6761249,58.1307573],[-5.7140681,58.085442],[-5.7669396,58.0445383],[-5.8329309,58.0094091],[-5.8760171,57.9902988],[-5.8834326,57.9737328],[-5.9211177,57.9284968],[-5.9575542,57.8936861],[-5.9071729,57.8640184],[-5.8772832,57.8425688],[-5.8600597,57.8414809],[-5.8600588,57.8414808],[-5.8604372,57.8410107],[-5.8624651,57.8363017],[-5.8628824,57.8314755],[-5.8555577,57.7419841],[-5.8539259,57.7362606],[-5.8500449,57.7308545],[-5.8440944,57.7260145],[-5.8363488,57.7219633],[-5.8271648,57.7188872],[-5.8210979,57.7173109],[-5.8276911,57.7142068],[-5.8338241,57.7098629],[-5.8381992,57.7049498],[-5.8406392,57.6996675],[-5.8549666,57.6456275],[-5.8553689,57.6401784],[-5.8537157,57.6347971],[-5.8500754,57.6297036],[-5.8445975,57.6251057],[-5.8106906,57.6021242],[-5.8180136,57.6042365],[-5.8273342,57.6057798],[-5.8370355,57.6063306],[-5.8467528,57.6058682],[-5.8561205,57.60441],[-5.8647863,57.6020108],[-5.8724247,57.5987609],[-5.8787487,57.5947825],[-5.8835212,57.5902249],[-5.8865634,57.5852596],[-5.9224538,57.4991285],[-5.9236554,57.4936543],[-5.9227612,57.4881629],[-5.9083087,57.4476427],[-5.9054521,57.4424799],[-5.9007474,57.4377251],[-5.8943827,57.4335677],[-5.8866119,57.4301734],[-5.8777446,57.427677],[-5.861623,57.4241899],[-5.8586584,57.3541698],[-5.8573763,57.3486841],[-5.8540488,57.3434545],[-5.8488166,57.3387004],[-5.8418998,57.3346214],[-5.8335889,57.3313886],[-5.8242329,57.3291374],[-5.814224,57.3279623],[-5.8039819,57.3279124],[-5.7467722,57.3307974],[-5.7701907,57.3129744],[-5.7750095,57.3084237],[-5.7781037,57.3034601],[-5.7781004,57.3034604],[-5.7715805,57.3040429],[-5.7603187,57.3036611],[-5.7255789,57.3003062],[-5.7255796,57.3003058],[-5.7255796,57.3003058],[-5.7294573,57.297361],[-5.6059864,57.2808143],[-5.6059864,57.2808143],[-5.6059864,57.2808143],[-5.6059855,57.2808142],[-5.5782558,57.277098],[-5.6059855,57.2808142],[-5.6059864,57.2808143],[-5.6059864,57.2808143],[-5.6017862,57.2770819],[-5.5984998,57.2723392],[-5.5969114,57.267348],[-5.5970764,57.2622841],[-5.5989881,57.257326],[-5.5989881,57.257326],[-5.5999318,57.2556699],[-5.6430564,57.233195],[-5.6250563,57.2163093],[-5.6773055,57.1626997],[-5.680576,57.1618743],[-5.6884048,57.1598982],[-5.6904494,57.1593822],[-5.6976085,57.1575752],[-5.7300296,57.149392],[-5.7300302,57.1493919],[-5.7404714,57.1467565],[-5.7300302,57.1493919],[-5.7300296,57.149392],[-5.7152513,57.1531221],[-5.7300296,57.149392],[-5.7300302,57.1493919],[-5.7292938,57.1478303],[-5.7276312,57.146012],[-5.7318081,57.1454615],[-5.7412345,57.142996],[-5.7422647,57.142562],[-5.7422659,57.1425591],[-5.7530433,57.1173518],[-5.7555291,57.113138],[-5.7592492,57.1092015],[-5.7641031,57.1056478],[-5.840135,57.0584486],[-5.8401375,57.0584471],[-5.8392409,57.0538072],[-5.8362861,57.0486847],[-5.831526,57.0439817],[-5.8251496,57.0398841],[-5.8201014,57.0377124],[-5.8295777,57.0362273],[-5.8379523,57.034453],[-5.8455996,57.0318849],[-5.8522681,57.0286074],[-5.8577388,57.0247284],[-5.8618319,57.0203756],[-5.9265415,56.9325461],[-5.9292889,56.9273513],[-5.9300823,56.9219618],[-5.9296998,56.9202392],[-5.9384546,56.9188736],[-5.9471198,56.9164349],[-5.9547381,56.9131148],[-5.9610129,56.9090426],[-5.9657001,56.904377],[-5.9686179,56.8992998],[-5.9696534,56.8940086],[-5.9687671,56.8887092],[-5.9659942,56.8836079],[-5.9614434,56.8789031],[-5.9552921,56.8747775],[-5.9477799,56.8713914],[-5.9391987,56.8688765],[-5.9298822,56.8673303],[-5.920192,56.8668129],[-5.8311577,56.8668463],[-5.8313287,56.866587],[-5.8321703,56.8634401],[-5.8710311,56.8544822],[-5.8797454,56.8518781],[-5.8873281,56.8483721],[-5.8934717,56.8441065],[-5.8979278,56.8392543],[-5.9005161,56.8340123],[-5.9011328,56.828593],[-5.8997535,56.8232158],[-5.896435,56.8180986],[-5.8913124,56.8134484],[-5.8872144,56.811012],[-5.8879062,56.8110116],[-5.8979783,56.8104365],[-5.9076223,56.808746],[-5.9164304,56.8060115],[-5.9240301,56.8023488],[-5.9295487,56.798316],[-5.9594899,56.8064915],[-5.9675606,56.8082269],[-5.9760625,56.8091605],[-5.9847318,56.8092633],[-5.9932996,56.8085323],[-6.1914308,56.7814959],[-6.2006396,56.7796816],[-6.2090105,56.776905],[-6.2162125,56.7732759],[-6.2738056,56.7377989],[-6.2792686,56.7337127],[-6.283241,56.7291381],[-6.2855832,56.7242368],[-6.2862131,56.7191816]],[[-5.4067982,55.9596095],[-5.4025949,55.9876552],[-5.388887,55.9842829],[-5.3858663,55.9837236],[-5.3878499,55.9358118],[-5.4067982,55.9596095]]]}}
