{"type":"Feature","properties":{"family":"celts","name":"Kingdom of Scotland, 1028 – 1066"},"geometry":{"type":"Polygon","coordinates":[[[-6.2862098,56.7191795],[-6.2851063,56.7141485],[-6.2823085,56.7093195],[-6.2779157,56.7048629],[-6.2720833,56.7009357],[-6.202325,56.6620039],[-6.1854972,56.6713339],[-6.1778173,56.6748006],[-6.1690228,56.6773461],[-6.1627109,56.6783507],[-6.1627109,56.6783507],[-6.1627107,56.6783506],[-6.1627107,56.6783506],[-6.1614616,56.6776531],[-6.1287345,56.6772382],[-6.0460369,56.6667947],[-6.0374549,56.6652379],[-6.0295385,56.6628426],[-6.0225563,56.65969],[-6.016745,56.6558871],[-6.0123014,56.651563],[-6.0045149,56.6420003],[-6.0066601,56.642193],[-6.0027535,56.6398371],[-5.9387569,56.5612424],[-5.9129393,56.5456819],[-5.7140148,56.5136696],[-5.6754568,56.4969753],[-5.6698695,56.5002087],[-5.6698695,56.5002087],[-5.6698695,56.5002087],[-5.6698695,56.5002087],[-5.6359662,56.4807623],[-5.3648385,56.6385534],[-5.4518463,56.56063],[-5.4542835,56.5599177],[-5.4620045,56.5563842],[-5.4682544,56.5520568],[-5.4727708,56.5471177],[-5.5159063,56.4846244],[-5.5184716,56.4793423],[-5.5190551,56.473883],[-5.5176337,56.4684711],[-5.5142665,56.4633287],[-5.5090927,56.458667],[-5.5023252,56.4546773],[-5.4993703,56.4535245],[-5.5051281,56.4478819],[-5.5040379,56.4479577],[-5.4946217,56.4476005],[-5.4855064,56.4462477],[-5.4770335,56.4439501],[-5.4695202,56.4407936],[-5.4632475,56.4368966],[-5.4617431,56.4354881],[-5.5316192,56.3670882],[-5.5359568,56.3628422],[-5.5366478,56.3626185],[-5.5464289,56.3608397],[-5.5566659,56.3602386],[-5.5854458,56.3602385],[-5.5947038,56.360729],[-5.5971828,56.3611335],[-5.6001322,56.3596167],[-5.6054977,56.3555983],[-5.6094324,56.3511004],[-5.6097691,56.3504151],[-5.6005039,56.3520867],[-5.5915647,56.353195],[-5.5824089,56.3533554],[-5.5733611,56.3525622],[-5.5647423,56.3508436],[-5.5568579,56.3482604],[-5.5499873,56.3449042],[-5.5487974,56.3440541],[-5.5638556,56.3416262],[-5.5926559,56.2504431],[-5.5629815,56.2534256],[-5.5624854,56.2521751],[-5.562165,56.2473226],[-5.5634152,56.2425168],[-5.5886841,56.1834263],[-5.5918459,56.178341],[-5.596757,56.173706],[-5.6032217,56.1697054],[-5.6109826,56.1664982],[-5.6197313,56.1642117],[-5.6291202,56.1629368],[-5.6340873,56.1628274],[-5.6367328,56.1609347],[-5.6439843,56.1574528],[-5.6496645,56.155668],[-5.653557,56.1482046],[-5.6553004,56.1429642],[-5.6551869,56.138631],[-5.6472907,56.1259051],[-5.6438685,56.1231647],[-5.6369719,56.1194744],[-5.6289098,56.1166117],[-5.6199964,56.1146878],[-5.6149263,56.1141981],[-5.6173799,56.1126444],[-5.6219922,56.1083002],[-5.7514568,55.9545935],[-5.75458,55.9496845],[-5.7559592,55.9445309],[-5.7555437,55.9393252],[-5.7533497,55.9342614],[-5.7494596,55.9295285],[-5.7440191,55.9253027],[-5.7427046,55.9246132],[-5.7447775,55.9196366],[-5.7450877,55.9143479],[-5.7435504,55.9091271],[-5.7402255,55.904175],[-5.715001,55.8754782],[-5.7098837,55.8708823],[-5.7057804,55.8684578],[-5.7156946,55.8599298],[-5.7198763,55.85547],[-5.7225069,55.8506514],[-5.723495,55.8456424],[-5.7228069,55.8406178],[-5.7083505,55.7933433],[-5.7056432,55.7879348],[-5.7010033,55.7829589],[-5.6946326,55.7786314],[-5.6426365,55.7499586],[-5.7210142,55.6907597],[-5.7260278,55.6860206],[-5.7292257,55.6808057],[-5.7304748,55.675333],[-5.7297237,55.6698318],[-5.7212289,55.6433745],[-5.7669384,55.5743278],[-5.7693396,55.5692076],[-5.7699254,55.5639211],[-5.7631373,55.4562297],[-5.764497,55.4550916],[-5.961196,55.3782057],[-5.9227543,55.2882046],[-5.5551544,55.0751885],[-5.5524838,55.0735273],[-5.2533548,54.8739545],[-4.9554496,54.6876524],[-4.9554496,54.6598033],[-4.8752899,54.6375227],[-4.8600834,54.6280129],[-4.7781841,54.5985161],[-4.7240197,54.620884],[-4.6381646,54.6428615],[-4.4933415,54.6700496],[-4.4893237,54.6705602],[-4.3966456,54.65426],[-4.3882259,54.6532537],[-4.3796302,54.653159],[-4.3711505,54.6539791],[-4.3630745,54.6556862],[-4.3556768,54.6582222],[-4.3492085,54.6615011],[-4.3152961,54.6821687],[-4.2290467,54.6736459],[-4.1456275,54.6553741],[-4.0698396,54.6282026],[-4.0044828,54.5931418],[-3.9519516,54.5514928],[-3.9141469,54.5047964],[-3.89241,54.4547746],[-3.8874793,54.4032653],[-3.8895101,54.3946198],[-3.8745832,54.3759673],[-3.8529375,54.3228249],[-3.8501159,54.2682331],[-3.8584442,54.2403044],[-3.8354568,54.2229494],[-3.8101375,54.1704551],[-3.7765503,54.120387],[-3.7267877,54.0752016],[-3.6628571,54.0366763],[-3.587302,54.006322],[-3.5031011,53.9853261],[-3.4135533,53.9745083],[-3.3221545,53.9742904],[-3.2324689,53.9846809],[-3.1479972,54.0052745],[-3.0720484,54.035267],[-2.8581798,54.1383929],[-2.8740015,54.1573915],[-2.9050136,54.1369875],[-2.9117324,54.1333619],[-2.9195395,54.1305844],[-2.928128,54.128764],[-2.9371604,54.1279722],[-2.9371604,54.1279722],[-2.9462819,54.1282402],[-3.0038464,54.1333027],[-3.0125979,54.1345938],[-3.0207525,54.1368597],[-3.0279974,54.1400135],[-3.0340544,54.1439343],[-3.0386907,54.1484715],[-3.0416453,54.1521353],[-3.1013625,54.0546332],[-3.1051583,54.0499146],[-3.1104295,54.0457132],[-3.1169787,54.042186],[-3.124561,54.0394647],[-3.1328929,54.0376511],[-3.1328929,54.0376511],[-3.1416631,54.0368128],[-3.1505442,54.0369811],[-3.1592045,54.0381499],[-3.1673206,54.0402753],[-3.1745891,54.0432781],[-3.2717773,54.092223],[-3.278069,54.0960802],[-3.2829439,54.1005881],[-3.286211,54.1055705],[-3.2877417,54.1108323],[-3.2943405,54.1660379],[-3.2963157,54.1657725],[-3.3054191,54.1650979],[-3.3145705,54.1654922],[-3.3234077,54.1669395],[-3.3315809,54.1693828],[-3.3387665,54.1727252],[-3.3446795,54.1768345],[-3.4041506,54.227603],[-3.4042525,54.2277098],[-3.404152,54.2276241],[-3.3987392,54.2238052],[-3.392224,54.2206301],[-3.3848263,54.218206],[-3.3767961,54.2166147],[-3.3684044,54.2159098],[-3.3599342,54.2161151],[-3.3516714,54.2172237],[-3.3438947,54.2191983],[-3.3398898,54.2204796],[-3.4074341,54.2781848],[-3.3660797,54.2428545],[-3.25,54.28],[-3,54.42],[-2.875,54.51],[-2.75,54.6],[-2.45,54.52],[-2.31,54.51],[-2.17,54.5],[-2.3,54.75],[-2.45,55],[-2.55,55.15],[-2.4,55.3],[-2.2,55.4],[-2.3,55.55],[-2.25,55.64],[-2.05,55.77],[-1.9881767,55.7823647],[-1.962596,55.759609],[-1.9558681,55.7624242],[-1.9494982,55.7664098],[-1.9446538,55.7710255],[-1.9415266,55.7760891],[-1.9402407,55.7814008],[-1.9408476,55.786751],[-1.9433242,55.7919283],[-1.9475721,55.7967269],[-1.804537,55.6694462],[-1.7985476,55.6708498],[-1.7896176,55.6723852],[-1.7803286,55.6729119],[-1.7710354,55.6724098],[-1.7620929,55.6708981],[-1.7538423,55.6684345],[-1.7465985,55.665113],[-1.7406376,55.6610604],[-1.708252,55.634033],[-1.7035877,55.6291027],[-1.7028193,55.6276107],[-1.6207066,55.6113722],[-1.5965019,55.6271949],[-1.550347,55.6728831],[-1.5206961,55.7227506],[-1.5087341,55.7749141],[-1.5149861,55.8273962],[-1.5392872,55.8781991],[-1.5807775,55.9253811],[-1.7283617,56.0579268],[-1.7948067,56.1047778],[-1.8782611,56.1422708],[-1.9746098,56.168537],[-2.1145578,56.1963109],[-2.0958656,56.2362641],[-2.0902931,56.2889816],[-2.1033398,56.3412936],[-2.1345796,56.3911902],[-2.155013,56.4104797],[-2.0956592,56.4523376],[-2.0473018,56.5113204],[-1.9841529,56.6215866],[-1.8099082,56.7375628],[-1.7505472,56.7870373],[-1.7121853,56.8424048],[-1.6967532,56.9010179],[-1.6961645,56.9107393],[-1.6180093,56.9859602],[-1.575087,57.0402103],[-1.5548022,57.098242],[-1.5577271,57.1486222],[-1.5327255,57.1918045],[-1.3657825,57.3057381],[-1.3148113,57.3478775],[-1.2791298,57.3943824],[-1.2600293,57.4436476],[-1.2582393,57.4939663],[-1.2738929,57.543588],[-1.3441524,57.6840083],[-1.3733246,57.7270411],[-1.4157812,57.7668087],[-1.4703286,57.8021539],[-1.635894,57.8921188],[-1.7180103,57.9280545],[-1.8125643,57.9540484],[-1.915347,57.9689369],[-2.021758,57.9720525],[-3.0190792,57.9413552],[-3.192091,57.9698397],[-3.2885171,57.922424],[-3.279165,57.9049133],[-3.271302,57.8518109],[-3.2831909,57.7989218],[-3.3142842,57.748302],[-3.3255689,57.7376218],[-3.392641,57.7486801],[-3.4012264,57.7496574],[-3.4099993,57.749827],[-3.4186948,57.7491836],[-3.5015528,57.7390448],[-3.5100574,57.7375673],[-3.5179401,57.7353124],[-3.5249537,57.7323506],[-3.5308785,57.728775],[-3.5355289,57.7246976],[-3.5657001,57.692014],[-3.6043467,57.6954609],[-3.6141306,57.6958156],[-3.623858,57.6951519],[-3.6331611,57.6934951],[-3.6416881,57.6909078],[-3.649117,57.6874877],[-3.6551673,57.6833641],[-3.6551799,57.6833509],[-3.8511352,57.6194723],[-4.0186342,57.6149548],[-3.9691255,57.670711],[-3.9677074,57.6709436],[-3.9592246,57.673353],[-3.9517481,57.676578],[-3.9455488,57.6805019],[-3.7632612,57.8204231],[-3.7632194,57.8204633],[-3.76915,57.8166967],[-3.7763002,57.8135546],[-3.7844043,57.8111588],[-3.7931913,57.8095894],[-3.8023675,57.8088988],[-3.8116262,57.8091101],[-3.8206579,57.8102162],[-3.8349427,57.8127158],[-3.8048353,57.8358462],[-3.825312,57.8394296],[-3.825312,57.8394296],[-3.825312,57.8394296],[-3.7782378,57.8562801],[-3.8671961,57.824437],[-3.8711113,57.827885],[-3.8745436,57.8330345],[-3.8759575,57.8384467],[-3.875294,57.8438996],[-3.8725795,57.8491695],[-3.8679244,57.8540401],[-3.8615192,57.8583115],[-3.8536265,57.8618081],[-3.8065362,57.8786691],[-3.797721,57.8811887],[-3.7977464,57.8811846],[-3.8065062,57.8786817],[-3.9091812,57.8419447],[-3.9480794,57.8621074],[-3.9563801,57.8655881],[-3.9571476,57.8657897],[-3.9381922,57.9012579],[-3.9381977,57.9012587],[-3.958356,57.8635348],[-3.961884,57.8587298],[-3.9670651,57.8543697],[-3.9737097,57.8506135],[-3.9815749,57.8475986],[-3.9903732,57.8454347],[-3.9997836,57.844201],[-4.0094627,57.8439425],[-4.0190575,57.8446684],[-4.1823102,57.8650831],[-4.0086401,57.8681001],[-4.007151,57.8708939],[-4.2,57.895],[-4.4,57.92],[-4.8,57.97],[-5.15,57.92],[-5.2118121,57.9180981],[-5.1493751,57.892996],[-5.2088613,57.8911658],[-5.2178071,57.8913082],[-5.2265669,57.892283],[-5.2348689,57.8940601],[-5.2424553,57.8965842],[-5.2519302,57.9003922],[-5.2522624,57.9001639],[-5.2937198,57.9155779],[-5.3666667,57.9133333],[-5.3807164,57.912901],[-5.3207926,57.8877219],[-5.3485524,57.8868678],[-5.4162542,57.9086259],[-5.4245669,57.8969288],[-5.4261465,57.8975923],[-5.4329176,57.9010183],[-5.4383925,57.9050459],[-5.4423853,57.9095388],[-5.4447602,57.9143446],[-5.445436,57.9193004],[-5.4443889,57.9242382],[-5.441654,57.9289903],[-5.43762,57.9330936],[-5.4460029,57.9304948],[-5.4534042,57.9270256],[-5.4594009,57.9228616],[-5.4637668,57.9181603],[-5.4836735,57.8901196],[-5.5025499,57.8989757],[-5.4991702,57.9115862],[-5.4991767,57.9115867],[-5.5012471,57.9038589],[-5.5036052,57.8987258],[-5.5077998,57.893935],[-5.5136694,57.8896703],[-5.5136694,57.8896703],[-5.5209886,57.886095],[-5.5294768,57.8833459],[-5.5388087,57.8815284],[-5.541591,57.8812971],[-5.5566556,57.888363],[-5.5494555,57.9153803],[-5.5515168,57.9076456],[-5.5833333,57.9066667],[-5.6424466,57.9048478],[-5.6538565,57.8951173],[-5.6356465,57.8780347],[-5.6394886,57.8779165],[-5.649546,57.8781348],[-5.6593245,57.879404],[-5.66844,57.881674],[-5.6765343,57.8848557],[-5.683289,57.8888242],[-5.6884381,57.8934233],[-5.6917786,57.8984724],[-5.6931782,57.9037727],[-5.692581,57.9091157],[-5.6900097,57.9142911],[-5.6855646,57.9190951],[-5.6573921,57.9431457],[-5.6512597,57.9473766],[-5.6437138,57.9508665],[-5.6438284,57.9508314],[-5.6513248,57.9473466],[-5.6573946,57.9431524],[-5.6969701,57.9093674],[-5.7016899,57.9041605],[-5.7042131,57.8985389],[-5.7042828,57.8966367],[-5.7783209,57.8950566],[-5.788697,57.8942557],[-5.7985414,57.8923382],[-5.8074331,57.8893861],[-5.8149926,57.8855256],[-5.8208972,57.8809215],[-5.8568663,57.8454488],[-5.8604405,57.8410077],[-5.8624685,57.8362985],[-5.8628858,57.8314723],[-5.8555606,57.7419807],[-5.8539289,57.7362578],[-5.8500484,57.7308523],[-5.8440986,57.726013],[-5.8363539,57.7219623],[-5.8271707,57.7188866],[-5.8210995,57.7173091],[-5.8276914,57.7142057],[-5.8338255,57.7098612],[-5.8382015,57.7049473],[-5.8406418,57.6996643],[-5.8549689,57.6456243],[-5.8553712,57.6401753],[-5.8537182,57.6347944],[-5.8500782,57.6297013],[-5.8446007,57.6251039],[-5.8107055,57.6021307],[-5.8180094,57.6042375],[-5.8273305,57.6057806],[-5.8370326,57.6063311],[-5.8467507,57.6058684],[-5.8561192,57.6044097],[-5.8647859,57.60201],[-5.8724251,57.5987596],[-5.8787497,57.5947805],[-5.8835227,57.5902225],[-5.8865652,57.5852567],[-5.9224538,57.4991285],[-5.9224551,57.4991254],[-5.9236567,57.493651],[-5.9227626,57.4881597],[-5.9083098,57.4476396],[-5.9054535,57.4424773],[-5.9007494,57.4377231],[-5.8943856,57.4335663],[-5.8866158,57.4301723],[-5.8777495,57.4276764],[-5.861624,57.4241884],[-5.8586589,57.3541666],[-5.8573769,57.3486812],[-5.8540497,57.343452],[-5.848818,57.3386985],[-5.8419019,57.3346199],[-5.8335919,57.3313875],[-5.8242367,57.3291366],[-5.8142286,57.3279617],[-5.803987,57.327912],[-5.7467699,57.3307974],[-5.7701898,57.3129731],[-5.7750088,57.3084222],[-5.7781023,57.3034603],[-5.7715805,57.3040429],[-5.7603187,57.3036611],[-5.7255789,57.3003062],[-5.7294573,57.297361],[-5.6059864,57.2808143],[-5.6017862,57.2770819],[-5.5984998,57.2723392],[-5.5969114,57.267348],[-5.5970764,57.2622841],[-5.5989881,57.257326],[-5.5999318,57.2556699],[-5.6430564,57.233195],[-5.6250563,57.2163093],[-5.6773055,57.1626997],[-5.6904494,57.1593822],[-5.6936264,57.1585803],[-5.7114364,57.154085],[-5.7300308,57.1493917],[-5.7292937,57.1478285],[-5.7276325,57.1460116],[-5.7318044,57.1454617],[-5.7412312,57.1429959],[-5.7422655,57.1425602],[-5.7530433,57.1173518],[-5.7555291,57.113138],[-5.7592492,57.1092015],[-5.7641031,57.1056478],[-5.8401367,57.0584476],[-5.8392402,57.0538058],[-5.836286,57.0486833],[-5.8315266,57.0439804],[-5.8251508,57.039883],[-5.8201039,57.0377117],[-5.8295723,57.0362278],[-5.8379476,57.0344533],[-5.8455956,57.0318848],[-5.8522649,57.0286069],[-5.8577361,57.0247274],[-5.8618297,57.020374],[-5.926539,56.9325443],[-5.9292866,56.9273491],[-5.9300802,56.9219594],[-5.9296983,56.9202391],[-5.9384486,56.9188742],[-5.947114,56.9164354],[-5.9547326,56.9131151],[-5.961008,56.9090428],[-5.9656959,56.9043771],[-5.9686146,56.8992997],[-5.969651,56.8940084],[-5.9687657,56.8887089],[-5.965994,56.8836075],[-5.9614442,56.8789026],[-5.9552939,56.8747769],[-5.9477826,56.8713908],[-5.9392023,56.8688759],[-5.9298865,56.8673297],[-5.9201968,56.8668124],[-5.831154,56.8668462],[-5.8313254,56.8665862],[-5.8321672,56.8634401],[-5.8710252,56.8544827],[-5.87974,56.8518784],[-5.8873231,56.8483721],[-5.8934674,56.8441062],[-5.897924,56.8392536],[-5.900513,56.8340112],[-5.9011301,56.8285915],[-5.8997513,56.823214],[-5.8964332,56.8180966],[-5.8913109,56.8134464],[-5.8872173,56.8110125],[-5.8879014,56.8110121],[-5.8979736,56.8104369],[-5.9076178,56.8087461],[-5.9164261,56.8060113],[-5.9240261,56.8023481],[-5.9295433,56.7983161],[-5.959489,56.8064928],[-5.9675581,56.8082277],[-5.9760582,56.8091611],[-5.9847259,56.8092639],[-5.9932923,56.808533],[-6.1914242,56.7814965],[-6.2006331,56.7796821],[-6.2090044,56.7769052],[-6.2162069,56.7732758],[-6.2738,56.7377987],[-6.2792636,56.733712],[-6.2832366,56.729137],[-6.2855794,56.7242351],[-6.2862098,56.7191795]],[[-5.4068059,55.9596118],[-5.4026025,55.9876569],[-5.3888835,55.9842819],[-5.3858588,55.9837218],[-5.3878426,55.9357955],[-5.4068059,55.9596118]],[[-4.3938439,57.9086259],[-4.3466367,57.885632],[-4.3621611,57.8875733],[-4.3938439,57.9086259]]]}}
