{"type":"Feature","properties":{"family":"other","name":"Serbian principalities, 985 – 1014"},"geometry":{"type":"Polygon","coordinates":[[[17.1315894,42.56295],[17.1499109,42.5537668],[17.2180958,42.5327551],[17.6412949,42.4369007],[17.712947,42.4261388],[17.7860625,42.4260727],[17.8577526,42.4367051],[17.9251824,42.4576161],[17.9856794,42.4879787],[18.0368361,42.5265907],[18.0766042,42.5719206],[18.1033768,42.6221669],[18.1085678,42.6439336],[18.1085683,42.6439335],[18.2141658,42.6210735],[18.2141676,42.6210731],[18.1999794,42.6085219],[18.1660996,42.5628909],[18.1447771,42.5133171],[18.1367765,42.4616494],[18.1423623,42.4098101],[18.1612939,42.3597233],[18.1903532,42.3040877],[18.1945546,42.3052871],[18.4513812,42.4405267],[18.2395824,42.5594586],[18.495185,42.4159295],[18.4797229,42.4246119],[18.4970547,42.3911139],[18.4970547,42.3911139],[18.497476,42.3912327],[18.5199881,42.4054591],[18.5311853,42.4007323],[18.5108583,42.4400612],[18.526587,42.4096292],[18.5491076,42.4238611],[18.5493317,42.4241501],[18.5154385,42.4384601],[18.5101434,42.4414444],[18.502385,42.4564553],[18.6103861,42.4446353],[18.6859869,42.4834726],[18.6978374,42.4084336],[18.6978376,42.4084325],[18.6935275,42.410221],[18.6868386,42.4118513],[18.6798501,42.4125033],[18.6728221,42.4121526],[18.6660159,42.4108123],[18.6544117,42.4076115],[18.6024246,42.4249372],[18.5998965,42.4410017],[18.5994482,42.4409633],[18.582236,42.4316654],[18.5635856,42.437881],[18.5659561,42.4228713],[18.5487638,42.4135842],[18.5485786,42.4132805],[18.5685202,42.4066351],[18.5707857,42.3922894],[18.6175862,42.3686493],[18.6531029,42.3784487],[18.6853369,42.367707],[18.685337,42.367707],[18.6919606,42.3660377],[18.6962898,42.3655973],[18.6962898,42.3655973],[18.7795878,42.2707118],[18.7078099,42.3524746],[18.4158833,42.1948271],[18.4140442,42.1917877],[18.5504162,42.1463761],[18.6164396,42.1297443],[18.6855087,42.1227183],[18.7551176,42.1255528],[18.8227412,42.1381452],[18.8859238,42.1600385],[18.9423651,42.1904377],[18.9508679,42.1971847],[18.9127891,42.2217431],[19,42.1654977],[19.0443391,42.1369018],[19.0443245,42.1369112],[19.0010044,42.1142745],[19.000503,42.1138881],[19.0443498,42.1368949],[19.0855909,42.110297],[19.1320708,42.0176421],[19.1320708,42.0176421],[19.1719917,41.9380621],[19.2059811,41.9230053],[19.2049417,41.9218231],[19.2049415,41.9218228],[19.2049369,41.9218175],[19.2049415,41.9218228],[19.2049414,41.9218225],[19.2059813,41.9230052],[19.3091722,41.877293],[19.2835347,41.8886501],[19.2370207,41.9092552],[19.2370207,41.9092552],[19.6,42],[19.9,42.4],[20.0666667,42.5666667],[20.2333333,42.7333333],[20.4,42.9],[20.3333333,43.1],[20.2,43.5],[20,43.9],[19.9,44.1],[19.8,44.3],[20.5,44.8],[20.3,44.84],[20.1,44.88],[19.9,44.92],[19.5,45],[19.3333333,45.0666667],[19.2142857,45.1142857],[18.85,44.75],[18.7,44.6],[18.55,44.45],[18.4,44.3],[17.8,43.7],[17.7333333,43.4666667],[17.6666667,43.2333333],[17.6,43],[17.5144487,42.9714829],[17.5692531,42.9477545],[17.5692532,42.9477545],[17.5692532,42.9477545],[17.5692532,42.9477545],[17.5608001,42.9333137],[17.6167762,42.9225027],[17.5555756,42.9343227],[17.5704948,42.9275841],[17.5601747,42.9322454],[17.5463076,42.9085559],[17.5461918,42.9082338],[17.6073681,42.8964187],[17.6146822,42.8955678],[17.6220809,42.8958057],[17.6292653,42.8971228],[17.6341459,42.8988347],[17.6527765,42.8904197],[17.7067771,42.8870426],[17.7427774,42.8397624],[17.7057455,42.8505902],[17.4655747,42.9208141],[17.4341148,42.9447049],[17.4,42.9333333],[17.3676985,42.9225661],[17.3676984,42.9225661],[17.3998667,42.9098919],[17.400071,42.9098114],[17.3999438,42.9098615],[17.4012596,42.9093431],[17.3835641,42.916315],[17.3998518,42.9098977],[17.3998538,42.9098969],[17.4004279,42.9096707],[17.4035876,42.9084258],[17.7017234,42.7909611],[17.7197763,42.7599425],[17.7197763,42.7599425],[17.7201935,42.7600733],[17.742399,42.774935],[17.7535775,42.7705307],[17.7486025,42.7790869],[17.7708422,42.7939714],[17.7710581,42.7942644],[17.7304152,42.810366],[17.7276349,42.8151476],[17.7276349,42.8151477],[17.7276348,42.8151478],[17.7290884,42.8147208],[17.7357567,42.8132794],[17.7426756,42.8127839],[17.7495981,42.8132519],[17.7562772,42.8146667],[17.7624745,42.8169778],[17.76351,42.8175668],[17.8939789,42.7907936],[17.8459543,42.8006486],[17.8120782,42.7794439],[17.7521739,42.7543289],[17.7209316,42.7439235],[17.6818328,42.7652009],[17.6747783,42.7682068],[17.6669938,42.7699958],[17.3320515,42.8172957],[17.3246555,42.8177687],[17.3172807,42.8171422],[17.3102278,42.8154417],[17.3037846,42.8127366],[17.2982138,42.8091372],[17.2937423,42.8047903],[17.2905524,42.7998732],[17.2887736,42.7945863],[17.2884782,42.7891452],[17.2896777,42.7837714],[17.292323,42.7786839],[17.2963059,42.7740899],[17.3014641,42.7701764],[17.3075873,42.7671028],[17.3144262,42.7649941],[17.5928884,42.7019043],[17.5860762,42.6990092],[17.519872,42.6769597],[17.4555581,42.660587],[17.3882582,42.6531938],[17.3202597,42.6550312],[17.3027211,42.657943],[17.2832341,42.6527103],[17.2226366,42.645933],[17.1982767,42.6144567],[17.1527369,42.5753325],[17.1315894,42.56295]],[[17.7535775,42.7705307],[17.7405037,42.7756818],[17.7376286,42.7768146],[17.7535775,42.7705307]]]}}
