{"type":"Feature","properties":{"family":"islam","name":"Shirvan and Derbent, 882 – 957"},"geometry":{"type":"Polygon","coordinates":[[[46.5,41.2],[46.6333333,41.0666667],[46.7666667,40.9333333],[46.9,40.8],[47.125,40.7],[47.35,40.6],[47.575,40.5],[47.8,40.4],[47.975,40.3],[48.15,40.2],[48.5,40],[48.6833333,39.8666667],[48.8666667,39.7333333],[49.05,39.6],[49.2333333,39.4666667],[49.4086941,39.3391316],[49.4086941,39.3241445],[49.3654937,39.3511618],[49.3892421,39.3168163],[49.3892484,39.3168071],[49.3899468,39.3163837],[49.39598,39.3140104],[49.4024918,39.3125833],[49.4092369,39.3121559],[49.4159617,39.3127444],[49.4224129,39.3143267],[49.4283478,39.3168432],[49.433543,39.3201991],[49.4378028,39.3242682],[49.4409667,39.3288973],[49.4429152,39.333912],[49.4435748,39.3391236],[49.4435749,39.339149],[49.4435773,39.3391304],[49.4435698,39.3241435],[49.4428394,39.3186619],[49.4406842,39.3134093],[49.4371944,39.3086048],[49.4355037,39.3071031],[49.4394421,39.3013985],[49.4420175,39.2966085],[49.4433596,39.2915254],[49.4434191,39.2863375],[49.442194,39.2812365],[49.4397299,39.2764113],[49.4361183,39.2720401],[49.4314927,39.2682847],[49.4260244,39.2652839],[49.4199156,39.2631485],[49.4133921,39.2619576],[49.406695,39.2617551],[49.4000717,39.2625485],[49.3937671,39.2643085],[49.3880141,39.26697],[49.3022657,39.315811],[49.297095,39.3143558],[49.2699306,39.2710618],[49.2474133,39.1015159],[49.2474083,39.1014788],[49.2860695,39.0866379],[49.3533761,39.0727746],[49.4228786,39.0695657],[49.4918177,39.0771384],[49.5574561,39.0951921],[49.617183,39.1230096],[49.6686156,39.1594848],[49.7096919,39.2031656],[49.7387531,39.2523102],[49.7546117,39.3049548],[49.7551092,39.3184599],[49.7566024,39.3589914],[49.744613,39.4122512],[49.7190945,39.4625916],[49.6773656,39.5253816],[49.7093309,39.5536052],[49.7444223,39.6015039],[49.7662163,39.6538887],[49.773779,39.7085895],[49.774448,39.8391666],[49.7899397,39.8558584],[49.8184413,39.9047919],[49.8338021,39.9570813],[49.8347832,39.9902701],[49.988565,40.0550154],[50.0201282,40.0553644],[50.1132739,40.0624961],[50.1651763,40.0343252],[50.2296555,40.0124559],[50.2985015,40.0008178],[50.3689856,39.9998717],[50.4383169,40.0096549],[50.5037485,40.0297796],[50.5626828,40.0594481],[50.6127723,40.0974832],[50.6520107,40.1423737],[50.6831413,40.1870436],[50.709844,40.2366319],[50.7232012,40.2892715],[50.7229349,40.3154],[50.7251266,40.3192262],[50.7399878,40.3719572],[50.7407943,40.4258877],[50.7274804,40.4788626],[50.6990177,40.5515527],[50.6738267,40.5988602],[50.6373122,40.6417093],[50.5907686,40.6785571],[50.5358599,40.7080738],[50.4745601,40.729193],[50.4420512,40.7376691],[50.3751283,40.7497599],[50.3728701,40.7498287],[50.2426652,40.8121336],[50.1720495,40.8380864],[50.0956012,40.8516686],[50.0170671,40.8522136],[49.8875523,40.8421537],[49.8875413,40.8422387],[49.8659471,40.8946638],[49.8307157,40.9426882],[49.7832873,40.984311],[49.5506504,41.14993],[49.379915,41.5066113],[49.3559195,41.5461255],[49.3237359,41.5822393],[48.863625,42.0139385],[48.8225112,42.046276],[48.7747626,42.0731374],[48.6848135,42.1154591],[48.6615779,42.1628113],[48.658135,42.1680657],[48.6769346,42.1197836],[48.6831232,42.0681971],[48.6759256,42.0166996],[48.6556397,41.9671873],[48.6230404,41.921479],[48.579348,41.8812499],[48.5761101,41.8792233],[48.4160618,41.9543163],[48.3541939,42.0793393],[48.3539711,42.079677],[48.3541667,42.0792817],[48.355913,42.074356],[48.3563818,42.0692757],[48.3555567,42.064222],[48.3534675,42.059375],[48.3501888,42.0549075],[48.3458378,42.0509786],[48.3405696,42.0477283],[48.334572,42.0452724],[48.3325831,42.0447917],[48.3325798,42.0447984],[48.3325798,42.0447984],[48.3200897,42.070015],[48.2,42.05],[48.0666667,41.8666667],[47.9333333,41.6833333],[47.8,41.5],[47.6333333,41.4333333],[47.4666667,41.3666667],[47.3,41.3],[47.1,41.4333333],[46.9,41.5666667],[46.7,41.7],[46.6333333,41.5333333],[46.5666667,41.3666667],[46.5,41.2]],[[50.2295023,40.3423566],[50.3398846,40.2687222],[50.3398846,40.2687222],[50.3664305,40.2510138],[50.3915039,40.2342877],[50.3664305,40.2510138],[50.3398846,40.2687222],[50.3708689,40.3134773],[50.3519035,40.3862596],[50.3708689,40.3134773],[50.3818055,40.2715067],[50.4021485,40.3008716],[50.4050703,40.30657],[50.4062331,40.3126239],[50.4055768,40.3187221],[50.4056176,40.3183426],[50.4260965,40.2396035],[50.42677,40.2344824],[50.4261575,40.2293544],[50.4242817,40.2244065],[50.4212112,40.219819],[50.4170581,40.2157591],[50.4119739,40.2123747],[50.4061439,40.2097892],[50.3997807,40.2080967],[50.3931159,40.207359],[50.3863924,40.2076028],[50.3798552,40.2088194],[50.3737422,40.2109644],[50.3682762,40.2139596],[50.3166597,40.2483847],[50.3166308,40.248408],[50.3223583,40.2452948],[50.3288229,40.2431006],[50.3357303,40.2419325],[50.3428039,40.2418374],[50.3497606,40.242819],[50.3563221,40.244838],[50.3622258,40.2478137],[50.3664301,40.2510141],[50.3398846,40.2687222],[50.2295023,40.3423566]],[[50.5290075,40.3363238],[50.529481,40.3417166],[50.5313541,40.3469318],[50.5345518,40.3517596],[50.5389458,40.3560061],[50.5443597,40.3595005],[50.5505757,40.3621022],[50.557344,40.3637067],[50.5643923,40.3642494],[50.5977248,40.3642491],[50.6045481,40.3637402],[50.6111103,40.3622345],[50.617164,40.3597889],[50.6224809,40.3564955],[50.6268607,40.3524786],[50.6301384,40.3478895],[50.6508047,40.3107359],[50.6528474,40.3057743],[50.6536021,40.3006029],[50.653041,40.2954145],[50.6511853,40.2904026],[50.6481045,40.2857538],[50.6439135,40.2816414],[50.6387686,40.2782186],[50.6328616,40.2756128],[50.6264126,40.2739213],[50.6196617,40.2732069],[50.6128603,40.2734962],[50.6062616,40.2747785],[50.6001115,40.2770061],[50.5946391,40.280096],[50.5406406,40.3172346],[50.5358883,40.3212298],[50.5322771,40.3258705],[50.5299523,40.3309701],[50.5290075,40.3363238]]]}}
