{"type":"Feature","properties":{"family":"islam","name":"Emirate of Sicily, 965 – 1066"},"geometry":{"type":"Polygon","coordinates":[[[12.084849,37.7801801],[12.0953232,37.7295085],[12.1177252,37.6813199],[12.1973412,37.54982],[12.2365418,37.4997804],[12.2884464,37.4576611],[12.443103,37.3566276],[12.4925745,37.3296695],[12.5472129,37.310032],[12.6053247,37.2983227],[12.6651121,37.2949037],[12.7905476,37.2964741],[12.8000876,37.288825],[12.8574466,37.2585132],[12.9212813,37.2380152],[12.9889804,37.2281684],[13.0515483,37.2241911],[13.5135406,36.9541461],[13.5650872,36.9291322],[13.7446533,36.8584384],[13.7996118,36.8413244],[13.8574394,36.8321079],[13.9163843,36.831068],[14.046338,36.8377898],[14.2079669,36.6437203],[14.2453237,36.6063668],[14.2902847,36.574888],[14.3414354,36.5502683],[14.397173,36.5332766],[15.0001058,36.3952909],[15.0695516,36.3853862],[15.1400314,36.3873583],[15.208456,36.4011206],[15.2718235,36.4260696],[15.3273475,36.4611106],[15.3705404,36.4947965],[15.4105493,36.5322459],[15.4414338,36.5749187],[15.4621497,36.6213936],[15.471987,36.6701202],[15.4705961,36.7194702],[15.4606323,36.7577044],[15.5087839,36.7816291],[15.5621992,36.8144672],[15.6064379,36.8551376],[15.6397289,36.9020265],[15.6607281,36.9532704],[15.6685738,37.0068285],[15.6629253,37.060564],[15.6439802,37.1123281],[15.6379254,37.121503],[15.6371766,37.1385853],[15.6215945,37.1906964],[15.5933656,37.2393222],[15.5894669,37.2435602],[15.5903322,37.2487226],[15.5859576,37.3019248],[15.5684999,37.3534023],[15.5386168,37.4011391],[15.4974584,37.4432621],[15.4755526,37.458288],[15.4769254,37.4601754],[15.4992922,37.5170716],[15.5329338,37.6542172],[15.5708138,37.6964261],[15.5709078,37.6965309],[15.7574035,37.9043391],[15.7341608,37.9042197],[15.7273471,37.904713],[15.7207981,37.9062624],[15.7147761,37.9088059],[15.7095224,37.9122416],[15.6123243,37.9898953],[15.607922,37.9942227],[15.6047481,37.9991691],[15.6029381,38.0045237],[15.6025693,38.0100584],[15.6036578,38.0155372],[15.6061575,38.0207265],[15.6194816,38.0415766],[15.5926602,38.078032],[15.5896351,38.0834457],[15.5881978,38.0892496],[15.5884182,38.0951622],[15.5902861,38.1008964],[15.6123248,38.1467227],[15.6001759,38.2106619],[15.6001767,38.2106623],[15.6001791,38.2106636],[15.6662951,38.2444851],[15.6716436,38.2478597],[15.6760321,38.2520015],[15.6792855,38.2567452],[15.681274,38.2619019],[15.6819179,38.2672659],[15.6812231,38.2723894],[15.6812191,38.272419],[15.7853412,38.3193189],[15.8613353,38.4767967],[15.8318764,38.4949326],[15.8318764,38.4949326],[15.7703615,38.519126],[15.6512109,38.5547111],[15.5814916,38.5691551],[15.5207729,38.5714736],[15.5207657,38.5714738],[15.509442,38.5719062],[15.4382452,38.5628427],[15.3710459,38.5423647],[15.3270405,38.5245801],[15.2997123,38.5307015],[15.2340479,38.5351791],[15.1684979,38.5297664],[15.1054826,38.5146632],[15.0473257,38.4904268],[14.9961665,38.4579511],[14.9865147,38.4489362],[14.9694502,38.4528842],[14.9671497,38.4530368],[14.9671497,38.4528386],[14.9664011,38.4530865],[14.9001388,38.4574829],[14.8310666,38.4510442],[14.6576706,38.4205427],[14.6003539,38.4061744],[14.5471348,38.3841814],[14.38538,38.3021673],[14.2752053,38.2888478],[14.0775567,38.3152896],[14.0133679,38.3190091],[13.9494261,38.3132434],[13.8879956,38.2981965],[13.7963646,38.2680315],[13.7579015,38.2989239],[13.7006939,38.3358502],[13.6346833,38.3622721],[13.6036744,38.3686242],[13.5948716,38.380082],[13.5526181,38.4172893],[13.5023148,38.4477556],[13.4456822,38.4704333],[13.3846647,38.4845421],[13.3213621,38.4895961],[13.2579552,38.4854212],[13.0411917,38.4549136],[12.9800337,38.4415735],[12.9230727,38.4196417],[12.9190329,38.4172766],[12.8927752,38.4310634],[12.8282896,38.4516734],[12.7598066,38.4616639],[12.6901551,38.4606223],[12.6222139,38.4485918],[12.5587887,38.4260697],[12.5024928,38.393986],[12.4556372,38.3536641],[12.4201341,38.3067645],[12.4146715,38.2943741],[12.3338189,38.2608488],[12.2781698,38.2319693],[12.230725,38.1951677],[12.1932735,38.1518423],[12.167217,38.1036366],[12.1535189,38.0523758],[12.1380003,37.9415914],[12.1267965,37.9287012],[12.1008512,37.8816158],[12.0867056,37.8315023],[12.084849,37.7801801]],[[12.9439294,37.5680242],[13,37.512795],[13,37.512795],[12.9439294,37.5680242]],[[14.9491495,38.3971156],[14.9671497,38.4325757],[15,38.3955959],[15.00315,38.3920499],[15,38.3870263],[14.9851499,38.363344],[14.9491495,38.3971156]],[[14.9815498,36.6882754],[15,36.6994019],[15.0067501,36.7034726],[15,36.6994019],[14.9815498,36.6882754]]]}}
