{"type":"Feature","properties":{"family":"other","name":"Slavic peoples, 804 – 854"},"geometry":{"type":"Polygon","coordinates":[[[10.9,53.2],[11.05,53.15],[11.2,53.1],[11.55,53],[11.85,52.85],[12,52.65],[11.95,52.4],[11.8,52.2],[11.7,52.05],[11.8,51.85],[11.85,51.725],[11.9,51.6],[11.95,51.35],[11.95,51.1],[11.8,50.85],[11.7,50.6],[11.8,50.4],[11.95,50.35],[12.1,50.3],[12.4,50.1],[12.5,49.8],[12.75,49.45],[13.1,49.2],[13.5,48.95],[13.85,48.75],[14.0333333,48.7],[14.2166667,48.65],[14.356,48.612],[14.4,48.6],[14.6,48.5833333],[14.8,48.5666667],[15,48.55],[15.2,48.5666667],[15.4,48.5833333],[15.6,48.6],[15.8,48.6166667],[16,48.6333333],[16.2,48.65],[16.95,48.6],[16.965,48.385],[16.98,48.17],[17.3933333,47.99],[17.6,47.9],[18.2,47.75],[18.4333333,47.7666667],[18.6666667,47.7833333],[18.9,47.8],[19,47.5],[18.9833333,47.3333333],[18.9666667,47.1666667],[18.95,47],[18.9333333,46.8333333],[18.9166667,46.6666667],[18.9,46.5],[18.8833333,46.3333333],[18.8666667,46.1666667],[18.85,46],[18.9,45.55],[18.7333333,45.6166667],[18.5666667,45.6833333],[18.4,45.75],[17.8,45.9],[17.6,45.9833333],[17.4,46.0666667],[17.2,46.15],[17,46.2166667],[16.8,46.2833333],[16.6,46.35],[16.2,46.4],[16.05,46.2625],[15.9,46.125],[15.75,45.9875],[15.6,45.85],[15.3,45.6],[15.1333333,45.55],[14.9666667,45.5],[14.8,45.45],[14.45,45.33],[14.460457,45.3028119],[14.460457,45.3028119],[14.4593215,45.3031262],[14.4159763,45.3151247],[14.4159763,45.3151247],[14.4159763,45.3151247],[14.3669014,45.3287093],[14.3669014,45.3287093],[14.3669014,45.3287093],[14.3669014,45.3287093],[14.3669014,45.3287093],[14.3669014,45.3287093],[14.3669014,45.3287093],[14.3669014,45.3287093],[14.3669014,45.3287093],[14.3669014,45.3287093],[14.3669014,45.3287093],[14.3457726,45.334558],[14.317432,45.3424031],[14.3119431,45.3439225],[14.3669014,45.3287093],[14.3669014,45.3287093],[14.3669014,45.3287093],[14.3669014,45.3287093],[14.3669014,45.3287093],[14.3669014,45.3287093],[14.3669014,45.3287093],[14.3669014,45.3287093],[14.3669014,45.3287093],[14.3669014,45.3287093],[14.3669014,45.3287093],[14.4159763,45.3151247],[14.4159763,45.3151247],[14.4159763,45.3151247],[14.4179013,45.3145918],[14.4593215,45.3031262],[14.460457,45.3028119],[14.484235,45.2962298],[14.484235,45.2962298],[14.484235,45.2962298],[14.484235,45.2962298],[14.484235,45.2962298],[14.484235,45.2962298],[14.4960328,45.292964],[14.4960397,45.2929621],[14.4960401,45.292962],[14.4960417,45.2929616],[14.4960419,45.2929615],[14.4933445,45.2889306],[14.4887503,45.2845994],[14.4830191,45.2810007],[14.4763813,45.2782792],[14.4691037,45.2765442],[14.4614787,45.2758654],[14.4538127,45.2762701],[14.44646,45.2777328],[14.4465501,45.2777079],[14.5140469,45.2590259],[14.5130998,45.2574956],[14.5114994,45.252212],[14.4956146,45.1504492],[14.4081705,45.1121529],[14.3985477,45.1513158],[14.3942138,45.1689539],[14.4068674,45.1173748],[14.4074135,45.1120855],[14.4064812,45.1068244],[14.4041071,45.1017951],[14.4003834,45.0971921],[14.3954543,45.0931935],[14.3770543,45.0809305],[14.3770543,45.0809305],[14.3770535,45.080934],[14.3692124,45.1128083],[14.3551436,45.169999],[14.3692124,45.1128083],[14.3118132,45.0745422],[14.3107527,45.0757925],[14.3107524,45.0757928],[14.3013891,45.0868317],[14.3011998,45.0870549],[14.300651,45.0877018],[14.3004679,45.0879178],[14.2989517,45.0897052],[14.2989517,45.0897053],[14.2989517,45.0897053],[14.2989517,45.0897053],[14.2989517,45.0897053],[14.2989517,45.0897053],[14.2863663,45.1045429],[14.2853777,45.1057084],[14.2853777,45.1057084],[14.2853777,45.1057084],[14.2853777,45.1057084],[14.2853777,45.1057084],[14.2853777,45.1057084],[14.2795583,45.1125691],[14.2795428,45.1125874],[14.2795583,45.1125691],[14.2853777,45.1057084],[14.2853777,45.1057084],[14.2853777,45.1057084],[14.2853777,45.1057084],[14.2853777,45.1057084],[14.2853777,45.1057084],[14.2863663,45.1045429],[14.2989517,45.0897053],[14.2989517,45.0897053],[14.2989517,45.0897053],[14.2989517,45.0897053],[14.2989517,45.0897053],[14.2989517,45.0897052],[14.3004679,45.0879178],[14.300651,45.0877018],[14.3011998,45.0870549],[14.3013891,45.0868317],[14.3107524,45.0757928],[14.3107527,45.0757925],[14.3118132,45.0745422],[14.3142175,45.0717077],[14.3153139,45.0704151],[14.3179694,45.0672843],[14.3211207,45.0635691],[14.3314006,45.0514497],[14.3314006,45.0514497],[14.3314032,45.0514465],[14.3314062,45.0514431],[14.3314069,45.0514422],[14.3314091,45.0514396],[14.3314101,45.0514384],[14.3750408,45],[14.3314101,45.0514384],[14.3314091,45.0514396],[14.3314069,45.0514422],[14.3314062,45.0514431],[14.3252744,45.0493052],[14.3179545,45.0479315],[14.3103929,45.0476057],[14.3028871,45.0483407],[14.2957325,45.0501075],[14.2892107,45.0528366],[14.2835783,45.0564206],[14.2790573,45.0607185],[14.2468248,45.0986922],[14.2468159,45.0986884],[14.2467901,45.0986775],[14.3558584,44.9702629],[14.3542819,44.967261],[14.3531118,44.9618112],[14.3525665,44.9538036],[14.3203363,44.967019],[14.3135771,44.9691941],[14.3063429,44.9703973],[14.2989101,44.9705825],[14.2915626,44.9697427],[14.2845811,44.96791],[14.2782324,44.9651545],[14.2727587,44.9615814],[14.268369,44.9573271],[14.2652305,44.9525542],[14.2634628,44.9474447],[14.2562865,44.9119828],[14.2559148,44.9074906],[14.2566063,44.9030204],[14.2583414,44.8986971],[14.340389,44.7442254],[14.3395467,44.7443189],[14.3322939,44.7441311],[14.3252189,44.7429666],[14.318581,44.7408681],[14.3126234,44.7379124],[14.3075643,44.734208],[14.3035888,44.7298905],[14.3008424,44.7251181],[14.2994252,44.7200657],[14.2993887,44.7149181],[14.3007341,44.7098638],[14.3065057,44.6957557],[14.3027171,44.6982884],[14.29635,44.7010971],[14.2893221,44.7029566],[14.2819097,44.7037939],[14.2744042,44.7035759],[14.2671009,44.7023112],[14.2602868,44.7000497],[14.2242776,44.6848458],[14.2180128,44.6815378],[14.2128287,44.6773924],[14.2089447,44.6725848],[14.2065246,44.6673187],[14.1957472,44.6318556],[14.1949027,44.6267707],[14.1954274,44.6216681],[14.197302,44.6167326],[14.2004582,44.6121425],[14.2047818,44.6080639],[14.2101161,44.6046443],[14.2162682,44.6020071],[14.2258126,44.5987515],[14.2112187,44.5901783],[14.1460789,44.56516],[14.1402451,44.5638795],[14.1370123,44.5616723],[14.0759211,44.5336545],[14.0084706,44.5144468],[13.9371236,44.5047493],[13.8965185,44.5048423],[13.9114364,44.4835731],[13.9546242,44.4432991],[14.0076342,44.4095388],[14.0685815,44.3834832],[14.108044,44.3700311],[14.1248195,44.36568],[14.1427286,44.354455],[14.2014344,44.3307862],[14.2050693,44.3271156],[14.2546365,44.2864327],[14.3145528,44.2536596],[14.3748839,44.2327213],[14.3757787,44.2204805],[14.3941321,44.1690426],[14.4262044,44.1212283],[14.4707205,44.0788908],[14.5183491,44.0485111],[14.5483107,44.0130889],[14.8224313,43.7504579],[14.8980299,43.6960217],[14.9698954,43.6573322],[15.0148058,43.6377882],[15.0387917,43.6196162],[15.0822507,43.5914746],[15.1312545,43.5686081],[15.2173901,43.5349738],[15.2824314,43.5150627],[15.3515252,43.5044257],[15.4221972,43.5034442],[15.4919189,43.5121542],[15.5367362,43.5243934],[15.5599245,43.5151883],[15.5676108,43.4844391],[15.594894,43.4347133],[15.6101894,43.4177155],[15.6160084,43.4031094],[15.6493066,43.3564031],[15.6944483,43.315329],[15.7496971,43.2814469],[15.799549,43.2614271],[15.7662033,43.2379298],[15.7240439,43.1930648],[15.6950955,43.1429798],[15.6805044,43.0897203],[15.6808251,43.035455],[15.6960039,42.9823876],[15.7253876,42.9326669],[15.7651727,42.8804475],[15.8057398,42.8375481],[15.8568263,42.8012285],[15.9165053,42.7728465],[15.982539,42.753462],[16.0524604,42.7437982],[16.1236627,42.7442159],[16.1934928,42.7547005],[16.2593459,42.7748621],[16.3295519,42.802428],[16.3596106,42.7656653],[16.4059949,42.7276754],[16.4574998,42.6989411],[16.4625443,42.6811772],[16.4841965,42.6305222],[16.5189117,42.5840197],[16.5653179,42.5434698],[16.6216014,42.5104388],[16.6855779,42.4862007],[16.7547762,42.4716892],[16.8265311,42.4674631],[16.8980826,42.4736858],[17.0128069,42.492164],[17.0800525,42.5080759],[17.1419978,42.5331901],[17.1670153,42.5485679],[17.217315,42.533056],[17.6404238,42.4372056],[17.7118638,42.4264772],[17.7848129,42.4264381],[17.8563874,42.4370906],[17.8856431,42.4461842],[18.2974812,42.1936151],[18.3582675,42.1632008],[18.4260491,42.1424718],[18.4489411,42.1392342],[18.465031,42.1345176],[18.4752033,42.1229707],[18.5189424,42.0824557],[18.572311,42.0489485],[18.6333258,42.0236855],[18.6851256,42.0111407],[18.7788174,41.9509325],[18.833686,41.842621],[18.8680962,41.7916674],[18.9160722,41.7472977],[18.9754487,41.7114896],[19.0435667,41.6858365],[19.1019776,41.6693504],[19.0956683,41.6570105],[19.0837145,41.6066704],[19.0846476,41.5555786],[19.0854497,41.5526651],[19.0851112,41.5523257],[19.0546505,41.5045107],[19.037235,41.4531807],[19.0335049,41.4003207],[19.0435688,41.3479692],[19.0728364,41.2585812],[19.0960716,41.2089723],[19.0946889,41.2061175],[19.0850944,41.1428387],[19.0855963,41.0557848],[19.0565698,41.018214],[19.0329733,40.9634791],[19.0252497,40.9062444],[19.0336804,40.8493006],[18.9827365,40.7639503],[18.9604115,40.7140015],[18.9512964,40.6617439],[18.9557068,40.6091771],[18.9734413,40.5583074],[18.981188,40.5462596],[18.9613823,40.5160126],[18.9431068,40.4652128],[18.93811,40.4127119],[18.9465495,40.3605125],[18.9680719,40.3106004],[19.0018312,40.26487],[19.1894757,40.0594008],[19.2409479,40.0144333],[19.3040644,39.9793404],[19.3856506,39.9437027],[19.4264869,39.9699131],[19.4842672,39.9945858],[19.7117036,40.0708674],[19.7216197,40.0732725],[19.7392989,40.0500655],[19.7433404,40.0457876],[19.7483945,40.0422027],[19.7542663,40.0394488],[19.7607291,40.0376322],[19.8402082,40.0218666],[19.8998977,39.9430251],[19.8793712,39.9237555],[19.8755094,39.9192914],[19.8728669,39.9143308],[19.8715477,39.9090695],[19.8716035,39.9037151],[19.8730317,39.8984788],[19.8757758,39.8935671],[19.8797272,39.8891737],[19.8847299,39.8854718],[19.8905867,39.8826073],[19.97117,39.851344],[19.96166,39.8155769],[19.9641131,39.8147246],[19.9700426,39.8120983],[19.9751943,39.8086392],[19.9793724,39.8044789],[19.9824183,39.7997755],[19.9842162,39.794708],[19.9846981,39.7894691],[19.9838461,39.7842578],[19.9694224,39.7352926],[19.9669376,39.7297467],[19.9629493,39.7247447],[19.9576469,39.7205237],[19.9569131,39.7201502],[19.9569122,39.7201497],[19.96591,39.688135],[19.9677894,39.6835052],[19.9707139,39.6792143],[19.9745886,39.6754016],[19.9792875,39.6721908],[19.9846582,39.6696859],[20.1389387,39.6115485],[20.1010374,39.5403446],[20.0990834,39.5353453],[20.0984076,39.5301517],[20.099035,39.5249582],[20.1009419,39.5199594],[20.1040565,39.5153425],[20.108262,39.5112803],[20.1134009,39.5079248],[20.1192806,39.5054015],[20.1256812,39.5038049],[20.1813821,39.4943927],[20.1814688,39.4914226],[20.1828706,39.4864091],[20.1854731,39.481696],[20.189182,39.4774542],[20.2021953,39.4652606],[20.1973452,39.4633493],[20.1919061,39.4600142],[20.187423,39.4559115],[20.1840738,39.4512041],[20.1819909,39.4460786],[20.1812568,39.4407383],[20.1819001,39.4353951],[20.183895,39.4302606],[20.2055114,39.3897419],[20.2091154,39.3846334],[20.2955364,39.288409],[20.2999389,39.2844028],[20.3052634,39.2811435],[20.3113057,39.2787558],[20.3178345,39.2773313],[20.4252513,39.2624621],[20.4252509,39.2624612],[20.4151858,39.2426436],[20.3783883,39.1982193],[20.3311603,39.1601748],[20.3057538,39.1464276],[20.3736544,39.0431384],[20.3854271,39.0846309],[20.4141202,39.1344767],[20.455229,39.1788135],[20.4731942,39.1916324],[20.6571421,39.0578026],[20.6815825,38.9935075],[20.6815794,38.9935204],[20.6805493,38.9978177],[20.6807098,39.0033687],[20.6823326,39.008777],[20.6853493,39.0138128],[20.6896319,39.0182622],[20.6949987,39.0219363],[20.7012218,39.0246788],[20.7053876,39.0257145],[20.6876069,39.0725465],[20.7053876,39.0257145],[20.7053876,39.0257145],[20.7151506,39],[20.7817836,39],[20.7439857,39.0269479],[20.7439857,39.0269479],[20.7439857,39.0269479],[20.7416074,39.0286435],[20.7439857,39.0269479],[20.781813,39.0269483],[20.7882165,39.0264842],[20.7943992,39.0251113],[20.8001487,39.0228768],[20.8050048,39.0200124],[20.8050286,39.0199983],[20.7875492,39.0324686],[20.8055136,39.0520023],[20.8125321,39.0303824],[20.8147141,39.0256053],[20.8180051,39.0212354],[20.8222881,39.0174274],[20.8274115,39.0143164],[20.8331934,39.0120123],[20.8394293,39.010597],[20.8458981,39.0101204],[20.8854823,39.0101202],[20.8921143,39.0106206],[20.8985044,39.0121061],[20.9044149,39.0145213],[20.9096259,39.0177765],[20.9139434,39.0217506],[20.9172067,39.0262956],[20.9192941,39.0312426],[20.9201275,39.0364073],[20.9199935,39.0379475],[20.9830417,39.0103761],[20.9830469,39.0103832],[20.9657925,39.0179238],[20.9599773,39.0211121],[20.9551225,39.0251541],[20.9514321,39.02988],[20.9490616,39.0350911],[20.9481109,39.0405683],[20.9486204,39.0460813],[20.9505689,39.0513982],[20.9527144,39.0545766],[20.9649091,39.0492467],[20.9828291,39.0414145],[20.9828291,39.0414145],[21,39.0339097],[20.9828291,39.0414145],[20.9828291,39.0414145],[20.9828291,39.0414145],[21.3,39.2],[21.45,39.4],[21.6,39.6],[21.6666667,39.6666667],[21.7333333,39.7333333],[21.8333333,39.8333333],[21.8666667,39.8666667],[22,40],[22.3,40.4],[22.45,40.6],[22.6,40.8],[22.7333333,40.9],[23,41.1],[23.2,41.1833333],[23.4,41.2666667],[23.6,41.35],[23.8333333,41.4],[24.0666667,41.45],[24.3,41.5],[24.5333333,41.5666667],[24.7666667,41.6333333],[25,41.7],[25.2,41.8],[25.4,41.9],[25.6,42],[25.4,42.1333333],[25.2,42.2666667],[25,42.4],[24.8,42.5166667],[24.6,42.6333333],[24.4,42.75],[24.2,42.8333333],[24,42.9166667],[23.8,43],[23.6333333,43.1333333],[23.4666667,43.2666667],[23.3,43.4],[23.1666667,43.55],[23.0333333,43.7],[22.9,43.85],[22.775,44.025],[22.65,44.2],[22.6,44.55],[22.7,44.7125],[22.8,44.875],[23,45.2],[24,45.4],[24.2166667,45.4166667],[24.4333333,45.4333333],[24.65,45.45],[24.8666667,45.4666667],[25.0833333,45.4833333],[25.3,45.5],[25.7,45.56],[25.9,45.59],[26.1,45.62],[26.3,45.65],[26.5,45.7833333],[26.7,45.9166667],[26.9,46.05],[27.1,46.13],[27.3,46.21],[27.5,46.29],[27.7,46.37],[27.9,46.45],[28.12,46.46],[28.34,46.47],[28.56,46.48],[28.78,46.49],[29,46.5],[29.4,46.44],[29.6,46.41],[29.8,46.38],[30,46.35],[30.5272696,46.1193195],[30.5469772,46.1426],[30.5482014,46.1420643],[30.5540729,46.1388847],[30.5540729,46.1388847],[30.5589606,46.1349877],[30.5626854,46.1305162],[30.565111,46.1256343],[30.5661486,46.120521],[30.5657607,46.1153639],[30.5639618,46.1103521],[30.5608183,46.1056692],[30.5276524,46.0665178],[30.527652,46.0665173],[30.5276624,46.0665131],[30.7221553,46.2960993],[30.7252919,46.3007443],[30.7270988,46.3057165],[30.7275105,46.3108362],[30.7265115,46.3159183],[30.7241377,46.3207789],[30.7227341,46.3224892],[30.7246314,46.3227288],[30.7319681,46.3247759],[30.7385552,46.3278031],[30.7441221,46.3316859],[30.7521574,46.3385553],[30.7521576,46.3385552],[30.796647,46.3143677],[30.8457574,46.2748552],[30.8828857,46.2295399],[30.9066677,46.1801245],[30.9162489,46.1284608],[30.9113108,46.0764796],[30.8920772,46.0261185],[30.8593001,45.9792495],[30.8230862,45.9457951],[30.8248027,45.9450961],[30.8289261,45.9434019],[31.0242275,46.1724441],[31.0495324,46.2096043],[31.0932507,46.2445985],[31.1296763,46.2878742],[31.1335525,46.295415],[31.126192,46.3096385],[31.1150677,46.3626035],[31.1193832,46.4160432],[31.1390126,46.4678429],[31.1499328,46.4832088],[31.1303656,46.5186328],[31.1176389,46.5707374],[31.1186,46.5922972],[31.1615554,46.6010987],[31.3279742,46.5756043],[31.3368222,46.5749518],[31.3456543,46.5756856],[31.3540168,46.577768],[31.4331899,46.6047731],[31.4389393,46.6071736],[31.4440063,46.6102139],[31.448242,46.6138046],[31.4543755,46.6200275],[31.4546883,46.6192454],[31.4582618,46.6144063],[31.4631718,46.6101548],[31.4692193,46.6066629],[31.4761598,46.6040718],[31.477367,46.6038183],[31.4773695,46.6038207],[31.4798913,46.6062162],[31.4855392,46.6098156],[31.4921048,46.6125892],[31.499335,46.61443],[31.5069504,46.6152668],[31.5069504,46.6152668],[31.5146573,46.6150674],[31.5150716,46.6149996],[31.5149693,46.6152325],[31.5142334,46.6204931],[31.5150031,46.6256891],[31.5535142,46.6204206],[31.5777158,46.6171097],[31.5535142,46.6204206],[31.75,46.675],[31.9036285,46.7176746],[31.9053191,46.7386873],[31.9019398,46.7444511],[31.9019398,46.7444511],[31.8657187,46.8062304],[31.9019398,46.7444511],[31.9043645,46.7445874],[31.9122043,46.7439468],[31.9196987,46.742249],[31.9210145,46.7417328],[31.9215144,46.742896],[31.9251691,46.747636],[31.9301251,46.7517872],[31.9361861,46.7551851],[31.9423051,46.7574024],[31.9579888,46.7327747],[31.9737398,46.7080412],[32.0241202,46.6289298],[31.9737398,46.7080412],[31.9579888,46.7327747],[32.2,46.8],[32.4,46.92],[32.6,47.04],[32.8,47.16],[33,47.28],[33.2,47.4],[33.4,47.52],[33.6,47.64],[33.8,47.76],[34,47.88],[34.2,48],[34.4,48.14],[34.6,48.28],[34.8,48.42],[35,48.56],[35.2,48.7],[35.4,48.84],[35.6,48.98],[35.8,49.12],[36,49.26],[36.2,49.4],[36.4,49.54],[36.6,49.68],[36.8,49.82],[37,49.96],[37.2,50.1],[37.42,50.2],[37.5993547,50.2815249],[37.5966629,50.25964],[37.5966629,50.25964],[37.5954505,50.2497826],[37.5954054,50.2494162],[37.59539,50.2492909],[37.5953177,50.2487036],[37.5947759,50.2442988],[37.5953177,50.2487036],[37.59539,50.2492909],[37.5954054,50.2494162],[37.5954505,50.2497826],[37.5966629,50.25964],[37.5993547,50.2815249],[37.5993547,50.2815249],[37.600576,50.2914539],[37.5731886,50.3027427],[37.5731886,50.3027427],[37.600576,50.2914539],[37.5993547,50.2815249],[37.64,50.3],[37.86,50.4],[38.3,50.6],[38.5166667,50.65],[38.7333333,50.7],[38.95,50.75],[39.1666667,50.8],[39.3833333,50.85],[39.6,50.9],[39.8333333,50.9333333],[40.0666667,50.9666667],[40.5,51.0285714],[40.5,52.6],[40.5,53.2],[40.44,53.4],[40.38,53.6],[40.32,53.8],[40.32,53.8],[40.2857143,53.9142857],[40.2857143,53.9142857],[40.2857143,53.9142857],[40.26,54],[40.2,54.2],[39.5,55],[39.3333333,55.1333333],[39.25,55.2],[39.1666667,55.2666667],[39,55.4],[38.8333333,55.5333333],[38.75,55.6],[38.6666667,55.6666667],[38.5,55.8],[38.3571429,55.9],[37.5,56.5],[37.25,56.85],[37.125,57.025],[37,57.2],[36.875,57.4],[36.75,57.6],[36.5,58],[36.3333333,58.1333333],[36.25,58.2],[36.1666667,58.2666667],[36,58.4],[35.8333333,58.5333333],[35.75,58.6],[35.6666667,58.6666667],[35.5,58.8],[35.3,58.92],[35.1,59.04],[34.5,59.4],[34.1,59.6],[33.9142857,59.6928571],[33.9,59.7],[33.7,59.8],[33.5,59.9],[33.325,60],[33.15,60.1],[32.975,60.2],[32.8,60.3],[32.4,60.3],[32.2333333,60.2],[32.15,60.15],[32.0666667,60.1],[31.9,60],[31.7333333,59.8666667],[31.65,59.8],[31.5666667,59.7333333],[31.4,59.6],[31.175,59.525],[30.95,59.45],[30.5,59.3],[30.3,59.24],[30.1,59.18],[29.5,59],[28.5,59.1],[28.4764706,59.1058824],[28.3,59.15],[28.3,59.15],[28.1,59.2],[27.9333333,59.1],[27.85,59.05],[27.7666667,59],[27.6,58.9],[27.5666667,58.7],[27.55,58.6],[27.5333333,58.5],[27.5,58.3],[27.55,58.1],[27.6,57.9],[27.55,57.725],[27.5,57.55],[27.5247637,57.5128544],[27.5276753,57.5286961],[27.5276753,57.5286961],[27.5247637,57.5128544],[27.7737371,57.1393943],[27.7737371,57.1393943],[27.7761019,57.1403329],[27.801786,57.1505265],[27.8155615,57.1559937],[27.8155615,57.1559937],[27.801786,57.1505265],[27.7761019,57.1403329],[27.7737371,57.1393943],[27.7737371,57.1393943],[27.7737371,57.1393943],[27.7737371,57.1393943],[27.746297,57.1285038],[27.7320278,57.1228406],[27.746297,57.1285038],[27.7737371,57.1393943],[28,56.8],[28,56],[27.75,55.65],[27.625,55.475],[27.5,55.3],[27,54.4],[26.68,54.12],[26.52,53.98],[26.36,53.84],[26.2,53.7],[26,53.6333333],[25.8,53.5666667],[25.4,53.4333333],[25.2,53.3666667],[25,53.3],[23.8,53.1],[23.5833333,53.125],[23.3666667,53.15],[23.15,53.175],[22.9333333,53.2],[22.7166667,53.225],[22.5,53.25],[21.5,53.35],[21.3,53.37],[21.1,53.39],[20.9,53.41],[20.7,53.43],[20.5,53.45],[20.2666667,53.5166667],[20.0333333,53.5833333],[19.8,53.65],[19.6333333,53.75],[19.4666667,53.85],[19.3,53.95],[19,54.3],[18.9664981,54.3502529],[18.9212558,54.3558938],[18.921262,54.3559244],[18.921262,54.3559244],[18.9212813,54.3560198],[18.9240695,54.3610331],[18.9283719,54.365524],[18.9283719,54.365524],[18.9284784,54.3656351],[18.9284784,54.3656351],[18.9284784,54.3656351],[18.9343403,54.36965],[18.9343403,54.36965],[18.9345255,54.3697355],[18.9345657,54.3697541],[18.9345657,54.3697541],[18.9414313,54.3729242],[18.9494808,54.3753327],[18.958181,54.3767833],[18.9627542,54.3770051],[18.9627542,54.3770051],[18.9671994,54.3772206],[18.9756626,54.3766626],[18.9756657,54.3766624],[18.7390755,54.4061713],[18.620299,54.4633021],[18.6180597,54.527204],[18.6180775,54.5272144],[18.6702469,54.5577904],[18.7435643,54.5867808],[18.8121814,54.6038989],[18.7607453,54.6521506],[18.7607446,54.6521512],[18.7607446,54.6521512],[18.7607419,54.6521537],[18.7607419,54.6521537],[18.7549717,54.6575667],[18.7370316,54.6743961],[18.7363116,54.6750715],[18.7363116,54.6750716],[18.7363116,54.6750716],[18.7169048,54.7017558],[18.7507875,54.6901977],[18.7590986,54.6841337],[18.7811145,54.6680704],[18.781129,54.6680598],[18.8155882,54.6429175],[18.8185438,54.6054861],[18.8251291,54.607129],[18.9119322,54.6180811],[19.1662748,54.6352656],[19.1663073,54.6352678],[19.1663287,54.6352693],[19.1664743,54.6352791],[19.1664877,54.63528],[19.1785623,54.6638854],[19.1826014,54.7163634],[19.1689289,54.7683182],[19.1380009,54.8177699],[19.0909412,54.8628275],[19.0295068,54.9017626],[18.9560257,54.9330773],[18.5527817,55.0708532],[18.4551597,55.0958229],[18.3501957,55.1074767],[18.2433957,55.1052046],[17.2580283,55.0150548],[17.1691367,55.0012743],[17.0867803,54.9777503],[16.7573532,54.8582215],[16.4627872,54.8191819],[16.3744804,54.8018123],[16.2940778,54.7746203],[16.2248199,54.7387091],[15.9802984,54.582695],[15.9250748,54.5390965],[15.9107625,54.5249876],[15.9014319,54.5213124],[15.824163,54.5179705],[15.6965328,54.5016295],[14.3993457,54.2101495],[14.2227884,54.3151073],[14.2261552,54.3638484],[14.2088558,54.420732],[14.170989,54.474189],[14.1247471,54.5129446],[14.1310241,54.5273939],[14.1354754,54.5804689],[14.1217817,54.6330479],[14.0904121,54.6830721],[14.042539,54.7285759],[13.9800001,54.7677654],[13.905232,54.7990916],[13.8472989,54.8144162],[13.7983378,54.8548688],[13.7311895,54.8918311],[13.6525959,54.9204399],[13.5656773,54.9395534],[13.511354,54.9480423],[13.4136907,54.9570586],[13.3149741,54.9540807],[13.2196693,54.9392452],[13.0604744,54.903554],[12.9972844,54.8851162],[12.9972835,54.8851139],[12.9972667,54.8850691],[12.9918223,54.8706189],[12.9564018,54.823058],[12.9059643,54.7802485],[12.8619182,54.7549602],[12.8618787,54.7549375],[12.8423893,54.743748],[12.7680152,54.7148807],[12.6855537,54.6946913],[12.6683058,54.6925674],[12.5979936,54.6839092],[12.5495788,54.6833843],[12.5329728,54.6694561],[12.528478,54.6656861],[12.4325242,54.5995364],[12.4335076,54.5785116],[12.4267588,54.5248246],[12.4138025,54.4978884],[12.4443719,54.4910575],[12.4723456,54.4808407],[12.4723472,54.4808402],[12.3067579,54.3209708],[12.2074761,54.2700788],[12.2144809,54.2730086],[12.2226647,54.2751804],[12.2314145,54.2763853],[12.2403984,54.2765775],[12.2447647,54.2761703],[12.2447647,54.2761703],[12.2492757,54.2757496],[12.2532199,54.2749002],[12.2532199,54.2749002],[12.2577098,54.2739333],[12.2653809,54.2711972],[12.2699157,54.268763],[12.2699157,54.268763],[12.2719983,54.2676451],[12.2722787,54.2674217],[12.2375879,54.2496483],[12.3,54],[12.2666667,53.8333333],[12.2333333,53.6666667],[12.2,53.5],[12,53.4],[11.8,53.3],[11.6,53.2],[10.9,53.2]],[[14.3162974,44.6659768],[14.3168126,44.670541],[14.3178369,44.6680302],[14.3162974,44.6659768]],[[14.4231534,45.0510036],[14.4841545,45.0116531],[14.4896615,45.0086998],[14.4958379,45.0065009],[14.50248,45.0051289],[14.5093684,45.0046292],[14.5162759,45.0050183],[14.5866745,45.0135524],[14.5907666,44.9753771],[14.5921388,44.9699796],[14.5950327,44.9648952],[14.5993276,44.960335],[14.6048448,44.9564887],[14.6113548,44.9535158],[14.6565716,44.9372028],[14.6308297,44.9163954],[14.5734622,44.8782646],[14.5136181,44.8456939],[14.495605,44.8394198],[14.5118773,44.9684632],[14.5117714,44.9739745],[14.5100778,44.9793507],[14.5068672,44.984366],[14.502274,44.9888098],[14.4232468,45.0506218],[14.4231534,45.0510036]],[[14.7029258,45.1082293],[14.7029472,45.1393148],[14.76168,45.1081665],[14.7510724,45.1044234],[14.7502156,45.0997468],[14.7498674,45.0998347],[14.7029258,45.1082293]],[[18.7363116,54.6750715],[18.7370316,54.6743961],[18.7549717,54.6575667],[18.7607419,54.6521537],[18.7607419,54.6521537],[18.7607435,54.6521523],[18.7607419,54.6521537],[18.7607419,54.6521537],[18.7549717,54.6575667],[18.7370316,54.6743961],[18.7363116,54.6750715],[18.7363116,54.6750715],[18.7363116,54.6750715]],[[31.9100444,46.8030061],[31.9246068,46.8178217],[31.915021,46.794513],[31.9100444,46.8030061]]]}}
