{"type":"Feature","properties":{"family":"other","name":"Slavic peoples, 913 – 957"},"geometry":{"type":"Polygon","coordinates":[[[10,50],[13,47.5],[13.2,47.06],[13.3,46.84],[13.4,46.62],[13.7,45.96],[13.8,45.74],[13.9,45.52],[14,45.3],[13.8571429,45.1142857],[13.7537171,44.9798322],[13.7259341,45],[13.7259341,45],[13.725926,45.0000059],[13.725926,45.0000059],[13.7259234,45.0000077],[13.7259234,45.0000077],[13.6577575,45.0494895],[13.6442674,45.0360285],[13.6214122,45.0011366],[13.5927669,44.9795183],[13.5533324,44.9347057],[13.5270399,44.8853485],[13.5148661,44.8333485],[13.5172389,44.7807036],[13.5251026,44.7380421],[13.5414205,44.687709],[13.5709714,44.6405469],[13.6126403,44.5982865],[13.6648775,44.5624747],[13.7257571,44.5344202],[13.793048,44.5151469],[13.8642936,44.5053577],[13.8961076,44.5053866],[13.9113789,44.4836225],[13.9546116,44.4433311],[14.0076685,44.4095532],[14.0686628,44.3834807],[14.1081261,44.370028],[14.12486,44.3656865],[14.1427496,44.3544756],[14.2013745,44.3308412],[14.2049518,44.3272287],[14.2545451,44.2865189],[14.3144914,44.2537154],[14.3747281,44.232791],[14.3756229,44.220598],[14.3940079,44.1691319],[14.4261251,44.1212881],[14.4706973,44.0789221],[14.5182262,44.0486189],[14.5481851,44.0132015],[14.8223062,43.7505634],[14.897997,43.6960613],[14.9698636,43.6573706],[15.0147581,43.6378299],[15.0386941,43.6196955],[15.0822117,43.5915158],[15.1312827,43.5686175],[15.2174199,43.534982],[15.2824994,43.5150551],[15.3516284,43.5044016],[15.4223318,43.5034035],[15.4920799,43.5120974],[15.5583752,43.5301731],[15.6188383,43.5569843],[15.6712911,43.5915704],[15.7138331,43.63269],[15.7449099,43.6788639],[15.7633718,43.728427],[15.7650619,43.7452331],[15.8602462,43.7163447],[15.8344465,43.6979445],[15.7940926,43.6553155],[15.7657393,43.6079269],[15.7504012,43.5575263],[15.7486079,43.5059672],[15.7603896,43.4551406],[15.7852812,43.4069058],[15.8223438,43.3630227],[15.84065,43.3485217],[15.8416979,43.3432274],[15.8640277,43.2963711],[15.8196308,43.275798],[15.7659669,43.2380079],[15.7238189,43.1931622],[15.6948821,43.143096],[15.6803016,43.0898524],[15.6806312,43.0355981],[15.6958172,42.9825349],[15.7252066,42.9328102],[15.7649915,42.8805896],[15.8055993,42.8376468],[15.8567415,42.8012859],[15.9164873,42.7728677],[15.9825942,42.7534543],[16.0525903,42.7437708],[16.1238636,42.7441791],[16.1937556,42.7546647],[16.259657,42.7748375],[16.3295792,42.8022926],[16.3595527,42.7656754],[16.4059889,42.727675],[16.4573088,42.6990623],[16.462338,42.6813505],[16.4840102,42.6306558],[16.5187649,42.5841121],[16.5652276,42.5435229],[16.6215804,42.5104576],[16.6856343,42.4861927],[16.7549128,42.4716639],[16.8267451,42.4674312],[16.8983653,42.4736586],[17.0130917,42.4921377],[17.0803569,42.5080543],[17.1423109,42.533173],[17.1672473,42.5485036],[17.2173883,42.5330425],[17.6405064,42.4371893],[17.711987,42.4264522],[17.7849715,42.4264038],[17.856575,42.4370469],[17.9239648,42.4579616],[17.9844679,42.4883211],[18.035674,42.5269236],[18.0755304,42.5722374],[18.102424,42.6224609],[18.1076546,42.6441313],[18.1085681,42.6439335],[18.2141667,42.6210733],[18.2179822,42.6202473],[18.2153688,42.6208131],[18.2009345,42.6080401],[18.1669903,42.5623346],[18.1456137,42.5126952],[18.1375725,42.4609796],[18.1431325,42.4091183],[18.1620522,42.3590421],[18.1911135,42.3034174],[18.1953053,42.3046254],[18.4518834,42.4402447],[18.4513806,42.440527],[18.2395824,42.5594586],[18.4513806,42.440527],[18.479723,42.4246119],[18.495185,42.4159295],[18.4797801,42.4245798],[18.4971293,42.3910489],[18.4975496,42.3911686],[18.5200539,42.4054313],[18.5311853,42.4007323],[18.5266093,42.409586],[18.5491226,42.4238544],[18.5493469,42.4241434],[18.5154426,42.4384581],[18.5101426,42.4414459],[18.5101434,42.4414443],[18.5112033,42.4393937],[18.5101434,42.4414443],[18.502385,42.4564553],[18.6103861,42.4446353],[18.6859869,42.4834726],[18.6978374,42.4084336],[18.6935417,42.4102141],[18.6868845,42.4118331],[18.6799272,42.4124783],[18.6729277,42.4121259],[18.6661453,42.4107889],[18.6545089,42.4075791],[18.6544117,42.4076115],[18.6023541,42.4249607],[18.5998175,42.44108],[18.5993702,42.4410406],[18.5821342,42.4316993],[18.5923724,42.4282873],[18.5635856,42.437881],[18.5659473,42.4229266],[18.5487328,42.4135969],[18.5485472,42.4132934],[18.5685198,42.4066376],[18.5707857,42.3922894],[18.6175862,42.3686493],[18.6531029,42.3784487],[18.6531063,42.3784496],[18.6853028,42.3677203],[18.691914,42.3660558],[18.696274,42.3656153],[18.6787868,42.3855351],[18.6962898,42.3655973],[18.6962898,42.3655973],[18.7073338,42.353017],[18.4155622,42.1949579],[18.413719,42.1919203],[18.5500637,42.1465133],[18.615951,42.1299291],[18.6849082,42.1229594],[18.7544296,42.1258578],[18.8219893,42.1385196],[18.8851298,42.1604856],[18.9415479,42.1909573],[18.9500466,42.1977144],[18.9508685,42.1971843],[19,42.1654977],[19.0443239,42.1369116],[19.0443498,42.1368949],[19.0444671,42.1368192],[19.0446268,42.1367162],[19.0447742,42.1366211],[19.0447742,42.1366211],[19.0448475,42.1365739],[19.0450347,42.1364532],[19.0855909,42.110297],[19.1320708,42.0176421],[19.1320708,42.0176421],[19.1719917,41.9380621],[19.2059809,41.9230054],[19.205981,41.9230053],[19.2059811,41.9230053],[19.2059813,41.9230052],[19.2059869,41.9230027],[19.2059935,41.9229998],[19.2059961,41.9229987],[19.2060047,41.9229948],[19.2107511,41.9208922],[19.2211047,41.9163058],[19.2370207,41.9092552],[19.2645819,41.8970459],[19.273699,41.8930072],[19.2875202,41.8868846],[19.2960361,41.8831122],[19.3065697,41.8784459],[19.3091722,41.877293],[19.3403045,41.8635018],[19.3663937,41.8519447],[19.3403045,41.8635018],[19.3091722,41.877293],[19.3065697,41.8784459],[19.2960361,41.8831122],[19.2875202,41.8868846],[19.273699,41.8930072],[19.2645819,41.8970459],[19.2370207,41.9092552],[19.6,42],[19.7,42.1666667],[19.8,42.3333333],[19.9,42.5],[20.0333333,42.6666667],[20.1666667,42.8333333],[20.3,43],[19.8,43.6],[19.4,44.3],[19.3333333,44.5],[19.2666667,44.7],[19.2,44.9],[19.3,45.2],[19.1666667,45.3166667],[19.0333333,45.4333333],[18.9,45.55],[18.7333333,45.6166667],[18.5666667,45.6833333],[18.4,45.75],[17.8,45.9],[17.6,45.9833333],[17.4,46.0666667],[17.2,46.15],[17,46.2166667],[16.8,46.2833333],[16.6,46.35],[16.4,46.45],[16.175,46.4625],[15.95,46.475],[15.5,46.5],[15.4333333,46.6666667],[15.3666667,46.8333333],[15.3,47],[15.1666667,47.1333333],[15.0333333,47.2666667],[14.9,47.4],[14.75,47.6],[14.6,47.8],[14.5,48.2],[14.4,48.4],[14.2166667,48.5166667],[14.0333333,48.6333333],[13.85,48.75],[14.0333333,48.7],[14.2166667,48.65],[14.356,48.612],[14.4,48.6],[14.4057416,48.6033493],[14.6,48.7166667],[14.8,48.8333333],[15,48.95],[15.2,48.9166667],[15.4,48.8833333],[15.6,48.85],[15.8,48.8166667],[16,48.7833333],[16.2,48.75],[16.95,48.6],[17.3166667,48.8],[17.5,48.9],[17.7,48.98],[17.8888889,49.0555556],[17.9,49.06],[18.1,49.14],[18.5,49.3],[18.7,49.32],[18.9,49.34],[19.1,49.36],[19.3,49.38],[19.5,49.4],[21,49.4],[21.2142857,49.3428571],[21.4285714,49.2857143],[21.6428571,49.2285714],[21.8571429,49.1714286],[22.0714286,49.1142857],[22.2857143,49.0571429],[22.5,49],[22.6666667,48.8333333],[22.8333333,48.6666667],[23.1666667,48.3333333],[23.3333333,48.1666667],[23.5,48],[23.7166667,47.95],[23.9333333,47.9],[24.15,47.85],[24.3666667,47.8],[24.5833333,47.75],[24.8,47.7],[25.5,47.2],[25.625,47.025],[25.75,46.85],[26,46.5],[26,45.8],[25.825,45.725],[25.65,45.65],[25.3,45.5],[25.7,45.56],[25.9,45.59],[26.1,45.62],[26.3,45.65],[26.5,45.6375],[26.7,45.625],[26.9,45.6125],[27.1,45.6],[26.975,45.75],[26.85,45.9],[26.725,46.05],[26.6,46.2],[26.5,46.4],[26.4,46.6],[26.2,47],[26.1333333,47.2333333],[26.0666667,47.4666667],[26,47.7],[26.2,48.0333333],[26.3,48.2],[26.54,48.16],[26.78,48.12],[27.02,48.08],[27.5,48],[27.7142857,48.0285714],[27.9285714,48.0571429],[28.1428571,48.0857143],[28.3571429,48.1142857],[28.5714286,48.1428571],[28.7857143,48.1714286],[29,48.2],[29.2142857,48.2714286],[29.4285714,48.3428571],[29.6428571,48.4142857],[29.8571429,48.4857143],[30.0714286,48.5571429],[30.2857143,48.6285714],[30.5,48.7],[30.7,48.8],[30.9,48.9],[31.1,49],[31.5,49.2],[31.7142857,49.2142857],[31.9285714,49.2285714],[32.1428571,49.2428571],[32.3571429,49.2571429],[32.5714286,49.2714286],[33,49.3],[33.2142857,49.3285714],[33.4285714,49.3571429],[33.6428571,49.3857143],[33.8571429,49.4142857],[34.0714286,49.4428571],[34.5,49.5],[34.7142857,49.5571429],[34.9285714,49.6142857],[35.1428571,49.6714286],[35.3571429,49.7285714],[35.5714286,49.7857143],[35.7857143,49.8428571],[36,49.9],[36.2142857,49.9571429],[36.4285714,50.0142857],[36.6428571,50.0714286],[36.8571429,50.1285714],[37.0714286,50.1857143],[37.5,50.3],[37.5537584,50.3107517],[37.5570884,50.3093791],[37.5731886,50.3027427],[37.5731886,50.3027427],[37.600576,50.2914539],[37.5731886,50.3027427],[37.5731886,50.3027427],[37.5570884,50.3093791],[37.5537584,50.3107517],[37.7142857,50.3428571],[37.9285714,50.3857143],[38.1428571,50.4285714],[38.3571429,50.4714286],[38.5714286,50.5142857],[38.7857143,50.5571429],[39,50.6],[39.2142857,50.6428571],[39.4285714,50.6857143],[39.6428571,50.7285714],[39.8571429,50.7714286],[40.0714286,50.8142857],[40.2857143,50.8571429],[40.5,50.9],[40.5,51.0285714],[40.5,51.0285714],[40.5,51.0285714],[40.5,52.6],[40.5,53.2],[40.44,53.4],[40.38,53.6],[40.32,53.8],[40.32,53.8],[40.2857143,53.9142857],[40.2857143,53.9142857],[40.2857143,53.9142857],[40.26,54],[40.2,54.2],[39.5,55],[39.3333333,55.1333333],[39.25,55.2],[39.1666667,55.2666667],[39,55.4],[38.8333333,55.5333333],[38.75,55.6],[38.6666667,55.6666667],[38.5,55.8],[38.3571429,55.9],[37.5,55.9],[37.2777778,55.8555556],[37.0555556,55.8111111],[36.8333333,55.7666667],[36.6111111,55.7222222],[36.3888889,55.6777778],[36.1666667,55.6333333],[35.9444444,55.5888889],[35.7222222,55.5444444],[35.5,55.5],[35.3142857,55.3571429],[35.1285714,55.2142857],[34.9428571,55.0714286],[34.7571429,54.9285714],[34.5714286,54.7857143],[34.3857143,54.6428571],[34.2,54.5],[34.12,54.3],[34.04,54.1],[33.96,53.9],[33.88,53.7],[33.8,53.5],[34.5,52.6],[34.6333333,52.4333333],[34.7666667,52.2666667],[34.9,52.1],[35.0333333,51.9333333],[35.1666667,51.7666667],[35.3,51.6],[35.16,51.4],[35.0219783,51.2028261],[35,51.2006171],[35.0219783,51.2028261],[35.0219783,51.2028261],[35.0296839,51.2036006],[35.0534442,51.2059887],[35.0679053,51.2074422],[35.0683136,51.2074832],[35.0695108,51.2076036],[35.0724099,51.2078949],[35.0724099,51.2078949],[35.0725348,51.2079075],[35.0769508,51.2083513],[35.0725348,51.2079075],[35.0724099,51.2078949],[35.0724099,51.2078949],[35.0695108,51.2076036],[35.068744,51.2075265],[35.0683136,51.2074832],[35.0679053,51.2074422],[35.0534442,51.2059887],[35.0296839,51.2036006],[35.0219783,51.2028261],[35.02,51.2],[34.88,51],[34.74,50.8],[34.6,50.6],[34.3714286,50.5],[34.1428571,50.4],[33.9142857,50.3],[33.6857143,50.2],[33.4571429,50.1],[33.2285714,50],[33,49.9],[32.7857143,49.8571429],[32.5714286,49.8142857],[32.3571429,49.7714286],[32.1428571,49.7285714],[31.9285714,49.6857143],[31.7142857,49.6428571],[31.5,49.6],[31.2833333,49.5833333],[31.0666667,49.5666667],[30.85,49.55],[30.6333333,49.5333333],[30.4166667,49.5166667],[30.2,49.5],[30,49.5666667],[29.6,49.7],[29.4,49.7666667],[29.2,49.8333333],[29,49.9],[28.7666667,49.95],[28.5333333,50],[28.3,50.05],[28.0666667,50.1],[27.8333333,50.15],[27.6,50.2],[27.4166667,50.3333333],[27.2333333,50.4666667],[27.05,50.6],[26.8666667,50.7333333],[26.6833333,50.8666667],[26.5,51],[26.3333333,51.15],[26.1666667,51.3],[25.8333333,51.6],[25.6666667,51.75],[25.5,51.9],[25.46,52.3],[25.44,52.5],[25.42,52.7],[25.4,52.9],[26.2,53.7],[26,53.6333333],[25.8,53.5666667],[25.4,53.4333333],[25.2,53.3666667],[25,53.3],[23.8,53.1],[23.5833333,53.125],[23.3666667,53.15],[23.15,53.175],[22.9333333,53.2],[22.7166667,53.225],[22.5,53.25],[21.5,53.35],[21.3,53.37],[21.1,53.39],[20.9,53.41],[20.7,53.43],[20.5,53.45],[20.2666667,53.5166667],[20.0333333,53.5833333],[19.8,53.65],[19.6333333,53.75],[19.4666667,53.85],[19.3,53.95],[19,54.3],[18.9664981,54.3502529],[18.9212558,54.3558938],[18.8791752,54.3611405],[18.8783067,54.3612488],[18.866502,54.3627207],[18.866502,54.3627207],[18.866502,54.3627207],[18.7183872,54.381188],[18.5743857,54.4504197],[18.5707857,54.5500458],[18.5239852,54.6462947],[18.5676219,54.5565523],[18.6861702,54.6745766],[18.6933849,54.664668],[18.6939147,54.6647965],[18.734447,54.6768207],[18.7363116,54.6750715],[18.7363116,54.6750716],[18.7363116,54.6750716],[18.7169048,54.7017558],[18.7507875,54.6901977],[18.7590986,54.6841337],[18.7754781,54.6889928],[18.7759678,54.6891668],[18.7472587,54.716122],[18.7401833,54.7212448],[18.7352437,54.7234333],[18.9454778,54.9327383],[18.9483507,54.9356231],[18.6787676,55.0241664],[18.590577,55.0464285],[18.4963106,55.0578612],[18.399996,55.0579768],[18.3057527,55.0467714],[18.2176061,55.0247247],[18.1393066,54.9927785],[18.0741634,54.9522941],[18.0249018,54.9049918],[17.98926,54.860974],[17.9682282,54.8264846],[17.8867789,54.8235953],[17.3359734,54.7492979],[17.0371704,54.6665576],[17,54.6433115],[16.9399694,54.6057688],[16.6048697,54.5615152],[16.5747605,54.575316],[16.4969771,54.5987684],[16.4535548,54.6089557],[16.4514147,54.605874],[16.5039199,54.5153957],[16.5691657,54.5568001],[16.3243632,54.401451],[16.4981771,54.5117514],[16.4587708,54.5291659],[16.378869,54.5520413],[16.2928931,54.5656136],[16.2040552,54.569376],[16.1156799,54.5631889],[16.0360104,54.5529871],[16.0372678,54.549741],[16.1826576,54.3234192],[16.1271098,54.3163076],[16.127234,54.3159828],[16.1458991,54.2944268],[16.1371614,54.2900049],[16.2163622,54.3001363],[16.1803618,54.2629876],[16.1357889,54.2629876],[16.1238514,54.2812276],[16.1299613,54.2832505],[16.055432,54.2739285],[16.12309,54.2823911],[16.1073783,54.3063978],[16.1070959,54.3066871],[16.0458732,54.2864128],[16.0382968,54.2832695],[16.0319615,54.2793008],[16.0271251,54.2746684],[16.0242733,54.2700312],[15.8599586,54.249479],[15,54.0781526],[14.7835478,54.0350297],[14.4055441,53.921895],[14.5081829,53.9526143],[14.5109532,53.9940289],[14.5048991,54.0493966],[14.4795679,54.1028934],[14.4359721,54.1522343],[14.3759216,54.1953044],[14.2678814,54.2580594],[14.2122571,54.2842712],[14.2220044,54.3060284],[14.2259787,54.3637471],[14.2086546,54.4206722],[14.1707503,54.4741696],[14.1245933,54.5128507],[14.130851,54.5272644],[14.1352912,54.5803639],[14.1215808,54.6329709],[14.0901903,54.6830242],[14.0422939,54.7285557],[13.9797314,54.7677692],[13.9049423,54.7991139],[13.8469777,54.8144518],[13.7980543,54.8548727],[13.730878,54.8918543],[13.6522612,54.9204759],[13.5653273,54.9395947],[13.5110052,54.9480831],[13.4134245,54.9570935],[13.3148035,54.9541214],[13.219598,54.9393028],[13.0604052,54.9036134],[12.9973168,54.8852021],[12.9973004,54.8851587],[12.9972844,54.8851162],[12.9972835,54.8851139],[12.9972667,54.8850691],[12.9918223,54.8706189],[12.9564018,54.823058],[12.9059643,54.7802485],[12.8619182,54.7549602],[12.8618787,54.7549375],[12.8423893,54.743748],[12.7680152,54.7148807],[12.6855537,54.6946913],[12.6683058,54.6925674],[12.6629971,54.681863],[12.5329728,54.6694561],[12.528478,54.6656861],[12.4325242,54.5995364],[12.4335076,54.5785116],[12.4267588,54.5248246],[12.4138025,54.4978884],[12.4138025,54.4978884],[12.4018218,54.4729803],[12.3597508,54.4250317],[12.3022626,54.3828704],[12.2316614,54.3481544],[12.1507456,54.3222452],[12.0626979,54.3061565],[11.9709647,54.300517],[11.8791283,54.3055468],[11.7907747,54.3210495],[11.7093617,54.3464194],[11.6615389,54.3694085],[11.5440347,54.3592255],[11.4391447,54.3570464],[11.336068,54.3686034],[11.2657191,54.3866994],[11.2657191,54.3866994],[11.2657164,54.3867001],[11.2657143,54.3867006],[11.2657143,54.3867006],[11.2656952,54.3867056],[11.2652987,54.3868075],[11.3125795,54.3864086],[11.3220204,54.3868851],[11.3310884,54.388468],[11.3394035,54.3910911],[11.3466172,54.3946445],[11.3524269,54.3989793],[11.3565888,54.4039139],[11.3589276,54.4092413],[11.3593446,54.4147381],[11.3578216,54.4201737],[11.3544216,54.4253199],[11.2968671,54.4911944],[11.2909568,54.4963696],[11.2831614,54.5006287],[11.1499254,54.5580688],[11.1425248,54.5606721],[11.1344234,54.5624395],[11.125902,54.56331],[11.1172562,54.5632532],[11.1087856,54.5622711],[11.1007841,54.5603979],[11.0107477,54.5333644],[11.0027875,54.5303277],[10.9960788,54.5264099],[10.9909057,54.5217771],[10.9874868,54.5166256],[10.972223,54.4838206],[10.9722177,54.4838223],[10.9722158,54.483823],[10.9722145,54.4838234],[10.9722143,54.4838235],[10.9206198,54.5012617],[10.8543963,54.4825287],[10.7618683,54.4688929],[10.6862206,54.4669677],[10.6665235,54.4664664],[10.6664339,54.4664748],[10.6664242,54.4365867],[10.6507653,54.3877483],[10.639413,54.3706204],[10.6394073,54.3706118],[10.6393267,54.3704901],[10.6393176,54.3704765],[10.6393158,54.3704737],[10.6225418,54.3451658],[10.3195032,54.4436654],[10.2738241,54.4302744],[10.2393329,54.4201632],[10.2331023,54.4183367],[10.2327761,54.417994],[10.2327761,54.417994],[10.1978837,54.381334],[10.1680568,54.3538259],[10.1680568,54.3538259],[10.159173,54.3456329],[10.1591969,54.3456508],[10.1978519,54.3813006],[10.1665629,54.3484264],[10.1431014,54.3237764],[10.1431014,54.3367749],[10.1431014,54.3727451],[10.1899019,54.3963852],[10.197867,54.4318773],[10.204302,54.4605512],[10.197867,54.4318773],[10.12,54.36],[10,54.3436364],[10,50]],[[10.7564821,54.043227],[10.7821935,54.0433121],[10.8753799,54.0550879],[10.9451321,54.0733208],[10.9281351,54.0444401],[10.9161527,53.9914736],[10.9193045,53.9642146],[10.902709,53.9607323],[10.8739087,53.9961924],[10.7803078,54.009701],[10.7564821,54.043227]],[[13.7467375,54.0367183],[13.7844906,54.0127142],[13.7914149,54.0130831],[13.7882887,54.0102993],[13.7467375,54.0367183]],[[13.8804603,53.9550341],[13.8825945,53.9567978],[13.907127,53.9885998],[13.9051391,53.9961924],[13.9163871,53.9532319],[13.914013,53.9451248],[13.9160541,53.9520946],[13.8804603,53.9550341]],[[13.9124287,53.9954726],[13.9188624,54.0038128],[13.9336974,54.0405193],[13.9603431,54.0489678],[13.9876665,54.0392743],[14.0172679,54.0208017],[13.992745,53.9591413],[14.0491405,53.9404694],[13.9879399,53.9607323],[13.9649726,53.9445733],[13.9694009,53.9476889],[13.9640456,53.9481311],[13.9627992,53.9529142],[13.9591396,53.9404694],[13.9614556,53.948345],[13.9614556,53.948345],[13.9735397,53.9894381],[13.9124287,53.9954726]],[[13.9169593,53.9510464],[13.921744,53.9327721],[13.9242177,53.9233242],[13.9169593,53.9510464]],[[14.2566141,53.7017581],[14.2980736,53.7144122],[14.3034604,53.7169234],[14.304743,53.7125114],[14.2651427,53.7006914],[14.2566141,53.7017581]],[[14.2939429,53.7496601],[14.3271827,53.7369039],[14.3376794,53.7328757],[14.36649,53.7463066],[14.4234114,53.7853142],[14.4667381,53.8300199],[14.4865588,53.8644133],[14.5747457,53.8543519],[14.5855459,53.8121375],[14.6323463,53.8509748],[14.6251463,53.7699231],[14.5747457,53.7699231],[14.5459455,53.7040685],[14.5747457,53.6601655],[14.6251463,53.6534112],[14.5891459,53.5976882],[14.5315453,53.658477],[14.3761252,53.7181216],[14.3760565,53.7181479],[14.369045,53.7208387],[14.3271827,53.7369039],[14.2939429,53.7496601]],[[16.1593019,54.3012096],[16.2694491,54.3569523],[16.1876945,54.3155784],[16.2739627,54.3592365],[16.1593019,54.3012096]],[[35.2802907,50.9742796],[35.2821528,50.9550647],[35.3433534,50.9162275],[35.2821528,50.9550647],[35.2802907,50.9742796]],[[35.4076659,50.7805975],[35.4161647,50.7753655],[35.4161647,50.7753655],[35.4369544,50.7625669],[35.440528,50.7521374],[35.440528,50.7521374],[35.440528,50.7521374],[35.4516762,50.7196013],[35.4516762,50.7196013],[35.4516762,50.7196013],[35.4693547,50.6680066],[35.4235915,50.6448245],[35.4693547,50.6680066],[35.4516762,50.7196013],[35.4516762,50.7196013],[35.4516762,50.7196013],[35.440528,50.7521374],[35.440528,50.7521374],[35.440528,50.7521374],[35.4369544,50.7625669],[35.4161647,50.7753655],[35.4161647,50.7753655],[35.4076659,50.7805975]],[[35.6925569,50.3437998],[35.8365584,50.4231629],[35.8365584,50.4231629],[35.6925569,50.3437998]],[[36.596166,50.2036479],[36.7221672,50.2635924],[36.596166,50.2036479],[36.596166,50.2036479]]]}}
