{"type":"Feature","properties":{"family":"other","name":"Slavic peoples, 789 – 803"},"geometry":{"type":"Polygon","coordinates":[[[10.2,54.3],[10.25,54.1],[10.35,53.9],[10.5,53.7],[10.6,53.5],[10.6,53.37],[10.9,53.2],[11.05,53.15],[11.2,53.1],[11.55,53],[11.85,52.85],[12,52.65],[11.95,52.4],[11.8,52.2],[11.7,52.05],[11.8,51.85],[11.85,51.725],[11.9,51.6],[11.95,51.35],[11.95,51.1],[11.8,50.85],[11.7,50.6],[11.8,50.4],[11.95,50.35],[12.1,50.3],[12.4,50.1],[12.5,49.8],[12.75,49.45],[13.1,49.2],[13.5,48.95],[13.85,48.75],[14.0333333,48.6333333],[14.2166667,48.5166667],[14.4,48.4],[14.5,48.25],[14.95,48.4],[15.175,48.475],[15.4,48.55],[15.6142857,48.5571429],[15.8285714,48.5642857],[16.0428571,48.5714286],[16.2571429,48.5785714],[16.4714286,48.5857143],[16.6857143,48.5928571],[16.9,48.6],[17.1,48.53],[17.3,48.46],[17.5,48.39],[17.9,48.25],[18.1166667,48.2333333],[18.3333333,48.2166667],[18.55,48.2],[18.7666667,48.1833333],[18.9833333,48.1666667],[19.2,48.15],[19.4333333,48.1666667],[19.6666667,48.1833333],[19.9,48.2],[20.1333333,48.2166667],[20.3666667,48.2333333],[20.6,48.25],[20.84,48.22],[21.08,48.19],[21.32,48.16],[21.56,48.13],[21.8,48.1],[22.5,47.5],[22.45,47.1],[22.425,46.9],[22.4,46.7],[22.25,46.525],[22.1,46.35],[21.8,46],[21.2,45.35],[20.5,44.85],[19.5,44.9],[18.5,45.1],[17.84,45.31],[17.62,45.38],[17.4,45.45],[17,45.61],[16.8,45.69],[16.6,45.77],[16.4,45.85],[16.2,45.9375],[16,46.025],[15.8,46.1125],[15.6,46.2],[15.5,46.5],[15.4333333,46.3333333],[15.3666667,46.1666667],[15.3,46],[15.1666667,45.8666667],[15.0333333,45.7333333],[14.9,45.6],[14.45,45.33],[14.460457,45.3028119],[14.3119579,45.3439184],[14.3119579,45.3439184],[14.3119577,45.3439185],[14.3119577,45.3439185],[14.3119431,45.3439225],[14.3119577,45.3439185],[14.3119577,45.3439185],[14.3119579,45.3439184],[14.3119579,45.3439184],[14.4427596,45.3077108],[14.4427596,45.3077108],[14.460457,45.3028119],[14.484235,45.2962298],[14.484235,45.2962298],[14.484235,45.2962298],[14.484235,45.2962298],[14.484235,45.2962298],[14.484235,45.2962298],[14.4960328,45.292964],[14.4960397,45.2929621],[14.4960401,45.292962],[14.4960417,45.2929616],[14.4960419,45.2929615],[14.4960423,45.2929614],[14.4960433,45.2929611],[14.4960433,45.2929611],[14.5315453,45.2831337],[14.4960433,45.2929611],[14.4933432,45.2889294],[14.4887498,45.2846024],[14.4830195,45.2810077],[14.4763829,45.2782896],[14.4691065,45.2765574],[14.4614828,45.2758806],[14.4538178,45.2762865],[14.4464194,45.2777586],[14.3373787,45.3079638],[14.3373635,45.3079261],[14.5140423,45.2590244],[14.5130992,45.2575003],[14.5114989,45.2522165],[14.4956141,45.1504549],[14.4081689,45.1121581],[14.392804,45.1746909],[14.3908083,45.1797703],[14.3874415,45.1844744],[14.3828327,45.1886224],[14.3780274,45.1915292],[14.3831896,45.188291],[14.3876416,45.1841769],[14.3908968,45.1795411],[14.3928355,45.1745543],[14.4068667,45.1173596],[14.4074123,45.112076],[14.4064813,45.106821],[14.4064813,45.106821],[14.40411,45.1017977],[14.4003905,45.0972001],[14.3954667,45.0932059],[14.3770535,45.080934],[14.3551436,45.169999],[14.3692124,45.1128083],[14.3118132,45.0745422],[14.3314006,45.0514497],[14.3252866,45.0493187],[14.317965,45.0479458],[14.3104012,45.047621],[14.302893,45.048357],[14.2957359,45.0501248],[14.2892119,45.0528549],[14.2835778,45.0564399],[14.2790559,45.0607384],[14.2468373,45.0986955],[14.2467915,45.0986761],[14.3558564,44.9702654],[14.3542812,44.9672655],[14.3531112,44.9618154],[14.3525657,44.953806],[14.320331,44.9670232],[14.3135719,44.9691984],[14.306338,44.9704016],[14.2989057,44.970587],[14.291559,44.9697473],[14.2845783,44.9679148],[14.2782303,44.9651595],[14.2727573,44.9615865],[14.2683681,44.9573323],[14.2652299,44.9525593],[14.2634623,44.9474497],[14.256286,44.9119877],[14.2559142,44.9074941],[14.2566059,44.9030224],[14.2583417,44.8986976],[14.3403868,44.7442294],[14.3395416,44.7443233],[14.332289,44.7441356],[14.3252144,44.742971],[14.318577,44.7408724],[14.318577,44.7408724],[14.31262,44.7379166],[14.3075615,44.7342119],[14.3035867,44.7298941],[14.3008409,44.7251213],[14.3008409,44.7251213],[14.2994242,44.7200683],[14.2993883,44.7149201],[14.3007339,44.7098651],[14.3065059,44.6957562],[14.3027171,44.6982897],[14.2963496,44.7010996],[14.2963496,44.7010996],[14.2893214,44.7029601],[14.2819086,44.7037981],[14.2744029,44.7035807],[14.2744029,44.7035807],[14.2670993,44.7023164],[14.260285,44.700055],[14.2242758,44.6848511],[14.2180115,44.6815433],[14.212828,44.677398],[14.2089442,44.6725905],[14.2065241,44.6673243],[14.1957467,44.6318611],[14.194902,44.6267746],[14.195427,44.6216704],[14.1973022,44.6167332],[14.2004595,44.6121415],[14.2047844,44.6080615],[14.2101203,44.6046407],[14.216274,44.6020028],[14.2257588,44.5987675],[14.2112442,44.590248],[14.1461199,44.5652614],[14.1403578,44.5639983],[14.1370023,44.5617095],[14.0759135,44.5337261],[14.0084654,44.5145498],[13.9371205,44.5048797],[13.8964237,44.5049857],[13.9114535,44.4835576],[13.9546546,44.4432713],[14.0076792,44.4095012],[14.0686413,44.383439],[14.108104,44.3699869],[14.124871,44.365638],[14.1427557,44.3544268],[14.2014733,44.3307495],[14.2050904,44.3270969],[14.2546655,44.2864063],[14.3145884,44.2536267],[14.3748815,44.2326985],[14.3757721,44.2205137],[14.3941286,44.1690615],[14.4262063,44.1212327],[14.4707298,44.0788816],[14.5183779,44.0484837],[14.5483322,44.0130715],[14.8224551,43.7504397],[14.898077,43.695987],[14.969943,43.6572976],[15.0148493,43.6377551],[15.0388248,43.6195912],[15.0822959,43.5914418],[15.1313118,43.5685696],[15.2174479,43.5349354],[15.282495,43.5150225],[15.3515921,43.5043851],[15.422265,43.5034044],[15.491985,43.5121164],[15.5367939,43.5243563],[15.5599319,43.5151712],[15.5676086,43.4844606],[15.5949003,43.4347181],[15.6101942,43.4177212],[15.6160122,43.4031186],[15.6493204,43.3563982],[15.6944745,43.3153115],[15.749737,43.2814192],[15.7994791,43.2614422],[15.766166,43.237963],[15.7240152,43.1930946],[15.6950756,43.1430054],[15.6804933,43.0897407],[15.6808222,43.0354696],[15.6960083,42.9823956],[15.7253983,42.9326679],[15.7651838,42.8804482],[15.8057574,42.8375403],[15.8568497,42.8012126],[15.9165336,42.7728231],[15.982571,42.753432],[16.0524949,42.7437627],[16.1236982,42.7441762],[16.1935279,42.754658],[16.2593792,42.7748183],[16.3295963,42.8023889],[16.3596335,42.7656544],[16.4060299,42.7276548],[16.4575062,42.6989359],[16.46254,42.6812094],[16.4841971,42.6305415],[16.5189192,42.5840261],[16.5653339,42.5434639],[16.6216267,42.5104222],[16.6856126,42.4861754],[16.7548198,42.4716576],[16.8265822,42.4674281],[16.898139,42.4736503],[17.012863,42.492129],[17.0801075,42.508042],[17.1420494,42.5331588],[17.1670662,42.5485396],[17.2173806,42.5330234],[17.6404909,42.4371743],[17.7119343,42.4264457],[17.7848839,42.4264076],[17.8564559,42.437062],[17.885699,42.4461536],[18.2975235,42.1935964],[18.3583152,42.1631792],[18.4260994,42.1424474],[18.4490042,42.1392071],[18.4650668,42.1344981],[18.4752185,42.1229747],[18.5189667,42.0824506],[18.5723448,42.0489353],[18.6333686,42.0236659],[18.6851793,42.0111163],[18.7788305,41.9509346],[18.8336881,41.8426456],[18.8681095,41.791676],[18.9161004,41.7472919],[18.9754942,41.7114725],[19.0436302,41.6858122],[19.1019468,41.6693529],[19.0956496,41.6570314],[19.0837053,41.6066886],[19.0846475,41.5555934],[19.0854403,41.552715],[19.0850882,41.5523618],[19.0546355,41.5045493],[19.0372263,41.453221],[19.0335002,41.4003612],[19.043566,41.3480084],[19.0728339,41.2586199],[19.096063,41.2090251],[19.0946832,41.2061763],[19.0850889,41.1428951],[19.0855906,41.0558467],[19.0565564,41.0182624],[19.0329644,40.963528],[19.0252441,40.9062919],[19.0336741,40.8493626],[18.9827298,40.7640119],[18.9604037,40.7140576],[18.9512901,40.6617919],[18.9557045,40.6092151],[18.9734454,40.5583342],[18.9811744,40.5463144],[18.9613581,40.5160407],[18.9430926,40.4652393],[18.9381052,40.412736],[18.9465532,40.3605333],[18.968083,40.310617],[19.0018482,40.2648812],[19.1894945,40.0594114],[19.2409858,40.0144275],[19.304124,39.9793224],[19.3856583,39.9437076],[19.4264869,39.9699131],[19.4842672,39.9945858],[19.7117036,40.0708674],[19.721622,40.073273],[19.7083226,40.0907309],[19.7393,40.0500676],[19.7433429,40.0457882],[19.7483987,40.0422019],[19.7542722,40.0394471],[19.7607368,40.0376299],[19.840212,40.0218652],[19.8998963,39.9430305],[19.8793694,39.9237606],[19.8755077,39.9192962],[19.8728655,39.914335],[19.8715468,39.909073],[19.8716034,39.9037176],[19.8730328,39.8984803],[19.8757781,39.8935677],[19.8797309,39.8891734],[19.884735,39.8854707],[19.8905931,39.8826055],[19.971168,39.8513455],[19.9616578,39.8155777],[19.9641131,39.8147246],[19.9700426,39.8120983],[19.9751943,39.8086392],[19.9793724,39.8044789],[19.9824183,39.7997755],[19.9842162,39.794708],[19.9842162,39.794708],[19.9846981,39.7894691],[19.9838461,39.7842578],[19.9694224,39.7352926],[19.9669376,39.7297467],[19.9629493,39.7247447],[19.9576469,39.7205237],[19.9569131,39.7201502],[19.9659097,39.6881401],[19.9677898,39.6835087],[19.9707155,39.6792162],[19.9745916,39.675402],[19.9792922,39.6721899],[19.9846648,39.6696841],[20.1389356,39.6115505],[20.1010367,39.5403511],[20.0990826,39.5353511],[20.098407,39.5301565],[20.0990351,39.5249618],[20.1009429,39.5199618],[20.1040587,39.5153436],[20.1082657,39.5112802],[20.1134061,39.5079237],[20.1192874,39.5053998],[20.1256894,39.5038028],[20.1813817,39.494392],[20.1814689,39.4914249],[20.1828716,39.486411],[20.185475,39.4816975],[20.1891844,39.4774551],[20.202194,39.4652651],[20.1973395,39.4633519],[20.1919015,39.4600171],[20.1874196,39.4559148],[20.1840715,39.4512077],[20.1819896,39.4460824],[20.1812563,39.4407424],[20.1819001,39.4353991],[20.1838953,39.4302644],[20.2055118,39.3897457],[20.2091171,39.3846351],[20.2955383,39.2884108],[20.2999422,39.2844032],[20.3052684,39.2811426],[20.3113125,39.2787541],[20.3178429,39.2773292],[20.4463151,39.2595454],[20.4252509,39.2624612],[20.4151858,39.2426436],[20.3783883,39.1982193],[20.3311603,39.1601748],[20.3057538,39.1464276],[20.3736544,39.0431384],[20.3854271,39.0846309],[20.4141202,39.1344767],[20.455229,39.1788135],[20.4731961,39.1916338],[20.4551653,39.204752],[20.6571431,39.0578048],[20.6815794,38.9935204],[20.6805493,38.9978177],[20.6807098,39.0033687],[20.6823326,39.008777],[20.6853493,39.0138128],[20.6896319,39.0182622],[20.6949987,39.0219363],[20.7012218,39.0246788],[20.7053876,39.0257145],[20.7151506,39],[20.7151506,39],[20.7817836,39],[20.7817836,39],[20.7416074,39.0286435],[20.7439857,39.0269479],[20.7439857,39.0269479],[20.7439857,39.0269479],[20.781813,39.0269483],[20.7882165,39.0264842],[20.7943992,39.0251113],[20.8001487,39.0228768],[20.8050048,39.0200124],[20.7875514,39.0324641],[20.8055163,39.0519984],[20.8125319,39.0303876],[20.8147146,39.0256091],[20.8180066,39.0212377],[20.822291,39.0174284],[20.8274158,39.0143161],[20.8331993,39.0120112],[20.8394367,39.0105953],[20.8459068,39.0101185],[20.885491,39.0101183],[20.8921226,39.0106187],[20.898512,39.0121042],[20.9044216,39.0145194],[20.9096316,39.0177745],[20.9139479,39.0217485],[20.9172099,39.0262936],[20.919296,39.0312406],[20.9201282,39.0364054],[20.9199935,39.0379491],[20.983048,39.010375],[20.9830522,39.0103808],[20.9657925,39.0179238],[20.9599773,39.0211121],[20.9551225,39.0251541],[20.9514321,39.02988],[20.9490616,39.0350911],[20.9481109,39.0405683],[20.9486204,39.0460813],[20.9505689,39.0513982],[20.9527144,39.0545766],[21,39.0339097],[20.9828291,39.0414145],[20.9828291,39.0414145],[20.9527144,39.0545766],[20.9527144,39.0545766],[20.9828291,39.0414145],[20.9828291,39.0414145],[20.9828291,39.0414145],[21.3,39.2],[21.45,39.4],[21.6,39.6],[21.6666667,39.6666667],[21.7333333,39.7333333],[21.8333333,39.8333333],[21.8666667,39.8666667],[22,40],[22.3,40.4],[22.45,40.6],[22.6,40.8],[22.7333333,40.9],[23,41.1],[23.2,41.1833333],[23.4,41.2666667],[23.6,41.35],[23.8333333,41.4],[24.0666667,41.45],[24.3,41.5],[24.5333333,41.5666667],[24.7666667,41.6333333],[25,41.7],[25.2,41.8],[25.4,41.9],[25.6,42],[25.4,42.1333333],[25.2,42.2666667],[25,42.4],[24.8,42.5166667],[24.6,42.6333333],[24.4,42.75],[24.2,42.8333333],[24,42.9166667],[23.8,43],[23.6333333,43.1333333],[23.4666667,43.2666667],[23.3,43.4],[23.1666667,43.55],[23.0333333,43.7],[22.9,43.85],[22.775,44.025],[22.65,44.2],[22.6,44.55],[22.7,44.7125],[22.8,44.875],[23,45.2],[24,45.4],[24.2166667,45.4166667],[24.4333333,45.4333333],[24.65,45.45],[24.8666667,45.4666667],[25.0833333,45.4833333],[25.3,45.5],[25.7,45.56],[25.9,45.59],[26.1,45.62],[26.3,45.65],[26.5,45.7833333],[26.7,45.9166667],[26.9,46.05],[27.1,46.13],[27.3,46.21],[27.5,46.29],[27.7,46.37],[27.9,46.45],[28.12,46.46],[28.34,46.47],[28.56,46.48],[28.78,46.49],[29,46.5],[29.4,46.44],[29.6,46.41],[29.8,46.38],[30,46.35],[30.5272696,46.1193195],[30.5469772,46.1426],[30.5482014,46.1420643],[30.5540729,46.1388847],[30.5589606,46.1349877],[30.5626854,46.1305162],[30.5626854,46.1305162],[30.565111,46.1256343],[30.5661486,46.120521],[30.5657607,46.1153639],[30.5639618,46.1103521],[30.5608183,46.1056692],[30.5276524,46.0665178],[30.5276633,46.0665134],[30.722156,46.2960995],[30.7252922,46.3007438],[30.7270988,46.3057154],[30.7275102,46.3108344],[30.7265112,46.315916],[30.7241374,46.3207761],[30.7227305,46.3224904],[30.7246345,46.3227308],[30.7319708,46.3247777],[30.7385573,46.3278045],[30.7441237,46.3316869],[30.7521576,46.3385552],[30.796647,46.3143677],[30.8457574,46.2748552],[30.8828857,46.2295399],[30.9066677,46.1801245],[30.9162489,46.1284608],[30.9113108,46.0764796],[30.8920772,46.0261185],[30.8593001,45.9792495],[30.8230918,45.9458002],[30.8248127,45.9450995],[30.8289363,45.9434054],[31.0242357,46.1724466],[31.0495429,46.2096105],[31.0932629,46.2446059],[31.1296816,46.2878736],[31.1335553,46.2954096],[31.126192,46.3096385],[31.1150677,46.3626035],[31.1193832,46.4160432],[31.1390126,46.4678429],[31.1499328,46.4832088],[31.1303656,46.5186328],[31.1176389,46.5707374],[31.1186001,46.5922988],[30.8141173,46.5299108],[31.1615584,46.6011009],[31.3279766,46.5756067],[31.3368251,46.5749541],[31.3456575,46.5756879],[31.3540202,46.5777703],[31.4331932,46.6047755],[31.4389419,46.6071757],[31.4440082,46.6102155],[31.4482433,46.6138056],[31.4543766,46.6200284],[31.4546893,46.6192469],[31.4582632,46.6144081],[31.4631735,46.6101569],[31.4692214,46.6066652],[31.4761621,46.6040742],[31.4773695,46.6038207],[31.4798913,46.6062162],[31.4855392,46.6098156],[31.4921048,46.6125892],[31.499335,46.61443],[31.5069504,46.6152668],[31.5146573,46.6150674],[31.5150716,46.6149996],[31.5149693,46.6152325],[31.5142334,46.6204931],[31.5150031,46.6256891],[31.5777158,46.6171097],[31.5535142,46.6204206],[31.75,46.675],[31.9036285,46.7176746],[31.9053191,46.7386873],[31.8657187,46.8062304],[31.9019398,46.7444511],[31.9043645,46.7445874],[31.9122043,46.7439468],[31.9196987,46.742249],[31.9210145,46.7417328],[31.9215144,46.742896],[31.9251691,46.747636],[31.9301251,46.7517872],[31.9361861,46.7551851],[31.9423051,46.7574024],[32.0241202,46.6289298],[31.9579888,46.7327747],[32.2,46.8],[32.4,46.92],[32.6,47.04],[32.8,47.16],[33,47.28],[33.2,47.4],[33.4,47.52],[33.6,47.64],[33.8,47.76],[34,47.88],[34.2,48],[34.4,48.14],[34.6,48.28],[34.8,48.42],[35,48.56],[35.2,48.7],[35.4,48.84],[35.6,48.98],[35.8,49.12],[36,49.26],[36.2,49.4],[36.4,49.54],[36.6,49.68],[36.8,49.82],[37,49.96],[37.2,50.1],[37.42,50.2],[37.5993547,50.2815249],[37.5979278,50.2699236],[37.5947759,50.2442988],[37.5954505,50.2497826],[37.5993548,50.2815249],[37.64,50.3],[37.86,50.4],[38.3,50.6],[38.5166667,50.65],[38.7333333,50.7],[38.95,50.75],[39.1666667,50.8],[39.3833333,50.85],[39.6,50.9],[39.8333333,50.9333333],[40.0666667,50.9666667],[40.5,51.0285714],[40.5,51.0285714],[40.5,51.0285714],[40.5,52.6],[40.5,53.2],[40.44,53.4],[40.38,53.6],[40.32,53.8],[40.32,53.8],[40.2857143,53.9142857],[40.2857143,53.9142857],[40.2857143,53.9142857],[40.26,54],[40.2,54.2],[39.5,55],[39.3333333,55.1333333],[39.25,55.2],[39.1666667,55.2666667],[39,55.4],[38.8333333,55.5333333],[38.75,55.6],[38.6666667,55.6666667],[38.5,55.8],[38.3571429,55.9],[37.5,56.5],[37.25,56.85],[37.125,57.025],[37,57.2],[36.875,57.4],[36.75,57.6],[36.5,58],[36.3333333,58.1333333],[36.25,58.2],[36.1666667,58.2666667],[36,58.4],[35.8333333,58.5333333],[35.75,58.6],[35.6666667,58.6666667],[35.5,58.8],[35.3,58.92],[35.1,59.04],[34.5,59.4],[34.1,59.6],[33.9142857,59.6928571],[33.9,59.7],[33.7,59.8],[33.5,59.9],[33.325,60],[33.15,60.1],[32.975,60.2],[32.8,60.3],[32.4,60.3],[32.2333333,60.2],[32.15,60.15],[32.0666667,60.1],[31.9,60],[31.7333333,59.8666667],[31.65,59.8],[31.5666667,59.7333333],[31.4,59.6],[31.175,59.525],[30.95,59.45],[30.5,59.3],[30.3,59.24],[30.1,59.18],[29.5,59],[28.5,59.1],[28.4764706,59.1058824],[28.3,59.15],[28.3,59.15],[28.1,59.2],[27.9333333,59.1],[27.85,59.05],[27.7666667,59],[27.6,58.9],[27.5666667,58.7],[27.55,58.6],[27.5333333,58.5],[27.5,58.3],[27.55,58.1],[27.6,57.9],[27.55,57.725],[27.5,57.55],[27.5247637,57.5128544],[27.7737371,57.1393943],[27.6824768,57.1031746],[27.746297,57.1285038],[27.7737371,57.1393943],[27.7737371,57.1393943],[27.8155615,57.1559937],[27.7737371,57.1393943],[28,56.8],[28,56],[27.75,55.65],[27.625,55.475],[27.5,55.3],[27,54.4],[26.68,54.12],[26.52,53.98],[26.36,53.84],[26.2,53.7],[26,53.6333333],[25.8,53.5666667],[25.4,53.4333333],[25.2,53.3666667],[25,53.3],[23.8,53.1],[23.5833333,53.125],[23.3666667,53.15],[23.15,53.175],[22.9333333,53.2],[22.7166667,53.225],[22.5,53.25],[21.5,53.35],[21.3,53.37],[21.1,53.39],[20.9,53.41],[20.7,53.43],[20.5,53.45],[20.2666667,53.5166667],[20.0333333,53.5833333],[19.8,53.65],[19.6333333,53.75],[19.4666667,53.85],[19.3,53.95],[19,54.3],[18.9664981,54.3502529],[18.9212558,54.3558938],[18.9212558,54.3558938],[18.921262,54.3559244],[18.921262,54.3559244],[18.9212813,54.3560198],[18.9240695,54.3610331],[18.9283719,54.365524],[18.9283719,54.365524],[18.9284784,54.3656351],[18.9284784,54.3656351],[18.9343403,54.36965],[18.9345255,54.3697355],[18.9345657,54.3697541],[18.9345657,54.3697541],[18.9414313,54.3729242],[18.9494808,54.3753327],[18.958181,54.3767833],[18.9627542,54.3770051],[18.9627542,54.3770051],[18.9671994,54.3772206],[18.9757182,54.3766589],[18.7390766,54.4061743],[18.6202984,54.4633059],[18.6180593,54.5272038],[18.6702469,54.5577904],[18.7435643,54.5867808],[18.8121814,54.6038989],[18.7607441,54.6521517],[18.7607441,54.6521517],[18.7363115,54.6750717],[18.7169048,54.7017558],[18.7507875,54.6901977],[18.8155882,54.6429175],[18.8185438,54.6054861],[18.8251291,54.607129],[18.9119322,54.6180811],[19.1662748,54.6352656],[19.1663073,54.6352678],[19.1663287,54.6352693],[19.1664743,54.6352791],[19.1785561,54.6639028],[19.1825973,54.7163861],[19.1689272,54.7683452],[19.1380018,54.8178002],[19.0909448,54.8628602],[19.029513,54.9017964],[18.9560343,54.9331109],[18.5527927,55.0708876],[18.455187,55.0958535],[18.3502398,55.1075056],[18.2434546,55.1052341],[17.258085,55.0150882],[17.1691953,55.0013081],[17.0868379,54.977784],[16.7574111,54.8582573],[16.4628434,54.8192187],[16.374534,54.8018485],[16.2941266,54.7746546],[16.224862,54.7387399],[15.9803379,54.5827259],[15.9251016,54.5391176],[15.9108011,54.5250204],[15.9014855,54.5213511],[15.8242068,54.5180092],[15.6965906,54.5016705],[14.3993525,54.2101854],[14.2227821,54.3151518],[14.2261488,54.3638651],[14.2088477,54.4207648],[14.1709744,54.4742357],[14.1247516,54.5129765],[14.1310106,54.5273817],[14.13547,54.5804672],[14.1217837,54.6330567],[14.0904206,54.683091],[14.0425527,54.7286039],[13.9800177,54.7678012],[13.9052522,54.7991333],[13.8472676,54.8144744],[13.7983476,54.8549037],[13.7312,54.8918734],[13.6526055,54.9204871],[13.5656847,54.9396029],[13.5113616,54.9480918],[13.4137177,54.9571065],[13.3150194,54.9541292],[13.2197297,54.9392961],[13.0605339,54.9036054],[12.9972987,54.8851542],[12.9918223,54.8706189],[12.9564018,54.823058],[12.9059643,54.7802485],[12.8423893,54.743748],[12.7680152,54.7148807],[12.6855537,54.6946913],[12.5979936,54.6839092],[12.5495788,54.6833843],[12.528478,54.6656861],[12.4325242,54.5995364],[12.4335076,54.5785116],[12.4267588,54.5248246],[12.4018218,54.4729803],[12.3597508,54.4250317],[12.3022626,54.3828704],[12.2316614,54.3481544],[12.1507456,54.3222452],[12.0626979,54.3061565],[11.9709647,54.300517],[11.8791283,54.3055468],[11.7907747,54.3210495],[11.7093617,54.3464194],[11.6615389,54.3694085],[11.5440347,54.3592255],[11.4391447,54.3570464],[11.336068,54.3686034],[11.2652624,54.3868169],[11.3125439,54.3864065],[11.3219909,54.3868833],[11.331066,54.388467],[11.3393888,54.3910915],[11.3466103,54.3946467],[11.3524275,54.3989836],[11.356596,54.4039204],[11.3589402,54.4092499],[11.3593611,54.4147486],[11.3578403,54.4201856],[11.3544409,54.4253326],[11.2968866,54.4912072],[11.290982,54.4963774],[11.2831939,54.5006325],[11.2831939,54.5006325],[11.1499578,54.5580728],[11.1425567,54.5606759],[11.1344534,54.5624429],[11.125929,54.5633125],[11.1172792,54.5632546],[11.108804,54.5622712],[11.1007972,54.5603965],[11.0107607,54.5333629],[11.0027906,54.5303225],[10.9960735,54.5264002],[10.9908941,54.5217624],[10.9874715,54.5166059],[10.9623264,54.4625637],[10.9722177,54.4838223],[10.9206198,54.5012617],[10.8543963,54.4825287],[10.7618683,54.4688929],[10.6863416,54.4669707],[10.6952285,54.4280123],[10.6890038,54.374385],[10.6837131,54.3560681],[10.6462125,54.3682528],[10.729388,54.3412274],[10.3419428,54.4671161],[10.33361,54.4692143],[10.3247364,54.4703342],[10.3156622,54.4704329],[10.3067353,54.4695067],[10.298298,54.4675911],[10.2494307,54.4531233],[10.2472782,54.4435801],[10.2479774,54.4434833],[10.2563454,54.4412284],[10.2637759,54.4380504],[10.2699736,54.4340757],[10.273853,54.4302829],[10.2331023,54.4183367],[10.2327761,54.417994],[10.2,54.3]],[[14.3162979,44.6659706],[14.3168136,44.6705394],[14.343316,44.6055787],[14.3178393,44.6680251],[14.3162979,44.6659706]],[[14.4231535,45.0510025],[14.4841583,45.0116497],[14.4896658,45.008696],[14.4958425,45.0064969],[14.5024846,45.0051247],[14.509373,45.0046249],[14.5162803,45.0050139],[14.5866747,45.0135475],[14.590766,44.9753801],[14.5921387,44.9699809],[14.5950335,44.9648947],[14.5993297,44.960333],[14.6048485,44.9564853],[14.6113602,44.9535116],[14.6565503,44.9372083],[14.6309589,44.9165226],[14.5735938,44.8783919],[14.5137545,44.8458265],[14.4956177,44.8395114],[14.4908383,44.8016101],[14.5118778,44.9684586],[14.5117719,44.9739719],[14.5100777,44.9793501],[14.5068659,44.9843672],[14.502271,44.9888127],[14.4232465,45.0506226],[14.4231535,45.0510025]],[[14.7029263,45.1082325],[14.7029478,45.1393129],[14.7502577,45.1142227],[14.7511639,45.1048938],[14.7502213,45.0997482],[14.7498615,45.0998391],[14.7029263,45.1082325]],[[18.7363115,54.6750717],[18.7363116,54.6750716],[18.7363116,54.6750716],[18.7549717,54.6575667],[18.7363116,54.6750715],[18.7363115,54.6750717]],[[31.9100432,46.8030048],[31.9246059,46.8178208],[31.91502,46.7945115],[31.9100432,46.8030048]]]}}
