{"type":"Feature","properties":{"family":"other","name":"Slavic peoples, 882 – 912"},"geometry":{"type":"Polygon","coordinates":[[[10,50],[13,47.5],[13.2,47.06],[13.3,46.84],[13.4,46.62],[13.7,45.96],[13.8,45.74],[13.9,45.52],[14,45.3],[13.8571429,45.1142857],[13.7537171,44.9798322],[13.7259341,45],[13.7259341,45],[13.725926,45.0000059],[13.725926,45.0000059],[13.7259234,45.0000077],[13.7201887,44.9925451],[13.7259234,45.0000077],[13.6577575,45.0494895],[13.6243362,45.0737501],[13.6135361,45.1176531],[13.7251373,45.1345389],[13.595536,45.1446704],[13.5739357,45.2645593],[13.602736,45.2848223],[13.5739357,45.3067738],[13.6099361,45.3202824],[13.5858947,45.3291849],[13.5858831,45.3291892],[13.5864298,45.3280057],[13.4177309,45.1064749],[13.3882642,45.0557888],[13.3739735,45.0019823],[13.375407,44.9472862],[13.3924599,44.8939617],[13.4083653,44.8604738],[13.4117156,44.8277091],[13.4326509,44.7752572],[13.4680572,44.7269019],[13.516454,44.6846185],[13.5587323,44.6600752],[13.5709337,44.6405908],[13.6126061,44.5983261],[13.6648482,44.5625086],[13.7257338,44.5344473],[13.7930318,44.5151663],[13.8642852,44.5053688],[13.896094,44.5053939],[13.91136,44.4836427],[13.9546008,44.4433507],[14.0076659,44.4095711],[14.0686684,44.383496],[14.1081319,44.3700433],[14.1248569,44.3657037],[14.1427489,44.3544922],[14.2013475,44.3308701],[14.2049144,44.3272681],[14.2545122,44.2865534],[14.3144644,44.2537436],[14.3746878,44.2328194],[14.3755839,44.2206212],[14.3939767,44.1691521],[14.4261047,44.1213049],[14.47069,44.0789354],[14.5181847,44.0486595],[14.5481453,44.0132401],[14.8222656,43.7506003],[14.8979745,43.6960852],[14.9698412,43.657394],[15.0147326,43.6378538],[15.0386581,43.6197272],[15.082188,43.5915395],[15.1312737,43.5686342],[15.2174113,43.5349983],[15.2824992,43.5150676],[15.3516366,43.5044096],[15.4223481,43.5034066],[15.4921036,43.5120953],[15.5369768,43.5243308],[15.5597177,43.5153033],[15.567391,43.4846166],[15.5947109,43.4348478],[15.6099789,43.4178877],[15.6158476,43.4031835],[15.6492008,43.3564561],[15.6944061,43.3153606],[15.749724,43.2814586],[15.7993226,43.2615493],[15.7659141,43.2380181],[15.723767,43.1931793],[15.6948308,43.14312],[15.6802505,43.0898828],[15.6805801,43.0356339],[15.6957656,42.9825743],[15.7251544,42.9328511],[15.764939,42.8806301],[15.805556,42.8376781],[15.8567115,42.8013085],[15.9164741,42.7728827],[15.9826,42.7534634],[16.0526159,42.7437761],[16.1239083,42.7441831],[16.1938174,42.7546698],[16.2597326,42.7748461],[16.3295736,42.8022692],[16.3595308,42.7656827],[16.4059774,42.7276827],[16.4572551,42.6990988],[16.4622836,42.6813891],[16.4839597,42.6306877],[16.5187231,42.5841369],[16.5651985,42.5435408],[16.6215674,42.5104695],[16.6856396,42.4862],[16.7549374,42.4716683],[16.8267885,42.467435],[16.8984258,42.4736637],[17.013153,42.492143],[17.0804237,42.5080604],[17.1423808,42.5331795],[17.1672954,42.5484963],[17.2173882,42.5330505],[17.6405085,42.4371959],[17.7119989,42.4264565],[17.7849928,42.4264053],[17.8566049,42.4370451],[17.8857541,42.446096],[18.2973398,42.193685],[18.35817,42.1632463],[18.4259985,42.1424896],[18.4489935,42.13923],[18.4648602,42.1345802],[18.4749555,42.1231206],[18.5187544,42.0825523],[18.5722035,42.0489978],[18.6333135,42.0236972],[18.6850381,42.0111705],[18.7785629,41.9510676],[18.833406,41.8428011],[18.8704824,41.7888018],[18.9227632,41.7423849],[18.9875852,41.7058881],[19.0948058,41.6584516],[19.0970257,41.662782],[19.0575923,41.6760154],[19.0012162,41.7055777],[18.9533455,41.7425384],[18.9157226,41.7855628],[18.8897281,41.8330954],[18.8763294,41.8834143],[18.8760422,41.9346928],[18.8889079,41.9850652],[18.9144875,42.0326944],[18.9518737,42.075839],[18.9997199,42.1129183],[19.0142767,42.1205489],[19.0548171,42.0944128],[19.1380862,41.9285839],[19.1417757,41.9231736],[19.146999,41.9185195],[19.1534907,41.914858],[19.3478429,41.8287738],[19.3479077,41.8288548],[19.3478375,41.8288786],[19.2184974,41.8861699],[19.2129559,41.8891798],[19.2082771,41.8929098],[19.2046348,41.8972191],[19.2046288,41.8972262],[19.202142,41.9019743],[19.2009063,41.9069837],[19.2009661,41.9120748],[19.2023197,41.917065],[19.2049188,41.9217751],[19.2059961,41.9229987],[19.2060047,41.9229948],[19.2107511,41.9208922],[19.2211047,41.9163058],[19.2370207,41.9092552],[19.2645819,41.8970459],[19.273699,41.8930072],[19.2875202,41.8868846],[19.2960361,41.8831122],[19.3065697,41.8784459],[19.3091722,41.877293],[19.3403045,41.8635018],[19.3663937,41.8519447],[19.3403045,41.8635018],[19.3091722,41.877293],[19.3065697,41.8784459],[19.2960361,41.8831122],[19.2875202,41.8868846],[19.273699,41.8930072],[19.2645819,41.8970459],[19.2370207,41.9092552],[19.6,42],[20,41.8],[20.1,41.6],[20.2,41.4],[20.5,42],[20.7666667,42.4],[20.9,42.6],[21,42.8],[21.1,43],[21.2,43.2],[21.3333333,43.6],[21.4,43.8],[21.275,43.95],[21.15,44.1],[21.025,44.25],[20.9,44.4],[20.7666667,44.5333333],[20.6333333,44.6666667],[20.5,44.8],[20.3,44.8666667],[20.1,44.9333333],[19.7,45.0666667],[19.5,45.1333333],[19.3,45.2],[19.1666667,45.3166667],[19.0333333,45.4333333],[18.9,45.55],[18.7333333,45.6166667],[18.5666667,45.6833333],[18.4,45.75],[17.8,45.9],[17.6,45.9833333],[17.4,46.0666667],[17.2,46.15],[17,46.2166667],[16.8,46.2833333],[16.6,46.35],[16.4,46.45],[16.175,46.4625],[15.95,46.475],[15.5,46.5],[15.4333333,46.6666667],[15.3666667,46.8333333],[15.3,47],[15.1666667,47.1333333],[15.0333333,47.2666667],[14.9,47.4],[14.75,47.6],[14.6,47.8],[14.5,48.2],[14.4,48.4],[14.2166667,48.5166667],[14.0333333,48.6333333],[13.85,48.75],[14.0333333,48.7],[14.2166667,48.65],[14.356,48.612],[14.4,48.6],[14.4057416,48.6033493],[14.6,48.7166667],[14.8,48.8333333],[15,48.95],[15.2,48.9166667],[15.4,48.8833333],[15.6,48.85],[15.8,48.8166667],[16,48.7833333],[16.2,48.75],[16.95,48.6],[17.3166667,48.8],[17.5,48.9],[17.7,48.98],[17.8888889,49.0555556],[17.9,49.06],[18.1,49.14],[18.5,49.3],[18.7,49.32],[18.9,49.34],[19.1,49.36],[19.3,49.38],[19.5,49.4],[21,49.4],[21.2142857,49.3428571],[21.4285714,49.2857143],[21.6428571,49.2285714],[21.8571429,49.1714286],[22.0714286,49.1142857],[22.2857143,49.0571429],[22.5,49],[22.6666667,48.8333333],[22.8333333,48.6666667],[23.1666667,48.3333333],[23.3333333,48.1666667],[23.5,48],[23.7166667,47.95],[23.9333333,47.9],[24.15,47.85],[24.3666667,47.8],[24.5833333,47.75],[24.8,47.7],[25.5,47.2],[25.625,47.025],[25.75,46.85],[26,46.5],[26,45.8],[25.825,45.725],[25.65,45.65],[25.3,45.5],[25.7,45.56],[25.9,45.59],[26.1,45.62],[26.3,45.65],[26.5,45.6375],[26.7,45.625],[26.9,45.6125],[27.1,45.6],[26.975,45.75],[26.85,45.9],[26.725,46.05],[26.6,46.2],[26.5,46.4],[26.4,46.6],[26.2,47],[26.1333333,47.2333333],[26.0666667,47.4666667],[26,47.7],[26.2,48.0333333],[26.3,48.2],[26.54,48.16],[26.78,48.12],[27.02,48.08],[27.5,48],[27.7142857,48.0285714],[27.9285714,48.0571429],[28.1428571,48.0857143],[28.3571429,48.1142857],[28.5714286,48.1428571],[28.7857143,48.1714286],[29,48.2],[29.2142857,48.2714286],[29.4285714,48.3428571],[29.6428571,48.4142857],[29.8571429,48.4857143],[30.0714286,48.5571429],[30.2857143,48.6285714],[30.5,48.7],[30.7,48.8],[30.9,48.9],[31.1,49],[31.5,49.2],[31.7142857,49.2142857],[31.9285714,49.2285714],[32.1428571,49.2428571],[32.3571429,49.2571429],[32.5714286,49.2714286],[33,49.3],[33.2142857,49.3285714],[33.4285714,49.3571429],[33.6428571,49.3857143],[33.8571429,49.4142857],[34.0714286,49.4428571],[34.5,49.5],[34.7142857,49.5571429],[34.9285714,49.6142857],[35.1428571,49.6714286],[35.3571429,49.7285714],[35.5714286,49.7857143],[35.7857143,49.8428571],[36,49.9],[36.2142857,49.9571429],[36.4285714,50.0142857],[36.6428571,50.0714286],[36.8571429,50.1285714],[37.0714286,50.1857143],[37.5,50.3],[37.5537584,50.3107517],[37.5570884,50.3093791],[37.5731886,50.3027427],[37.5731886,50.3027427],[37.600576,50.2914539],[37.5731886,50.3027427],[37.5731886,50.3027427],[37.5570884,50.3093791],[37.5537584,50.3107517],[37.7142857,50.3428571],[37.9285714,50.3857143],[38.1428571,50.4285714],[38.3571429,50.4714286],[38.5714286,50.5142857],[38.7857143,50.5571429],[39,50.6],[39.2142857,50.6428571],[39.4285714,50.6857143],[39.6428571,50.7285714],[39.8571429,50.7714286],[40.0714286,50.8142857],[40.2857143,50.8571429],[40.5,50.9],[40.5,51.0285714],[40.5,51.0285714],[40.5,51.0285714],[40.5,52.6],[40.5,53.2],[40.44,53.4],[40.38,53.6],[40.32,53.8],[40.32,53.8],[40.2857143,53.9142857],[40.2857143,53.9142857],[40.2857143,53.9142857],[40.26,54],[40.2,54.2],[39.5,55],[39.3333333,55.1333333],[39.25,55.2],[39.1666667,55.2666667],[39,55.4],[38.8333333,55.5333333],[38.75,55.6],[38.6666667,55.6666667],[38.5,55.8],[38.3571429,55.9],[37.5,55.9],[37.2777778,55.8555556],[37.0555556,55.8111111],[36.8333333,55.7666667],[36.6111111,55.7222222],[36.3888889,55.6777778],[36.1666667,55.6333333],[35.9444444,55.5888889],[35.7222222,55.5444444],[35.5,55.5],[35.3142857,55.3571429],[35.1285714,55.2142857],[34.9428571,55.0714286],[34.7571429,54.9285714],[34.5714286,54.7857143],[34.3857143,54.6428571],[34.2,54.5],[34.12,54.3],[34.04,54.1],[33.96,53.9],[33.88,53.7],[33.8,53.5],[34.5,52.6],[34.6333333,52.4333333],[34.7666667,52.2666667],[34.9,52.1],[35.0333333,51.9333333],[35.1666667,51.7666667],[35.3,51.6],[35.16,51.4],[35.0219783,51.2028261],[35,51.2006171],[35.0219783,51.2028261],[35.0219783,51.2028261],[35.0296839,51.2036006],[35.0534442,51.2059887],[35.0679053,51.2074422],[35.0683136,51.2074832],[35.068744,51.2075265],[35.0695108,51.2076036],[35.0724099,51.2078949],[35.0724099,51.2078949],[35.0725348,51.2079075],[35.0724099,51.2078949],[35.0724099,51.2078949],[35.0695108,51.2076036],[35.068744,51.2075265],[35.0683136,51.2074832],[35.0679053,51.2074422],[35.0534442,51.2059887],[35.0296839,51.2036006],[35.0219783,51.2028261],[35.0219783,51.2028261],[35.02,51.2],[34.88,51],[34.74,50.8],[34.6,50.6],[34.3714286,50.5],[34.1428571,50.4],[33.9142857,50.3],[33.6857143,50.2],[33.4571429,50.1],[33.2285714,50],[33,49.9],[32.7857143,49.8571429],[32.5714286,49.8142857],[32.3571429,49.7714286],[32.1428571,49.7285714],[31.9285714,49.6857143],[31.7142857,49.6428571],[31.5,49.6],[31.2833333,49.5833333],[31.0666667,49.5666667],[30.85,49.55],[30.6333333,49.5333333],[30.4166667,49.5166667],[30.2,49.5],[30,49.5666667],[29.6,49.7],[29.4,49.7666667],[29.2,49.8333333],[29,49.9],[28.7666667,49.95],[28.5333333,50],[28.3,50.05],[28.0666667,50.1],[27.8333333,50.15],[27.6,50.2],[27.4166667,50.3333333],[27.2333333,50.4666667],[27.05,50.6],[26.8666667,50.7333333],[26.6833333,50.8666667],[26.5,51],[26.3333333,51.15],[26.1666667,51.3],[25.8333333,51.6],[25.6666667,51.75],[25.5,51.9],[25.46,52.3],[25.44,52.5],[25.42,52.7],[25.4,52.9],[26.2,53.7],[26,53.6333333],[25.8,53.5666667],[25.4,53.4333333],[25.2,53.3666667],[25,53.3],[23.8,53.1],[23.5833333,53.125],[23.3666667,53.15],[23.15,53.175],[22.9333333,53.2],[22.7166667,53.225],[22.5,53.25],[21.5,53.35],[21.3,53.37],[21.1,53.39],[20.9,53.41],[20.7,53.43],[20.5,53.45],[20.2666667,53.5166667],[20.0333333,53.5833333],[19.8,53.65],[19.6333333,53.75],[19.4666667,53.85],[19.3,53.95],[19,54.3],[18.9664981,54.3502529],[18.9212558,54.3558938],[18.921262,54.3559244],[18.921262,54.3559244],[18.9212813,54.3560198],[18.9240695,54.3610331],[18.9283719,54.365524],[18.9283719,54.365524],[18.9284784,54.3656351],[18.9284784,54.3656351],[18.9284784,54.3656351],[18.9343403,54.36965],[18.9343403,54.36965],[18.9345255,54.3697355],[18.9345657,54.3697541],[18.9345657,54.3697541],[18.9414313,54.3729242],[18.9494808,54.3753327],[18.958181,54.3767833],[18.9627542,54.3770051],[18.9627542,54.3770051],[18.9671994,54.3772206],[18.9756626,54.3766626],[18.7390436,54.4061749],[18.620274,54.4633021],[18.6180349,54.5271895],[18.6180389,54.5271918],[18.6180395,54.5271921],[18.6180593,54.5272038],[18.6180597,54.527204],[18.6180775,54.5272144],[18.6702469,54.5577904],[18.7435643,54.5867808],[18.8121814,54.6038989],[18.7607446,54.6521512],[18.7607446,54.6521512],[18.7607435,54.6521523],[18.7607419,54.6521537],[18.7607419,54.6521537],[18.7549717,54.6575667],[18.7370316,54.6743961],[18.7363116,54.6750715],[18.7363116,54.6750716],[18.7363116,54.6750716],[18.7169048,54.7017558],[18.7507875,54.6901977],[18.7590986,54.6841337],[18.7811145,54.6680704],[18.781129,54.6680598],[18.8155882,54.6429175],[18.8185438,54.6054861],[18.8251291,54.607129],[18.9119322,54.6180811],[19.1662748,54.6352656],[19.1783439,54.6639483],[19.1823268,54.7164318],[19.1686086,54.768389],[19.1376472,54.8178403],[19.0905683,54.8628947],[19.0291295,54.901824],[18.9556591,54.9331307],[18.552422,55.0708996],[18.4548662,55.0958551],[18.3499888,55.1075023],[18.2432873,55.1052319],[17.2579445,55.0150892],[17.16916,55.001328],[17.0869017,54.9778327],[16.7573754,54.8582725],[16.4626956,54.8192205],[16.3745034,54.8018747],[16.2942033,54.7747173],[16.2250274,54.7388486],[15.9805017,54.5828407],[15.9253123,54.5392718],[15.9109579,54.5251223],[15.9013764,54.5213478],[15.8239452,54.5179998],[15.6964448,54.5016739],[14.3990096,54.2101398],[14.2225754,54.315021],[14.2259244,54.3637106],[14.2085936,54.4206423],[14.1706804,54.4741468],[14.1245419,54.5128109],[14.1308003,54.5272296],[14.1352342,54.5803326],[14.1215163,54.6329441],[14.0901176,54.6830024],[14.0422126,54.7285388],[13.9796421,54.7677567],[13.9048463,54.7991047],[13.8468893,54.8144411],[13.7979629,54.8548606],[13.7307783,54.8918454],[13.6521553,54.920469],[13.5652181,54.9395884],[13.5108962,54.9480767],[13.4133345,54.9570857],[13.3147368,54.9541152],[13.2195567,54.939301],[13.0603649,54.9036118],[12.9973208,54.8852127],[12.9973181,54.8852056],[12.9973168,54.8852021],[12.9973004,54.8851587],[12.9972844,54.8851162],[12.9972835,54.8851139],[12.9972667,54.8850691],[12.9918223,54.8706189],[12.9564018,54.823058],[12.9059643,54.7802485],[12.8619182,54.7549602],[12.8618787,54.7549375],[12.8423893,54.743748],[12.7680152,54.7148807],[12.6855537,54.6946913],[12.6683058,54.6925674],[12.5979936,54.6839092],[12.5495788,54.6833843],[12.5329728,54.6694561],[12.528478,54.6656861],[12.4325242,54.5995364],[12.4335076,54.5785116],[12.4267588,54.5248246],[12.4138025,54.4978884],[12.4138025,54.4978884],[12.4018218,54.4729803],[12.3597508,54.4250317],[12.3022626,54.3828704],[12.2316614,54.3481544],[12.1507456,54.3222452],[12.0626979,54.3061565],[11.9709647,54.300517],[11.8791283,54.3055468],[11.7907747,54.3210495],[11.7093617,54.3464194],[11.6615389,54.3694085],[11.5440347,54.3592255],[11.4391447,54.3570464],[11.336068,54.3686034],[11.2657191,54.3866994],[11.2657191,54.3866994],[11.2657164,54.3867001],[11.2657143,54.3867006],[11.2657143,54.3867006],[11.2656952,54.3867056],[11.2652987,54.3868075],[11.2652623,54.3868169],[11.2652518,54.3868196],[11.2652488,54.3868204],[11.3125903,54.3864096],[11.3220293,54.386886],[11.331095,54.3884687],[11.3394077,54.3910913],[11.346619,54.3946441],[11.3524265,54.3989782],[11.3565863,54.403912],[11.3589235,54.4092386],[11.3593394,54.4147348],[11.3578157,54.4201699],[11.3544156,54.4253158],[11.296861,54.4911903],[11.2909491,54.4963669],[11.2831516,54.5006271],[11.1499156,54.5580671],[11.1425152,54.5606704],[11.1344143,54.5624381],[11.1258939,54.5633088],[11.1172492,54.5632523],[11.10878,54.5622706],[11.1007801,54.5603979],[11.0107438,54.5333644],[11.0027866,54.5303289],[10.9960806,54.5264125],[10.9909094,54.5217813],[10.9874917,54.5166314],[10.9722248,54.48382],[10.9722236,54.4838204],[10.972223,54.4838206],[10.9722177,54.4838223],[10.9722158,54.483823],[10.9722145,54.4838234],[10.9722143,54.4838235],[10.9206198,54.5012617],[10.8543963,54.4825287],[10.7618683,54.4688929],[10.6862206,54.4669677],[10.6665235,54.4664664],[10.6664339,54.4664748],[10.6664242,54.4365867],[10.6507653,54.3877483],[10.639413,54.3706204],[10.6394073,54.3706118],[10.6393267,54.3704901],[10.6393176,54.3704765],[10.6393158,54.3704737],[10.3418963,54.4671111],[10.3335999,54.4692029],[10.3247675,54.470325],[10.3157351,54.4704347],[10.3068459,54.4695279],[10.298438,54.4676391],[10.2494686,54.4532913],[10.2494684,54.4532905],[10.2494486,54.4532024],[10.2494484,54.4532019],[10.2494472,54.4531963],[10.2494307,54.4531233],[10.2472771,54.4435752],[10.2438505,54.4283829],[10.2414776,54.422711],[10.2393329,54.4201632],[10.2331023,54.4183367],[10.2327761,54.417994],[10.2327761,54.417994],[10.1978837,54.381334],[10.1680568,54.3538259],[10.1680568,54.3538259],[10.159173,54.3456329],[10.1591554,54.3456167],[10.1535724,54.3414322],[10.146695,54.3379645],[10.1431014,54.3367749],[10.1431014,54.3727451],[10.1899019,54.3963852],[10.197867,54.4318773],[10.204302,54.4605512],[10.197867,54.4318773],[10.12,54.36],[10,54.3436364],[10,50]],[[18.7363116,54.6750715],[18.7370316,54.6743961],[18.7549717,54.6575667],[18.7607419,54.6521537],[18.7607419,54.6521537],[18.7607435,54.6521523],[18.7607446,54.6521512],[18.7607446,54.6521512],[18.7607453,54.6521506],[18.7607446,54.6521512],[18.7607446,54.6521512],[18.7607435,54.6521523],[18.7607419,54.6521537],[18.7607419,54.6521537],[18.7549717,54.6575667],[18.7370316,54.6743961],[18.7363116,54.6750715],[18.7363116,54.6750715]]]}}
