{"type":"Feature","properties":{"family":"other","name":"Slavic peoples, 965 – 971"},"geometry":{"type":"Polygon","coordinates":[[[22.5,49],[22.6666667,48.8333333],[22.8333333,48.6666667],[23.1666667,48.3333333],[23.3333333,48.1666667],[23.5,48],[23.7166667,47.95],[23.9333333,47.9],[24.15,47.85],[24.3666667,47.8],[24.5833333,47.75],[24.8,47.7],[25,47.8],[25.2,47.9],[25.6,48.1],[25.8,48.2],[26,48.3],[26.2142857,48.2714286],[26.4285714,48.2428571],[26.6428571,48.2142857],[26.8571429,48.1857143],[27.0714286,48.1571429],[27.2857143,48.1285714],[27.5,48.1],[27.7142857,48.1714286],[27.9285714,48.2428571],[28.1428571,48.3142857],[28.3571429,48.3857143],[28.5714286,48.4571429],[28.7857143,48.5285714],[29,48.6],[29.2142857,48.6857143],[29.4285714,48.7714286],[29.6428571,48.8571429],[29.8571429,48.9428571],[30.0714286,49.0285714],[30.2857143,49.1142857],[30.5,49.2],[30.7142857,49.2571429],[30.9285714,49.3142857],[31.1428571,49.3714286],[31.3571429,49.4285714],[31.5714286,49.4857143],[31.7857143,49.5428571],[32,49.6],[32.2142857,49.6285714],[32.4285714,49.6571429],[32.6428571,49.6857143],[32.8571429,49.7142857],[33.0714286,49.7428571],[33.5,49.8],[33.7166667,49.8833333],[33.9333333,49.9666667],[34.15,50.05],[34.3666667,50.1333333],[34.5833333,50.2166667],[34.8,50.3],[35.1777778,50.5666667],[35.3666667,50.7],[35.440528,50.7521374],[35.4516762,50.7196013],[35.4516762,50.7196013],[35.4516762,50.7196013],[35.4693547,50.6680066],[35.4516762,50.7196013],[35.4516762,50.7196013],[35.4516762,50.7196013],[35.440528,50.7521374],[35.440528,50.7521374],[35.440528,50.7521374],[35.4369544,50.7625669],[35.4161647,50.7753655],[35.4161647,50.7753655],[35.4369544,50.7625669],[35.440528,50.7521374],[35.5555556,50.8333333],[35.7444444,50.9666667],[35.9333333,51.1],[36.1222222,51.2333333],[36.3111111,51.3666667],[36.5,51.5],[37.5,52.05],[37.7,52.16],[37.9,52.27],[38.5,52.6],[40.5,52.6],[40.5,53.2],[40.44,53.4],[40.38,53.6],[40.32,53.8],[40.2857143,53.9142857],[40.2857143,53.9142857],[40.2857143,53.9142857],[40.2857143,53.9142857],[40.0555556,53.8222222],[39.8333333,53.7333333],[39.6111111,53.6444444],[39.3888889,53.5555556],[39.1666667,53.4666667],[38.9444444,53.3777778],[38.5,53.2],[38.0555556,53.1555556],[37.8333333,53.1333333],[37.6111111,53.1111111],[37.3888889,53.0888889],[37.1666667,53.0666667],[36.9444444,53.0444444],[36.7222222,53.0222222],[36.5,53],[36.2857143,53.0714286],[36.0714286,53.1428571],[35.8571429,53.2142857],[35.6428571,53.2857143],[35.4285714,53.3571429],[35.2142857,53.4285714],[35,53.5],[34.8666667,53.6666667],[34.7333333,53.8333333],[34.6,54],[34.4666667,54.1666667],[34.3333333,54.3333333],[34.2,54.5],[34.12,54.3],[34.04,54.1],[33.96,53.9],[33.88,53.7],[33.8,53.5],[34.5,52.6],[34.6333333,52.4333333],[34.7666667,52.2666667],[34.9,52.1],[35.0333333,51.9333333],[35.1666667,51.7666667],[35.3,51.6],[35.16,51.4],[35.0219783,51.2028261],[35,51.2006171],[35.0219783,51.2028261],[35.0219783,51.2028261],[35.0296839,51.2036006],[35.0534442,51.2059887],[35.0679053,51.2074422],[35.0683136,51.2074832],[35.068744,51.2075265],[35.0695108,51.2076036],[35.0724099,51.2078949],[35.0724099,51.2078949],[35.0725348,51.2079075],[35.0724099,51.2078949],[35.0724099,51.2078949],[35.0695108,51.2076036],[35.068744,51.2075265],[35.0683136,51.2074832],[35.0679053,51.2074422],[35.0534442,51.2059887],[35.0296839,51.2036006],[35.0219783,51.2028261],[35.0219783,51.2028261],[35.02,51.2],[34.88,51],[34.74,50.8],[34.6,50.6],[34.3714286,50.5],[34.1428571,50.4],[33.9142857,50.3],[33.6857143,50.2],[33.4571429,50.1],[33.2285714,50],[33,49.9],[32.7857143,49.8571429],[32.5714286,49.8142857],[32.3571429,49.7714286],[32.1428571,49.7285714],[31.9285714,49.6857143],[31.7142857,49.6428571],[31.5,49.6],[31.2833333,49.5833333],[31.0666667,49.5666667],[30.85,49.55],[30.6333333,49.5333333],[30.4166667,49.5166667],[30.2,49.5],[30,49.5666667],[29.6,49.7],[29.4,49.7666667],[29.2,49.8333333],[29,49.9],[28.7666667,49.95],[28.5333333,50],[28.3,50.05],[28.0666667,50.1],[27.8333333,50.15],[27.6,50.2],[27.4166667,50.3333333],[27.2333333,50.4666667],[27.05,50.6],[26.8666667,50.7333333],[26.6833333,50.8666667],[26.5,51],[26.3333333,51.15],[26.1666667,51.3],[25.8333333,51.6],[25.6666667,51.75],[25.5,51.9],[25.46,52.3],[25.44,52.5],[25.42,52.7],[25.4,52.9],[26.2,53.7],[26,53.6333333],[25.8,53.5666667],[25.4,53.4333333],[25.2,53.3666667],[25,53.3],[23.8,53.1],[23.5833333,53.125],[23.3666667,53.15],[23.15,53.175],[22.9333333,53.2],[22.7166667,53.225],[22.5,53.25],[22.6,53.0666667],[22.7,52.8833333],[22.8,52.7],[22.9333333,52.5333333],[23.0666667,52.3666667],[23.2,52.2],[23.3333333,52],[23.4666667,51.8],[23.6,51.6],[23.4,51.5],[23.2,51.4],[23,51.3],[22.95,51.075],[22.9,50.85],[22.85,50.625],[22.75,50.175],[22.7,49.95],[22.65,49.725],[22.6,49.5],[22.5666667,49.3333333],[22.5333333,49.1666667],[22.5,49]]]}}
