{"type":"Feature","properties":{"family":"celts","name":"Kingdom of Strathclyde, 789 – 901"},"geometry":{"type":"Polygon","coordinates":[[[-4.9636163,55.7112924],[-4.9625777,55.705986],[-4.9597054,55.7008985],[-4.9551126,55.6962293],[-4.9489795,55.6921608],[-4.9415463,55.6888523],[-4.933104,55.6864329],[-4.9239825,55.6849974],[-4.8799088,55.6805905],[-4.9194492,55.7084098],[-4.9157285,55.7115729],[-4.6,55.68],[-4.2,55.62],[-3.85,55.6],[-3.65,55.75],[-3.62,55.95],[-3.6567462,56.0112437],[-3.6059404,56.005542],[-3.6021804,56.00512],[-3.6109152,56.0197068],[-3.6109152,56.0197068],[-3.6109152,56.0197068],[-3.6109876,56.0198277],[-3.6151847,56.0249647],[-3.6212045,56.0295005],[-3.6287836,56.0332364],[-3.6375899,56.0360083],[-3.6420666,56.036791],[-3.6427883,56.0371944],[-3.6427883,56.0371944],[-3.6674685,56.0509912],[-3.6702367,56.0511909],[-3.8358384,56.106914],[-3.7751965,56.0730236],[-4,56.1],[-4.3,56.15],[-4.55,56.25],[-4.75,56.22],[-4.7927744,56.1686707],[-4.7538475,56.2065401],[-4.8505927,56.0850447],[-4.8505927,56.0850447],[-4.8592198,56.0854117],[-4.8578815,56.0758913],[-4.8581477,56.0755569],[-4.8654487,56.0663881],[-4.8581477,56.0755569],[-4.8639316,56.0582052],[-4.8510485,55.9887136],[-4.8463165,55.9889355],[-4.8464003,55.9870016],[-4.8486427,55.9816248],[-4.8527938,55.9766159],[-4.8586792,55.9721844],[-4.8658804,55.9686013],[-4.8649283,55.9668334],[-4.8640529,55.9613875],[-4.8651571,55.9559547],[-4.8681948,55.950758],[-4.9283576,55.874676],[-4.911077,55.7644176],[-4.955661,55.7264724],[-4.9556614,55.7264721],[-4.9556821,55.7264545],[-4.9601003,55.7217312],[-4.9627798,55.7166103],[-4.9636163,55.7112924]]]}}
