{"type":"Feature","properties":{"family":"celts","name":"Kingdom of Strathclyde, 902 – 1027"},"geometry":{"type":"Polygon","coordinates":[[[-5.6407745,54.9912707],[-5.6248654,54.8613121],[-5.6092013,54.8085525],[-5.5758326,54.7586059],[-5.5261256,54.7134243],[-5.4173754,54.633083],[-5.4131414,54.6086968],[-5.3884766,54.5603155],[-5.3487804,54.515431],[-5.2954751,54.4755987],[-5.2304389,54.4421949],[-5.1559383,54.4163705],[-5.0683273,54.3920514],[-5.059186,54.389514],[-4.9958986,54.3760854],[-4.9922001,54.3753007],[-4.9749807,54.371647],[-4.886488,54.3634944],[-4.7969586,54.3653557],[-4.7096787,54.3771628],[-4.627857,54.398482],[-4.554513,54.4285296],[-4.5528632,54.4295309],[-4.4770994,54.4158443],[-4.3862581,54.4102788],[-4.3588088,54.411739],[-4.3587718,54.411746],[-4.3587074,54.4117581],[-4.3506435,54.413271],[-4.3510784,54.4121637],[-4.3510818,54.412155],[-4.3510838,54.41215],[-4.2952943,54.415118],[-4.2076717,54.4301778],[-4.1267341,54.4548844],[-4.0908766,54.4717347],[-4.0841339,54.4460928],[-4.0513898,54.39469],[-4.0015705,54.3481825],[-3.8357641,54.2229853],[-3.8104412,54.1704706],[-3.7768462,54.1203926],[-3.7625174,54.1073859],[-3.7622706,54.1071619],[-3.7621576,54.1070593],[-3.7620772,54.1069864],[-3.7270579,54.0751983],[-3.663085,54.0366662],[-3.5874734,54.0063083],[-3.5032048,53.985313],[-3.4135825,53.9745005],[-3.322107,53.9742929],[-3.232347,53.9846981],[-3.1478084,54.0053101],[-3.071804,54.0353235],[-2.8581507,54.1383529],[-2.8740042,54.1573895],[-2.9050101,54.1369895],[-2.9117301,54.1333633],[-2.9195387,54.1305853],[-2.9281288,54.1287645],[-2.937163,54.1279726],[-2.9462861,54.1282406],[-3.0038504,54.1333031],[-3.0126023,54.1345942],[-3.0207571,54.13686],[-3.028002,54.1400137],[-3.034059,54.1439342],[-3.0386952,54.1484713],[-3.0416461,54.1521306],[-3.1013591,54.0546359],[-3.1051553,54.0499169],[-3.1104272,54.045715],[-3.1169774,54.0421873],[-3.1245607,54.0394657],[-3.1328937,54.0376518],[-3.1416652,54.0368132],[-3.1505474,54.0369815],[-3.1592087,54.0381502],[-3.1673255,54.0402758],[-3.1745945,54.0432787],[-3.2717826,54.0922234],[-3.2780736,54.0960801],[-3.282948,54.1005874],[-3.2862147,54.105569],[-3.2877453,54.1108301],[-3.2943446,54.1660382],[-3.2963175,54.1657731],[-3.3054218,54.1650984],[-3.3145741,54.1654925],[-3.3234121,54.1669398],[-3.3315859,54.169383],[-3.3387717,54.1727253],[-3.3446848,54.1768345],[-3.404156,54.2276029],[-3.40417,54.2276176],[-3.4041604,54.2276108],[-3.4041562,54.2276078],[-3.4041531,54.2276056],[-3.3987686,54.2238072],[-3.3922487,54.2206308],[-3.3848451,54.2182058],[-3.3768079,54.216614],[-3.3684085,54.2159093],[-3.3599305,54.2161154],[-3.3516601,54.2172253],[-3.3438765,54.2192016],[-3.3398877,54.2204778],[-3.3398898,54.2204796],[-3.3660797,54.2428545],[-3.3660797,54.2428545],[-3.3920348,54.2650288],[-3.3920348,54.2650288],[-3.3920352,54.2650291],[-3.3920352,54.2650291],[-3.3920359,54.2650297],[-3.3920359,54.2650297],[-3.3920359,54.2650297],[-3.3920359,54.2650297],[-3.3920359,54.2650297],[-3.4074341,54.2781848],[-3.3920359,54.2650297],[-3.3920359,54.2650297],[-3.3920359,54.2650297],[-3.3920359,54.2650297],[-3.3920359,54.2650297],[-3.3920352,54.2650291],[-3.3920352,54.2650291],[-3.3920348,54.2650288],[-3.3920348,54.2650288],[-3.3660797,54.2428545],[-3.25,54.28],[-3,54.42],[-2.875,54.51],[-2.75,54.6],[-2.45,54.52],[-2.31,54.51],[-2.17,54.5],[-2.3,54.75],[-2.45,55],[-2.65,55.15],[-3.25,55.55],[-3.6,55.9],[-3.6594945,56.0115521],[-3.6666367,56.0123537],[-3.6594945,56.0115521],[-3.6567462,56.0112437],[-3.6059404,56.005542],[-3.6132481,56.0192736],[-3.6136965,56.0199075],[-3.6163145,56.0236091],[-3.6206713,56.0275846],[-3.6261887,56.0310815],[-3.6630453,56.050672],[-3.6674685,56.0509912],[-3.6702367,56.0511909],[-3.8358384,56.106914],[-3.7751965,56.0730236],[-4,56.1],[-4.3,56.15],[-4.55,56.25],[-4.75,56.22],[-4.7927744,56.1686707],[-4.7538475,56.2065401],[-4.7927744,56.1686707],[-4.8510485,56.1119797],[-4.8655081,56.1328914],[-4.9023618,56.0864729],[-4.905678,56.0804858],[-4.9066407,56.0775868],[-4.8942489,55.9904022],[-4.8999737,55.991034],[-4.8990207,55.985928],[-4.8971577,55.9808076],[-4.893566,55.975984],[-4.8883809,55.9716381],[-4.8817972,55.9679327],[-4.8740619,55.9650065],[-4.8666745,55.9632559],[-4.917225,55.9405087],[-4.9239632,55.9368085],[-4.9292828,55.9324433],[-4.9329799,55.9275808],[-4.934913,55.9224076],[-4.9350088,55.9171226],[-4.9283589,55.8746922],[-4.9283589,55.8746922],[-4.9283572,55.8746814],[-4.9283582,55.8746801],[-4.940282,55.8596014],[-4.9448543,55.8550525],[-4.9509012,55.8510829],[-4.9581961,55.8478414],[-4.9664656,55.845449],[-4.9754003,55.8439954],[-4.984666,55.843535],[-4.9939161,55.8440848],[-4.9997199,55.8450902],[-4.9768381,55.8178712],[-4.9738419,55.8132557],[-4.9723856,55.8084114],[-4.9725167,55.803499],[-4.9829155,55.7485832],[-4.9796986,55.7257509],[-4.9798752,55.7204736],[-4.9818722,55.7153166],[-4.9856127,55.7104771],[-4.9909529,55.7061403],[-4.9976882,55.702472],[-5.0055609,55.6996122],[-5.0142698,55.6976704],[-5.0234822,55.6967207],[-5.0328462,55.6967994],[-5.042004,55.6979034],[-5.0506059,55.6999907],[-5.0583231,55.7029813],[-5.0648605,55.7067612],[-5.1512822,55.7675234],[-5.1554668,55.7709767],[-5.1586537,55.774752],[-5.1806766,55.8070627],[-5.1810079,55.8069589],[-5.1897627,55.8053489],[-5.198903,55.8047076],[-5.1989031,55.8047076],[-5.2080929,55.8050586],[-5.2169946,55.8063891],[-5.2987182,55.8234307],[-5.2752012,55.7936588],[-5.2722015,55.7885213],[-5.2710848,55.7831505],[-5.2718951,55.7777624],[-5.2745991,55.7725731],[-5.2790876,55.7677913],[-5.2851798,55.7636086],[-5.3103448,55.7494824],[-5.3026313,55.7504276],[-5.2924952,55.7504413],[-5.2825812,55.7492544],[-5.1817206,55.7306678],[-5.1735788,55.7286755],[-5.1662306,55.7258709],[-5.1599286,55.7223506],[-5.1548893,55.7182355],[-5.1045259,55.6675609],[-5.1003947,55.6620305],[-5.098534,55.6561216],[-5.0925334,55.6035076],[-5.0614782,55.5852854],[-5.0560522,55.5814556],[-5.0519442,55.5771335],[-5.0492896,55.5724621],[-5.0481759,55.567596],[-5.0486392,55.5626963],[-5.0506636,55.5579249],[-5.0629435,55.5374059],[-5.0482268,55.5329642],[-5.0401432,55.5298842],[-5.0333367,55.5259377],[-5.0280918,55.5212897],[-5.0246273,55.5161348],[-5.0230874,55.5106887],[-5.0235357,55.5051788],[-5.0259526,55.4998357],[-5.0302364,55.4948824],[-5.0362076,55.4905258],[-5.0400711,55.4886601],[-5.0310154,55.4598678],[-5.0302836,55.4547064],[-5.0310179,55.4510028],[-5.0313039,55.4495607],[-5.0340381,55.4446202],[-5.0383849,55.4400668],[-5.0441839,55.436068],[-5.0512213,55.432771],[-5.0908095,55.4175825],[-5.0991653,55.4150235],[-5.1082494,55.4134576],[-5.1177,55.4129472],[-5.1271407,55.4135127],[-5.2732858,55.4306494],[-5.2732859,55.4306493],[-5.2998434,55.3805828],[-5.308802,55.3523126],[-5.3470008,55.3301027],[-5.4046436,55.289229],[-5.4472075,55.2427664],[-5.4578814,55.2220752],[-5.5094221,55.19749],[-5.5703127,55.1530737],[-5.6097749,55.1068399],[-5.6135815,55.10238],[-5.6373904,55.0476442],[-5.637986,55.0377223],[-5.6390004,55.0208243],[-5.6407745,54.9912707]],[[-4.8654487,56.0663881],[-4.8581477,56.0755569],[-4.8639316,56.0582052],[-4.8510485,55.9887136],[-4.8639316,56.0582052],[-4.8654487,56.0663881]]]}}
