{"type":"Feature","properties":{"family":"swedes","name":"Svear, 789 – 957"},"geometry":{"type":"Polygon","coordinates":[[[11.6695167,59.5803174],[11.8099181,59.2713078],[11.8060632,59.2613631],[12,59.225],[12.2,59.1875],[12.4,59.15],[13.2,59.1],[13.4333333,59.05],[13.6666667,59],[13.9,58.95],[14.1333333,58.9166667],[14.3666667,58.8833333],[14.6,58.85],[14.7666667,58.8166667],[14.9333333,58.7833333],[15.1,58.75],[15.6,58.75],[15.8,58.7333333],[16,58.7166667],[16.2,58.7],[16.3666667,58.6666667],[16.4117354,58.6576529],[16.9255693,58.6262713],[16.4117354,58.6576529],[16.2343623,58.6684857],[16.2374873,58.6635999],[16.3930539,58.6324862],[16.4058968,58.630845],[16.4234,58.6298098],[16.4395644,58.6482228],[16.485597,58.6428806],[16.7887679,58.6076969],[16.7862355,58.5827529],[16.7851679,58.5722368],[16.8029675,58.5573282],[16.8056985,58.5577555],[16.8143403,58.5601018],[16.8219865,58.5632518],[16.8283658,58.5670936],[16.8332519,58.5714913],[16.8364708,58.5762888],[16.8379077,58.5813161],[16.8379127,58.5813643],[16.837917,58.5813194],[16.8377079,58.5792888],[16.8739875,58.5488671],[16.9699702,58.5131437],[16.9775951,58.5096623],[16.9837711,58.5054703],[16.9882608,58.5007291],[16.9908922,58.4956211],[16.9915649,58.490343],[16.9902539,58.4850976],[16.9870104,58.4800866],[16.9819599,58.4755026],[16.9752969,58.4715215],[16.9672778,58.4682963],[16.8237912,58.4213707],[16.853662,58.4247009],[16.863328,58.4252851],[16.8730312,58.4249067],[16.8824248,58.4235793],[16.8911731,58.4213502],[16.8989636,58.4182992],[16.9055184,58.4145352],[16.9106036,58.4101927],[16.9140384,58.4054267],[16.9157009,58.4004073],[16.9155324,58.3953135],[16.9135397,58.3903271],[16.9097948,58.3856258],[16.893301,58.3694102],[16.9263615,58.3547488],[16.9336267,58.3507911],[16.939211,58.3461427],[16.942883,58.3409969],[16.9444913,58.3355672],[16.94397,58.330079],[16.9423619,58.3268246],[16.9801387,58.3327561],[17.0660414,58.3560976],[17.1142283,58.3759265],[17.1717541,58.3809919],[17.2647595,58.3992634],[17.3476741,58.4259289],[17.3737122,58.4328862],[17.451726,58.4648007],[17.4518611,58.464882],[17.4518618,58.4648824],[17.4853155,58.4850011],[17.4951912,58.4868168],[17.5775379,58.5069371],[17.6619641,58.5328318],[17.7194863,58.5591508],[17.7233291,58.5599447],[17.8050264,58.586867],[17.8216555,58.5949406],[17.8558085,58.5919272],[17.9535559,58.5929702],[18.0492257,58.6035019],[18.0627916,58.606456],[18.0627915,58.6064563],[18.031962,58.6933392],[18.0627915,58.6064563],[18.2583799,58.0552545],[18.3335198,57.8434972],[18.2583857,58.0552379],[18.2550394,58.0526376],[18.2503177,58.0480771],[18.1845669,58.0296534],[18.1096386,57.9977485],[18.0475049,57.9589134],[17.7142081,57.7028218],[17.6578453,57.6452474],[17.628985,57.5821197],[17.6154129,57.5212733],[17.6143991,57.4621324],[17.637323,57.4042893],[17.6504571,57.3829093],[17.6276542,57.3471004],[17.6217064,57.3330104],[17.6217063,57.3330102],[17.6040776,57.2912487],[17.6032034,57.2492979],[17.6032034,57.2492972],[17.6028839,57.233964],[17.624023,57.1778302],[17.6664465,57.1253673],[17.7070274,57.0867902],[17.704251,57.0746936],[17.7066681,57.0553302],[17.6923032,57.0388229],[17.66032,56.9906175],[17.6457049,56.9399816],[17.6489155,56.8887495],[17.6697629,56.8387695],[17.7074286,56.7918374],[17.7605039,56.7496328],[17.827047,56.7136605],[17.9046567,56.6851992],[17.9905589,56.6652579],[18.0817023,56.6545422],[18.1748621,56.6534306],[18.2667466,56.6619624],[18.438418,56.6871126],[18.5304409,56.7060715],[18.6138606,56.7346637],[18.6853711,56.7717641],[18.7198913,56.7986372],[18.7428258,56.8084842],[18.8045628,56.8473951],[18.8517682,56.8920078],[18.8826817,56.9407108],[18.8950997,56.9878821],[18.9666899,57.01075],[19.0408345,57.0396553],[19.1041083,57.0754402],[19.1543645,57.1169099],[19.1898734,57.1626759],[19.1903476,57.1638568],[19.2570905,57.18944],[19.3278479,57.2308568],[19.3812903,57.2793226],[19.4150313,57.332739],[19.4275149,57.3887838],[19.4180976,57.4450094],[19.4007157,57.4923583],[19.3739149,57.5407811],[19.3458611,57.5699222],[19.3876755,57.6037918],[19.3954368,57.6138647],[19.4131399,57.6204833],[19.4402352,57.6353308],[19.4721307,57.6481273],[19.5398003,57.6889266],[19.5770832,57.723415],[19.5942398,57.7277568],[19.6714077,57.7578799],[19.7366941,57.7951899],[19.7877568,57.8383711],[19.8227349,57.8858959],[19.8403203,57.9360764],[19.8398116,57.9871233],[19.82115,58.0372087],[19.7849316,58.0845313],[19.7323968,58.1273822],[19.6653943,58.1642079],[19.6648065,58.1644272],[19.6795771,58.1702768],[19.7486856,58.2115796],[19.8005811,58.2594004],[19.8330508,58.3117675],[19.8446614,58.3665128],[19.8348326,58.4213596],[19.8038761,58.474016],[19.7529995,58.5222717],[19.6842698,58.5640921],[19.6005368,58.5977072],[19.5053172,58.6216893],[19.3604026,58.648908],[19.2642964,58.6616076],[19.1652758,58.6644836],[19.0670444,58.657428],[18.9732741,58.6407048],[18.8874596,58.6149386],[18.8127802,58.5810903],[18.7519779,58.5404192],[18.7072554,58.4944335],[18.6801991,58.4448322],[18.6717282,58.3934403],[18.6820714,58.3421408],[18.7107708,58.2928048],[18.7567096,58.2472243],[18.817062,58.1989591],[18.7840754,58.1870276],[18.7452508,58.1908575],[18.6472772,58.1904529],[18.5512944,58.1801365],[18.4608962,58.160295],[18.3794544,58.131671],[18.3713793,58.1274471],[18.3713767,58.1274547],[18.191127,58.6409259],[18.1911265,58.6409274],[18.1960942,58.6426368],[18.214945,58.6420991],[18.3145602,58.6493353],[18.4360853,58.6644181],[18.5265706,58.6802592],[18.6100463,58.7043985],[18.6837243,58.7360347],[18.7451236,58.7741151],[18.7921519,58.8173691],[18.8115114,58.8397271],[18.8278286,58.849127],[18.8805861,58.8953664],[18.9244639,58.9442455],[18.9375951,58.9475358],[19.0272213,58.9760491],[19.1104738,59.0087679],[19.1795854,59.0493269],[19.23178,59.0961289],[19.2649217,59.1473239],[19.2679558,59.1601494],[19.2706059,59.1636815],[19.3409253,59.198167],[19.401755,59.2431882],[19.443706,59.2935514],[19.4649801,59.3472022],[19.4688932,59.3674491],[19.4694582,59.4172579],[19.4519909,59.4662714],[19.4511374,59.4674085],[19.4432344,59.4969218],[19.4396757,59.5021495],[19.453812,59.5134153],[19.4917328,59.562998],[19.4993954,59.5852381],[19.5037156,59.5879156],[19.5539953,59.6366227],[19.5832602,59.6736597],[19.6123967,59.7243509],[19.6214552,59.7769342],[19.6131974,59.814755],[19.6243726,59.8126383],[19.7187266,59.8051427],[19.7330489,59.8010983],[19.7645986,59.7959564],[19.8092601,59.7750694],[19.8886046,59.7443031],[19.9778018,59.7214524],[20.0737838,59.7072986],[20.1732665,59.7023248],[20.2728553,59.7067005],[20.281404,59.707909],[20.2930083,59.7074572],[20.3986241,59.7139507],[20.4944096,59.72472],[20.5713157,59.6922817],[20.6629016,59.6669053],[20.7624078,59.650934],[20.8088569,59.6459097],[20.9136696,59.6398936],[21.0187835,59.6443243],[21.1201905,59.6590325],[21.1440198,59.6652455],[21.2087361,59.676763],[21.2959513,59.7023608],[21.3722243,59.7357254],[21.4348503,59.7756891],[21.4815788,59.820849],[21.4930549,59.8400689],[21.4930593,59.8400764],[21.4930733,59.8400997],[21.5106961,59.8696139],[21.521093,59.9202583],[21.5214503,59.9422076],[21.5119262,59.994915],[21.4819401,60.0456752],[21.4325632,60.0925207],[21.3656394,60.1336278],[21.3506708,60.1398042],[21.246298,60.16591],[21.2372479,60.1687575],[21.2295117,60.1724336],[21.2233929,60.1767944],[21.2191316,60.181669],[21.2168957,60.1868665],[21.2167738,60.1921832],[21.2187717,60.1974105],[21.2228121,60.2023433],[21.2287371,60.206788],[21.236315,60.2105701],[21.2452484,60.2135409],[21.3280902,60.2355093],[21.3385964,60.2376275],[21.349758,60.2386223],[21.361088,60.2384503],[21.3720918,60.237119],[21.3822893,60.2346866],[21.3920368,60.2316965],[21.3920368,60.2316965],[21.3931799,60.2343021],[21.3960153,60.2845891],[21.3816017,60.3291233],[21.3816013,60.3291246],[21.3816012,60.329125],[21.3781076,60.3281714],[21.3781076,60.3281714],[21.3750965,60.3273496],[21.364854,60.3257394],[21.3541755,60.3251493],[21.3434752,60.3256025],[21.3331683,60.3270811],[21.3236546,60.3295279],[21.2660786,60.3480894],[21.2576364,60.3514444],[21.2507151,60.3555586],[21.2455896,60.3602687],[21.242464,60.3653881],[21.2414632,60.3707137],[21.242628,60.3760341],[21.2459132,60.381138],[21.2511892,60.3858227],[21.2582473,60.3899019],[21.2668073,60.3932135],[21.3100245,60.4067321],[21.319353,60.4090646],[21.3224822,60.4095053],[21.3072643,60.4414118],[21.2910819,60.4584798],[21.2910819,60.4584798],[21.2245279,60.4749073],[21.2159104,60.4775502],[21.2084416,60.4809308],[21.2023797,60.4849323],[21.1979342,60.4894168],[21.1952594,60.4942293],[21.1776432,60.5435737],[21.1776429,60.5435738],[21.177642,60.5435743],[21.163567,60.5510507],[21.0791369,60.5874785],[20.9812065,60.6146342],[20.8739367,60.6313555],[20.761915,60.6369252],[20.6643868,60.6318545],[20.6643782,60.6318541],[20.6643527,60.6318528],[20.6499473,60.6311038],[20.5428377,60.6141409],[20.4451673,60.5867633],[20.4148146,60.5735591],[20.4121416,60.5747181],[20.3176196,60.6015056],[20.2153698,60.6182997],[20.1724444,60.6345665],[20.0789505,60.657635],[19.978137,60.6715384],[19.8737302,60.6757615],[19.7695994,60.6701474],[19.6696029,60.654904],[19.5774353,60.6305957],[19.4964822,60.5981206],[19.3920594,60.5471623],[19.3247768,60.5071385],[19.3108448,60.4945084],[19.2475312,60.4751896],[19.168164,60.4383519],[19.1082537,60.3964811],[19.1061076,60.3976043],[19.0605199,60.4172488],[19.0458624,60.4386299],[18.8788666,60.6199306],[18.8239335,60.6662532],[18.7512326,60.706306],[18.6636184,60.738483],[18.5645761,60.7614895],[18.4580803,60.7743973],[18.3679099,60.776285],[18.3648293,60.7781699],[18.2764614,60.8136962],[18.174817,60.8395092],[18.0643243,60.8544775],[17.949826,60.8579435],[17.9173039,60.8572658],[17.9005345,60.8638402],[17.8383714,60.8803062],[17.8377059,60.8812579],[17.7832793,60.938606],[17.7879946,60.9447133],[17.8054814,60.9988508],[17.800065,61.0535861],[17.7718526,61.1066585],[17.7532938,61.1249618],[17.7507154,61.1464465],[17.7458637,61.155462],[17.7625863,61.1815552],[17.7631704,61.1841441],[17.7804952,61.1976972],[17.8192464,61.2486098],[17.8361435,61.3022204],[17.8303944,61.3563719],[17.8021162,61.4088742],[17.8021079,61.4088824],[17.8691088,61.4316287],[17.9436618,61.4688626],[18.0022103,61.512163],[18.0425775,61.5599719],[18.0632185,61.6105614],[18.0790236,61.6881725],[18.0786182,61.7420921],[18.0555343,61.7948936],[18.0105858,61.8444572],[17.9656856,61.8750463],[18.0065447,61.91831],[18.0311942,61.9674496],[18.035981,62.0178875],[18.0324731,62.0293287],[18.0511438,62.0361867],[18.1226704,62.0745628],[18.177693,62.118531],[18.2142005,62.1665435],[18.2308125,62.2169029],[18.2268393,62.2678201],[18.2182833,62.285167],[18.2712413,62.3066974],[18.3436408,62.3513105],[18.3474645,62.355089],[18.4325275,62.3871617],[18.5130191,62.4239406],[18.5768475,62.4671965],[18.6215677,62.5153235],[18.6450282,62.5656932],[18.6699023,62.5878588],[18.6809693,62.6051484],[18.6820751,62.6053928],[18.772523,62.6363346],[18.8696054,62.6765907],[18.9476086,62.715836],[18.9794827,62.7400367],[19.0245466,62.7683706],[19.0611981,62.8051667],[19.107917,62.8389052],[19.1496574,62.8882081],[19.1596629,62.9143268],[19.1937069,62.9165549],[19.3001884,62.9332647],[19.3979683,62.9587721],[19.483571,62.9921769],[19.5539225,63.0322972],[19.5844414,63.0535155],[19.5853283,63.0542846],[19.586802,63.0555626],[19.6380202,63.0999788],[19.6708836,63.1502433],[19.6816922,63.2024265],[19.669921,63.254564],[19.6358966,63.3046827],[19.5808024,63.3508761],[19.512249,63.3883199],[19.5122315,63.3883295],[19.5122105,63.38833],[19.5122105,63.38833],[19.5083996,63.3884217],[19.4969269,63.3897376],[19.4862526,63.3920341],[19.4767893,63.3952224],[19.4080172,63.4234996],[19.4015818,63.4216009],[19.3904622,63.4195905],[19.3786769,63.4186035],[19.3666909,63.4186788],[19.3549775,63.4198134],[19.3343917,63.4227906],[19.3182892,63.3269802],[19.3163216,63.3218729],[19.3122162,63.3170277],[19.3061255,63.3126233],[19.298275,63.3088222],[19.2889547,63.3057644],[19.2785084,63.3035627],[19.213731,63.2931646],[19.2138541,63.2917794],[19.211708,63.286187],[19.1756003,63.2287898],[19.1711984,63.2237638],[19.1698136,63.2228035],[19.1706126,63.2198245],[19.1696988,63.2145171],[19.1664907,63.2093927],[19.1611143,63.2046508],[19.1340515,63.1856341],[19.1391219,63.1900936],[19.1423275,63.1951318],[19.1433137,63.2003541],[19.1420422,63.2055635],[19.1385598,63.2105633],[19.132997,63.2151647],[19.125563,63.2191937],[19.1165383,63.2224981],[19.1062637,63.2249527],[19.0951276,63.2264648],[19.0835515,63.2269771],[19.0831617,63.2269771],[19.0831619,63.2269771],[19.1107911,63.2192015],[19.0834995,63.2],[19.0531905,63.1786756],[19.0158455,63.2],[19,63.209048],[19,63.209048],[18.9789282,63.2210802],[18.9789282,63.2210802],[18.9789257,63.2210816],[18.972306,63.2184991],[18.9649083,63.2141458],[18.9596174,63.2092082],[18.9569641,63.2044517],[18.9541886,63.2093309],[18.9488804,63.2142362],[18.9414881,63.2185588],[18.9323138,63.2221213],[18.9217335,63.2247776],[18.9101809,63.2264188],[18.8981302,63.2269774],[18.8630022,63.2269775],[18.8630023,63.2269774],[18.9127891,63.2124472],[18.8980462,63.2],[18.8947889,63.19725],[18.8980462,63.2],[18.7578087,63.2],[18.7723877,63.1685441],[18.7578087,63.2],[18.7543875,63.2073814],[18.8227882,63.2192015],[18.700387,63.2259558],[18.7206324,63.2],[18.5,63.2],[18.3,63.26],[18.1,63.32],[16.9,63.68],[16.7,63.74],[16.5,63.8],[16.3,63.86],[16.1,63.92],[15.9,63.98],[15.7,64.04],[15.5,64.1],[15.3,64.14],[15.1,64.18],[14.9,64.22],[14.7,64.26],[14.5,64.3],[14.3,64.34],[14.118118,64.3763764],[14.1607416,64.2053306],[14.1463415,64.1681819],[14.1004491,64.1285073],[14.1004491,64.1285073],[13.9627396,64.0094556],[13.2355324,64.0905073],[12.9835298,64.0584244],[12.6811268,63.9571097],[12.2923229,63.656543],[12.1699217,63.5974428],[12.2203222,63.4741766],[11.9935199,63.2884331],[12.2239222,63.001375],[12.0943209,62.9068147],[12.1555216,62.7109397],[12.097989,62.6],[12.0907209,62.585985],[12.3139231,62.2854182],[12.236943,62],[12.1627216,61.7248106],[12.4147241,61.5829701],[12.6127261,61.54751],[12.8899289,61.3499464],[12.8395284,61.2266803],[12.7387274,61.1422514],[12.702727,61.0460025],[12.5119251,61.0493797],[12.2527225,61.0020995],[12.3499235,60.7927159],[12.6091261,60.4870834],[12.5947259,60.3942117],[12.4903249,60.3114714],[12.5119251,60.117285],[12.2923229,59.9585588],[12.1447214,59.89777],[11.9431194,59.9028357],[11.8495185,59.8724413],[11.8423184,59.8386698],[11.903519,59.7846353],[11.8927189,59.7052722],[11.6947169,59.6225319],[11.6695167,59.5803174]],[[17.0371704,58.6414685],[17,58.6535969],[17,58.6535969],[17.0371704,58.6414685]],[[16.9255693,58.6262713],[17,58.6364068],[17.0371704,58.6414685],[17,58.6364068],[16.9255693,58.6262713]],[[17.6151675,59],[17.6311763,59.0180212],[17.6151675,59],[17.6151675,59]],[[18.0487805,58.9673639],[18.0804077,59],[18.0804077,59],[18.0487805,58.9673639]],[[18.1315813,58.9639867],[18.144378,59],[18.1459815,59.0045126],[18.144378,59],[18.1315813,58.9639867]],[[18.2431824,62.9996864],[18.2439624,63],[18.3439834,63.0402123],[18.2439624,63],[18.2431824,62.9996864]],[[18.3115831,56.9478255],[18.3419201,57],[18.3439834,57.0035485],[18.3419201,57],[18.3115831,56.9478255]],[[18.7327873,59.7694381],[19,59.7719959],[19.0855909,59.7728153],[19,59.7719959],[18.7327873,59.7694381]],[[18.809866,63.147091],[18.9269783,63.176395],[18.9369184,63.1795061],[18.9452704,63.1834558],[18.9515589,63.1879867],[18.9475011,63.184565],[18.9413086,63.1803459],[18.9334825,63.1767215],[18.924298,63.1738189],[18.9140781,63.17174],[18.9040085,63.1706475],[18.809866,63.147091]],[[18.9163892,57.888363],[19,57.9064633],[19.0099901,57.9086259],[19,57.9064633],[18.9163892,57.888363]],[[18.9517369,63.1881368],[18.9559204,63.1931978],[18.9569416,63.1961587],[18.9580767,63.1930012],[18.9624069,63.187879],[18.9684681,63.1835925],[18.9552903,63.1911332],[18.9517369,63.1881368]],[[18.9689417,63.1832576],[19.0062997,63.1619453],[19.0062514,63.1619729],[19.0062431,63.1619768],[19.0057733,63.1622456],[18.9689417,63.1832576]],[[18.9739897,59.7187808],[19,59.7240851],[19.0567906,59.7356666],[19,59.7240851],[18.9739897,59.7187808]],[[19.0096841,63.1603509],[19.0141281,63.1582572],[19.0140872,63.1582703],[19.0096841,63.1603509]],[[19.0194431,63.1565529],[19.0198923,63.1564092],[19.0233692,63.1552969],[19.0233438,63.1553021],[19.0194431,63.1565529]]]}}
