{"type":"Feature","properties":{"family":"swedes","name":"Kingdom of the Swedes, 965 – 1035"},"geometry":{"type":"Polygon","coordinates":[[[11.6695167,59.5803174],[11.8099181,59.2713078],[11.8060632,59.2613631],[11.797952,59.2404384],[11.7290789,59.0627633],[11.775,58.925],[11.85,58.7],[12,58.3],[12,57.9],[11.925,57.79],[11.8647898,57.7016917],[11.9190055,57.7025255],[11.9163819,57.6986852],[11.8630601,57.6746754],[11.8630601,57.6746754],[11.8630588,57.6746748],[11.7896369,57.6735457],[11.7866513,57.6695189],[11.78487,57.6643024],[11.7850308,57.6590008],[11.7871267,57.6538191],[11.8195913,57.5997975],[11.8234005,57.5950601],[11.8288225,57.5907985],[11.8356584,57.5871685],[11.8436583,57.5843026],[11.8525295,57.5823055],[11.8615315,57.5812969],[11.853446,57.5257214],[11.8534526,57.5255762],[11.8547652,57.5307726],[11.857949,57.5357558],[11.8628771,57.5403117],[11.8693619,57.5442664],[11.8771564,57.5474688],[11.8859631,57.5497966],[11.8954457,57.5511608],[11.905242,57.5515094],[11.907594,57.5513451],[11.9036533,57.5245433],[11.903519,57.5236303],[11.9036533,57.5245433],[12.1,57.5],[12.55,57.35],[12.7166667,57.2666667],[12.8833333,57.1833333],[13.05,57.1],[13.225,56.975],[13.4,56.85],[13.5,56.55],[13.9,56.45],[14.0666667,56.44],[14.2333333,56.43],[14.4,56.42],[14.5666667,56.44],[14.7333333,56.46],[14.9,56.48],[15.0833333,56.47],[15.2666667,56.46],[15.45,56.45],[15.65,56.4],[15.85,56.35],[16,56.265],[16.0310047,56.2474307],[16.0399604,56.2555088],[16.0470135,56.2769019],[16.0657662,56.2662698],[16.0715373,56.2622917],[16.0758531,56.2577806],[16.078559,56.2528985],[16.0795586,56.2478205],[16.0788167,56.242729],[16.0763606,56.2378063],[16.0724049,56.2333703],[16.0812537,56.2413441],[16.0852547,56.2458338],[16.0876946,56.2506575],[16.1406056,56.4105442],[16.2384613,56.516106],[16.2384814,56.5160945],[16.2384816,56.5160944],[16.344113,56.4559193],[16.344113,56.4559193],[16.3441454,56.4559009],[16.344145,56.4558822],[16.3804524,56.2161188],[16.3823025,56.2106642],[16.3861182,56.2055357],[16.3917373,56.2009502],[16.3989216,56.1971016],[16.4073671,56.1941525],[16.4167167,56.1922275],[16.4265751,56.1914081],[16.4365261,56.1917287],[16.4461492,56.1931758],[16.4550378,56.1956884],[16.5111376,56.2158051],[16.5111364,56.2157974],[16.5111364,56.2157973],[16.5085915,56.199589],[16.4835389,56.1504487],[16.4423793,56.1048063],[16.2829518,55.9623618],[16.282945,55.9623557],[16.282937,55.9623486],[16.3090339,55.9569804],[16.4070131,55.9488379],[16.5058938,55.9520234],[16.6015768,55.9664049],[16.6900873,55.9913859],[16.7510723,56.0132044],[16.8208003,56.0434328],[16.8796316,56.0802274],[16.9255915,56.1223748],[16.9571145,56.1684807],[17.2260127,56.6961024],[17.316547,56.7878132],[17.3545742,56.8374168],[17.3739417,56.890164],[17.3739245,56.8967649],[17.3827238,56.9050389],[17.4137019,56.9533859],[17.4268101,57.0017589],[17.4897809,57.0654905],[17.5260085,57.1120054],[17.5457127,57.1613733],[17.5464728,57.1772123],[17.5511247,57.1805629],[17.5944878,57.2302915],[17.6031528,57.2496655],[17.6028257,57.2339625],[17.6239614,57.1778345],[17.66638,57.1253764],[17.7069696,57.0867903],[17.7041903,57.0746811],[17.7066081,57.0553189],[17.6922394,57.0388076],[17.6602556,56.9906021],[17.6456415,56.9399667],[17.6488547,56.8887356],[17.6697063,56.838757],[17.7073778,56.7918266],[17.7604605,56.7496238],[17.8270122,56.7136535],[17.9046318,56.6851942],[17.9905445,56.665255],[18.081699,56.6545413],[18.1748699,56.6534316],[18.2667653,56.6619649],[18.4384382,56.6871157],[18.5304757,56.7060774],[18.6139079,56.7346728],[18.6854281,56.7717767],[18.7199518,56.7986514],[18.7428542,56.808483],[18.804601,56.8473931],[18.8518151,56.8920047],[18.8827361,56.9407066],[18.8951655,56.9878988],[18.9667339,57.0107602],[19.0408821,57.0396668],[19.1041589,57.0754519],[19.1544175,57.1169209],[19.1899285,57.1626851],[19.1904061,57.1638743],[19.2571265,57.1894473],[19.3278914,57.2308652],[19.3813397,57.2793315],[19.4150847,57.3327478],[19.4275706,57.3887918],[19.4181536,57.4450163],[19.400771,57.492365],[19.3739705,57.5407847],[19.345906,57.5699353],[19.387725,57.6038072],[19.3954859,57.6138795],[19.4131675,57.6204898],[19.4402763,57.6353434],[19.4721641,57.6481363],[19.5398425,57.6889391],[19.5771264,57.7234271],[19.5942603,57.727763],[19.6714349,57.7578874],[19.7367273,57.7951982],[19.787795,57.8383797],[19.8227772,57.8859042],[19.8403656,57.936084],[19.839859,57.9871299],[19.8211985,58.0372139],[19.7849801,58.084535],[19.7324445,58.1273844],[19.6654401,58.1642088],[19.6648312,58.164436],[19.6796044,58.1702865],[19.7487166,58.21159],[19.8006154,58.2594105],[19.8330878,58.3117767],[19.8447008,58.3665205],[19.834874,58.4213653],[19.8039191,58.4740196],[19.7530438,58.5222732],[19.6843149,58.5640918],[19.6005819,58.5977057],[19.5053614,58.6216873],[19.360448,58.6489056],[19.2643364,58.6616062],[19.165309,58.6644832],[19.0670694,58.6574288],[18.9732901,58.6407066],[18.8874658,58.6149414],[18.8127763,58.5810939],[18.751964,58.5404235],[18.7072321,58.4944381],[18.6801673,58.4448369],[18.6716893,58.3934449],[18.6820271,58.3421449],[18.7107232,58.2928083],[18.7566609,58.2472271],[18.8170287,58.1989488],[18.7840747,58.1870297],[18.7452617,58.1908577],[18.6472762,58.1904516],[18.5512815,58.1801332],[18.4608723,58.1602892],[18.3794208,58.1316623],[18.3713767,58.1274547],[18.3713793,58.1274471],[18.4665042,57.856468],[18.3713793,58.1274471],[18.3713767,58.1274547],[18.191127,58.6409259],[18.1960988,58.6426367],[18.2149378,58.6420995],[18.3145589,58.6493365],[18.4360851,58.6644196],[18.5265796,58.6802625],[18.6100635,58.7044041],[18.6837483,58.736043],[18.7451526,58.7741263],[18.7921837,58.8173832],[18.8115417,58.8397399],[18.8278555,58.8491379],[18.8806162,58.8953804],[18.9244883,58.9442541],[18.9376069,58.9475413],[19.0272335,58.9760551],[19.1104893,59.0087751],[19.1796037,59.0493349],[19.2318006,59.0961372],[19.2649443,59.1473319],[19.2679804,59.1601638],[19.2706294,59.1636944],[19.3409422,59.1981767],[19.4017753,59.2432003],[19.443728,59.2935654],[19.4650022,59.3472176],[19.4689149,59.3674645],[19.469479,59.4172711],[19.4520117,59.4662818],[19.4511579,59.4674195],[19.4432538,59.496934],[19.439694,59.5021631],[19.4538252,59.5134248],[19.4917474,59.5630072],[19.5075052,59.6087049],[19.5238571,59.6182717],[19.5761033,59.6650436],[19.6090909,59.7161093],[19.6214318,59.7694594],[19.6139322,59.8146109],[19.6243521,59.8126374],[19.7186947,59.8051439],[19.7330388,59.8010938],[19.7645678,59.7959561],[19.8092331,59.7750672],[19.8885783,59.7443009],[19.9777777,59.7214507],[20.0737632,59.707298],[20.1732504,59.7023258],[20.2728442,59.7067036],[20.2813769,59.7079099],[20.2929776,59.7074584],[20.398595,59.7139523],[20.4943709,59.7247207],[20.5712786,59.6922814],[20.6628596,59.6669064],[20.762362,59.6509357],[20.8088116,59.6459113],[20.9136295,59.6398951],[21.0187503,59.6443264],[21.1201652,59.6590358],[21.1439939,59.6652486],[21.2087291,59.6767707],[21.2959504,59.7023718],[21.3722287,59.7357397],[21.4348589,59.7757067],[21.4815902,59.8208695],[21.4930379,59.8400419],[21.5107088,59.8696366],[21.5211056,59.9202825],[21.5214624,59.9422318],[21.5119383,59.9949353],[21.4819543,60.0456909],[21.4325814,60.0925316],[21.3656632,60.1336342],[21.3507928,60.13977],[21.2462948,60.165907],[21.2462948,60.165907],[21.2372455,60.1687545],[21.2295103,60.1724307],[21.2233927,60.1767918],[21.2191328,60.1816669],[21.2168985,60.186865],[21.2167783,60.1921823],[21.2187779,60.1974103],[21.22282,60.2023438],[21.2287466,60.2067891],[21.2363258,60.2105717],[21.2452604,60.2135428],[21.3281022,60.2355112],[21.3386072,60.2376293],[21.349767,60.2386242],[21.3610947,60.2384525],[21.3720961,60.2371217],[21.3822911,60.2346899],[21.3920358,60.2317007],[21.3931848,60.2343197],[21.3960219,60.2846047],[21.381613,60.3291298],[21.3750933,60.3273496],[21.3648508,60.3257383],[21.3541725,60.3251474],[21.3434726,60.3255998],[21.3331661,60.3270779],[21.323653,60.3295244],[21.2660771,60.3480859],[21.2576354,60.3514409],[21.2507149,60.3555552],[21.2455904,60.3602658],[21.2424661,60.3653858],[21.2414668,60.3707121],[21.2426332,60.3760332],[21.24592,60.3811379],[21.2511977,60.3858233],[21.2582573,60.3899032],[21.2668186,60.3932153],[21.3100359,60.4067338],[21.3193636,60.4090663],[21.322495,60.4095073],[21.322495,60.4095074],[21.3072713,60.4414267],[21.3072713,60.4414267],[21.2911144,60.458468],[21.2245242,60.4749044],[21.2159089,60.4775467],[21.2084421,60.4809265],[21.2023816,60.4849274],[21.1979372,60.4894112],[21.1952629,60.4942232],[21.1776378,60.5435924],[21.1635832,60.5510579],[21.0791541,60.5874841],[20.981224,60.6146377],[20.8739535,60.6313567],[20.7619304,60.6369237],[20.6644206,60.6318517],[20.6499607,60.6310996],[20.5428485,60.6141338],[20.4451752,60.5867535],[20.4148438,60.573558],[20.4121591,60.5747221],[20.3176432,60.601507],[20.2153954,60.6183001],[20.1724521,60.6345726],[20.0789599,60.6576386],[19.978148,60.6715395],[19.8737426,60.6757604],[19.7696127,60.6701445],[19.6696164,60.6548997],[19.5774483,60.6305903],[19.4964938,60.5981146],[19.392071,60.5471569],[19.3247857,60.5071328],[19.3108537,60.4945036],[19.2475332,60.4751815],[19.1681645,60.4383421],[19.1082703,60.3964824],[19.1061195,60.3976081],[19.0605255,60.4172549],[19.045865,60.4386398],[18.8788667,60.619939],[18.8239338,60.6662606],[18.7512333,60.706312],[18.6636197,60.7384873],[18.5645783,60.7614921],[18.4580832,60.7743982],[18.3679189,60.7762844],[18.3648305,60.778174],[18.2764656,60.8136986],[18.1748248,60.8395102],[18.0643359,60.8544776],[17.9498411,60.8579433],[17.9173121,60.8572655],[17.9005359,60.8638424],[17.8383659,60.8803099],[17.8376979,60.8812653],[17.7832708,60.9386122],[17.7879838,60.9447167],[17.8054707,60.9988545],[17.8000548,61.0535898],[17.7718433,61.1066618],[17.753281,61.1249689],[17.7507027,61.146452],[17.7458506,61.1554683],[17.7625717,61.18156],[17.7631556,61.1841483],[17.780482,61.1977034],[17.8192316,61.248617],[17.8361271,61.3022284],[17.8303767,61.3563802],[17.8020976,61.4088823],[17.8020946,61.4088852],[17.869097,61.4316341],[17.9436463,61.4688689],[18.0021915,61.5121701],[18.0425562,61.5599793],[18.0631955,61.6105688],[18.078999,61.68818],[18.078593,61.7420994],[18.0555097,61.7949004],[18.0105631,61.8444631],[17.9656603,61.8750546],[18.0065134,61.9183132],[18.0311632,61.9674551],[18.0359497,62.017895],[18.0324433,62.0293308],[18.0511134,62.036189],[18.1226385,62.0745668],[18.1776597,62.1185367],[18.2141659,62.1665509],[18.2307767,62.2169116],[18.2268026,62.2678299],[18.2182501,62.2851696],[18.2712033,62.3066995],[18.3435997,62.3513133],[18.3474193,62.3550878],[18.4324779,62.3871594],[18.5129708,62.4239397],[18.5768007,62.4671976],[18.6215222,62.515327],[18.644983,62.5656977],[18.6698584,62.5878663],[18.6809193,62.6051473],[18.6820255,62.6053919],[18.772465,62.6363316],[18.8695474,62.6765884],[18.9475529,62.7158358],[18.9794202,62.7400317],[19.0245056,62.7683828],[19.0611358,62.8051626],[19.1078661,62.8389118],[19.1496049,62.8882157],[19.1596073,62.9143266],[19.193681,62.9165573],[19.3001495,62.9332679],[19.3979183,62.9587752],[19.4835125,62.9921793],[19.5538587,63.0322982],[19.5843772,63.0535167],[19.5864719,63.0553332],[19.6379562,63.0999804],[19.6708219,63.1502451],[19.681635,63.2024284],[19.6698703,63.2545658],[19.6358542,63.3046843],[19.5807702,63.3508773],[19.5122105,63.38833],[19.5083996,63.3884217],[19.4969269,63.3897376],[19.4862526,63.3920341],[19.4767893,63.3952224],[19.4080172,63.4234996],[19.4015818,63.4216009],[19.3904622,63.4195905],[19.3786769,63.4186035],[19.3666909,63.4186788],[19.3549775,63.4198134],[19.3343917,63.4227906],[19.3182892,63.3269802],[19.3163216,63.3218729],[19.3122162,63.3170277],[19.3061255,63.3126233],[19.298275,63.3088222],[19.2889547,63.3057644],[19.2785084,63.3035627],[19.213731,63.2931646],[19.2138541,63.2917794],[19.211708,63.286187],[19.1756003,63.2287898],[19.1711984,63.2237638],[19.1698136,63.2228035],[19.1706126,63.2198245],[19.1696988,63.2145171],[19.1664907,63.2093927],[19.1611143,63.2046508],[19.1340515,63.1856341],[19.1340187,63.185611],[19.1338123,63.1854295],[19.1340187,63.185611],[19.1340187,63.185611],[19.1391153,63.1900935],[19.1423212,63.1951317],[19.143308,63.200354],[19.1420372,63.2055635],[19.1385558,63.2105633],[19.132994,63.2151647],[19.1255612,63.2191937],[19.1165377,63.222498],[19.1062644,63.2249527],[19.0951296,63.2264647],[19.0835546,63.2269771],[19.0831619,63.2269771],[19.1107911,63.2192015],[19.0834995,63.2],[19.0531905,63.1786756],[19.0158455,63.2],[19,63.209048],[19,63.209048],[18.9789282,63.2210802],[18.9723113,63.2184985],[18.9649137,63.214145],[18.9596231,63.2092072],[18.9569647,63.2044413],[18.9541844,63.2093306],[18.9488773,63.214236],[18.9414862,63.2185586],[18.9323131,63.2221212],[18.921734,63.2247776],[18.9101826,63.2264188],[18.898133,63.2269774],[18.8630023,63.2269774],[18.9127891,63.2124472],[18.8980462,63.2],[18.8947889,63.19725],[18.8980462,63.2],[18.7578087,63.2],[18.7723877,63.1685441],[18.7578087,63.2],[18.7543875,63.2073814],[18.8227882,63.2192015],[18.700387,63.2259558],[18.7206324,63.2],[18.5,63.2],[18.3,63.26],[18.1,63.32],[16.9,63.68],[16.7,63.74],[16.5,63.8],[16.3,63.86],[16.1,63.92],[15.9,63.98],[15.7,64.04],[15.5,64.1],[15.3,64.14],[15.1,64.18],[14.9,64.22],[14.7,64.26],[14.5,64.3],[14.3,64.34],[14.118118,64.3763764],[14.1607416,64.2053306],[14.1463415,64.1681819],[14.1004491,64.1285073],[14.1004491,64.1285073],[13.9627396,64.0094556],[13.2355324,64.0905073],[12.9835298,64.0584244],[12.6811268,63.9571097],[12.2923229,63.656543],[12.1699217,63.5974428],[12.2203222,63.4741766],[11.9935199,63.2884331],[12.2239222,63.001375],[12.0943209,62.9068147],[12.1555216,62.7109397],[12.097989,62.6],[12.0907209,62.585985],[12.3139231,62.2854182],[12.236943,62],[12.1627216,61.7248106],[12.4147241,61.5829701],[12.6127261,61.54751],[12.8899289,61.3499464],[12.8395284,61.2266803],[12.7387274,61.1422514],[12.702727,61.0460025],[12.5119251,61.0493797],[12.2527225,61.0020995],[12.3499235,60.7927159],[12.6091261,60.4870834],[12.5947259,60.3942117],[12.4903249,60.3114714],[12.5119251,60.117285],[12.2923229,59.9585588],[12.1447214,59.89777],[11.9431194,59.9028357],[11.8495185,59.8724413],[11.8423184,59.8386698],[11.903519,59.7846353],[11.8927189,59.7052722],[11.6947169,59.6225319],[11.6695167,59.5803174]],[[16.4359644,56.9984828],[16.4376668,57],[16.4719647,57.0305658],[16.4376668,57],[16.4359644,56.9984828]],[[16.7311673,56.9039225],[16.8021344,57],[16.8021344,57],[16.8895689,57.1183718],[16.8021344,57],[16.8021344,57],[16.7311673,56.9039225]],[[16.9106901,57],[16.9327693,57.0170571],[16.9106901,57],[16.9106901,57]],[[16.9255693,58.6262713],[17,58.6364068],[17.0371704,58.6414685],[17,58.6364068],[16.9255693,58.6262713]],[[16.9651697,57.3041153],[17,57.3250266],[17.0551706,57.3581498],[17,57.3250266],[16.9651697,57.3041153]],[[17,57.1181675],[17,57.1181675],[17.0515705,57.1926692],[17,57.1181675]],[[17,58.6535969],[17,58.6535969],[17.0371704,58.6414685],[17,58.6535969]],[[17.1738249,57.6189404],[17.1895627,57.6393891],[17.2087026,57.6918078],[17.2083848,57.7243488],[17.2091715,57.7706214],[17.2541698,57.8175672],[17.2813077,57.8685124],[17.2892684,57.9212985],[17.277661,57.9738955],[17.2609381,58.001255],[17.2657223,58.025649],[17.2618338,58.0461813],[17.2671518,58.0529925],[17.3113313,58.1304963],[17.3229566,58.1617484],[17.3334467,58.1723975],[17.3615613,58.2236499],[17.363259,58.2284908],[17.3736685,58.2394393],[17.400561,58.2925427],[17.4064751,58.3474117],[17.3997628,58.3711153],[17.4089751,58.3793823],[17.4419554,58.4293868],[17.4512015,58.4645802],[17.4517582,58.4648076],[17.4985375,58.4929314],[17.5544522,58.5016581],[17.6441879,58.5264167],[17.7230675,58.5598117],[17.7232527,58.5599281],[17.7233366,58.5599454],[17.8050406,58.5868682],[17.821664,58.5949386],[17.8557995,58.5919271],[17.9535553,58.5929709],[18.0492336,58.603504],[18.0627915,58.6064563],[18.0627916,58.606456],[18.2583799,58.0552545],[18.2549928,58.0526226],[18.2502759,58.0480668],[18.1845363,58.0296466],[18.1095972,57.9977378],[18.0474558,57.9588983],[17.7141573,57.7028093],[17.6577935,57.6452362],[17.6289326,57.5821108],[17.6153595,57.5212645],[17.6143447,57.4621302],[17.637265,57.4042933],[17.6504046,57.3829036],[17.6275963,57.3470872],[17.6214589,57.3325661],[17.6218428,57.3387209],[17.6045239,57.392928],[17.5869364,57.4267685],[17.5488106,57.4786019],[17.4915691,57.525092],[17.4176168,57.5642295],[17.3301116,57.5943172],[17.2328298,57.6140462],[17.1738249,57.6189404]],[[17.6151675,59],[17.6311763,59.0180212],[17.6151675,59],[17.6151675,59]],[[18.0487805,58.9673639],[18.0804077,59],[18.0804077,59],[18.0487805,58.9673639]],[[18.1315813,58.9639867],[18.144378,59],[18.1459815,59.0045126],[18.144378,59],[18.1315813,58.9639867]],[[18.2431824,62.9996864],[18.2439624,63],[18.3439834,63.0402123],[18.2439624,63],[18.2431824,62.9996864]],[[18.3115831,56.9478255],[18.3419201,57],[18.3439834,57.0035485],[18.3419201,57],[18.3115831,56.9478255]],[[18.7327873,59.7694381],[19,59.7719959],[19.0855909,59.7728153],[19,59.7719959],[18.7327873,59.7694381]],[[18.8098595,63.1470907],[18.9039988,63.1706465],[18.9269715,63.1763947],[18.9369113,63.1795057],[18.9452633,63.1834554],[18.9515963,63.1880182],[18.9515589,63.1879867],[18.9475011,63.184565],[18.9413086,63.1803459],[18.9334825,63.1767215],[18.924298,63.1738189],[18.9140781,63.17174],[18.9040085,63.1706475],[18.9039988,63.1706465],[18.8098595,63.1470907]],[[18.9163892,57.888363],[19,57.9064633],[19.0099901,57.9086259],[19,57.9064633],[18.9163892,57.888363]],[[18.9517151,63.1881184],[18.9559138,63.1931974],[18.956941,63.1961747],[18.9580825,63.1929996],[18.9624126,63.1878774],[18.968485,63.1835828],[18.9684681,63.1835925],[18.9552903,63.1911332],[18.9517369,63.1881368],[18.9517151,63.1881184]],[[18.9689471,63.183256],[19.0049127,63.1627381],[19.0062666,63.1619657],[19.0062514,63.1619729],[19.0062431,63.1619768],[19.0057733,63.1622456],[19.0049127,63.1627381],[18.9689471,63.183256]],[[18.9739897,59.7187808],[19,59.7240851],[19.0567906,59.7356666],[19,59.7240851],[18.9739897,59.7187808]],[[19.0063051,63.1619437],[19.0090041,63.1606722],[19.0141344,63.1582552],[19.0141281,63.1582572],[19.0140872,63.1582703],[19.0096841,63.1603509],[19.0090041,63.1606722],[19.0063051,63.1619437]],[[19.0190703,63.1566724],[19.0233717,63.1552963],[19.0233692,63.1552969],[19.0233438,63.1553021],[19.0194431,63.1565529],[19.0190703,63.1566724]]]}}
