{"type":"Feature","properties":{"family":"rus","name":"Principality of Tmutarakan, 985 – 1014"},"geometry":{"type":"Polygon","coordinates":[[[36.1376174,45.4869229],[36.2763855,45.5039027],[36.284334,45.504282],[36.2922236,45.5035051],[36.2997158,45.5016055],[36.306489,45.4986646],[36.3122528,45.4948087],[36.3167601,45.4902032],[36.3198179,45.4850456],[36.3268369,45.4685641],[36.603787,45.4484272],[36.6112536,45.447341],[36.6182676,45.4452416],[36.6245529,45.4422118],[36.6298621,45.4383708],[36.6339863,45.4338699],[36.6367634,45.4288863],[36.6394972,45.4220363],[36.6395419,45.4219548],[36.6395492,45.4219414],[36.6395419,45.4219548],[36.6394972,45.4220363],[36.6369716,45.4266467],[36.6331913,45.4309332],[36.6283401,45.4346512],[36.6225873,45.4376707],[36.6161338,45.4398862],[36.6092053,45.4412203],[36.6020438,45.4416262],[36.5948999,45.4410898],[36.5060649,45.4283988],[36.599766,45.421597],[36.6025434,45.4146491],[36.6321663,45.3405453],[36.6025434,45.4146491],[36.5,45.4],[36.5,45.3136125],[36.502565,45.3472996],[36.5,45.3136125],[36.498965,45.3000195],[36.4833462,45.2893969],[36.4846171,45.2888979],[36.491641,45.2872817],[36.4989749,45.2866428],[36.5063468,45.2870051],[36.5134834,45.288355],[36.5201198,45.2906425],[36.52601,45.2937828],[36.5309353,45.2976593],[36.5347127,45.3021283],[36.5372017,45.3070238],[36.5382892,45.3120694],[36.5372518,45.2985657],[36.5361965,45.293573],[36.5338384,45.2888062],[36.5302603,45.284432],[36.5255875,45.2806035],[36.4632891,45.238255],[36.4481797,45.153531],[36.4873849,45.0875588],[36.4895439,45.0826584],[36.49035,45.0775581],[36.4897744,45.0724424],[36.4878383,45.0674965],[36.4846121,45.0628991],[36.4802127,45.0588166],[36.4747994,45.0553966],[36.468568,45.0527626],[36.4617439,45.0510099],[36.2897104,45.0193773],[36.2796635,45.0111328],[36.2870041,45.0031179],[36.34184,44.963824],[36.4569083,44.896526],[36.5155109,44.8682239],[36.5804555,44.848078],[36.6294455,44.8400618],[36.630135,44.839949],[36.6495123,44.8367784],[36.720316,44.8347119],[36.7640378,44.8363076],[36.9503851,44.7731894],[36.9508291,44.773039],[36.9987557,44.7568057],[37.0795931,44.7368572],[37.1646374,44.7302049],[37.3416783,44.7302054],[37.3417061,44.7302054],[37.3395482,44.7319221],[37.3357973,44.7364167],[37.2565393,44.8562813],[37.253793,44.862028],[37.2529267,44.8680642],[37.2539846,44.8740844],[37.2633313,44.9015447],[37.1679068,44.9686457],[37.1471739,44.9756619],[37.1471624,44.9756669],[37.1551754,44.9736885],[37.1637149,44.9730205],[37.2157407,44.9730205],[37.1901719,44.9910098],[37.1636119,45],[37.6,45],[37.8,45.4],[37.7103562,45.4149406],[37.7046725,45.4415997],[37.7043115,45.4415844],[37.6970612,45.4402552],[37.6903165,45.4379641],[37.6843339,45.4347983],[37.6793406,45.4308781],[37.6755263,45.4263526],[37.6730356,45.4213938],[37.6719628,45.4161901],[37.6723406,45.4110454],[37.6687178,45.4279909],[37.6668321,45.422309],[37.6665813,45.4217904],[37.6664335,45.421191],[37.6665813,45.4217904],[37.666595,45.4218458],[37.6677501,45.4265283],[37.6675212,45.4319426],[37.6657556,45.4372156],[37.6625239,45.4421348],[37.6579563,45.4465017],[37.6522366,45.4501403],[37.6455955,45.4529035],[37.6383009,45.4546801],[37.6381181,45.4547105],[37.6294033,45.4284328],[37.6,45.4333333],[37.5863128,45.4356145],[37.5861759,45.4317285],[37.5863128,45.4356145],[37.5872623,45.4625591],[37.5800929,45.4622388],[37.5727596,45.460863],[37.565955,45.4585034],[37.559944,45.4552522],[37.5549611,45.4512361],[37.5512002,45.4466116],[37.5488075,45.4415589],[37.5478909,45.4363601],[37.5548123,45.6367167],[37.5557378,45.6419709],[37.5581134,45.6469972],[37.5618478,45.6516018],[37.5942392,45.683694],[37.5993236,45.6877835],[37.6054761,45.6910801],[37.6124484,45.6934506],[37.619959,45.6947994],[37.6277047,45.6950719],[37.6353724,45.6942571],[37.6426525,45.6923879],[37.6434624,45.6920384],[37.6587337,45.6996714],[37.5999987,45.7052393],[37.5239077,45.7018486],[37.4502817,45.6880393],[37.3820253,45.6643566],[37.3218227,45.6317347],[37.2720293,45.5914587],[37.2716904,45.5910397],[37.2069016,45.6139276],[37.2068817,45.6139346],[37.0066118,45.6846835],[36.9356798,45.7037416],[36.8607481,45.7126822],[36.7847571,45.7111543],[36.7106905,45.6992179],[36.6682333,45.6858063],[36.6678824,45.6856954],[36.6537661,45.6812363],[36.5975221,45.6844202],[36.5257802,45.6790333],[36.4227751,45.6643147],[36.3507647,45.6487113],[36.2845225,45.623582],[36.2265977,45.5898976],[36.1792072,45.548957],[36.1441502,45.502336],[36.1376174,45.4869229]],[[37.6664335,45.421191],[37.665351,45.4192467],[37.6644033,45.4172872],[37.6639616,45.4167509],[37.6640129,45.416843],[37.6647826,45.4182256],[37.6652472,45.4190601],[37.6664335,45.421191]],[[36.6323886,45.3136873],[36.6331682,45.3136989],[36.6350102,45.3137263],[36.6350546,45.313672],[36.6350747,45.3136475],[36.6323886,45.3136873]],[[37.6266529,45.401604],[37.6267606,45.4016034],[37.6301884,45.4015843],[37.6305074,45.4015826],[37.6280165,45.4014741],[37.6266529,45.401604]],[[37.6329571,45.4015689],[37.6344118,45.4017686],[37.6357398,45.4019509],[37.6376498,45.4022132],[37.6380841,45.4022728],[37.6355543,45.4018024],[37.6342412,45.4017452],[37.6344118,45.4017686],[37.6357398,45.4019509],[37.6376498,45.4022132],[37.6377391,45.4022254],[37.6376498,45.4022132],[37.6357398,45.4019509],[37.6344118,45.4017686],[37.6329571,45.4015689]],[[37.6405284,45.4026083],[37.6418513,45.4029946],[37.6448113,45.4038589],[37.6453026,45.4040023],[37.6428546,45.4031597],[37.6416496,45.4029357],[37.6405284,45.4026083]],[[37.6476519,45.4046882],[37.6487829,45.4052258],[37.6489257,45.4052937],[37.6514018,45.4064706],[37.6518736,45.4066949],[37.6496356,45.4054936],[37.6485871,45.4051328],[37.648765,45.4052173],[37.6476519,45.4046882]],[[37.654778,45.4082537],[37.6549365,45.4083675],[37.6566246,45.4095784],[37.6571605,45.4099627],[37.6594375,45.4115961],[37.6575402,45.4102351],[37.6556354,45.408714],[37.654778,45.4082537]],[[37.659973,45.412178],[37.6600776,45.4122916],[37.6618455,45.4142126],[37.6620879,45.414476],[37.6606223,45.4126964],[37.659973,45.412178]]]}}
