{"type":"Feature","properties":{"family":"celts","name":"Ulaid, 985 – 1027"},"geometry":{"type":"Polygon","coordinates":[[[-7.1409144,55.3365778],[-6.9152376,55.2622958],[-6.9075709,55.2591232],[-6.9011677,55.2551438],[-6.8962843,55.2505171],[-6.8931159,55.2454288],[-6.891789,55.2400827],[-6.8923559,55.234693],[-6.8947931,55.2294756],[-6.8990024,55.2246392],[-6.9048147,55.2203775],[-6.9097657,55.2179535],[-6.7629513,55.2060507],[-6.7630755,55.2060171],[-6.7720592,55.20621],[-6.7816438,55.2052794],[-6.7906914,55.2032492],[-6.7988187,55.2002052],[-6.8056818,55.1962764],[-6.8109905,55.1916292],[-6.8145206,55.1864603],[-6.8155187,55.1830528],[-6.768968,55.1792883],[-6.77,55.17],[-6.6650943,55.0650943],[-6.6,55],[-6.5,54.82],[-6.45,54.65],[-6.45,54.48],[-6.38,54.33],[-6.3,54.15],[-6.217122,54.0836976],[-6.0390604,54.0367183],[-6.217122,54.0836976],[-6.2694627,54.097507],[-6.1834223,54.0452267],[-6.1834223,54.0452267],[-6.1110611,54.0012581],[-6.1614616,53.9742409],[-6.3091165,54.0057212],[-6.3098458,54.004365],[-6.3139852,53.9998677],[-6.3156458,53.9986745],[-6.3258847,53.9165676],[-6.2935903,53.9077248],[-6.2860091,53.9050985],[-6.2794209,53.9016665],[-6.2740687,53.8975556],[-6.2701497,53.8929176],[-6.2678081,53.8879237],[-6.2644064,53.8764677],[-6.2623145,53.8694226],[-6.2644064,53.8764677],[-6.2294005,53.8814727],[-6.2095983,53.8819401],[-6.2095983,53.8819401],[-6.1396054,53.8835922],[-6.0508629,53.8752631],[-5.9666565,53.8568128],[-5.8902824,53.828965],[-5.831672,53.7966475],[-5.8232098,53.7987498],[-5.7533068,53.8258039],[-5.6095739,53.8930039],[-5.5476435,53.9278483],[-5.4977077,53.9688519],[-5.490224,53.978324],[-5.4827718,53.9796158],[-5.400648,54.005312],[-5.32891,54.0401713],[-5.2496979,54.087235],[-5.2471235,54.0890838],[-5.2471084,54.0891324],[-5.2471036,54.0891478],[-5.231492,54.1392647],[-5.1538396,54.296598],[-5.1234893,54.3419554],[-5.0795721,54.3833765],[-5.0683273,54.3920514],[-5.1559383,54.4163705],[-5.2304389,54.4421949],[-5.2954751,54.4755987],[-5.3487804,54.515431],[-5.3884766,54.5603155],[-5.4131414,54.6086968],[-5.4173754,54.633083],[-5.5261256,54.7134243],[-5.5758326,54.7586059],[-5.6092013,54.8085525],[-5.6248654,54.8613121],[-5.6407745,54.9912707],[-5.6390004,55.0208243],[-5.6461702,55.0256006],[-5.6677407,55.0380803],[-5.6677468,55.0380839],[-5.6677563,55.0380893],[-6.0247948,55.2446559],[-5.6677563,55.0380893],[-5.6677468,55.0380839],[-5.667746,55.0380833],[-5.8166331,55.0441568],[-5.9077551,55.0529876],[-5.927837,55.0573565],[-5.9278374,55.0573574],[-5.9297796,55.0621222],[-5.9340223,55.0672718],[-5.9400591,55.0717966],[-5.9476214,55.0754947],[-5.9563721,55.0782013],[-6.0084694,55.0904303],[-5.9887705,55.1639867],[-5.9882557,55.1690416],[-5.9894037,55.1740624],[-5.9921746,55.1788723],[-5.9964714,55.1833016],[-6.0021431,55.1871943],[-6.0885445,55.2361865],[-6.0963898,55.2397686],[-6.1053862,55.2423245],[-6.1151274,55.2437387],[-6.155379,55.2470328],[-6.154494,55.2476428],[-6.1499827,55.2524979],[-6.1283544,55.2828846],[-6.1258171,55.287685],[-6.1248826,55.2926699],[-6.125584,55.2976672],[-6.1278976,55.3025043],[-6.131744,55.3070141],[-6.1369908,55.3110407],[-6.143457,55.3144451],[-6.1509194,55.3171095],[-6.1601373,55.3197521],[-6.1601371,55.3197521],[-6.1601371,55.3197521],[-6.1601371,55.3197521],[-6.160137,55.3197521],[-6.1005513,55.3302849],[-6.160137,55.3197521],[-6.1601371,55.3197521],[-6.1601371,55.3197521],[-6.1601371,55.3197521],[-6.1601373,55.3197521],[-6.2157494,55.335695],[-6.2244469,55.3376014],[-6.2336325,55.338503],[-6.2429507,55.3383649],[-6.2520412,55.3371925],[-6.2605521,55.335031],[-6.3073712,55.3198249],[-6.3150319,55.316723],[-6.321465,55.3128215],[-6.323797,55.3106804],[-6.3264177,55.3082742],[-6.3238009,55.3106768],[-6.3843987,55.3142553],[-6.4763386,55.3307649],[-6.5606148,55.3574533],[-6.6337857,55.3932366],[-6.6877591,55.432928],[-6.7011596,55.4368796],[-6.7011596,55.4368796],[-6.7646164,55.4555921],[-6.7890413,55.4666768],[-6.9841537,55.4106656],[-7.0650882,55.3810344],[-7.1337068,55.3427013],[-7.1409144,55.3365778]],[[-6.2490467,55.2685829],[-6.2468917,55.2685326],[-6.2389546,55.2544077],[-6.2384815,55.2537904],[-6.2431619,55.2541643],[-6.2490467,55.2685829]],[[-5.9823677,55],[-5.9742597,55.0532418],[-5.9823677,55],[-5.9823677,55]]]}}
