{"type":"Feature","properties":{"family":"steppe","name":"Volga Bulgaria, 789 – 1014"},"geometry":{"type":"Polygon","coordinates":[[[46.8,55],[46.9666667,54.6],[47.05,54.4],[47.1333333,54.2],[47.2166667,54],[47.3,53.8],[47.5,53.6833333],[47.7,53.5666667],[47.9,53.45],[48.1,53.3333333],[48.3,53.2166667],[48.5,53.1],[48.7222222,53.0777778],[48.9444444,53.0555556],[49.1666667,53.0333333],[49.3888889,53.0111111],[49.6111111,52.9888889],[49.8333333,52.9666667],[50.0555556,52.9444444],[50.2777778,52.9222222],[50.5,52.9],[50.7222222,52.9555556],[50.9444444,53.0111111],[50.9444444,53.0111111],[51.1666667,53.0666667],[51.3888889,53.1222222],[51.6111111,53.1777778],[51.8333333,53.2333333],[52.0555556,53.2888889],[52.0555556,53.2888889],[52.2777778,53.3444444],[52.5,53.4],[52.65,53.5833333],[52.8,53.7666667],[52.95,53.95],[53.25,54.3166667],[53.4,54.5],[53.3666667,54.7166667],[53.3333333,54.9333333],[53.3,55.15],[53.2666667,55.3666667],[53.2333333,55.5833333],[53.2,55.8],[52.9875,55.8875],[52.775,55.975],[52.5625,56.0625],[51.5,56.5],[51.2777778,56.5111111],[51.0555556,56.5222222],[50.8333333,56.5333333],[50.6111111,56.5444444],[50.3888889,56.5555556],[50.1666667,56.5666667],[49.9444444,56.5777778],[49.7222222,56.5888889],[49.5,56.6],[49.2625,56.55],[49.025,56.5],[48.7875,56.45],[48.55,56.4],[48.3125,56.35],[48.075,56.3],[47.8375,56.25],[47.6,56.2],[47.4666667,56],[47.3333333,55.8],[47.2,55.6],[47.0666667,55.4],[46.8,55]]]}}
