{"type":"Feature","properties":{"family":"celts","name":"Welsh kingdoms, 789 – 1066"},"geometry":{"type":"Polygon","coordinates":[[[-5.7483784,51.8752867],[-5.7435495,51.8228352],[-5.722395,51.7719545],[-5.6857666,51.7245655],[-5.6835878,51.722757],[-5.6810004,51.6924044],[-5.6581065,51.6387467],[-5.6180732,51.5891205],[-5.5626343,51.5456099],[-5.4942177,51.5018895],[-5.4298097,51.4679598],[-5.3561491,51.4424035],[-5.3230892,51.4357177],[-5.1953158,51.3782696],[-5.1213596,51.3514154],[-5.0404465,51.3341323],[-4.9557025,51.3270867],[-4.8703937,51.3305501],[-4.787807,51.3443893],[-4.6199213,51.3837855],[-4.5962896,51.3658333],[-4.5726149,51.3536722],[-4.572612,51.3536707],[-4.5726093,51.3536693],[-4.5725997,51.3536644],[-4.5725844,51.3536565],[-4.5725357,51.3536315],[-4.5725276,51.3536273],[-4.5312452,51.3324214],[-4.4571421,51.3074838],[-4.3767667,51.2919539],[-4.2931283,51.2864124],[-4.0318792,51.2847334],[-4.0168024,51.2859246],[-3.9944118,51.2728511],[-3.9536843,51.2541443],[-3.7935592,51.2736847],[-3.7844447,51.2741604],[-3.7753749,51.2734222],[-3.3838929,51.2138829],[-3.04942,51.2455846],[-3.0650313,51.3196535],[-3.0653018,51.3250221],[-3.0638649,51.3303177],[-3.0607772,51.3353305],[-3.0561604,51.3398616],[-3.0501974,51.3437312],[-3.0431244,51.3467859],[-3.035222,51.3489043],[-3.0291985,51.3496901],[-3.0179792,51.3887369],[-3.0157198,51.3937488],[-3.0119589,51.3983965],[-3.0068365,51.4025067],[-3.000543,51.4059263],[-2.7517142,51.5161807],[-2.7516828,51.5161919],[-2.7516785,51.5161934],[-2.7442134,51.5188333],[-2.7516785,51.5161934],[-2.7516828,51.5161919],[-2.7485784,51.5175676],[-2.6902596,51.5767871],[-2.6902596,51.5767871],[-2.6902595,51.5767871],[-2.6902595,51.5767871],[-2.6902595,51.5767871],[-2.6902589,51.5767873],[-2.6902584,51.5767875],[-2.6902584,51.5767875],[-2.6902584,51.5767875],[-2.6902449,51.5767924],[-2.6438886,51.5937008],[-2.6383906,51.5960692],[-2.6335428,51.5989339],[-2.6252779,51.604632],[-2.6204281,51.6086794],[-2.6168759,51.6132167],[-2.6147456,51.6180854],[-2.6141124,51.6231153],[-2.6149987,51.6281305],[-2.6214655,51.6475861],[-2.6575625,51.6226874],[-2.7,51.75],[-2.85,51.9],[-3.05,52.2],[-3.1,52.4],[-3.1,52.6],[-3.08,52.8],[-3.05,53],[-2.95,53.12],[-3.05,53.22],[-3.0859874,53.2463907],[-3.0844209,53.2640251],[-3.0836005,53.2732599],[-3.0911877,53.2731898],[-3.0921524,53.2730634],[-3.1667752,53.3117361],[-3.1667754,53.3117362],[-3.1667759,53.3117364],[-3.166781,53.311739],[-3.166781,53.311739],[-3.166781,53.311739],[-3.1667817,53.3117394],[-3.1667858,53.3117415],[-3.1667866,53.3117419],[-3.1667874,53.3117423],[-3.2626626,53.3614289],[-3.2687608,53.3640811],[-3.275514,53.3660907],[-3.2827338,53.3674015],[-3.3619811,53.3775392],[-3.3714843,53.3781353],[-3.3809852,53.3775261],[-3.3900589,53.375739],[-3.4416411,53.3617526],[-3.5056115,53.4364642],[-3.5400857,53.4897116],[-3.5550295,53.5460826],[-3.5514771,53.5840466],[-3.5514936,53.5840445],[-3.5514974,53.5840441],[-3.5515028,53.5840434],[-3.5515029,53.5840434],[-3.5515033,53.5840433],[-3.6518486,53.5713496],[-3.6688028,53.5766434],[-3.7519841,53.5966246],[-3.8402084,53.6064516],[-3.929975,53.6057341],[-3.9701639,53.6005975],[-4.0316427,53.6294993],[-4.1142383,53.6541051],[-4.203586,53.6682443],[-4.2959371,53.6713232],[-4.5930109,53.6628256],[-4.6785032,53.6553781],[-4.7600233,53.6384351],[-4.8345885,53.612618],[-4.8994836,53.5788719],[-4.9523633,53.53843],[-4.9657794,53.5227232],[-4.9860468,53.5143804],[-5.0495167,53.4747678],[-5.0981328,53.4283271],[-5.1299262,53.3769881],[-5.1436423,53.3228769],[-5.1387838,53.2682261],[-5.11562,53.2152822],[-5.0751643,53.1662137],[-5.0191231,53.1230232],[-4.9545173,53.0898815],[-4.9608166,53.085397],[-5.1258276,52.9447417],[-5.1695433,52.8980138],[-5.1969863,52.8469864],[-5.2071238,52.7936884],[-5.1996175,52.7402318],[-5.174827,52.688727],[-5.1337861,52.6412004],[-5.0781534,52.5995154],[-5.0101416,52.5653017],[-4.9324279,52.5398934],[-4.8480504,52.5242796],[-4.7602934,52.519067],[-4.5433326,52.5190896],[-4.5277193,52.4916777],[-4.5389559,52.4639658],[-4.5699946,52.4439595],[-4.8911687,52.3623978],[-4.9607052,52.3399452],[-5.0225392,52.310281],[-5.0452422,52.2946558],[-5.1279301,52.2931139],[-5.2136305,52.2807504],[-5.2935347,52.2581641],[-5.3644173,52.2262702],[-5.4234349,52.1863584],[-5.4373208,52.1720157],[-5.4557337,52.1674016],[-5.5290887,52.1438102],[-5.5938438,52.1121615],[-5.6476905,52.0735939],[-5.6887272,52.0294915],[-5.7155252,51.9814326],[-5.7366416,51.9273221],[-5.7483784,51.8752867]],[[-3.3848592,51.3984225],[-3.177621,51.4315806],[-3.1831922,51.402836],[-3.1669323,51.4054375],[-3.1588135,51.4072837],[-3.1514444,51.4100995],[-3.145119,51.4137727],[-3.1437796,51.4149401],[-3.1413381,51.4109991],[-3.1398835,51.4058023],[-3.1400781,51.4005283],[-3.1413056,51.3942252],[-3.1433121,51.3887564],[-3.147087,51.3836646],[-3.1524668,51.37917],[-3.1592186,51.3754667],[-3.1670505,51.3727147],[-3.1756242,51.3710327],[-3.1845695,51.3704933],[-3.2192269,51.3706576],[-3.2274294,51.3711861],[-3.2353223,51.372677],[-3.2426185,51.3750762],[-3.2490529,51.3782964],[-3.2543912,51.3822206],[-3.258439,51.386706],[-3.260453,51.3904747],[-3.2157842,51.3976215],[-3.3848592,51.3984225]]]}}
