{"type":"Feature","properties":{"family":"celts","name":"Principality of Wales, 1261 – 1349"},"geometry":{"type":"Polygon","coordinates":[[[-5.7483784,51.8752867],[-5.7435495,51.8228352],[-5.722395,51.7719545],[-5.6857666,51.7245655],[-5.6835878,51.722757],[-5.6810004,51.6924044],[-5.6581065,51.6387467],[-5.6180732,51.5891205],[-5.5626343,51.5456099],[-5.4942177,51.5018895],[-5.4298097,51.4679598],[-5.3561491,51.4424035],[-5.3230892,51.4357177],[-5.1953158,51.3782696],[-5.1213596,51.3514154],[-5.0404465,51.3341323],[-4.9557025,51.3270867],[-4.8703937,51.3305501],[-4.787807,51.3443893],[-4.6199213,51.3837855],[-4.5962896,51.3658333],[-4.5726149,51.3536722],[-4.572612,51.3536707],[-4.5726093,51.3536693],[-4.5725997,51.3536644],[-4.5725844,51.3536565],[-4.5725357,51.3536315],[-4.5725276,51.3536273],[-4.5312452,51.3324214],[-4.4571421,51.3074838],[-4.3767667,51.2919539],[-4.2931283,51.2864124],[-4.0318792,51.2847334],[-4.0168024,51.2859246],[-3.9944118,51.2728511],[-3.9536843,51.2541443],[-3.9536843,51.2541443],[-3.9536829,51.2541437],[-3.9536827,51.2541436],[-3.9536814,51.254143],[-3.9536804,51.2541425],[-3.9536802,51.2541425],[-3.7935467,51.2736841],[-3.7844364,51.2741594],[-3.7753711,51.2734218],[-3.3838864,51.2138823],[-3.0494149,51.2455845],[-3.0650263,51.31965],[-3.065297,51.3250188],[-3.0638602,51.3303148],[-3.0607725,51.335328],[-3.0561558,51.3398595],[-3.0501929,51.3437297],[-3.04312,51.3467847],[-3.0352177,51.3489035],[-3.0291932,51.3496896],[-3.0179749,51.3887345],[-3.0157157,51.3937462],[-3.0119554,51.3983939],[-3.0068337,51.4025042],[-3.0005412,51.405924],[-2.7485482,51.5175973],[-2.6902596,51.5767871],[-2.6902595,51.5767871],[-2.6902595,51.5767871],[-2.6902595,51.5767871],[-2.6902589,51.5767873],[-2.6902584,51.5767875],[-2.6902584,51.5767875],[-2.6902584,51.5767875],[-2.6902449,51.5767924],[-2.6438886,51.5937008],[-2.6383906,51.5960692],[-2.6335428,51.5989339],[-2.6252779,51.604632],[-2.6204281,51.6086794],[-2.6168759,51.6132167],[-2.6147456,51.6180854],[-2.6141124,51.6231153],[-2.6149987,51.6281305],[-2.6214655,51.6475861],[-2.6575625,51.6226874],[-2.7,51.75],[-2.85,51.9],[-3.05,52.2],[-3.1,52.4],[-3.1,52.6],[-3.08,52.8],[-3.05,53],[-2.95,53.12],[-3.05,53.22],[-3.0859874,53.2463907],[-3.0844209,53.2640251],[-3.0836005,53.2732599],[-3.0911877,53.2731898],[-3.0921524,53.2730634],[-3.1667752,53.3117361],[-3.1667754,53.3117362],[-3.1667759,53.3117364],[-3.166781,53.311739],[-3.166781,53.311739],[-3.166781,53.311739],[-3.1667817,53.3117394],[-3.1667858,53.3117415],[-3.2278225,53.3807608],[-3.2311569,53.3856071],[-3.2328589,53.3907463],[-3.2328636,53.3959848],[-3.2311702,53.4011249],[-3.227842,53.405973],[-3.2230041,53.410346],[-3.2168386,53.414079],[-3.2095779,53.4170309],[-3.0799263,53.4592689],[-3.0712997,53.461417],[-3.0699396,53.4615722],[-3.1419911,53.5467175],[-3.1453786,53.5520477],[-3.146807,53.5576817],[-3.146212,53.5633682],[-3.1436191,53.5688536],[-3.1391435,53.573893],[-3.1212474,53.5896571],[-3.1212474,53.5896571],[-3.1915647,53.6040823],[-3.2884819,53.6108089],[-3.3855754,53.6050331],[-3.5514771,53.5840466],[-3.5514936,53.5840445],[-3.5514974,53.5840441],[-3.5515028,53.5840434],[-3.5515029,53.5840434],[-3.5515033,53.5840433],[-3.6518486,53.5713496],[-3.6688028,53.5766434],[-3.7519841,53.5966246],[-3.8402084,53.6064516],[-3.929975,53.6057341],[-3.9701639,53.6005975],[-4.0316427,53.6294993],[-4.1142383,53.6541051],[-4.203586,53.6682443],[-4.2959371,53.6713232],[-4.5930109,53.6628256],[-4.6785032,53.6553781],[-4.7600233,53.6384351],[-4.8345885,53.612618],[-4.8994836,53.5788719],[-4.9523633,53.53843],[-4.9657794,53.5227232],[-4.9860468,53.5143804],[-5.0495167,53.4747678],[-5.0981328,53.4283271],[-5.1299262,53.3769881],[-5.1436423,53.3228769],[-5.1387838,53.2682261],[-5.11562,53.2152822],[-5.0751643,53.1662137],[-5.0191231,53.1230232],[-4.9545173,53.0898815],[-4.9608166,53.085397],[-5.1258276,52.9447417],[-5.1695433,52.8980138],[-5.1969863,52.8469864],[-5.2071238,52.7936884],[-5.1996175,52.7402318],[-5.174827,52.688727],[-5.1337861,52.6412004],[-5.0781534,52.5995154],[-5.0101416,52.5653017],[-4.9324279,52.5398934],[-4.8480504,52.5242796],[-4.7602934,52.519067],[-4.5433326,52.5190896],[-4.5277193,52.4916777],[-4.5389559,52.4639658],[-4.5699946,52.4439595],[-4.8911687,52.3623978],[-4.9607052,52.3399452],[-5.0225392,52.310281],[-5.0452422,52.2946558],[-5.1279301,52.2931139],[-5.2136305,52.2807504],[-5.2935347,52.2581641],[-5.3644173,52.2262702],[-5.4234349,52.1863584],[-5.4373208,52.1720157],[-5.4557337,52.1674016],[-5.5290887,52.1438102],[-5.5938438,52.1121615],[-5.6476905,52.0735939],[-5.6887272,52.0294915],[-5.7155252,51.9814326],[-5.7366416,51.9273221],[-5.7483784,51.8752867]],[[-3.3851846,51.3714477],[-3.3740592,51.3722984],[-3.260453,51.3904747],[-3.2157842,51.3976215],[-3.3848592,51.3984225],[-3.177621,51.4315806],[-3.1831922,51.402836],[-3.1669323,51.4054375],[-3.1588135,51.4072837],[-3.1514444,51.4100995],[-3.145119,51.4137727],[-3.1437796,51.4149401],[-3.1400896,51.4181566],[-3.1365573,51.4230766],[-3.1346707,51.4283165],[-3.1413095,51.3942302],[-3.143318,51.3887563],[-3.1470979,51.3836603],[-3.1524851,51.3791627],[-3.159246,51.3754581],[-3.1670879,51.3727069],[-3.1756712,51.3710281],[-3.1846247,51.3704942],[-3.385133,51.3714444],[-3.3851846,51.3714477]]]}}
