{"type":"Feature","properties":{"family":"norse","name":"Waterford, Norse town, 917 – 1027"},"geometry":{"type":"Polygon","coordinates":[[[-7.5416597,51.9928654],[-7.4979373,51.9588233],[-7.4362664,51.9257921],[-7.3657948,51.9003626],[-7.2889533,51.8834073],[-7.2479774,51.8793969],[-7.2070611,51.8701686],[-7.1681552,51.8662703],[-7.1251397,51.8619603],[-7.042186,51.8634075],[-7.0375633,51.8640379],[-6.9611407,51.8744592],[-6.8848798,51.8947233],[-6.8084775,51.9205089],[-6.7948066,51.9219396],[-6.7142125,51.9409252],[-6.6411396,51.9692451],[-6.6356294,51.9724571],[-6.5784032,52.0058147],[-6.5284388,52.0492304],[-6.4932086,52.0978216],[-6.4619366,52.1555739],[-6.455248,52.1732542],[-6.565798,52.1518718],[-6.5737767,52.1508109],[-6.5819375,52.1506728],[-6.5899993,52.1514621],[-6.7802157,52.1812342],[-6.779931,52.1778746],[-6.781365,52.1723183],[-6.7846459,52.1670651],[-6.7896307,52.1623432],[-6.7961023,52.1583578],[-6.9040863,52.1043488],[-6.9114395,52.1013638],[-6.9196141,52.0993402],[-6.9282814,52.0983593],[-6.9370928,52.0984606],[-6.9456944,52.09964],[-6.9537401,52.10185],[-6.9609065,52.1050019],[-6.9669052,52.1089688],[-6.9714946,52.1135913],[-6.9744895,52.1186834],[-6.975769,52.1240401],[-6.9755028,52.1269871],[-6.9271309,52.1572284],[-6.9240502,52.1564134],[-6.9153702,52.1553048],[-6.9135633,52.1553011],[-6.903069,52.172529],[-6.9107883,52.1821377],[-6.953051,52.2347451],[-6.953051,52.2347451],[-6.99667,52.2890408],[-6.953051,52.2347451],[-6.953051,52.2347451],[-6.9107883,52.1821377],[-6.9067949,52.185],[-6.8868148,52.2115299],[-6.88,52.24],[-6.8868148,52.2684701],[-6.9067949,52.295],[-6.9385786,52.3177817],[-6.95,52.3226019],[-6.95,52.3226019],[-6.98,52.3352628],[-7.0282362,52.3462518],[-7.08,52.35],[-7.1317638,52.3462518],[-7.18,52.3352628],[-7.2214214,52.3177817],[-7.2532051,52.295],[-7.2731852,52.2684701],[-7.28,52.24],[-7.2731852,52.2115299],[-7.2532051,52.185],[-7.2214214,52.1622183],[-7.18,52.1447372],[-7.1569212,52.1394794],[-7.1874719,52.1320031],[-7.2249942,52.1309828],[-7.2049137,52.1225103],[-7.1952849,52.1194416],[-7.1722174,52.1141868],[-7.1644297,52.1128965],[-7.1563893,52.1125018],[-7.1483668,52.1130159],[-7.1406526,52.1144178],[-7.1406573,52.1144163],[-7.1711935,52.1069442],[-7.1782677,52.1056231],[-7.1856024,52.1050491],[-7.4240274,52.0985757],[-7.5093769,52.0707945],[-7.5073799,52.0693089],[-7.5031981,52.0644461],[-7.5007082,52.0591628],[-7.5000132,52.0536789],[-7.5011415,52.0482224],[-7.5040453,52.0430199],[-7.5416597,51.9928654]],[[-7.104671,52.1303145],[-7.0722707,52.1657747],[-7.1034096,52.1316951],[-7.0960194,52.1311599],[-7.0182702,52.1387574],[-7.104671,52.1303145]]]}}
