{"type":"Feature","properties":{"family":"english","name":"Kingdom of Wessex, 789 – 824"},"geometry":{"type":"Polygon","coordinates":[[[-4.9614447,50.9655595],[-4.9614405,50.965576],[-4.9581486,50.9786052],[-4.937743,51.0282082],[-4.9027395,51.0744808],[-4.8543685,51.1157417],[-4.7943595,51.1504877],[-4.7248808,51.1774497],[-4.6484608,51.195641],[-4.567894,51.2043948],[-4.486134,51.2033902],[-4.4061808,51.1926641],[-4.3309644,51.1726098],[-4.2980309,51.1586803],[-4.2992915,51.1560038],[-4.3000518,51.1507099],[-4.2991427,51.1454253],[-4.2965999,51.140355],[-4.2570402,51.082134],[-4.3351954,51.0288909],[-4.5227174,51.041005],[-4.5313133,51.0410089],[-4.5397376,51.0399348],[-4.5476517,51.0378261],[-4.5547376,51.0347673],[-4.5607107,51.0308816],[-4.5653313,51.0263249],[-4.5684142,51.0212804],[-4.5698362,51.0159505],[-4.5780935,50.9371577],[-4.5780933,50.9371544],[-4.5780933,50.9371544],[-4.5780922,50.9371652],[-4.5767541,50.9423007],[-4.5738756,50.9471788],[-4.5695634,50.9516177],[-4.5639778,50.9554522],[-4.5573266,50.9585395],[-4.5498573,50.9607645],[-4.5418483,50.9620443],[-4.5335979,50.9623312],[-4.5325349,50.9622381],[-4.5353749,50.9353749],[-4.54021,50.8896388],[-4.5402101,50.8896384],[-4.54021,50.8896388],[-4.5353749,50.9353749],[-4.5325349,50.9622381],[-4.5285428,51],[-4.5325349,50.9622381],[-4.5353749,50.9353749],[-4.45,50.85],[-4.33,50.7],[-4.25,50.55],[-4.2057108,50.4550946],[-4.199442,50.458623],[-4.1638076,50.458623],[-4.1635407,50.4577538],[-4.1635183,50.4540243],[-4.1639828,50.4534433],[-4.1712289,50.4443799],[-4.1725115,50.4427757],[-4.1725115,50.4427757],[-4.1725115,50.4427757],[-4.1712289,50.4443799],[-4.1639828,50.4534433],[-4.1635183,50.4540243],[-4.1598416,50.458623],[-4.1635183,50.4540243],[-4.1639828,50.4534433],[-4.1712289,50.4443799],[-4.1725115,50.4427757],[-4.1725115,50.4427757],[-4.1797813,50.4336828],[-4.1908812,50.4274393],[-4.1897753,50.4211824],[-4.1898446,50.4210957],[-4.18,50.4],[-4.1792752,50.3963758],[-4.1670417,50.3758827],[-4.1502188,50.3744903],[-4.1504183,50.3738969],[-4.14986,50.3735649],[-4.1452062,50.3695322],[-4.1418016,50.3650204],[-4.1397632,50.3601849],[-4.1391609,50.3551924],[-4.140015,50.3502149],[-4.1465142,50.3299475],[-4.1465142,50.3299473],[-4.1465142,50.3299473],[-4.0885781,50.2831728],[-4.0824208,50.2791423],[-4.075089,50.2760163],[-4.066902,50.2739307],[-4.0582161,50.2729764],[-4.0494094,50.273195],[-4.0408653,50.2745769],[-3.9725099,50.2906159],[-3.8221317,50.1951019],[-3.8481386,50.1657623],[-3.9055521,50.1239974],[-3.9750188,50.0906334],[-4.0535996,50.0670718],[-4.137989,50.0543006],[-4.2234013,50.0528754],[-4.2234351,50.0528748],[-4.2176669,50.0509125],[-4.1426622,50.035956],[-4.1052724,50.0331919],[-4.0853639,50.0205573],[-4.0281525,49.9901324],[-3.9635603,49.9666293],[-3.8935888,49.950773],[-3.8203978,49.9430521],[-3.7462413,49.9437043],[-3.6173586,49.9520982],[-3.5305406,49.963732],[-3.4493958,49.9867924],[-3.377509,50.0202639],[-3.3180746,50.0626695],[-3.2737574,50.1121339],[-3.2465723,50.1664632],[-3.2425847,50.1787703],[-3.1872002,50.2142805],[-3.1339892,50.2558949],[-3.0946507,50.3034158],[-3.0707778,50.3549711],[-3.0633655,50.4085234],[-3.0664204,50.4259043],[-3.0645276,50.4269084],[-2.9329741,50.4465776],[-2.8329857,50.4090261],[-2.8290724,50.402905],[-2.7840325,50.3591525],[-2.7266827,50.3217432],[-2.6591819,50.2920685],[-2.584052,50.2712298],[-2.5040848,50.259999],[-2.4222429,50.2587921],[-2.341555,50.2676536],[-2.2650087,50.2862555],[-2.1954463,50.3139087],[-2.139969,50.3469098],[-2.0313569,50.3358059],[-1.9450356,50.3326237],[-1.8594874,50.3406573],[-1.7782346,50.359576],[-1.7046309,50.3886004],[-1.687322,50.3990481],[-1.6866988,50.3988874],[-1.6026799,50.3889981],[-1.5900733,50.3891509],[-1.5145893,50.3572694],[-1.4376766,50.3315251],[-1.3542057,50.3162961],[-1.2676474,50.3122147],[-1.1815943,50.3194503],[-1.099619,50.3377022],[-1.0251331,50.3662123],[-0.8223371,50.4626732],[-0.8223365,50.4626735],[-0.8095721,50.4687449],[-0.7470326,50.5050289],[-0.6969718,50.5484682],[-0.685576,50.5641406],[-0.681682,50.5656462],[-0.6209198,50.6009014],[-0.5719148,50.6429103],[-0.5365211,50.6901124],[-0.5160995,50.740749],[-0.5136113,50.7687635],[-0.5123246,50.7709577],[-0.5094928,50.777816],[-0.7277992,50.7537373],[-0.7511114,50.71975],[-0.7550202,50.715267],[-0.7601954,50.7113322],[-0.7664505,50.7080873],[-0.7735602,50.7056489],[-0.7812688,50.7041048],[-0.7892989,50.7035105],[-0.7973617,50.7038874],[-0.8051671,50.7052219],[-0.8124346,50.7074661],[-0.9338217,50.7543458],[-0.9268791,50.7550639],[-0.9191353,50.7568854],[-0.9120913,50.7596168],[-0.9060112,50.7631557],[-0.901123,50.7673695],[-0.8976853,50.7719995],[-0.9126091,50.7777641],[-0.8963628,50.7875616],[-0.8963631,50.7875629],[-0.8990977,50.7924951],[-0.9135504,50.8121898],[-0.913232,50.8122318],[-0.9058383,50.8141713],[-0.8991467,50.8169482],[-0.8933924,50.8204652],[-0.8916926,50.8219878],[-0.9205698,50.8355325],[-0.9258446,50.8380066],[-0.9,50.95],[-0.82,51.1],[-0.85,51.3],[-0.97,51.45],[-1.2,51.42],[-1.45,51.42],[-1.75,51.55],[-2,51.55],[-2.15,51.45],[-2.36,51.38],[-2.55,51.45],[-2.72666,51.494165],[-2.7162272,51.4987866],[-2.6989283,51.5163054],[-2.6989283,51.5163054],[-2.6989279,51.5163057],[-2.6989279,51.5163057],[-2.6989278,51.5163058],[-2.6989278,51.5163058],[-2.6989276,51.5163061],[-2.7105594,51.5192143],[-2.7188489,51.5207029],[-2.7274483,51.5211402],[-2.7360164,51.5205086],[-2.7442134,51.5188333],[-2.7516785,51.5161934],[-2.7516828,51.5161919],[-2.7517142,51.5161807],[-3.000543,51.4059263],[-3.0068365,51.4025067],[-3.0119589,51.3983965],[-3.0157198,51.3937488],[-3.0179792,51.3887369],[-3.0291985,51.3496901],[-3.035222,51.3489043],[-3.0431244,51.3467859],[-3.0501974,51.3437312],[-3.0561604,51.3398616],[-3.0607772,51.3353305],[-3.0638649,51.3303177],[-3.0653018,51.3250221],[-3.0650313,51.3196535],[-3.04942,51.2455846],[-3.3838929,51.2138829],[-3.7753749,51.2734222],[-3.7844447,51.2741604],[-3.7935592,51.2736847],[-3.9536843,51.2541443],[-3.9944118,51.2728511],[-4.0168024,51.2859246],[-4.0318792,51.2847334],[-4.2931283,51.2864124],[-4.3767667,51.2919539],[-4.4571421,51.3074838],[-4.5312452,51.3324214],[-4.5725276,51.3536273],[-4.5725357,51.3536315],[-4.5725844,51.3536565],[-4.5725997,51.3536644],[-4.5726093,51.3536693],[-4.572612,51.3536707],[-4.5726149,51.3536722],[-4.5889659,51.3409661],[-4.6282666,51.2935511],[-4.6363303,51.2759713],[-4.6380378,51.2739192],[-4.6546188,51.2717993],[-4.7340705,51.250609],[-4.8050873,51.2198893],[-4.8647984,51.1808909],[-4.9108106,51.1351974],[-4.9413037,51.0846595],[-4.9550987,51.0313174],[-4.9614447,50.9655595]],[[-4.1908812,50.4274393],[-4.1797813,50.4336828],[-4.1797813,50.4336828],[-4.1908812,50.4274393]]]}}
