{"type":"Feature","properties":{"family":"english","name":"Kingdom of Wessex, 879 – 916"},"geometry":{"type":"Polygon","coordinates":[[[-6.1226541,50.0276469],[-6.1077724,49.9771442],[-6.078304,49.929369],[-6.0353536,49.8860457],[-5.9805009,49.8487337],[-5.91574,49.8187727],[-5.8434073,49.7972365],[-5.7660986,49.7848958],[-5.6865795,49.782192],[-5.561282,49.7855454],[-5.5138434,49.7899016],[-5.4992475,49.7773769],[-5.4407296,49.7430891],[-5.3733347,49.7164986],[-5.2994538,49.6985441],[-5.2216968,49.6898585],[-5.1428036,49.6907482],[-5.0655523,49.701182],[-4.9926663,49.7207927],[-4.9267224,49.7488891],[-4.8700635,49.7844792],[-4.7366637,49.8854253],[-4.6891249,49.9294644],[-4.6653936,49.9647108],[-4.5565636,50.0112376],[-4.4918906,50.0451962],[-4.4583194,50.0714696],[-4.3884949,50.0832303],[-4.3158029,50.0639263],[-4.2367465,50.0535823],[-4.225283,50.0535133],[-4.2176753,50.050922],[-4.1426702,50.0359659],[-4.1052857,50.0332022],[-4.0853757,50.0205664],[-4.0281655,49.9901416],[-3.9635738,49.9666384],[-3.8936021,49.9507818],[-3.8204103,49.9430606],[-3.7462525,49.9437124],[-3.6173693,49.9521056],[-3.5305493,49.9637391],[-3.449402,49.9867993],[-3.3775127,50.0202706],[-3.3180761,50.0626763],[-3.2737573,50.1121409],[-3.2465714,50.1664703],[-3.2425833,50.1787785],[-3.1871987,50.2142885],[-3.1339883,50.255902],[-3.0946501,50.3034217],[-3.0707773,50.3549755],[-3.0633648,50.4085261],[-3.0664202,50.4259097],[-3.0645293,50.4269127],[-2.9329791,50.4465806],[-2.8329892,50.4090278],[-2.8290746,50.4029045],[-2.7840356,50.3591524],[-2.7266867,50.3217434],[-2.6591867,50.2920689],[-2.5840573,50.2712301],[-2.5040903,50.2599994],[-2.4222483,50.2587924],[-2.3415598,50.2676539],[-2.2650128,50.2862559],[-2.1954494,50.3139093],[-2.1399753,50.3469081],[-2.0313648,50.3358037],[-1.9450432,50.332621],[-1.8594942,50.3406543],[-1.7782401,50.359573],[-1.7046351,50.3885979],[-1.6873291,50.3990436],[-1.6867091,50.3988838],[-1.6026904,50.3889935],[-1.5900786,50.3891462],[-1.5145928,50.3572633],[-1.4376822,50.3315189],[-1.3542133,50.3162897],[-1.2676566,50.3122079],[-1.1816045,50.319443],[-1.0996296,50.3376944],[-1.0251432,50.366204],[-0.8223405,50.4626904],[-0.7811598,50.4607587],[-0.7012487,50.466672],[-0.6244901,50.482039],[-0.5536098,50.5063145],[-0.5035094,50.5322408],[-0.2831983,50.5564609],[0.1685151,50.4856861],[0.2467915,50.4780725],[0.325925,50.4797989],[0.4032018,50.4908058],[0.4759686,50.5107155],[0.5417197,50.538844],[0.5981797,50.5742239],[0.6026545,50.5776033],[0.7260579,50.5968141],[0.8174873,50.6182494],[0.8983099,50.6520159],[0.9390653,50.6494788],[1.024491,50.6495768],[1.1081928,50.6604295],[1.1405192,50.6691326],[1.1405552,50.6691423],[1.1868507,50.6816062],[1.2573351,50.7122664],[1.3168267,50.7511913],[1.3629263,50.7968305],[1.3937522,50.8473615],[1.3973515,50.8608461],[1.5533788,50.9030768],[1.6222072,50.9265155],[1.683195,50.957426],[1.734314,50.9947888],[1.7738499,51.0373692],[1.8004599,51.0837566],[1.8298531,51.1545696],[1.843656,51.2159974],[1.8369895,51.261946],[1.8369654,51.2621122],[1.8365084,51.2652617],[1.8615387,51.3024196],[1.8785373,51.352678],[1.8799887,51.4040368],[1.8657884,51.454634],[1.8364025,51.5026294],[1.7928572,51.5462714],[1.7367083,51.5839627],[1.6699874,51.6143199],[1.5951299,51.6362262],[1.5605462,51.6416772],[1.5605454,51.6416773],[1.5605445,51.6416775],[1.514884,51.6488743],[1.4322063,51.6517972],[1.0876655,51.6429547],[0.9956379,51.6780413],[0.9956365,51.6780418],[0.9957154,51.6775295],[0.994683,51.6719341],[0.9918003,51.6665935],[0.9727846,51.6406955],[0.9795979,51.6379332],[0.9859386,51.6339975],[0.9908424,51.6293378],[0.9941008,51.6241527],[0.9955755,51.6186628],[0.9952045,51.613102],[0.9930042,51.6077068],[0.9890688,51.6027068],[0.9602544,51.5740101],[0.9543437,51.5693514],[0.9469389,51.565608],[0.7957817,51.5048497],[0.7867393,51.5020736],[0.7769119,51.5006724],[0.7251378,51.4971298],[0.7251367,51.4971306],[0.7251367,51.4971306],[0.7250652,51.4971774],[0.7184291,51.5001407],[0.7110168,51.5022759],[0.7030918,51.503507],[0.6224189,51.5110752],[0.6114141,51.5112237],[0.4612918,51.501216],[0.4494504,51.4993399],[0.4454711,51.4983191],[0.4112834,51.473464],[0.4071768,51.4704785],[0.4,51.47],[0.1,51.5],[0,51.5],[-0.1,51.5],[-0.3,51.47],[-0.5,51.45],[-0.7,51.5],[-0.835,51.49],[-0.97,51.48],[-1.1,51.6],[-1.25,51.73],[-1.5,51.7],[-1.8,51.68],[-2,51.6],[-2.15,51.45],[-2.36,51.38],[-2.55,51.45],[-2.72666,51.494165],[-2.7162272,51.4987866],[-2.6989283,51.5163054],[-2.6989283,51.5163054],[-2.6989279,51.5163057],[-2.7105602,51.5192141],[-2.7188498,51.5207027],[-2.7274492,51.52114],[-2.7360173,51.5205084],[-2.7442143,51.5188331],[-2.7516295,51.5162108],[-2.751715,51.5161806],[-3.0005434,51.4059261],[-3.0068368,51.4025067],[-3.0119591,51.3983966],[-3.0157198,51.393749],[-3.0179792,51.3887373],[-3.0291986,51.3496898],[-3.0352226,51.348904],[-3.0431248,51.3467856],[-3.0501977,51.3437311],[-3.0561606,51.3398615],[-3.0607773,51.3353306],[-3.0638649,51.3303179],[-3.0653017,51.3250224],[-3.0650312,51.319654],[-3.0494196,51.2455843],[-3.0494199,51.2455843],[-3.3838934,51.2138824],[-3.7753754,51.2734214],[-3.7844455,51.2741596],[-3.7935602,51.2736838],[-3.9536829,51.2541437],[-3.9536843,51.2541443],[-3.9536843,51.2541443],[-3.9944118,51.2728511],[-4.0168024,51.2859246],[-4.0318792,51.2847334],[-4.2931283,51.2864124],[-4.3767667,51.2919539],[-4.4571421,51.3074838],[-4.5312452,51.3324214],[-4.5725276,51.3536273],[-4.5725357,51.3536315],[-4.5725844,51.3536565],[-4.5725997,51.3536644],[-4.5726093,51.3536693],[-4.572612,51.3536707],[-4.5889682,51.3409608],[-4.6282672,51.2935491],[-4.6363325,51.2759662],[-4.6377353,51.2742804],[-4.6478554,51.2730678],[-4.7247271,51.2537284],[-4.7941856,51.2255033],[-4.8536449,51.18945],[-4.9009081,51.1469167],[-4.9342485,51.0994894],[-4.9524711,51.0489315],[-4.9863746,50.88056],[-5.0240667,50.8491639],[-5.0420915,50.8469792],[-5.1231338,50.8255623],[-5.1954321,50.7940838],[-5.2315075,50.770121],[-5.2834202,50.7481079],[-5.3376673,50.7149135],[-5.3817415,50.6761679],[-5.4142749,50.6330975],[-5.4269649,50.6038962],[-5.4615901,50.5848357],[-5.5136062,50.5417528],[-5.550904,50.4929144],[-5.5543294,50.4843852],[-5.8415175,50.4122474],[-5.9100452,50.3901166],[-5.9710948,50.3604242],[-6.0226445,50.3241616],[-6.0630011,50.282537],[-6.0908547,50.2369337],[-6.1053194,50.1888627],[-6.1223638,50.0790488],[-6.1226541,50.0276469]],[[0.3834038,51.453195],[0.4659448,51.4743963],[0.5346053,51.4920323],[0.6159799,51.4843987],[0.55,51.48],[0.4659448,51.4743963],[0.3834038,51.453195]]]}}
