{"type":"Feature","properties":{"family":"english","name":"Kingdom of Wessex, 843 – 878"},"geometry":{"type":"Polygon","coordinates":[[[-6.1226477,50.0276376],[-6.1077668,49.9771361],[-6.0783,49.9293624],[-6.035352,49.8860406],[-5.9805022,49.84873],[-5.9157447,49.8187703],[-5.8434155,49.7972352],[-5.7661103,49.7848951],[-5.6865944,49.7821915],[-5.5612975,49.7855449],[-5.5138466,49.7899023],[-5.4992424,49.7773705],[-5.4407263,49.7430843],[-5.3733335,49.7164953],[-5.2994551,49.6985421],[-5.2217006,49.6898577],[-5.1428097,49.6907484],[-5.0655605,49.7011829],[-4.9926762,49.720794],[-4.9267334,49.7488905],[-4.870075,49.7844805],[-4.736675,49.885426],[-4.6891351,49.9294655],[-4.6654029,49.9647122],[-4.5565765,50.0112371],[-4.4919011,50.0451967],[-4.4583302,50.0714696],[-4.3885036,50.0832306],[-4.315806,50.0639253],[-4.2367505,50.0535819],[-4.2252872,50.0535129],[-4.2176767,50.0509207],[-4.1426739,50.0359652],[-4.1052863,50.0332015],[-4.0853725,50.0205633],[-4.028164,49.9901395],[-3.9635744,49.9666372],[-3.8936051,49.9507813],[-3.8204156,49.9430604],[-3.74626,49.9437123],[-3.6173774,49.9521054],[-3.5305574,49.9637389],[-3.4494098,49.9867993],[-3.37752,50.020271],[-3.3180828,50.0626772],[-3.2737632,50.1121424],[-3.2465767,50.1664725],[-3.2425891,50.1787793],[-3.187206,50.214288],[-3.133995,50.2559015],[-3.0946559,50.3034213],[-3.070782,50.3549751],[-3.0633683,50.4085259],[-3.0664235,50.4259108],[-3.0645344,50.4269128],[-2.9329812,50.4465811],[-2.8329864,50.4090267],[-2.8290711,50.4029025],[-2.7840323,50.3591507],[-2.7266837,50.3217422],[-2.6591843,50.292068],[-2.5840555,50.2712297],[-2.5040893,50.2599992],[-2.4222483,50.2587925],[-2.3415607,50.2676541],[-2.2650145,50.2862561],[-2.1954517,50.3139095],[-2.1399775,50.3469086],[-2.031365,50.3358038],[-1.9450441,50.3326209],[-1.8594958,50.340654],[-1.7782424,50.3595725],[-1.7046377,50.3885969],[-1.687329,50.3990443],[-1.6867063,50.3988838],[-1.6026882,50.3889935],[-1.5900745,50.3891462],[-1.5145884,50.3572632],[-1.4376783,50.331519],[-1.3542101,50.3162898],[-1.2676543,50.3122079],[-1.1816033,50.3194427],[-1.0996294,50.3376938],[-1.0251439,50.366203],[-0.8223378,50.4626905],[-0.7811569,50.4607586],[-0.7012468,50.4666715],[-0.6244894,50.4820378],[-0.55361,50.5063127],[-0.5035055,50.5322408],[-0.2831902,50.5564611],[0.1685234,50.4856863],[0.2467988,50.4780724],[0.3259309,50.4797983],[0.4032062,50.4908046],[0.4759716,50.5107134],[0.5417213,50.5388409],[0.5981801,50.5742198],[0.6026587,50.5776021],[0.7260668,50.5968134],[0.8174937,50.6182478],[0.8983202,50.6520158],[0.9390779,50.6494785],[1.0245018,50.6495763],[1.1082014,50.6604283],[1.1407067,50.6691794],[1.1868571,50.681604],[1.2573393,50.7122629],[1.316829,50.7511864],[1.3629272,50.7968242],[1.3937521,50.8473538],[1.3973525,50.8608424],[1.5533894,50.9030753],[1.622215,50.9265127],[1.6832002,50.9574216],[1.7343172,50.9947826],[1.7738516,51.0373611],[1.8004608,51.0837466],[1.8298545,51.1545595],[1.8436576,51.2159868],[1.8436576,51.2159868],[1.8369694,51.2620865],[1.8365305,51.2651119],[1.8630647,51.3055159],[1.8793497,51.3575128],[1.8790579,51.4104943],[1.8621439,51.4624161],[1.8292074,51.5112681],[1.7814786,51.5551527],[1.7207772,51.59236],[1.6494456,51.6214364],[1.5702585,51.6412432],[1.561418,51.642274],[1.6022938,51.6660126],[1.6493186,51.7054065],[1.6841428,51.74941],[1.7055105,51.7964085],[1.7055125,51.7964129],[1.7055894,51.796582],[1.7167294,51.8336888],[1.7239752,51.8886263],[1.712968,51.9433239],[1.7113939,51.946172],[1.709212,51.9782954],[1.6891072,52.0294394],[1.6531812,52.0771971],[1.6330787,52.0941587],[1.6330787,52.0941588],[1.6246845,52.0745165],[1.6217734,52.0696509],[1.6174029,52.0652171],[1.6117345,52.0613789],[1.6049776,52.0582778],[1.5973815,52.0560281],[1.4983211,52.033554],[1.3692905,51.9237142],[1.3633504,51.9196014],[1.3561808,51.916318],[1.3480804,51.9140005],[1.3393864,51.9127455],[1.3304606,51.9126051],[1.3216742,51.9135852],[1.3133929,51.915645],[1.3059613,51.9186988],[1.3052422,51.9190648],[1.3052422,51.9190648],[1.3052379,51.919067],[1.305236,51.919068],[1.3052374,51.9190691],[1.3110339,51.923906],[1.3153368,51.9283219],[1.3182006,51.9331613],[1.3195204,51.9382478],[1.3192476,51.9433961],[1.3176562,51.9477023],[1.2913484,51.9610492],[1.2863842,51.9635677],[1.2862084,51.9636569],[1.2859832,51.9637711],[1.2862084,51.9636569],[1.2863842,51.9635677],[1.2870276,51.9632413],[1.2863842,51.9635677],[1.2862084,51.9636569],[1.2859832,51.9637711],[1.2800484,51.9667821],[1.2800484,51.9667821],[1.2800443,51.9667842],[1.2800443,51.9667842],[1.2800443,51.9667842],[1.1574116,52.0289999],[1.2800443,51.9667842],[1.2800443,51.9667842],[1.2800443,51.9667842],[1.2800484,51.9667821],[1.2534676,51.9684579],[1.2726127,51.9563911],[1.1124486,51.9537551],[1.0674107,51.9530139],[1.1124486,51.9537551],[0.95,51.97],[0.7,52.03],[0.4,52.05],[0.3,51.98],[0.16,51.87],[0.05,51.8],[-0.03,51.72],[-0.026,51.68],[-0.02,51.62],[0,51.5],[-0.1,51.5],[-0.3,51.47],[-0.5,51.45],[-0.7,51.5],[-0.835,51.49],[-0.97,51.48],[-1.1,51.6],[-1.25,51.73],[-1.5,51.7],[-1.8,51.68],[-2,51.6],[-2.15,51.45],[-2.36,51.38],[-2.55,51.45],[-2.72666,51.494165],[-2.7162272,51.4987866],[-2.6989283,51.5163054],[-2.6989283,51.5163054],[-2.6989279,51.5163057],[-2.6989279,51.5163057],[-2.6989278,51.5163058],[-2.7105598,51.5192141],[-2.7188495,51.5207027],[-2.727449,51.52114],[-2.7360173,51.5205084],[-2.7442143,51.5188331],[-2.7516936,51.5161881],[-2.7517152,51.5161805],[-3.0005436,51.4059259],[-3.006837,51.4025065],[-3.0119594,51.3983964],[-3.0157201,51.3937488],[-3.0179795,51.388737],[-3.0291988,51.3496898],[-3.0352224,51.348904],[-3.0431247,51.3467856],[-3.0501977,51.343731],[-3.0561607,51.3398614],[-3.0607774,51.3353304],[-3.0638652,51.3303177],[-3.065302,51.3250222],[-3.0650315,51.3196537],[-3.0494199,51.2455843],[-3.3838928,51.2138824],[-3.7753748,51.2734214],[-3.7844447,51.2741596],[-3.7935594,51.2736839],[-3.9536827,51.2541436],[-3.9536829,51.2541437],[-3.9536843,51.2541443],[-3.9536843,51.2541443],[-3.9944118,51.2728511],[-4.0168024,51.2859246],[-4.0318792,51.2847334],[-4.2931283,51.2864124],[-4.3767667,51.2919539],[-4.4571421,51.3074838],[-4.5312452,51.3324214],[-4.5725276,51.3536273],[-4.5725357,51.3536315],[-4.5725844,51.3536565],[-4.5725997,51.3536644],[-4.5726093,51.3536693],[-4.5889684,51.3409572],[-4.6282684,51.2935444],[-4.6363341,51.2759605],[-4.637733,51.2742795],[-4.6478489,51.2730674],[-4.7247225,51.2537271],[-4.7941828,51.2255008],[-4.8536436,51.1894463],[-4.9009079,51.1469117],[-4.934249,51.0994831],[-4.9524716,51.0489241],[-4.9863737,50.8805546],[-5.0240595,50.8491635],[-5.0420809,50.8469791],[-5.1231247,50.8255616],[-5.1954247,50.7940822],[-5.2315001,50.7701194],[-5.2834123,50.7481062],[-5.3376614,50.7149104],[-5.3817372,50.6761632],[-5.4142716,50.6330911],[-5.4269604,50.603892],[-5.4615826,50.584833],[-5.5136005,50.5417484],[-5.5508996,50.4929081],[-5.554323,50.4843837],[-5.8415033,50.4122474],[-5.9100332,50.3901155],[-5.9710849,50.3604216],[-6.0226365,50.3241572],[-6.0629945,50.2825307],[-6.0908489,50.2369254],[-6.1053139,50.1888526],[-6.1223575,50.0790386],[-6.1226477,50.0276376]],[[1.1437236,51.9506276],[1.2834128,51.9462596],[1.2758455,51.9399324],[1.15,51.95],[1.1437236,51.9506276]]]}}
