{"type":"Feature","properties":{"family":"norse","name":"Wexford, Norse town, 927 – 1027"},"geometry":{"type":"Polygon","coordinates":[[[-6.6356294,51.9724571],[-6.5765221,51.9658755],[-6.4922479,51.9665404],[-6.2838617,51.9803513],[-6.1978313,51.9914014],[-6.117044,52.012747],[-6.0447078,52.043543],[-5.9837113,52.082568],[-5.9365114,52.1282711],[-5.9050341,52.1788304],[-5.890593,52.2322243],[-5.8938294,52.2863105],[-5.9146766,52.3389109],[-5.9235195,52.3542604],[-5.91827,52.410814],[-5.9222632,52.4653024],[-5.9441939,52.5181853],[-5.9832242,52.5672919],[-6.0378006,52.6105994],[-6.10571,52.6463183],[-6.1673896,52.6672693],[-6.1707063,52.6615105],[-6.1639273,52.5466759],[-6.1645417,52.5411339],[-6.1670091,52.5357859],[-6.1712241,52.5308586],[-6.3085723,52.4036843],[-6.3085945,52.4036678],[-6.3047298,52.4080969],[-6.3022708,52.4129112],[-6.3013231,52.4179205],[-6.3019204,52.4229499],[-6.3040421,52.4278237],[-6.3076148,52.4323715],[-6.3125139,52.4364343],[-6.3185685,52.43987],[-6.3211616,52.4410863],[-6.34555,52.4184869],[-6.36,52.4252628],[-6.4034126,52.4362518],[-6.45,52.44],[-6.4965874,52.4362518],[-6.54,52.4252628],[-6.5772792,52.4077817],[-6.6058846,52.385],[-6.6238666,52.3584701],[-6.63,52.33],[-6.6238666,52.3015299],[-6.6058846,52.275],[-6.5772792,52.2522183],[-6.54,52.2347372],[-6.4965874,52.2237482],[-6.45,52.22],[-6.4034126,52.2237482],[-6.36,52.2347372],[-6.3303699,52.2486314],[-6.3198632,52.2400721],[-6.3416501,52.210344],[-6.3332214,52.2133174],[-6.3035972,52.2272048],[-6.2973202,52.2307901],[-6.2922965,52.2350527],[-6.288717,52.2398309],[-6.2867181,52.2449435],[-6.286376,52.2501963],[-6.2877045,52.25539],[-6.2906535,52.2603274],[-6.2950844,52.2647933],[-6.2846322,52.2562728],[-6.2798288,52.2513366],[-6.2768424,52.2458898],[-6.2758078,52.2401793],[-6.2767714,52.2344644],[-6.2796886,52.2290041],[-6.3193279,52.1749833],[-6.3234937,52.1705014],[-6.3234937,52.1705014],[-6.3289735,52.1665877],[-6.335567,52.163385],[-6.3430331,52.1610105],[-6.351099,52.1595508],[-6.3594703,52.1590592],[-6.3990466,52.1590591],[-6.408067,52.1596309],[-6.4167053,52.1613249],[-6.4245946,52.1640693],[-6.4313999,52.1677475],[-6.4368317,52.1722034],[-6.4398841,52.1762265],[-6.5657954,52.1518726],[-6.4552478,52.1732548],[-6.455248,52.1732542],[-6.4619366,52.1555739],[-6.4932086,52.0978216],[-6.5284388,52.0492304],[-6.5784032,52.0058147],[-6.6356294,51.9724571]]]}}
