{"type":"Feature","properties":{"family":"franks","name":"West Francia, 867 – 916"},"geometry":{"type":"Polygon","coordinates":[[[-2.7660353,46.706753],[-2.7622418,46.6797505],[-2.7472442,46.6275606],[-2.7176569,46.578399],[-2.6746619,46.5341676],[-2.6199481,46.4965732],[-2.5556433,46.4670635],[-2.4842322,46.446773],[-2.4084616,46.436481],[-2.3081547,46.4297549],[-2.2295503,46.4298858],[-2.1770144,46.437326],[-2.1557452,46.389645],[-2.1180652,46.3420031],[-2.067397,46.3005095],[-2.0057994,46.2668287],[-1.9466379,46.2461228],[-1.9391424,46.1985129],[-1.9174244,46.149607],[-1.8828098,46.1044119],[-1.8365653,46.0645429],[-1.7925811,46.0331808],[-1.7818159,45.9851875],[-1.7525265,45.9076128],[-1.7192786,45.8486446],[-1.6672795,45.7966818],[-1.6266012,45.7647304],[-1.6296771,45.7501118],[-1.6335205,45.7012173],[-1.6246464,45.6526446],[-1.6033791,45.6059916],[-1.5704461,45.5627889],[-1.5269506,45.5244507],[-1.4960754,45.5055512],[-1.6382339,44.6601003],[-1.6398276,44.60873],[-1.6336497,44.5829005],[-1.6361694,44.5710368],[-1.6546879,44.3359194],[-1.8274797,43.6908037],[-1.8778042,43.641527],[-1.9372856,43.6203477],[-1.9959756,43.5875636],[-2.0444848,43.5469961],[-2.0808996,43.5002653],[-2.1037996,43.4492331],[-2.1123104,43.3959275],[-2.1061336,43.3424614],[-2.0893421,43.3004346],[-1.9602196,43.3429584],[-1.9170192,43.3210069],[-1.9242192,43.3429584],[-1.7946179,43.3851728],[-1.7412605,43.3912605],[-1.7,43.35],[-1.6,43.25],[-1.35,43.1],[-1,43],[-0.7,42.9],[-0.5,42.85],[-0.3,42.8],[0.1,42.7],[0.225,42.575],[0.35,42.45],[0.6,42.25],[0.9,42.1],[1.2,42],[1.5,41.95],[1.8,41.75],[1.95,41.5],[2.1170048,41.3035238],[2.0875828,41.288245],[2.0610206,41.2744513],[1.7663432,41.2248838],[1.8007057,41.1767948],[1.8396955,41.1327898],[1.8892691,41.0953489],[1.9475195,41.0658993],[2.0122183,41.0455621],[2.0809001,41.0351103],[2.1509535,41.034941],[2.2197169,41.0450605],[2.2845761,41.0650843],[2.3430597,41.0942513],[2.3929311,41.1314512],[2.5248865,41.2509635],[3.0961768,41.4714963],[3.1597796,41.5024996],[3.3791222,41.635439],[3.4319978,41.6747406],[3.4729961,41.7213214],[3.5562458,41.8409626],[3.5830404,41.8910293],[3.5959691,41.9440715],[3.5944809,41.9979759],[3.5785983,42.0505891],[3.5620452,42.0875729],[3.5907075,42.1224344],[3.6450409,42.2050104],[3.6697159,42.2539545],[3.6812164,42.3055093],[3.6790785,42.3577447],[3.663348,42.4086999],[3.634584,42.4564572],[3.5938423,42.499215],[3.5426397,42.5353565],[3.5032181,42.5539423],[3.4955897,42.5810127],[3.4753928,42.629321],[3.4432755,42.6740041],[3.4071285,42.7072518],[3.4082993,42.8998152],[3.4372072,42.9647386],[3.4928169,43.0071775],[3.5552196,43.0125602],[3.6230073,43.0231655],[3.6869156,43.0428263],[3.744709,43.0708563],[4.0098604,43.2267008],[4.0290196,43.218686],[4.0976455,43.2017958],[4.1694396,43.194929],[4.3324001,43.1909043],[4.3374466,43.1864323],[4.386828,43.1502329],[4.4446113,43.1214389],[4.508738,43.1010705],[4.5769332,43.0898482],[4.6467834,43.0881684],[4.7158191,43.0960902],[4.7815988,43.1133334],[4.8417916,43.1392878],[4.8942575,43.1730341],[4.9371215,43.2133755],[4.9688403,43.2588789],[4.9882583,43.3079241],[4.9946517,43.3587609],[4.994332,43.4263941],[4.8690487,43.420633],[4.8690487,43.3649099],[4.901449,43.3665985],[4.8546485,43.3412698],[4.7574476,43.4223215],[4.7430474,43.5253248],[4.696247,43.5793592],[4.7430474,43.4223215],[4.8222482,43.3665985],[4.7898479,43.344647],[4.6605722,43.3545693],[4.6605722,43.3545693],[4.6237676,43.3573941],[4.6,43.5],[4.62,43.7],[4.7,43.95],[4.69,44.075],[4.68,44.2],[4.75,44.55],[4.79,44.725],[4.83,44.9],[4.85,45.2],[4.82,45.5],[4.83,45.75],[4.83,46],[4.85,46.4],[4.88,46.78],[5.1,46.95],[5.10625,46.9552083],[5.4,47.2],[5.6,47.45],[5.45,47.7],[5.2,48],[5.1,48.3],[4.95,48.6],[4.925,48.75],[4.9,48.9],[4.85,49.2],[4.7,49.5],[4.3,49.7],[4.1,49.775],[3.9,49.85],[3.5,50],[3.25,50.18],[3.3,50.35],[3.38,50.55],[3.45,50.7],[3.6,50.85],[3.72,51.05],[3.75,51.2],[3.6153864,51.3974334],[3.6153864,51.3974334],[3.6153864,51.3974334],[3.6420484,51.3907946],[3.6719218,51.3833562],[3.6551042,51.4080525],[3.6510259,51.4126914],[3.645574,51.4167428],[3.6389583,51.4200506],[3.6319748,51.4223119],[3.6319081,51.4223336],[3.7514216,51.3926387],[3.6730632,51.4284127],[3.5974968,51.4309409],[3.5722689,51.4372252],[3.5767192,51.4392026],[3.5824388,51.4429578],[3.5869047,51.4473253],[3.5899521,51.4521442],[3.5899521,51.4521442],[3.5914682,51.457237],[3.591456,51.4581261],[3.5483883,51.459569],[3.4932698,51.5018265],[3.4802304,51.5143033],[3.4697384,51.5243425],[3.4643449,51.5218875],[3.4584597,51.5178509],[3.4539973,51.5131599],[3.4511399,51.5080062],[3.4500034,51.5026005],[3.4506338,51.4971634],[3.4530048,51.4919171],[3.4568632,51.4872634],[3.4569807,51.4871217],[3.4569339,51.4871616],[3.4106794,51.5313875],[3.4068427,51.5359526],[3.4044723,51.5408872],[3.4036553,51.5460111],[3.404422,51.5511374],[3.4067449,51.5560788],[3.4105397,51.5606548],[3.4105397,51.5606548],[3.4156681,51.5646983],[3.421943,51.5680614],[3.5335692,51.617054],[3.5401754,51.6194363],[3.5473539,51.621063],[3.5548822,51.6218836],[3.8466547,51.6370921],[3.8550008,51.6370179],[3.8631709,51.6359554],[3.8708634,51.6339438],[3.8777942,51.6310575],[3.8837074,51.6274029],[3.9012897,51.6142008],[3.8893431,51.6255038],[3.8005235,51.6701427],[3.7103831,51.6551324],[3.7023777,51.6542827],[3.694256,51.6543701],[3.6863008,51.6553917],[3.6787894,51.6573118],[3.6719835,51.6600635],[3.6661204,51.663551],[3.6614046,51.6676526],[3.658001,51.6722254],[3.6560286,51.6771099],[3.6451883,51.7210085],[3.6447409,51.7264215],[3.646053,51.7317795],[3.6490722,51.7368658],[3.6536768,51.7414746],[3.6596808,51.7454193],[3.6657346,51.7480576],[3.6657346,51.7480576],[3.6138398,51.7610345],[3.5273031,51.7707834],[3.4393522,51.7694884],[3.4393522,51.7694884],[3.3536404,51.757203],[3.2737234,51.7344369],[3.2029049,51.7021338],[3.1440955,51.6616304],[3.0996901,51.6145992],[3.096132,51.6080967],[3.0200019,51.5921378],[3.0199969,51.5921367],[3.0198624,51.5921085],[3.0198542,51.5921068],[2.9887885,51.5855946],[2.8943612,51.5573939],[2.3509527,51.3387814],[1.8369689,51.2620902],[1.8436576,51.2159868],[1.8298545,51.1545595],[1.8004608,51.0837466],[1.7738516,51.0373611],[1.7343172,50.9947826],[1.6832002,50.9574216],[1.622215,50.9265127],[1.5533894,50.9030753],[1.3973525,50.8608424],[1.3937521,50.8473538],[1.3629272,50.7968242],[1.316829,50.7511864],[1.2573393,50.7122629],[1.1868571,50.681604],[1.1407086,50.6691799],[1.1500989,50.6172288],[1.1745515,50.5509699],[1.1430311,50.4706149],[1.1306305,50.4131049],[1.1337316,50.388137],[1.1280852,50.3656177],[1.1226101,50.3066488],[1.1055587,50.2824011],[1.0032271,50.2186825],[0.4728083,50.1154332],[0.3859846,50.0910947],[-0.0257018,49.9367119],[-0.0843237,49.9099246],[-0.1348993,49.8770492],[-0.175939,49.8390654],[-0.2062459,49.7971026],[-0.3129462,49.6076369],[-0.3144488,49.6037991],[-0.35865,49.6099733],[-0.8148705,49.6473779],[-0.8146174,49.601214],[-0.8238386,49.5687129],[-0.7719921,49.5326531],[-0.7307107,49.4902593],[-0.7022905,49.4436266],[-0.687936,49.3952327],[-0.9357408,49.4181621],[-0.9389126,49.4183677],[-1.0685837,49.4234357],[-1.0772994,49.4231728],[-1.0857361,49.4217283],[-1.0935195,49.4191662],[-1.1003047,49.4156002],[-1.1057909,49.4111885],[-1.1369663,49.3798322],[-1.1369663,49.3798322],[-1.1369663,49.3798322],[-1.1347724,49.3820378],[-1.129678,49.3861945],[-1.1234294,49.3896199],[-1.1162694,49.3921806],[-1.1084764,49.3937771],[-1.1003536,49.3943472],[-1.0922171,49.3938689],[-1.0843834,49.3923606],[-1.0774903,49.3899953],[-1.1214112,49.3458506],[-1.1,49.3673709],[-1.1,49.25],[-1.05,49.05],[-0.95,48.8],[-1,48.6],[-1.25,48.5],[-1.05,48.35],[-1.05,48.05],[-1.2,47.8],[-1.05,47.6],[-1,47.4],[-1.25,47.2],[-1.6,47.05],[-2,46.95],[-2.1177242,46.9058534],[-2.1294213,46.8940364],[-2.1273401,46.8797188],[-2.1278334,46.8797746],[-2.1348748,46.8815544],[-2.1412965,46.8842131],[-2.1468663,46.8876544],[-2.1492838,46.8898489],[-2.152996,46.8892458],[-2.1609343,46.8890727],[-2.1685012,46.889958],[-2.1578529,46.8170703],[-2.1564584,46.8121671],[-2.1537666,46.8075239],[-2.1498702,46.8032997],[-2.1449028,46.7996394],[-1.940318,46.6739457],[-1.9341218,46.667048],[-1.940625,46.664846],[-2.0148259,46.645424],[-2.0931683,46.6365858],[-2.1724988,46.6386872],[-2.2496258,46.6516438],[-2.2675063,46.6574486],[-2.2783092,46.6590407],[-2.3334968,46.6753302],[-2.2736704,46.6713212],[-2.2657749,46.6713347],[-2.2580424,46.6724295],[-2.2507843,46.6745614],[-2.2442929,46.6776446],[-2.2388298,46.681555],[-2.2346153,46.686135],[-2.2318197,46.6912001],[-2.2305559,46.6965461],[-2.2308754,46.7019575],[-2.2327659,46.7072161],[-2.2361513,46.7121097],[-2.2408956,46.716441],[-2.2468076,46.7200349],[-2.3152222,46.75382],[-2.3223131,46.7566015],[-2.3300899,46.7583203],[-2.3382175,46.7589024],[-2.3742359,46.7589023],[-2.3823565,46.758321],[-2.390127,46.756605],[-2.397213,46.7538281],[-2.4033096,46.7501097],[-2.4081547,46.74561],[-2.4115403,46.7405224],[-2.4133212,46.7350658],[-2.4134212,46.7294749],[-2.4134212,46.7294749],[-2.410669,46.7089322],[-2.4119451,46.7095317],[-2.4656639,46.7470697],[-2.602705,46.8632095],[-2.6456019,46.9078147],[-2.6534218,46.9210384],[-2.665978,46.9133591],[-2.7143147,46.8682433],[-2.7479252,46.8172761],[-2.7654,46.7626612],[-2.7660353,46.706753]],[[3.6719218,51.3833562],[3.6153863,51.3974334],[3.6153863,51.3974335],[3.6719218,51.3833562]]]}}
