{"type":"Feature","properties":{"family":"franks","name":"West Francia, 843 – 854"},"geometry":{"type":"Polygon","coordinates":[[[-3.0876784,49.4313738],[-3.0783992,49.3777685],[-3.0529584,49.3264231],[-3.0124159,49.2793817],[-2.9584201,49.2385115],[-2.8931383,49.2054313],[-2.8191683,49.1814483],[-2.7394374,49.167509],[-2.6570901,49.1641634],[-2.6449516,49.1644613],[-2.6314363,49.1125593],[-2.6010253,49.0614967],[-2.5555665,49.0154906],[-2.4969578,48.976424],[-2.4458729,48.9539301],[-2.4458639,48.9539261],[-2.4454651,48.9540133],[-2.4452035,48.9540705],[-2.4092917,48.9619224],[-2.3343121,48.9686604],[-2.2587233,48.9662087],[-2.1851297,48.9546517],[-2.1239414,48.9367019],[-2.0510053,48.9525807],[-1.9735499,48.9591639],[-1.8956004,48.9559523],[-1.820018,48.9430638],[-1.7495729,48.9209716],[-1.6868388,48.8904854],[-1.6422034,48.8585264],[-1.6422012,48.8585249],[-1.6422012,48.8585249],[-1.643597,48.8559269],[-1.6447519,48.8507892],[-1.6443888,48.8456006],[-1.6425217,48.8405534],[-1.6392201,48.8358347],[-1.6346068,48.8316195],[-1.6068969,48.8108367],[-1.594003,48.7430721],[-1.5921656,48.7377855],[-1.5887628,48.7328476],[-1.5839322,48.7284577],[-1.552702,48.7053244],[-1.5540914,48.659278],[-1.5542433,48.6584082],[-1.7859546,48.6440317],[-1.8153179,48.6547478],[-1.8044899,48.7091091],[-1.8042126,48.7142263],[-1.8054061,48.7192863],[-1.8080278,48.7241068],[-1.8119835,48.728514],[-1.817131,48.7323488],[-1.8232846,48.7354729],[-1.8302226,48.7377736],[-1.8376946,48.7391679],[-1.845431,48.7396054],[-1.8531525,48.7390703],[-1.9540034,48.7255544],[-1.9617202,48.7239789],[-1.9688153,48.7214327],[-1.9750113,48.7180152],[-1.9892699,48.7084158],[-1.9892856,48.7084026],[-1.989245,48.7084298],[-1.9890581,48.7085336],[-1.9890581,48.7085336],[-1.9889363,48.7086013],[-1.9832981,48.7117318],[-1.9765111,48.7142313],[-1.9691294,48.7158377],[-1.9614201,48.7164931],[-1.9536623,48.7161736],[-1.9461367,48.7148908],[-1.9391156,48.7126912],[-1.9328531,48.7096543],[-1.9275755,48.7058901],[-1.9239631,48.7020545],[-1.9458195,48.6991255],[-1.9600784,48.6895296],[-1.9756532,48.5960807],[-2.0286203,48.6434025],[-1.9756532,48.5960807],[-1.9530195,48.5758594],[-1.977138,48.587172],[-1.9776652,48.584009],[-1.9751108,48.5807142],[-1.9666902,48.5698528],[-1.96825,48.5696823],[-1.949122,48.5332266],[-1.9477931,48.5293421],[-1.9818198,48.513382],[-1.9876048,48.5243713],[-2.0538205,48.6501568],[-1.9876048,48.5243713],[-2.05,48.15],[-2.05,47.8],[-2.1,47.62],[-2.35,47.5],[-2.4430533,47.43021],[-2.3966058,47.4247635],[-2.3994896,47.4226014],[-2.3997466,47.4224087],[-2.3997466,47.4224087],[-2.4794672,47.4028996],[-2.5578256,47.3837238],[-2.5362451,47.3603162],[-2.5362451,47.3603162],[-2.5211926,47.3439893],[-2.5152507,47.3375444],[-2.5198018,47.3357445],[-2.5275465,47.3339886],[-2.5356567,47.3333401],[-2.5437917,47.3338264],[-2.5516095,47.3354271],[-2.5587816,47.3380747],[-2.5650064,47.3416581],[-2.5699284,47.345945],[-2.5699605,47.345973],[-2.5699605,47.345973],[-2.569974,47.3459848],[-2.5511776,47.3256196],[-2.5556638,47.3249588],[-2.5628328,47.3228418],[-2.5692514,47.3198153],[-2.5746716,47.3159963],[-2.5788842,47.3115323],[-2.5817268,47.3065959],[-2.5830898,47.3013779],[-2.5829211,47.2960796],[-2.5812276,47.2909058],[-2.5780752,47.286056],[-2.5735858,47.2817175],[-2.567933,47.2780577],[-2.5613351,47.2752176],[-2.4677663,47.2431488],[-2.4603443,47.2412056],[-2.4525013,47.240304],[-2.4445513,47.24048],[-2.4368122,47.2417265],[-2.3753511,47.2561452],[-2.2977662,47.2239485],[-2.2906628,47.2216195],[-2.2830224,47.2202886],[-2.2751458,47.2200084],[-2.2673431,47.2207898],[-2.2599214,47.2226021],[-2.2531731,47.2253739],[-2.2022539,47.2512776],[-2.2037537,47.2074259],[-2.2415271,47.1792139],[-2.3021451,47.1422801],[-2.3724953,47.1144944],[-2.4496428,47.097011],[-2.5303819,47.0905555],[-2.6113643,47.0953955],[-2.6892322,47.1113306],[-2.760751,47.1376998],[-2.7674193,47.1415327],[-2.811365,47.1118482],[-2.8201497,47.1079321],[-2.8202525,47.1078863],[-2.8203743,47.107832],[-2.7876403,47.0866992],[-2.7218166,47.0584053],[-2.6886939,47.0470761],[-2.6893663,47.009841],[-2.6749177,46.9574045],[-2.6534191,46.9210519],[-2.6659776,46.9133643],[-2.7143146,46.868247],[-2.7479252,46.8172781],[-2.7654,46.7626613],[-2.7660351,46.7067513],[-2.7622416,46.6797487],[-2.7472437,46.6275573],[-2.7176562,46.5783943],[-2.6746609,46.5341617],[-2.6199467,46.4965664],[-2.5556418,46.4670561],[-2.4842305,46.4467653],[-2.4084599,46.4364733],[-2.3081529,46.4297474],[-2.2295482,46.4298786],[-2.1832922,46.4364312],[-2.1578572,46.3931667],[-2.1209174,46.3449174],[-2.0707315,46.3027645],[-2.009362,46.2684172],[-1.9466007,46.2458864],[-1.9391418,46.1985102],[-1.9174229,46.1496028],[-1.8828073,46.1044065],[-1.8365616,46.0645366],[-1.7925802,46.0331767],[-1.7818154,45.985186],[-1.7525259,45.9076111],[-1.7192768,45.8486409],[-1.6672762,45.7966766],[-1.6266023,45.7647286],[-1.6296771,45.7501155],[-1.6335207,45.7012192],[-1.6246463,45.6526448],[-1.6033783,45.60599],[-1.5704443,45.5627858],[-1.5269475,45.5244463],[-1.5214773,45.5210994],[-1.5224958,45.5171901],[-1.6391522,44.6539701],[-1.6386307,44.5993687],[-1.6336768,44.582781],[-1.6361696,44.5710437],[-1.6546881,44.3359276],[-1.8274804,43.6908138],[-1.8778062,43.6415362],[-1.937294,43.6203542],[-1.9959828,43.5875696],[-2.0444907,43.5470015],[-2.0809039,43.5002698],[-2.0965346,43.4654335],[-2.0965347,43.4654332],[-2.1038021,43.4492364],[-2.1123111,43.3959296],[-2.1061324,43.3424621],[-2.0997995,43.3266129],[-2.0496654,43.3431218],[-1.9754896,43.3675474],[-1.9682225,43.3693029],[-1.9606142,43.3699363],[-1.9529891,43.3694205],[-1.9456722,43.3677776],[-1.9422398,43.3663938],[-1.9394201,43.3675701],[-1.809777,43.4098016],[-1.8003903,43.4118244],[-1.7470101,43.4179147],[-1.7468659,43.4179214],[-1.7470119,43.4179048],[-1.7543403,43.4164967],[-1.7611228,43.4140365],[-1.7670767,43.4106268],[-1.7719536,43.4064099],[-1.7755505,43.4015616],[-1.7777176,43.3962843],[-1.778365,43.3907978],[-1.7777565,43.3870966],[-1.7777419,43.3870983],[-1.7777419,43.3870983],[-1.7777412,43.3870983],[-1.7727335,43.3876697],[-1.7777412,43.3870983],[-1.7777419,43.3870983],[-1.7777419,43.3870983],[-1.7777565,43.3870966],[-1.7777566,43.3870966],[-1.7946179,43.3851728],[-1.7777566,43.3870966],[-1.7777565,43.3870966],[-1.7777419,43.3870983],[-1.7777419,43.3870983],[-1.7777412,43.3870983],[-1.7727335,43.3876697],[-1.7412605,43.3912605],[-1.7000677,43.3959603],[-1.7000677,43.3959603],[-1.7000672,43.3959603],[-1.7000672,43.3959603],[-1.6614166,43.40037],[-1.7000672,43.3959603],[-1.7000672,43.3959603],[-1.7000677,43.3959603],[-1.7000677,43.3959603],[-1.7412605,43.3912605],[-1.7412605,43.3912605],[-1.7412605,43.3912605],[-1.7412605,43.3912605],[-1.7,43.35],[-1.6,43.25],[-1.35,43.1],[-1,43],[-0.7,42.9],[-0.5,42.85],[-0.3,42.8],[0.1,42.7],[0.225,42.575],[0.35,42.45],[0.6,42.25],[0.9,42.1],[1.2,42],[1.5,41.95],[1.8,41.75],[1.95,41.5],[2.1170048,41.3035238],[2.0875836,41.2882454],[2.0912202,41.2847774],[2.0967161,41.2812811],[2.1030284,41.2786804],[2.109903,41.2770801],[2.1170633,41.2765445],[2.1242213,41.2770952],[2.1310889,41.27871],[2.1372352,41.2812597],[2.1372352,41.2812597],[2.1372372,41.2812606],[2.0814346,41.2522863],[2.075352,41.2497395],[2.0687306,41.2481226],[1.7839729,41.2002249],[1.8007085,41.1768042],[1.8396995,41.132798],[1.8892744,41.0953557],[1.947526,41.0659046],[2.0122257,41.0455657],[2.0809082,41.0351123],[2.1277953,41.0349979],[2.1277993,41.0349979],[2.150962,41.0349414],[2.2197254,41.0450593],[2.2845841,41.0650818],[2.3430669,41.0942475],[2.3929372,41.1314464],[2.524896,41.2509624],[3.0961904,41.4714979],[3.1597899,41.5024997],[3.3791318,41.6354392],[3.4320035,41.6747379],[3.4729985,41.7213154],[3.5562479,41.8409563],[3.5830412,41.891021],[3.5959689,41.9440615],[3.5944803,41.9979646],[3.5785976,42.0505768],[3.5620434,42.0875627],[3.5907095,42.1224288],[3.6450426,42.2050046],[3.669717,42.2539481],[3.6812164,42.3055027],[3.6790772,42.357738],[3.6633451,42.4086934],[3.6345792,42.4564511],[3.5938356,42.4992094],[3.5426311,42.5353514],[3.5032169,42.5539336],[3.4955895,42.5810005],[3.475392,42.6293104],[3.4432734,42.6739953],[3.4071279,42.7072415],[3.4082988,42.8998066],[3.4372092,42.9647359],[3.4928269,43.007181],[3.5552331,43.0125642],[3.6230196,43.0231693],[3.6869263,43.0428297],[3.7447179,43.070859],[4.0098708,43.2267054],[4.0290271,43.2186918],[4.0976556,43.2018011],[4.1694521,43.1949341],[4.3324062,43.1909099],[4.3374483,43.1864418],[4.38683,43.1502421],[4.4446135,43.1214477],[4.5087405,43.1010785],[4.5769357,43.089855],[4.6467858,43.0881739],[4.6469523,43.088193],[4.647956,43.0883082],[4.7158213,43.0960942],[4.7816007,43.1133357],[4.8417931,43.1392883],[4.8942585,43.1730327],[4.9371221,43.2133723],[4.9688405,43.2588739],[4.9882581,43.3079174],[4.9921492,43.3388584],[4.9921514,43.3388758],[4.9721549,43.3705023],[4.969821,43.3753695],[4.9688037,43.3804717],[4.9691404,43.3856226],[4.9708192,43.3906337],[4.973779,43.395322],[4.9763844,43.3985845],[4.906147,43.3953409],[4.9061457,43.3933529],[4.9061743,43.3933524],[4.9133174,43.3921598],[4.9199964,43.3899686],[4.9259503,43.3868644],[4.9309464,43.3829686],[4.9347896,43.3784334],[4.93733,43.3734362],[4.9384687,43.3681722],[4.9381615,43.3628469],[4.9364209,43.3576684],[4.9333152,43.3528388],[4.9289659,43.3485466],[4.9235429,43.3449592],[4.8767497,43.3196402],[4.8708438,43.3170258],[4.8643756,43.3152541],[4.8575695,43.3143866],[4.850662,43.3144535],[4.843893,43.3154523],[4.8374975,43.3173485],[4.8316976,43.3200761],[4.8266949,43.3235405],[4.820583,43.3286442],[4.8150896,43.3249218],[4.808746,43.3214639],[4.8015397,43.3190651],[4.7937998,43.3178349],[4.7858795,43.3178295],[4.6198739,43.3305715],[4.6198664,43.3305726],[4.6198018,43.3305776],[4.587987,43.3330193],[4.6198018,43.3305776],[4.6198664,43.3305726],[4.6198946,43.3305705],[4.6272795,43.3305405],[4.6345252,43.3315757],[4.6413445,43.333635],[4.6474672,43.3366369],[4.6526503,43.3404622],[4.6566883,43.3449594],[4.6594207,43.3499502],[4.6605724,43.3545692],[4.6605722,43.3545693],[4.6605576,43.3545704],[4.6237676,43.3573941],[4.5918459,43.3598442],[4.6237676,43.3573941],[4.6,43.5],[4.62,43.7],[4.7,43.95],[4.69,44.075],[4.68,44.2],[4.75,44.55],[4.79,44.725],[4.83,44.9],[4.85,45.2],[4.82,45.5],[4.83,45.75],[4.83,46],[4.85,46.4],[4.88,46.78],[5.1,46.95],[5.10625,46.9552083],[5.4,47.2],[5.6,47.45],[5.45,47.7],[5.2,48],[5.1,48.3],[4.95,48.6],[4.925,48.75],[4.9,48.9],[4.85,49.2],[4.7,49.5],[4.3,49.7],[4.1,49.775],[3.9,49.85],[3.5,50],[3.25,50.18],[3.3,50.35],[3.38,50.55],[3.45,50.7],[3.6,50.85],[3.72,51.05],[3.75,51.2],[3.6153863,51.3974335],[3.6351867,51.3925032],[3.6430478,51.3905458],[3.64968,51.3888943],[3.6642005,51.3852788],[3.6657471,51.3848937],[3.6719218,51.3833562],[3.6719218,51.3833562],[3.6719218,51.3833562],[3.6719218,51.3833562],[3.6719228,51.3833559],[3.6551046,51.4080532],[3.6510266,51.4126918],[3.6455751,51.4167429],[3.6389598,51.4200504],[3.6318657,51.4223475],[3.7514464,51.3926343],[3.6731137,51.4283973],[3.5975609,51.4309251],[3.5722675,51.4372258],[3.5767178,51.439203],[3.5824377,51.4429583],[3.586904,51.4473258],[3.5899517,51.4521447],[3.5914682,51.4572374],[3.5914559,51.4581261],[3.5483883,51.459569],[3.5370354,51.4599494],[3.5483883,51.459569],[3.4932698,51.5018265],[3.4802304,51.5143033],[3.4704102,51.5236997],[3.4697392,51.5243418],[3.4643457,51.5218867],[3.4584603,51.51785],[3.4539977,51.513159],[3.45114,51.5080054],[3.4500034,51.5025997],[3.4506336,51.4971627],[3.4530044,51.4919165],[3.4568614,51.4872643],[3.4107237,51.531379],[3.4068821,51.5359495],[3.404507,51.5408899],[3.4036859,51.5460198],[3.4044492,51.5511517],[3.4067695,51.556098],[3.4105624,51.5606778],[3.4156897,51.5647236],[3.421964,51.5680873],[3.5335904,51.6170792],[3.5401833,51.6194568],[3.5473468,51.6210801],[3.5548595,51.6218988],[3.8466302,51.6371065],[3.854968,51.6370321],[3.8631313,51.6359694],[3.8708186,51.6339576],[3.8777462,51.631071],[3.8836585,51.6274161],[3.9014614,51.6140485],[3.9012118,51.6142847],[3.9012118,51.6142847],[3.8894307,51.6254313],[3.8893432,51.6255141],[3.800565,51.6701321],[3.7103885,51.6551156],[3.702389,51.6542673],[3.6942726,51.6543569],[3.6863223,51.6553811],[3.678815,51.6573044],[3.6720125,51.6600597],[3.6661518,51.6635509],[3.6614377,51.6676565],[3.6580347,51.6722331],[3.6560619,51.6771212],[3.645222,51.72102],[3.6447731,51.726435],[3.6460818,51.7317945],[3.6490957,51.7368818],[3.6536935,51.7414911],[3.6596894,51.7454359],[3.6657143,51.7480647],[3.6138528,51.7610325],[3.5273163,51.7707801],[3.4393651,51.7694839],[3.3536524,51.7571974],[3.2737339,51.7344304],[3.2029137,51.7021265],[3.1441021,51.6616226],[3.0996944,51.6145912],[3.0925985,51.6016223],[3.0319601,51.5931309],[3.0194551,51.5906502],[2.9606565,51.5789859],[2.8943741,51.557389],[2.3509684,51.338779],[1.8369694,51.2620865],[1.8436576,51.2159868],[1.8436576,51.2159868],[1.8298545,51.1545595],[1.8004608,51.0837466],[1.7738516,51.0373611],[1.7343172,50.9947826],[1.6832002,50.9574216],[1.622215,50.9265127],[1.5533894,50.9030753],[1.3973525,50.8608424],[1.3937521,50.8473538],[1.3629272,50.7968242],[1.316829,50.7511864],[1.2573393,50.7122629],[1.1868571,50.681604],[1.1407067,50.6691794],[1.1500987,50.6172178],[1.1745514,50.5509586],[1.1430313,50.4706044],[1.1306307,50.4130951],[1.1337316,50.3881256],[1.1280853,50.3656069],[1.1226103,50.3066394],[1.1055621,50.2823962],[1.0032379,50.2186826],[0.472823,50.115435],[0.3859972,50.0910961],[-0.0256904,49.9367137],[-0.0843152,49.9099251],[-0.1348935,49.8770481],[-0.1759355,49.8390624],[-0.2062441,49.7970975],[-0.3129449,49.6076314],[-0.3144375,49.6038194],[-0.3524477,49.609421],[-0.8154806,49.6523936],[-0.8296122,49.7001257],[-0.8614898,49.771156],[-0.8897027,49.8174311],[-0.930652,49.8595684],[-0.9829649,49.8961241],[-1.0448671,49.9258427],[-1.1142432,49.9477016],[-1.1887094,49.9609475],[-1.3370878,49.977918],[-1.4242508,49.9818506],[-1.5107581,49.9740145],[-1.5927943,49.9547558],[-1.6339716,49.9417866],[-1.7974916,49.9787428],[-1.876737,49.9911522],[-1.9582213,49.993409],[-2.0388131,49.9854271],[-2.1154168,49.9675133],[-2.1850976,49.9403556],[-2.2451979,49.9049954],[-2.2934411,49.8627857],[-2.3280186,49.8153376],[-2.347655,49.7644574],[-2.3495369,49.7562282],[-2.4011126,49.7681542],[-2.4850344,49.7757714],[-2.569591,49.7722288],[-2.6512437,49.7576752],[-2.7265814,49.7327196],[-2.8998257,49.6597791],[-2.9646285,49.6259298],[-3.0176311,49.584374],[-3.0567238,49.536791],[-3.0803733,49.4850986],[-3.0876784,49.4313738]],[[-2.5578256,47.3837238],[-2.4794672,47.4028996],[-2.5362451,47.3603162],[-2.5578256,47.3837238]]]}}
