{"type":"Feature","properties":{"family":"franks","name":"West Francia, 911 – 916"},"geometry":{"type":"Polygon","coordinates":[[[-2.7660216,46.7066563],[-2.7622271,46.6796545],[-2.7472366,46.6274971],[-2.7176653,46.5783689],[-2.674694,46.5341693],[-2.6200096,46.4966027],[-2.5557377,46.4671149],[-2.4843598,46.4468388],[-2.40862,46.4365527],[-2.3083163,46.4298256],[-2.2297157,46.429954],[-2.1770626,46.4374067],[-2.1557294,46.3895902],[-2.1180543,46.341968],[-2.0673919,46.3004956],[-2.0058005,46.2668363],[-1.946615,46.246138],[-1.939128,46.1984905],[-1.9174276,46.1495972],[-1.8828306,46.1044153],[-1.836603,46.0645595],[-1.792553,46.033151],[-1.781778,45.9851131],[-1.752487,45.9075412],[-1.7192585,45.8486097],[-1.6672913,45.7966815],[-1.6265369,45.764672],[-1.6296242,45.7499967],[-1.6334657,45.7011216],[-1.6245971,45.6525717],[-1.6033425,45.6059431],[-1.5704288,45.5627651],[-1.5269581,45.5244501],[-1.521395,45.5210467],[-1.5224358,45.51705],[-1.639051,44.6538471],[-1.6385338,44.5992596],[-1.6335729,44.5826452],[-1.6360681,44.5708943],[-1.6545765,44.3357732],[-1.8273306,43.6906757],[-1.8774142,43.6416315],[-1.9403474,43.6187745],[-1.9999671,43.5845587],[-2.0486954,43.5422705],[-2.084509,43.4936885],[-2.1059393,43.4408513],[-2.1121291,43.3859701],[-2.1028623,43.3313351],[-2.0885744,43.3006874],[-1.9602196,43.3429584],[-1.9170192,43.3210069],[-1.9242192,43.3429584],[-1.7946179,43.3851728],[-1.7777566,43.3870966],[-1.7777565,43.3870966],[-1.7777419,43.3870983],[-1.7777419,43.3870983],[-1.7777412,43.3870983],[-1.7727335,43.3876697],[-1.7412605,43.3912605],[-1.7000677,43.3959603],[-1.7000677,43.3959603],[-1.7000672,43.3959603],[-1.7000672,43.3959603],[-1.6614166,43.40037],[-1.7000672,43.3959603],[-1.7000672,43.3959603],[-1.7000677,43.3959603],[-1.7000677,43.3959603],[-1.7412605,43.3912605],[-1.7412605,43.3912605],[-1.7412605,43.3912605],[-1.7412605,43.3912605],[-1.7,43.35],[-1.6,43.25],[-1.35,43.1],[-1,43],[-0.7,42.9],[-0.5,42.85],[-0.3,42.8],[0.1,42.7],[0.225,42.575],[0.35,42.45],[0.6,42.25],[0.9,42.1],[1.2,42],[1.5,41.95],[1.8,41.75],[1.95,41.5],[2.1170048,41.3035238],[2.1186677,41.3043874],[2.1365226,41.3136594],[2.1415129,41.3162509],[2.1488838,41.3200785],[2.152465,41.3219383],[2.1618099,41.3267911],[2.1618216,41.3267972],[2.1618099,41.3267911],[2.152465,41.3219383],[2.1488838,41.3200785],[2.1415129,41.3162509],[2.1365226,41.3136594],[2.1186677,41.3043874],[2.1170048,41.3035238],[2.1170048,41.3035238],[2.1170048,41.3035238],[2.0875836,41.2882454],[2.0875836,41.2882454],[2.0875828,41.288245],[2.0875734,41.2882401],[2.0875671,41.2882368],[2.0875666,41.2882366],[2.0875666,41.2882366],[2.0610206,41.2744513],[1.7664355,41.2248994],[1.8009102,41.176654],[1.8398666,41.1326801],[1.8893933,41.0952702],[1.9475865,41.0658496],[2.0122215,41.0455373],[2.080837,41.035105],[2.1508261,41.0349489],[2.2195312,41.0450749],[2.284342,41.0650987],[2.3427904,41.0942597],[2.3926424,41.1314489],[2.5245899,41.2509458],[3.0958802,41.4714601],[3.1594918,41.5024653],[3.3788389,41.6353983],[3.4317397,41.6747169],[3.4727627,41.7213234],[3.5560186,41.8409635],[3.5828335,41.8910619],[3.595776,41.944138],[3.5942936,41.9980749],[3.5784082,42.0507155],[3.5618852,42.0876374],[3.5904936,42.1224352],[3.6448313,42.2050106],[3.6695164,42.2539618],[3.6810327,42.3055242],[3.6789156,42.3577669],[3.6632098,42.4087286],[3.6344734,42.456491],[3.5937614,42.4992518],[3.5425897,42.5353939],[3.503049,42.5540442],[3.4954166,42.5811293],[3.4752282,42.6294249],[3.4431296,42.6740932],[3.4137236,42.7011508],[3.4093443,42.9025661],[3.4370263,42.9647262],[3.4926206,43.0071503],[3.5550794,43.0125363],[3.6228378,43.0231361],[3.6867241,43.0427905],[3.744504,43.0708136],[4.0097663,43.2267133],[4.0290631,43.2186395],[4.0976393,43.2017587],[4.1693821,43.1948959],[4.3324823,43.1908665],[4.3375962,43.1863346],[4.3869614,43.150146],[4.4447218,43.1213641],[4.5088203,43.1010085],[4.5769836,43.089799],[4.6468001,43.0881317],[4.7158021,43.0960653],[4.7815497,43.1133194],[4.8417136,43.1392836],[4.8941552,43.1730388],[4.9370006,43.2133881],[4.9687069,43.2588984],[4.9881189,43.3079497],[4.9920299,43.339047],[4.9721286,43.3705235],[4.9697938,43.3753915],[4.9687754,43.3804935],[4.9691107,43.3856433],[4.9707879,43.3906529],[4.9737461,43.3953391],[4.9763265,43.3985703],[4.9061753,43.3953308],[4.9061741,43.3933555],[4.9132909,43.3921682],[4.9199786,43.3899761],[4.9259417,43.3868707],[4.9309473,43.3829733],[4.9347998,43.3784363],[4.9373489,43.3734371],[4.9384955,43.3681709],[4.9381949,43.3628436],[4.9364594,43.3576632],[4.9333572,43.3528319],[4.9290095,43.3485383],[4.9235863,43.34495],[4.8767932,43.3196306],[4.8708833,43.3170151],[4.8644091,43.3152433],[4.8575956,43.3143768],[4.8506798,43.3144458],[4.8439019,43.3154479],[4.8374975,43.3173482],[4.8316892,43.3200806],[4.8266791,43.3235503],[4.8206065,43.3286209],[4.8151307,43.3249104],[4.8087877,43.3214532],[4.8015806,43.3190552],[4.7938383,43.3178255],[4.785914,43.3178204],[4.619907,43.3305621],[4.6198737,43.330567],[4.6198906,43.3305657],[4.6272735,43.330536],[4.6345174,43.331572],[4.6413352,43.3336324],[4.6474565,43.3366356],[4.6526386,43.3404626],[4.6566757,43.3449616],[4.6594074,43.3499541],[4.6605576,43.3545704],[4.6237676,43.3573941],[4.5918459,43.3598442],[4.6237676,43.3573941],[4.6,43.5],[4.62,43.7],[4.7,43.95],[4.69,44.075],[4.68,44.2],[4.75,44.55],[4.79,44.725],[4.83,44.9],[4.85,45.2],[4.82,45.5],[4.83,45.75],[4.83,46],[4.85,46.4],[4.88,46.78],[5.1,46.95],[5.10625,46.9552083],[5.4,47.2],[5.6,47.45],[5.45,47.7],[5.675,47.775],[5.9,47.85],[6.1,47.8666667],[6.3,47.8833333],[6.5,47.9],[6.6666667,47.8166667],[6.8333333,47.7333333],[7,47.65],[7.1966667,47.62],[7.3933333,47.59],[7.59,47.56],[7.55,47.75],[7.565,47.875],[7.58,48],[7.65,48.25],[7.8,48.55],[7.95,48.7],[8.2,48.97],[8,49.05],[7.7,49.2],[7.6,49.5],[7.7,49.75],[7.8,49.86],[7.9,49.97],[7.8,50.06],[7.7,50.15],[7.6,50.36],[7.35,50.5],[7.225,50.615],[7.1,50.73],[6.95,50.95],[6.86,51.1],[6.77,51.25],[6.735,51.375],[6.7,51.5],[6.62,51.75],[6.8,52],[7,52.3],[7.075,52.475],[7.15,52.65],[7.2,52.85],[7.25,53.05],[7.1844239,53.2467283],[7.0794708,53.266727],[7.1844239,53.2467283],[7.1946719,53.2447755],[7.2145966,53.2667376],[7.2146177,53.2667608],[7.2146186,53.2667618],[7.2069105,53.2701151],[7.1981735,53.2724221],[7.1728025,53.2772611],[7.2035868,53.311238],[7.1486539,53.3143933],[7.1485958,53.3143999],[7.1568681,53.3143807],[7.1651294,53.3152927],[7.1729677,53.3171047],[7.1801115,53.3197538],[7.1863131,53.3231483],[7.1913573,53.3271705],[7.1950691,53.331681],[7.1973191,53.3365235],[7.1976216,53.3386564],[7.1975884,53.3386583],[7.1529195,53.3412414],[7.0908846,53.5273462],[7.1338192,53.5355846],[7.1338495,53.5355904],[7.1329036,53.5374789],[7.1290177,53.5419524],[7.1237988,53.5459159],[7.1174292,53.5492309],[7.1101313,53.5517814],[7.1021602,53.5534783],[7.0937947,53.5542622],[7.0853274,53.5541056],[7.0770544,53.5530141],[7.0710356,53.5518592],[7.0483274,53.5731264],[7.0444843,53.5775921],[7.0420979,53.5824024],[7.041251,53.587391],[7.0419735,53.5923855],[7.044241,53.5972135],[7.0479754,53.601708],[7.0530482,53.6057136],[7.0592842,53.6090917],[7.2789326,53.707078],[7.2865331,53.7098107],[7.2948878,53.7116154],[7.3036775,53.7124233],[7.4141062,53.7160359],[7.4048777,53.7224886],[7.3317186,53.7562598],[7.2483877,53.7804746],[7.1583928,53.7941095],[7.118112,53.7951926],[7.0986055,53.807517],[7.0269414,53.8379831],[6.9465772,53.8596526],[6.9408402,53.860456],[6.8605667,53.8716988],[6.7721908,53.8736617],[6.6309132,53.8685719],[6.5439877,53.860341],[6.4613847,53.8423579],[6.3862201,53.8153019],[6.3213152,53.7801934],[6.3131223,53.7736371],[6.2529619,53.7768481],[6.1687478,53.7766689],[6.086033,53.7672638],[6.0076929,53.7489596],[5.9481903,53.731089],[5.8713072,53.7329326],[5.7854234,53.7301171],[5.7019854,53.7177222],[5.6240228,53.6961978],[5.554356,53.6663249],[5.5205756,53.6486999],[5.4586525,53.6091327],[5.4113278,53.5630194],[5.4010419,53.5461038],[5.3410818,53.5261086],[5.2831843,53.4984973],[5.1391027,53.4170923],[5.0896058,53.3839877],[5.0499266,53.3464766],[5.0211223,53.3055832],[5.015221,53.2947803],[5.103051,53.3089415],[5.0010334,53.2688085],[4.9958365,53.2592951],[4.8867789,53.2073695],[4.7351335,53.1903062],[4.6595161,53.1775327],[4.5888095,53.1570141],[4.5251997,53.129387],[4.4114513,53.0700443],[4.3466779,53.028076],[4.2981856,52.978804],[4.268123,52.9244689],[4.0960608,52.4449673],[3.8721931,52.2419776],[3.8380301,52.2350898],[3.7612601,52.2081442],[3.6949283,52.172288],[3.6417237,52.1289891],[3.6037798,52.0800159],[3.582591,52.0273625],[3.5822496,52.0222747],[3.5506431,52.006065],[3.4992059,51.9668751],[3.4738055,51.9599833],[3.4019961,51.9285709],[3.341939,51.8888891],[3.2960636,51.8425646],[3.2706519,51.7991115],[3.1957694,51.7661566],[3.1328242,51.732315],[3.0815274,51.6916383],[3.0437456,51.6456322],[3.0208316,51.595995],[3.0203077,51.5922822],[2.9884802,51.5855971],[2.8940574,51.5573955],[2.3506752,51.3387754],[1.8369654,51.2621122],[1.8369895,51.261946],[1.843656,51.2159974],[1.8298531,51.1545696],[1.8004599,51.0837566],[1.7738499,51.0373692],[1.734314,50.9947888],[1.683195,50.957426],[1.6222072,50.9265155],[1.5533788,50.9030768],[1.3973515,50.8608461],[1.3937522,50.8473615],[1.3629263,50.7968305],[1.3168267,50.7511913],[1.2573351,50.7122664],[1.1868507,50.6816062],[1.1405552,50.6691423],[1.1499269,50.6173171],[1.1743926,50.5510324],[1.1428627,50.4706421],[1.1304706,50.4131458],[1.1335746,50.3881917],[1.1279279,50.3656673],[1.1224534,50.3066706],[1.1053719,50.2823776],[1.0222496,50.2305414],[1.0799165,50.266411],[1.147473,50.3005006],[1.2245295,50.3250788],[1.3078474,50.3391088],[1.3939112,50.341998],[1.4790841,50.3336244],[1.5052997,50.3273592],[1.5005019,50.2796899],[1.5008511,50.2740913],[1.5030014,50.2686592],[1.5068593,50.2636279],[1.5122581,50.2592141],[1.5410831,50.2401072],[1.5309676,50.2416821],[1.5227402,50.2424234],[1.5144458,50.2421178],[1.5064068,50.2407772],[1.4989357,50.2384537],[1.492323,50.2352375],[1.4868253,50.2312538],[1.4826561,50.2266573],[1.4212338,50.1401406],[1.2860772,50.0562242],[1.3436486,50.0919602],[1.3501949,50.0952745],[1.3576327,50.0976946],[1.3656691,50.0991251],[1.3739878,50.0995097],[1.382261,50.0988331],[1.3901629,50.0971221],[1.3973823,50.0944441],[1.4030028,50.0912625],[1.4030028,50.0912625],[1.3728341,50.0725403],[1.3728341,50.0725403],[1.2222122,49.9790671],[1.3728341,50.0725403],[1.38,50.06],[1.49,49.98],[1.6,49.9],[1.75,49.7],[1.735,49.575],[1.72,49.45],[1.62,49.2],[1.5,49.05],[1.3,48.9],[1,48.75],[0.8,48.85],[0.6,49],[0.5,49.2],[0.42,49.38],[0.2739342,49.4315526],[0.3350031,49.4406855],[0.3350031,49.4406855],[0.2739342,49.4315526],[0.2739342,49.4315526],[0.4122041,49.452231],[0.2739342,49.4315526],[0.2471625,49.4275489],[0.2336448,49.4255274],[0.2325445,49.4297382],[0.2328215,49.4351637],[0.2347634,49.4404432],[0.2382919,49.445363],[0.2432645,49.4497238],[0.2437217,49.4499905],[0.2308656,49.4527932],[0.1544634,49.4413667],[0.145477,49.4392855],[0.1374612,49.4359237],[-0.0081822,49.3578369],[-0.1981435,49.3132931],[-0.2529542,49.351515],[-0.296388,49.3974356],[-0.324992,49.4480545],[-0.3375825,49.5013602],[-0.3336054,49.5552281],[-0.3146219,49.6037799],[-0.3586027,49.6099281],[-0.8148702,49.647331],[-0.8148678,49.6468994],[-0.8146174,49.601214],[-0.8238386,49.5687129],[-0.7719921,49.5326531],[-0.7307107,49.4902593],[-0.7022905,49.4436266],[-0.687936,49.3952327],[-0.6879346,49.3952282],[-0.9357372,49.418157],[-0.938909,49.4183626],[-1.0685806,49.4234304],[-1.0773008,49.4231675],[-1.0857417,49.4217226],[-1.0935289,49.4191598],[-1.1003169,49.4155928],[-1.1058048,49.41118],[-1.1383039,49.378492],[-1.1340755,49.4129444],[-1.1383039,49.378492],[-1.1383039,49.378492],[-1.1383045,49.3784868],[-1.1369663,49.3798322],[-1.1369663,49.3798322],[-1.1347724,49.3820378],[-1.1347229,49.3820782],[-1.129678,49.3861945],[-1.1234294,49.3896199],[-1.1162694,49.3921806],[-1.1084764,49.3937771],[-1.1003536,49.3943472],[-1.0922171,49.3938689],[-1.0843834,49.3923606],[-1.0774903,49.3899953],[-1.1,49.3673709],[-1.1214112,49.3458506],[-1.1,49.3673709],[-1.1,49.3673709],[-1.1,49.25],[-1.05,49.05],[-0.95,48.8],[-1,48.6],[-1.25,48.5],[-1.05,48.35],[-1.05,48.05],[-1.2,47.8],[-1.05,47.6],[-1,47.4],[-1.25,47.2],[-1.6,47.05],[-2,46.95],[-2.1177242,46.9058534],[-2.1294213,46.8940364],[-2.12734,46.8797188],[-2.12734,46.8797188],[-2.12734,46.8797186],[-2.12734,46.8797186],[-2.1186212,46.819739],[-2.12734,46.8797186],[-2.12734,46.8797186],[-2.12734,46.8797188],[-2.1278334,46.8797746],[-2.1348748,46.8815544],[-2.1412965,46.8842131],[-2.1468663,46.8876544],[-2.1492838,46.8898489],[-2.152996,46.8892458],[-2.1609343,46.8890727],[-2.168501,46.889958],[-2.1685012,46.889958],[-2.1685019,46.8899581],[-2.1578522,46.8170624],[-2.1564586,46.8121624],[-2.1537686,46.8075223],[-2.1498747,46.803301],[-2.1449105,46.7996432],[-1.9403228,46.6739479],[-1.9341239,46.6670473],[-1.940625,46.664846],[-2.0148259,46.645424],[-2.0931683,46.6365858],[-2.1724988,46.6386872],[-2.2496258,46.6516438],[-2.2675063,46.6574486],[-2.2783092,46.6590407],[-2.3334968,46.6753302],[-2.3335234,46.6753381],[-2.273686,46.6713282],[-2.2657907,46.6713416],[-2.2580577,46.6724359],[-2.2507985,46.6745672],[-2.2443055,46.6776496],[-2.2388403,46.681559],[-2.2346233,46.6861379],[-2.2318249,46.6912017],[-2.2305582,46.6965464],[-2.2308748,46.7019565],[-2.2327623,46.7072138],[-2.2361451,46.7121063],[-2.240887,46.7164364],[-2.2467969,46.7200295],[-2.3152118,46.7538147],[-2.3223007,46.7565952],[-2.3300761,46.7583134],[-2.3382027,46.7588954],[-2.3742212,46.7588951],[-2.3823436,46.7583138],[-2.3901162,46.7565975],[-2.3972046,46.7538201],[-2.4033035,46.7501013],[-2.4081506,46.7456011],[-2.4115378,46.7405132],[-2.4133196,46.7350565],[-2.41342,46.7294659],[-2.4106689,46.7089321],[-2.410669,46.7089322],[-2.4119451,46.7095317],[-2.4656639,46.7470697],[-2.602705,46.8632095],[-2.6456019,46.9078147],[-2.6531313,46.9205473],[-2.6533675,46.9209467],[-2.6659252,46.9132679],[-2.7142796,46.8681465],[-2.747903,46.8171757],[-2.765385,46.7625605],[-2.7660216,46.7066563]],[[4.7040417,52.8661017],[4.7168049,52.9083223],[4.7040417,52.8661017],[4.7040417,52.8661017]],[[4.7040417,52.8661017],[4.716814,52.9083527],[4.716814,52.9083527],[4.7168163,52.9083603],[4.7168163,52.9083603],[4.7168164,52.9083604],[4.7168165,52.9083609],[4.7168165,52.9083609],[4.7168166,52.9083611],[4.7168168,52.9083618],[4.7168174,52.908364],[4.7168174,52.908364],[4.7168177,52.9083648],[4.7168178,52.908365],[4.7322473,52.959406],[4.8186482,52.9678489],[4.8142315,52.9519666],[4.8142315,52.9519666],[4.8142304,52.9519623],[4.8142304,52.9519623],[4.8142296,52.9519597],[4.8142296,52.9519597],[4.8142289,52.9519571],[4.8142289,52.9519571],[4.8142278,52.9519531],[4.8142278,52.9519531],[4.814226,52.9519465],[4.8078481,52.9290116],[4.8176525,52.9251793],[4.8726487,52.9036829],[4.8176525,52.9251793],[4.7040417,52.8661017]],[[4.7070471,53.0286376],[4.8546485,53.1873639],[4.8906489,53.1806096],[4.8942489,53.1113779],[4.8942489,53.0759178],[4.7971352,53],[4.797048,52.9999318],[4.7968342,53],[4.7968342,53],[4.7070471,53.0286376]],[[5.1678517,53.3680417],[5.4234542,53.430519],[5.5854559,53.4541591],[5.4702547,53.4085675],[5.2074521,53.3528445],[5.1678517,53.3680417]],[[5.6358564,53.4490934],[5.6754568,53.4676677],[5.7872641,53.4649784],[5.787267,53.4649783],[5.7872766,53.4649781],[5.7872803,53.464978],[5.7872864,53.4649778],[5.7872897,53.4649777],[5.7872903,53.4649777],[5.7872909,53.4649777],[5.7873078,53.4649773],[5.8527007,53.4634044],[5.8189594,53.4458589],[5.7746208,53.4409973],[5.7746076,53.4409959],[5.7746072,53.4409958],[5.7746019,53.4409952],[5.7745679,53.4409915],[5.7745654,53.4409912],[5.6790568,53.430519],[5.6358564,53.4490934]],[[5.7873623,53.464976],[5.8527007,53.4634044],[5.8527007,53.4634044],[5.8527007,53.4634044],[5.8527007,53.4634044],[5.8527007,53.4634044],[5.8527007,53.4634044],[5.8527007,53.4634044],[5.8527007,53.4634044],[5.7873623,53.464976]]]}}
