{"type":"Feature","properties":{"family":"franks","name":"West Francia, 855 – 866"},"geometry":{"type":"Polygon","coordinates":[[[-3.0876784,49.4313738],[-3.0783992,49.3777685],[-3.0529584,49.3264231],[-3.0124159,49.2793817],[-2.9584201,49.2385115],[-2.8931383,49.2054313],[-2.8191683,49.1814483],[-2.7394374,49.167509],[-2.6570901,49.1641634],[-2.6449516,49.1644613],[-2.6314363,49.1125593],[-2.6010253,49.0614967],[-2.5555665,49.0154906],[-2.4969578,48.976424],[-2.4458729,48.9539301],[-2.409294,48.961928],[-2.3343174,48.9686662],[-2.2587314,48.9662147],[-2.18514,48.9546583],[-2.130446,48.9386158],[-2.1052949,48.9476381],[-2.027828,48.9634543],[-1.9703498,48.9711695],[-1.9498217,49.0003537],[-1.9085948,49.0463021],[-1.8543111,49.0860159],[-1.7890846,49.1179279],[-1.7154766,49.1407763],[-1.6363934,49.1536562],[-1.6185711,49.1541816],[-1.6138308,49.146225],[-1.6421385,49.1172273],[-1.6454484,49.1130792],[-1.6476122,49.1086185],[-1.648565,49.1039796],[-1.6482785,49.0993022],[-1.6338192,49.0250102],[-1.6320793,49.01997],[-1.6289067,49.0152393],[-1.624418,49.0109916],[-1.6187783,49.0073825],[-1.6121943,49.0045444],[-1.6049075,49.0025813],[-1.597185,49.0015651],[-1.594948,49.001556],[-1.6047624,48.9618131],[-1.6052801,48.956874],[-1.6044144,48.9519555],[-1.6021948,48.9472232],[-1.5986965,48.9428365],[-1.5894338,48.9334326],[-1.6406974,48.8612022],[-1.6145073,48.8980934],[-1.6103659,48.902677],[-1.6049336,48.9066356],[-1.5984223,48.9098146],[-1.5910865,48.9120896],[-1.583213,48.9133717],[-1.5751096,48.9136108],[-1.5670932,48.9127975],[-1.5599845,48.9110857],[-1.5773344,48.8866721],[-1.603816,48.8494089],[-1.5773344,48.8866721],[-1.575,48.875],[-1.55,48.75],[-1.5485614,48.7428068],[-1.5213875,48.7226603],[-1.5215181,48.722568],[-1.5280045,48.7194847],[-1.5352755,48.7172923],[-1.5430536,48.7160747],[-1.5510418,48.7158782],[-1.5589353,48.7167102],[-1.566433,48.7185392],[-1.5732486,48.7212953],[-1.5789716,48.7247816],[-1.4941874,48.6619786],[-1.5302401,48.6597399],[-1.5224845,48.6597163],[-1.5148331,48.658713],[-1.5076106,48.6567666],[-1.5010808,48.6539482],[-1.4954822,48.6503609],[-1.491019,48.6461356],[-1.4878537,48.6414266],[-1.4861017,48.6364058],[-1.4858965,48.6353759],[-1.5105694,48.6338582],[-1.5265747,48.6328737],[-1.5265747,48.6328737],[-1.5265747,48.6328737],[-1.5670829,48.6303818],[-1.5670829,48.6303818],[-1.5265747,48.6328737],[-1.52,48.6],[-1.25,48.5],[-1.05,48.35],[-1.05,48.05],[-1.2,47.8],[-1.05,47.6],[-1,47.4],[-1.25,47.2],[-1.6,47.05],[-2,46.95],[-2.1177242,46.9058534],[-2.1294213,46.8940364],[-2.12734,46.8797188],[-2.12734,46.8797188],[-2.12734,46.8797186],[-2.1278338,46.8797744],[-2.1348755,46.8815541],[-2.1412975,46.8842126],[-2.1468677,46.8876539],[-2.1468677,46.8876539],[-2.1492857,46.8898487],[-2.1529961,46.8892459],[-2.1609348,46.8890727],[-2.1685012,46.8899579],[-2.1578529,46.81707],[-2.1564583,46.8121667],[-2.1537665,46.8075233],[-2.1498699,46.803299],[-2.1449025,46.7996386],[-1.9403177,46.6739449],[-1.9341222,46.6670481],[-1.9406218,46.6648472],[-2.0148267,46.6454249],[-2.0931731,46.6365863],[-2.0931733,46.6365864],[-2.1725074,46.6386873],[-2.1725076,46.6386873],[-2.249638,46.6516433],[-2.2675245,46.6574496],[-2.2783263,46.6590415],[-2.3335133,46.6753306],[-2.2736703,46.6713205],[-2.2657748,46.671334],[-2.2580423,46.6724288],[-2.2507841,46.6745608],[-2.2442927,46.6776442],[-2.2388296,46.6815547],[-2.2346152,46.6861349],[-2.2318196,46.6912001],[-2.2305559,46.6965463],[-2.2308755,46.7019579],[-2.232766,46.7072167],[-2.2361515,46.7121104],[-2.2408959,46.7164417],[-2.246808,46.7200358],[-2.3152225,46.7538208],[-2.3223133,46.7566023],[-2.3300901,46.7583211],[-2.3382175,46.7589032],[-2.3742358,46.758903],[-2.3823564,46.7583218],[-2.3901269,46.7566057],[-2.3972129,46.7538287],[-2.4033096,46.7501102],[-2.4081548,46.7456103],[-2.4115404,46.7405226],[-2.4133212,46.7350658],[-2.4134212,46.7294747],[-2.4106678,46.708923],[-2.4119687,46.7095342],[-2.465689,46.7470732],[-2.6027298,46.8632147],[-2.6456259,46.9078207],[-2.6534386,46.9210332],[-2.6659776,46.9133643],[-2.7143146,46.868247],[-2.7479252,46.8172781],[-2.7654,46.7626613],[-2.7660351,46.7067513],[-2.7622416,46.6797487],[-2.7472437,46.6275573],[-2.7176562,46.5783943],[-2.6746609,46.5341617],[-2.6199467,46.4965664],[-2.5556418,46.4670561],[-2.4842305,46.4467653],[-2.4084599,46.4364733],[-2.3081529,46.4297474],[-2.2295482,46.4298786],[-2.1770122,46.4373193],[-2.1557443,46.3896411],[-2.1180638,46.3419983],[-2.0673954,46.3005039],[-2.0057976,46.2668225],[-1.9466371,46.2461168],[-1.9391418,46.1985102],[-1.9174229,46.1496028],[-1.8828073,46.1044065],[-1.8365616,46.0645366],[-1.7925802,46.0331767],[-1.7818154,45.985186],[-1.7525259,45.9076111],[-1.7192768,45.8486409],[-1.6672762,45.7966766],[-1.6266023,45.7647286],[-1.6296771,45.7501155],[-1.6335207,45.7012192],[-1.6246463,45.6526448],[-1.6033783,45.60599],[-1.5704443,45.5627858],[-1.5269475,45.5244463],[-1.4960774,45.5055498],[-1.6382345,44.6601043],[-1.6398277,44.6087331],[-1.6336503,44.5829058],[-1.6361696,44.5710437],[-1.6546881,44.3359276],[-1.8274804,43.6908138],[-1.8778062,43.6415362],[-1.937294,43.6203542],[-1.9959828,43.5875696],[-2.0444907,43.5470015],[-2.0809039,43.5002698],[-2.0965346,43.4654335],[-2.0965347,43.4654332],[-2.1038021,43.4492364],[-2.1123111,43.3959296],[-2.1061324,43.3424621],[-2.0997995,43.3266129],[-2.0496654,43.3431218],[-1.9754896,43.3675474],[-1.9682225,43.3693029],[-1.9606142,43.3699363],[-1.9529891,43.3694205],[-1.9456722,43.3677776],[-1.9422398,43.3663938],[-1.9394201,43.3675701],[-1.809777,43.4098016],[-1.8003903,43.4118244],[-1.7470101,43.4179147],[-1.7468659,43.4179214],[-1.7470119,43.4179048],[-1.7543403,43.4164967],[-1.7611228,43.4140365],[-1.7670767,43.4106268],[-1.7719536,43.4064099],[-1.7755505,43.4015616],[-1.7777176,43.3962843],[-1.778365,43.3907978],[-1.7777565,43.3870966],[-1.7777419,43.3870983],[-1.7777419,43.3870983],[-1.7777412,43.3870983],[-1.7727335,43.3876697],[-1.7777412,43.3870983],[-1.7777419,43.3870983],[-1.7777419,43.3870983],[-1.7777565,43.3870966],[-1.7777566,43.3870966],[-1.7946179,43.3851728],[-1.7777566,43.3870966],[-1.7777565,43.3870966],[-1.7777419,43.3870983],[-1.7777419,43.3870983],[-1.7777412,43.3870983],[-1.7727335,43.3876697],[-1.7412605,43.3912605],[-1.7000677,43.3959603],[-1.7000677,43.3959603],[-1.7000672,43.3959603],[-1.7000672,43.3959603],[-1.6614166,43.40037],[-1.7000672,43.3959603],[-1.7000672,43.3959603],[-1.7000677,43.3959603],[-1.7000677,43.3959603],[-1.7412605,43.3912605],[-1.7412605,43.3912605],[-1.7412605,43.3912605],[-1.7412605,43.3912605],[-1.7,43.35],[-1.6,43.25],[-1.35,43.1],[-1,43],[-0.7,42.9],[-0.5,42.85],[-0.3,42.8],[0.1,42.7],[0.225,42.575],[0.35,42.45],[0.6,42.25],[0.9,42.1],[1.2,42],[1.5,41.95],[1.8,41.75],[1.95,41.5],[2.1170048,41.3035238],[2.0875836,41.2882454],[2.0912202,41.2847774],[2.0967161,41.2812811],[2.1030284,41.2786804],[2.109903,41.2770801],[2.1170633,41.2765445],[2.1242213,41.2770952],[2.1310889,41.27871],[2.1372352,41.2812597],[2.0814342,41.2522863],[2.0753517,41.2497395],[2.0687303,41.2481226],[1.7839729,41.200225],[1.7839729,41.2002249],[1.8007085,41.1768042],[1.8396995,41.132798],[1.8892744,41.0953557],[1.947526,41.0659046],[2.0122257,41.0455657],[2.0809082,41.0351123],[2.1277953,41.0349979],[2.1277993,41.0349979],[2.150962,41.0349414],[2.2197254,41.0450593],[2.2845841,41.0650818],[2.3430669,41.0942475],[2.3929372,41.1314464],[2.524896,41.2509624],[3.0961904,41.4714979],[3.1597899,41.5024997],[3.3791318,41.6354392],[3.4320035,41.6747379],[3.4729985,41.7213154],[3.5562479,41.8409563],[3.5830412,41.891021],[3.5959689,41.9440615],[3.5944803,41.9979646],[3.5785976,42.0505768],[3.5620434,42.0875627],[3.5907095,42.1224288],[3.6450426,42.2050046],[3.669717,42.2539481],[3.6812164,42.3055027],[3.6790772,42.357738],[3.6633451,42.4086934],[3.6345792,42.4564511],[3.5938356,42.4992094],[3.5426311,42.5353514],[3.5032169,42.5539336],[3.4955895,42.5810005],[3.475392,42.6293104],[3.4432734,42.6739953],[3.4071279,42.7072415],[3.4082988,42.8998066],[3.4372092,42.9647359],[3.4928269,43.007181],[3.5552331,43.0125642],[3.6230196,43.0231693],[3.6869263,43.0428297],[3.7447179,43.070859],[4.0098708,43.2267054],[4.0290271,43.2186918],[4.0976556,43.2018011],[4.1694521,43.1949341],[4.3324062,43.1909099],[4.3374483,43.1864418],[4.38683,43.1502421],[4.4446135,43.1214477],[4.5087405,43.1010785],[4.5769357,43.089855],[4.6467858,43.0881739],[4.6469523,43.088193],[4.647956,43.0883082],[4.7158213,43.0960942],[4.7816007,43.1133357],[4.8417931,43.1392883],[4.8942585,43.1730327],[4.9371221,43.2133723],[4.9688405,43.2588739],[4.9882581,43.3079174],[4.9921492,43.3388584],[4.9920299,43.339047],[4.9721286,43.3705235],[4.9697938,43.3753915],[4.9687754,43.3804935],[4.9691107,43.3856433],[4.9707879,43.3906529],[4.9737461,43.3953391],[4.9763265,43.3985703],[4.9061753,43.3953308],[4.9061741,43.3933555],[4.9132909,43.3921682],[4.9199786,43.3899761],[4.9259417,43.3868707],[4.9309473,43.3829733],[4.9347998,43.3784363],[4.9373489,43.3734371],[4.9384955,43.3681709],[4.9381949,43.3628436],[4.9364594,43.3576632],[4.9333572,43.3528319],[4.9290095,43.3485383],[4.9235863,43.34495],[4.8767932,43.3196306],[4.8708833,43.3170151],[4.8644091,43.3152433],[4.8575956,43.3143768],[4.8506798,43.3144458],[4.8439019,43.3154479],[4.8374975,43.3173482],[4.8316892,43.3200806],[4.8266791,43.3235503],[4.8206065,43.3286209],[4.8151307,43.3249104],[4.8087877,43.3214532],[4.8015806,43.3190552],[4.7938383,43.3178255],[4.785914,43.3178204],[4.619907,43.3305621],[4.6198737,43.330567],[4.6198018,43.3305776],[4.6198664,43.3305726],[4.6198664,43.3305726],[4.6198946,43.3305705],[4.6272795,43.3305405],[4.6345252,43.3315757],[4.6413445,43.333635],[4.6474672,43.3366369],[4.6526503,43.3404622],[4.6566883,43.3449594],[4.6594207,43.3499502],[4.6605724,43.3545692],[4.6605722,43.3545693],[4.6605576,43.3545704],[4.6237676,43.3573941],[4.5918459,43.3598442],[4.6237676,43.3573941],[4.6,43.5],[4.62,43.7],[4.7,43.95],[4.69,44.075],[4.68,44.2],[4.75,44.55],[4.79,44.725],[4.83,44.9],[4.85,45.2],[4.82,45.5],[4.83,45.75],[4.83,46],[4.85,46.4],[4.88,46.78],[5.1,46.95],[5.10625,46.9552083],[5.4,47.2],[5.6,47.45],[5.45,47.7],[5.2,48],[5.1,48.3],[4.95,48.6],[4.925,48.75],[4.9,48.9],[4.85,49.2],[4.7,49.5],[4.3,49.7],[4.1,49.775],[3.9,49.85],[3.5,50],[3.25,50.18],[3.3,50.35],[3.38,50.55],[3.45,50.7],[3.6,50.85],[3.72,51.05],[3.75,51.2],[3.6153863,51.3974335],[3.6351867,51.3925032],[3.6430478,51.3905458],[3.64968,51.3888943],[3.6642005,51.3852788],[3.6657471,51.3848937],[3.6719218,51.3833562],[3.6719218,51.3833562],[3.6719218,51.3833562],[3.6719218,51.3833562],[3.6719228,51.3833559],[3.6551046,51.4080532],[3.6510266,51.4126918],[3.6455751,51.4167429],[3.6389598,51.4200504],[3.6318657,51.4223475],[3.6315062,51.4224639],[3.7511436,51.3927368],[3.6730642,51.4283833],[3.5976352,51.4309066],[3.6314356,51.4224868],[3.5976352,51.4309066],[3.5976352,51.4309066],[3.5976352,51.4309066],[3.5975609,51.4309251],[3.5722675,51.4372258],[3.5767178,51.439203],[3.5824377,51.4429583],[3.586904,51.4473258],[3.5899517,51.4521447],[3.5914682,51.4572374],[3.5914559,51.4581261],[3.5483883,51.459569],[3.5370354,51.4599494],[3.5483883,51.459569],[3.4932698,51.5018265],[3.4802304,51.5143033],[3.4704102,51.5236997],[3.4697392,51.5243418],[3.4643457,51.5218867],[3.4584603,51.51785],[3.4539977,51.513159],[3.45114,51.5080054],[3.4500034,51.5025997],[3.4506336,51.4971627],[3.4530044,51.4919165],[3.4568614,51.4872643],[3.4568614,51.4872643],[3.4570183,51.4870751],[3.4571161,51.4869816],[3.4569466,51.4871264],[3.4106914,51.5313526],[3.4068495,51.5359247],[3.404476,51.5408679],[3.4036582,51.5460015],[3.4044266,51.5511377],[3.4067535,51.5560887],[3.4105543,51.5606735],[3.4156904,51.5647241],[3.421974,51.5680924],[3.5336014,51.6170846],[3.5402063,51.6194666],[3.5473819,51.6210929],[3.554906,51.6219132],[3.8466788,51.6371199],[3.8550167,51.6370457],[3.8631784,51.6359839],[3.870863,51.6339738],[3.8777872,51.6310893],[3.883696,51.6274369],[3.9012118,51.6142847],[3.8894307,51.6254313],[3.8005148,51.6701177],[3.7103523,51.6551031],[3.7023508,51.6542539],[3.6942341,51.6543418],[3.6862844,51.6553639],[3.6787786,51.6572845],[3.671978,51.6600369],[3.6661193,51.6635251],[3.6614068,51.6676277],[3.658005,51.672202],[3.6560328,51.6770884],[3.6451924,51.7209873],[3.644744,51.7264085],[3.6460566,51.7317751],[3.6490778,51.73687],[3.6536856,51.7414867],[3.6596939,51.7454382],[3.6657143,51.7480647],[3.6657143,51.7480647],[3.6138528,51.7610325],[3.5273163,51.7707801],[3.4393651,51.7694839],[3.3536524,51.7571974],[3.2737339,51.7344304],[3.2029137,51.7021265],[3.1441021,51.6616226],[3.0996944,51.6145912],[3.0961369,51.6080902],[3.0198994,51.5921089],[2.9888064,51.5855911],[2.8943741,51.557389],[2.3509684,51.338779],[1.8369694,51.2620865],[1.8436576,51.2159868],[1.8436576,51.2159868],[1.8298545,51.1545595],[1.8004608,51.0837466],[1.7738516,51.0373611],[1.7343172,50.9947826],[1.6832002,50.9574216],[1.622215,50.9265127],[1.5533894,50.9030753],[1.3973525,50.8608424],[1.3937521,50.8473538],[1.3629272,50.7968242],[1.316829,50.7511864],[1.2573393,50.7122629],[1.1868571,50.681604],[1.1407067,50.6691794],[1.1500987,50.6172178],[1.1745514,50.5509586],[1.1430313,50.4706044],[1.1306307,50.4130951],[1.1337316,50.3881256],[1.1280853,50.3656069],[1.1226103,50.3066394],[1.1055621,50.2823962],[1.0032379,50.2186826],[0.472823,50.115435],[0.3859972,50.0910961],[-0.0256904,49.9367137],[-0.0843152,49.9099251],[-0.1348935,49.8770481],[-0.1759355,49.8390624],[-0.2062441,49.7970975],[-0.3129449,49.6076314],[-0.3144375,49.6038194],[-0.3524477,49.609421],[-0.8154806,49.6523936],[-0.8296122,49.7001257],[-0.8614898,49.771156],[-0.8897027,49.8174311],[-0.930652,49.8595684],[-0.9829649,49.8961241],[-1.0448671,49.9258427],[-1.1142432,49.9477016],[-1.1887094,49.9609475],[-1.3370878,49.977918],[-1.4242508,49.9818506],[-1.5107581,49.9740145],[-1.5927943,49.9547558],[-1.6339716,49.9417866],[-1.7974916,49.9787428],[-1.876737,49.9911522],[-1.9582213,49.993409],[-2.0388131,49.9854271],[-2.1154168,49.9675133],[-2.1850976,49.9403556],[-2.2451979,49.9049954],[-2.2934411,49.8627857],[-2.3280186,49.8153376],[-2.347655,49.7644574],[-2.3495369,49.7562282],[-2.4011126,49.7681542],[-2.4850344,49.7757714],[-2.569591,49.7722288],[-2.6512437,49.7576752],[-2.7265814,49.7327196],[-2.8998257,49.6597791],[-2.9646285,49.6259298],[-3.0176311,49.584374],[-3.0567238,49.536791],[-3.0803733,49.4850986],[-3.0876784,49.4313738]]]}}
