{"type":"Feature","properties":{"family":"norse","name":"Kingdom of York, 939 – 954"},"geometry":{"type":"Polygon","coordinates":[[[-3.7625174,54.1073859],[-3.7455836,54.0898046],[-3.6858957,54.0392052],[-3.6819714,54.0364957],[-3.6527455,53.9918793],[-3.6035167,53.9464051],[-3.5400157,53.907566],[-3.5154242,53.8952394],[-3.5155668,53.8932463],[-3.5032792,53.7565191],[-3.4902423,53.705193],[-3.4872516,53.7002154],[-3.5242723,53.6580963],[-3.5497221,53.6030652],[-3.5515029,53.5840434],[-3.5515028,53.5840434],[-3.5514974,53.5840441],[-3.5514936,53.5840445],[-3.5514771,53.5840466],[-3.3855754,53.6050331],[-3.2884819,53.6108089],[-3.1915647,53.6040823],[-3.1212474,53.5896571],[-3.1212474,53.5896571],[-3.1212474,53.5896571],[-3.1212461,53.5896568],[-3.1212459,53.5896568],[-3.139144,53.5738909],[-3.1436253,53.5688429],[-3.1462176,53.5633481],[-3.1468056,53.5576524],[-3.1453638,53.5520108],[-3.1419575,53.5466754],[-3.0698311,53.4615848],[-3.0712992,53.4614173],[-3.0698311,53.4615848],[-3.0698307,53.4615843],[-3.0227372,53.4060261],[-3.0227282,53.4060186],[-3.0227282,53.4060186],[-3.0227282,53.4060186],[-3.0227282,53.4060186],[-3,53.3870907],[-2.9596315,53.3534721],[-2.9596313,53.3534719],[-2.8202887,53.3256052],[-2.8202925,53.325606],[-2.9250293,53.3494673],[-2.9527079,53.3823211],[-2.95,53.38],[-2.8,53.35],[-2.6,53.39],[-2.475,53.395],[-2.35,53.4],[-2.05,53.38],[-1.925,53.4],[-1.8,53.42],[-1.5,53.42],[-1.2,53.48],[-0.9,53.55],[-0.7,53.7],[-0.61167,53.708833],[-0.6210062,53.7125114],[-0.61167,53.708833],[-0.5492816,53.6842521],[-0.5492724,53.6842485],[-0.5492724,53.6842485],[-0.5492724,53.6842485],[-0.5310053,53.6770513],[-0.5492724,53.6842485],[-0.5450599,53.6835251],[-0.5370328,53.6830245],[-0.5289825,53.6833702],[-0.2908217,53.7060202],[-0.2907765,53.7060257],[-0.2790028,53.7074457],[-0.2787223,53.7071721],[-0.2787212,53.707171],[-0.2784096,53.7072006],[-0.1473684,53.6202666],[-0.1399631,53.6163119],[-0.1312849,53.6134079],[-0.12175,53.6116939],[-0.1118151,53.6112519],[-0.0912172,53.6116642],[0.1792563,53.4981074],[0.1855928,53.4948675],[0.1908211,53.4909904],[0.2843794,53.4065326],[0.2892859,53.4006295],[0.3230216,53.3430986],[0.389544,53.3640585],[0.4602661,53.3986812],[0.5179748,53.4410539],[0.5602948,53.4894633],[0.5854543,53.5419455],[0.5923188,53.5960044],[0.5923636,53.5963575],[0.5923645,53.5963641],[0.5899606,53.651152],[0.5803101,53.6997927],[0.5559263,53.7465955],[0.5175698,53.7900094],[0.318023,53.9719973],[0.3588435,54.021447],[0.3819112,54.0757571],[0.3854155,54.1316922],[0.3691273,54.1868464],[0.3336732,54.238838],[0.2805213,54.2854131],[0.2119285,54.3245454],[0.0000861,54.4219603],[-0.146027,54.596397],[-0.1987236,54.6449995],[-0.2681207,54.6860145],[-0.3510808,54.7175608],[-0.7709801,54.8408447],[-0.8920899,54.876403],[-0.9841506,54.8964237],[-1.0815025,54.9048775],[-1.1797774,54.901385],[-1.2745631,54.8861028],[-1.2823227,54.8843099],[-1.2344093,54.7631967],[-1.1436084,54.7235212],[-1.1365112,54.71968],[-1.1309462,54.715073],[-1.1271547,54.7099001],[-1.1253002,54.7043858],[-1.1254625,54.6987692],[-1.1276337,54.6932938],[-1.1317189,54.6881969],[-1.1375405,54.6836992],[-1.1378109,54.6835303],[-1.1288534,54.6724847],[-1.1270167,54.6723032],[-1.118341,54.670363],[-1.0811839,54.6594686],[-1.0811839,54.6594686],[-1.081169,54.6594653],[-1.0811839,54.6594686],[-1.0811839,54.6594686],[-1.0895955,54.6613419],[-1.0984896,54.6622436],[-1.1075176,54.6621365],[-1.1163404,54.6610246],[-1.1246268,54.6589497],[-1.1733259,54.6433413],[-1.1773091,54.6417332],[-1.200612,54.620966],[-1.165393,54.6146124],[-1.35,54.55],[-1.6,54.52],[-1.85,54.55],[-2.1,54.6],[-2.17,54.5],[-2.31,54.51],[-2.45,54.52],[-2.75,54.6],[-2.875,54.51],[-3,54.42],[-3.25,54.28],[-3.3660797,54.2428545],[-3.3398898,54.2204796],[-3.3398877,54.2204778],[-3.3066331,54.1920674],[-3.3398877,54.2204778],[-3.3398898,54.2204796],[-3.3660797,54.2428545],[-3.3660797,54.2428545],[-3.3920348,54.2650288],[-3.3920348,54.2650288],[-3.3920352,54.2650291],[-3.3920352,54.2650291],[-3.3920348,54.2650288],[-3.3920348,54.2650288],[-3.3660797,54.2428545],[-3.3660797,54.2428545],[-3.3398898,54.2204796],[-3.3398877,54.2204778],[-3.3438765,54.2192016],[-3.3516601,54.2172253],[-3.3599305,54.2161154],[-3.3684085,54.2159093],[-3.3768079,54.216614],[-3.3848451,54.2182058],[-3.3922487,54.2206308],[-3.3987686,54.2238072],[-3.4041531,54.2276056],[-3.4041562,54.2276078],[-3.4041604,54.2276108],[-3.40417,54.2276176],[-3.404156,54.2276029],[-3.3446848,54.1768345],[-3.3387717,54.1727253],[-3.3315859,54.169383],[-3.3234121,54.1669398],[-3.3145741,54.1654925],[-3.3054218,54.1650984],[-3.2963175,54.1657731],[-3.2943446,54.1660382],[-3.2877453,54.1108301],[-3.2862147,54.105569],[-3.282948,54.1005874],[-3.2780736,54.0960801],[-3.2717826,54.0922234],[-3.1745945,54.0432787],[-3.1673255,54.0402758],[-3.1592087,54.0381502],[-3.1505474,54.0369815],[-3.1416652,54.0368132],[-3.1328937,54.0376518],[-3.1245607,54.0394657],[-3.1169774,54.0421873],[-3.1104272,54.045715],[-3.1051553,54.0499169],[-3.1013591,54.0546359],[-3.0416461,54.1521306],[-3.0386952,54.1484713],[-3.034059,54.1439342],[-3.028002,54.1400137],[-3.0207571,54.13686],[-3.0126023,54.1345942],[-3.0038504,54.1333031],[-2.9462861,54.1282406],[-2.937163,54.1279726],[-2.9281288,54.1287645],[-2.9195387,54.1305853],[-2.9117301,54.1333633],[-2.9050101,54.1369895],[-2.8740042,54.1573895],[-2.8581507,54.1383529],[-3.071804,54.0353235],[-3.1478084,54.0053101],[-3.232347,53.9846981],[-3.322107,53.9742929],[-3.4135825,53.9745005],[-3.5032048,53.985313],[-3.5874734,54.0063083],[-3.663085,54.0366662],[-3.7270579,54.0751983],[-3.7620772,54.1069864],[-3.7621576,54.1070593],[-3.7622706,54.1071619],[-3.7625174,54.1073859]],[[-1.1507328,54.6197435],[-1.1394114,54.6462947],[-1.1020532,54.635343],[-1.15,54.62],[-1.1507328,54.6197435]],[[-0.5487014,53.71],[-0.5362922,53.71],[-0.5331267,53.7103007],[-0.5331264,53.7103007],[-0.5331264,53.7103007],[-0.5331246,53.7103009],[-0.300061,53.7324411],[-0.3000607,53.7324411],[-0.3000503,53.7324421],[-0.3000503,53.7324421],[-0.279788,53.734367],[-0.279788,53.734367],[-0.279788,53.734367],[-0.279788,53.734367],[-0.2797818,53.7343676],[-0.2797818,53.7343676],[-0.2797818,53.7343676],[-0.2797818,53.7343676],[-0.2610026,53.7361515],[-0.2797818,53.7343676],[-0.2797818,53.7343676],[-0.2797818,53.7343676],[-0.2797818,53.7343676],[-0.279788,53.734367],[-0.279788,53.734367],[-0.279788,53.734367],[-0.279788,53.734367],[-0.3000503,53.7324421],[-0.3000503,53.7324421],[-0.3000607,53.7324411],[-0.300061,53.7324411],[-0.5331246,53.7103009],[-0.5331264,53.7103007],[-0.5331264,53.7103007],[-0.5331267,53.7103007],[-0.5362922,53.71],[-0.5362922,53.71],[-0.5362922,53.71],[-0.5454055,53.7091343],[-0.5487014,53.71]],[[0.0645943,53.5648254],[0.0663573,53.5700963],[0.0804243,53.5974851],[0.0787157,53.5924748],[0.0786486,53.5873038],[0.0802447,53.5822202],[0.0834448,53.5774107],[0.0881308,53.5730518],[0.0941304,53.5693035],[0.1012231,53.5663034],[0.1091484,53.5641614],[0.1106836,53.5639429],[0.1106849,53.5639454],[0.1239248,53.5896729],[0.1379959,53.5885003],[0.1386014,53.5774252],[0.112552,53.5636796],[0.112548,53.5636775],[0.1176156,53.5629562],[0.1316781,53.5617844],[0.140452,53.5615616],[0.1491342,53.562345],[0.1574009,53.5641055],[0.1649435,53.5667774],[0.1714803,53.570261],[0.1767672,53.5744261],[0.1806063,53.5791175],[0.1828537,53.5841597],[0.1834208,53.5893268],[0.184012,53.5782979],[0.183239,53.5724119],[0.1803289,53.5667664],[0.1754219,53.5616315],[0.1687534,53.557253],[0.1399562,53.5420629],[0.1326307,53.5389118],[0.1244008,53.5366854],[0.1155927,53.5354718],[0.1065552,53.5353193],[0.0976463,53.5362338],[0.0892187,53.538179],[0.0816065,53.541078],[0.0751113,53.5448159],[0.0699908,53.5492446],[0.0664485,53.5541885],[0.0646253,53.5594517],[0.0645943,53.5648254]]]}}
