{"type":"Feature","properties":{"family":"norse","name":"Kingdom of York, 874 – 901"},"geometry":{"type":"Polygon","coordinates":[[[-3.5515028,53.5840434],[-3.5514974,53.5840441],[-3.5514936,53.5840445],[-3.5514771,53.5840466],[-3.3855754,53.6050331],[-3.2884819,53.6108089],[-3.1915647,53.6040823],[-3.1212474,53.5896571],[-3.1212474,53.5896571],[-3.1212474,53.5896571],[-3.1212461,53.5896568],[-3.1212459,53.5896568],[-3.1212457,53.5896568],[-3.139144,53.5738907],[-3.1436253,53.5688427],[-3.1462176,53.563348],[-3.1468056,53.5576524],[-3.1453639,53.5520108],[-3.1419576,53.5466755],[-3.0698307,53.4615843],[-3.0434366,53.4304461],[-3.0399985,53.42639],[-3.0399985,53.42639],[-3.0399148,53.4262912],[-3.039454,53.4257477],[-3.0392856,53.4255489],[-3.0382965,53.4243821],[-3.039454,53.4257477],[-3.03961,53.4259317],[-3.039454,53.4257477],[-3.0312767,53.4161005],[-3.0227373,53.4060262],[-3.0227372,53.4060261],[-3.0227282,53.4060186],[-3.0227282,53.4060186],[-3.0227282,53.4060186],[-3.0227282,53.4060186],[-3,53.3870907],[-2.9596315,53.3534721],[-2.8202925,53.325606],[-2.9250293,53.3494673],[-2.9527079,53.3823211],[-2.95,53.38],[-2.8,53.35],[-2.6,53.39],[-2.475,53.395],[-2.35,53.4],[-2.05,53.38],[-1.925,53.4],[-1.8,53.42],[-1.5,53.42],[-1.2,53.48],[-0.9,53.55],[-0.7,53.7],[-0.61167,53.708833],[-0.6210062,53.7125114],[-0.7254073,53.7006914],[-0.6354064,53.7327744],[-0.5487014,53.71],[-0.5362922,53.71],[-0.5331267,53.7103007],[-0.5331264,53.7103007],[-0.5215592,53.7057437],[-0.300061,53.7324411],[-0.3000607,53.7324411],[-0.3000503,53.7324421],[-0.3000503,53.7324421],[-0.279788,53.734367],[-0.279788,53.734367],[-0.279788,53.734367],[-0.279788,53.734367],[-0.2797818,53.7343676],[-0.2787868,53.734425],[-0.2695555,53.7338397],[-0.2607164,53.73216],[-0.2526364,53.7294555],[-0.2456507,53.7258386],[-0.2400489,53.7214594],[-0.1550385,53.638459],[-0.0912173,53.6116641],[0.0430609,53.6143523],[0.0815039,53.5996077],[0.0804441,53.5975431],[0.0804402,53.5975319],[0.0804402,53.5975319],[0.0804504,53.5975516],[0.0839943,53.6025674],[0.0891625,53.6070592],[0.095745,53.6108444],[0.1034745,53.6137689],[0.1120364,53.6157138],[0.1209551,53.6165873],[0.1209551,53.6165872],[0.1209561,53.6165868],[0.1209561,53.6165868],[0.1350014,53.6111968],[0.1239248,53.5896729],[0.1379959,53.5885003],[0.1375858,53.5960038],[0.1364998,53.615869],[0.1364998,53.6158694],[0.1364998,53.6158694],[0.1443238,53.6152174],[0.153137,53.6139399],[0.1613466,53.6116495],[0.1686254,53.6084374],[0.1746836,53.6044317],[0.1792801,53.599792],[0.1822324,53.594703],[0.1834234,53.5893675],[0.183424,53.5893562],[0.183425,53.5893646],[0.1804894,53.644145],[0.1794781,53.6490059],[0.1770005,53.6536783],[0.1731376,53.6580082],[-0.1077569,53.9117373],[-0.1357018,53.962202],[-0.135702,53.9622024],[-0.1681497,54.0207984],[-0.135702,53.9622024],[-0.1031769,53.9564866],[-0.018842,53.9292534],[0.0538547,53.8922121],[0.0964913,53.8589118],[0.1874786,53.8568356],[0.2016373,53.8556556],[0.290231,53.84281],[0.3726575,53.8197873],[0.445593,53.7875196],[0.506116,53.7473103],[0.5518263,53.7007797],[0.5809388,53.6497969],[0.5923492,53.5964031],[0.5923544,53.5962853],[0.5923645,53.5963651],[0.5899606,53.6511531],[0.58031,53.6997943],[0.5559261,53.7465975],[0.5175694,53.7900116],[0.3180242,53.9719978],[0.3588432,54.0214458],[0.3819111,54.0757564],[0.3854155,54.1316922],[0.3691271,54.1868471],[0.3336726,54.2388393],[0.2805203,54.2854149],[0.2119269,54.3245475],[0.000085,54.4219619],[-0.1460281,54.596398],[-0.1987252,54.6450007],[-0.2681227,54.6860157],[-0.3510831,54.7175621],[-0.7709808,54.840845],[-0.8920933,54.8764039],[-0.9841541,54.8964244],[-1.081506,54.9048781],[-1.1797807,54.9013854],[-1.274566,54.8861032],[-1.2823228,54.8843104],[-1.2344087,54.7631958],[-1.1436074,54.7235199],[-1.1365104,54.7196789],[-1.1309456,54.7150722],[-1.1271542,54.7098997],[-1.1252997,54.7043858],[-1.125462,54.6987695],[-1.127633,54.6932945],[-1.131718,54.6881979],[-1.1375393,54.6837004],[-1.1378111,54.6835306],[-1.1288524,54.6724835],[-1.1270159,54.672302],[-1.11834,54.6703617],[-1.0811981,54.6594717],[-1.0895957,54.661342],[-1.0984899,54.6622437],[-1.1075178,54.6621366],[-1.1163406,54.6610247],[-1.1246269,54.6589498],[-1.1733261,54.6433413],[-1.1773089,54.6417334],[-1.1773091,54.6417332],[-1.200612,54.620966],[-1.165393,54.6146124],[-1.35,54.55],[-1.6,54.52],[-1.85,54.55],[-2.1,54.6],[-2.35,54.62],[-2.6,54.45],[-2.85,54.25],[-2.9037283,54.1783622],[-2.795428,54.249479],[-2.9037283,54.1783622],[-2.9342902,54.1582934],[-2.9285846,54.1556442],[-2.920296,54.1531875],[-2.9113351,54.1517537],[-2.9020654,54.1514011],[-2.8928633,54.152144],[-2.884102,54.1539523],[-2.8761374,54.1567525],[-2.8742974,54.1577414],[-2.8739771,54.1573569],[-2.9050488,54.1369645],[-2.911767,54.1333469],[-2.9195697,54.1305761],[-2.9281508,54.1287605],[-2.937174,54.1279714],[-2.9462855,54.1282397],[-3.0038497,54.1333022],[-3.012601,54.1345932],[-3.0207554,54.1368589],[-3.028,54.1400125],[-3.0340567,54.1439329],[-3.0386929,54.1484699],[-3.0416474,54.1521337],[-3.1013615,54.0546354],[-3.1051574,54.0499163],[-3.1104289,54.0457144],[-3.1169785,54.0421867],[-3.1245612,54.0394649],[-3.1328936,54.0376508],[-3.1416643,54.0368122],[-3.1505458,54.0369803],[-3.1592065,54.0381488],[-3.1673228,54.0402742],[-3.1745915,54.043277],[-3.2717798,54.0922214],[-3.278071,54.0960782],[-3.2829456,54.1005857],[-3.2862124,54.1055677],[-3.2877432,54.1108292],[-3.2943428,54.1660373],[-3.2963195,54.1657718],[-3.3054268,54.165097],[-3.3145819,54.1654919],[-3.3234221,54.1669407],[-3.3315972,54.1693861],[-3.3387833,54.1727311],[-3.3446954,54.1768434],[-3.3627667,54.1922701],[-3.3646808,54.1824282],[-3.3563434,54.1280394],[-3.3526303,54.1208057],[-3.3580531,54.1129563],[-3.3593671,54.1090584],[-3.4054871,54.0830916],[-3.4558916,54.0411804],[-3.4917805,53.9944148],[-3.5118966,53.9444991],[-3.5154256,53.8952172],[-3.5155667,53.8932459],[-3.5032792,53.756519],[-3.4902425,53.7051935],[-3.4872509,53.7002144],[-3.5242724,53.6580944],[-3.549722,53.6030639],[-3.5515028,53.5840434]],[[-1.1507328,54.6197435],[-1.1394114,54.6462947],[-1.1020532,54.635343],[-1.15,54.62],[-1.1507328,54.6197435]]]}}
