{"type":"Feature","properties":{"family":"norse","name":"Kingdom of York, 902 – 916"},"geometry":{"type":"Polygon","coordinates":[[[-3.7625174,54.1073859],[-3.7455836,54.0898046],[-3.6858957,54.0392052],[-3.6819714,54.0364957],[-3.6527455,53.9918793],[-3.6035167,53.9464051],[-3.5400157,53.907566],[-3.5154242,53.8952394],[-3.5155668,53.8932463],[-3.5032792,53.7565191],[-3.4902423,53.705193],[-3.4872516,53.7002154],[-3.5242723,53.6580963],[-3.5497221,53.6030652],[-3.5515029,53.5840434],[-3.5515028,53.5840434],[-3.5514974,53.5840441],[-3.5514936,53.5840445],[-3.5514771,53.5840466],[-3.3855754,53.6050331],[-3.2884819,53.6108089],[-3.1915647,53.6040823],[-3.1212474,53.5896571],[-3.1212474,53.5896571],[-3.1212474,53.5896571],[-3.1212461,53.5896568],[-3.1212459,53.5896568],[-3.139144,53.5738909],[-3.1436253,53.5688429],[-3.1462176,53.5633481],[-3.1468056,53.5576524],[-3.1453638,53.5520108],[-3.1419575,53.5466754],[-3.0698311,53.4615848],[-3.0698311,53.4615848],[-3.0698307,53.4615843],[-3.0227372,53.4060261],[-3.0227282,53.4060186],[-3.0227282,53.4060186],[-3.0227282,53.4060186],[-3.0227282,53.4060186],[-3,53.3870907],[-2.9596315,53.3534721],[-2.9596313,53.3534719],[-2.8202887,53.3256052],[-2.8202925,53.325606],[-2.9250293,53.3494673],[-2.9527079,53.3823211],[-2.95,53.38],[-2.8,53.35],[-2.6,53.39],[-2.475,53.395],[-2.35,53.4],[-2.05,53.38],[-1.925,53.4],[-1.8,53.42],[-1.5,53.42],[-1.2,53.48],[-0.9,53.55],[-0.7,53.7],[-0.61167,53.708833],[-0.6210062,53.7125114],[-0.7254073,53.7006914],[-0.6354064,53.7327744],[-0.5487014,53.71],[-0.5362922,53.71],[-0.5454055,53.7091343],[-0.5362922,53.71],[-0.5362922,53.71],[-0.5331267,53.7103007],[-0.5331264,53.7103007],[-0.5331264,53.7103007],[-0.5331246,53.7103009],[-0.5215573,53.7057438],[-0.3000503,53.7324421],[-0.279788,53.734367],[-0.2787854,53.7344248],[-0.2695538,53.7338395],[-0.2607146,53.7321598],[-0.2526345,53.7294554],[-0.2456488,53.7258386],[-0.240047,53.7214594],[-0.1550367,53.6384588],[-0.0912167,53.6116642],[0.0430609,53.6143525],[0.081504,53.5996079],[0.080444,53.5975431],[0.0804419,53.597537],[0.0804491,53.5975508],[0.0839932,53.6025666],[0.0891615,53.6070586],[0.0957444,53.6108439],[0.1034743,53.6137684],[0.1120366,53.6157133],[0.1209561,53.6165868],[0.1350014,53.6111968],[0.1239248,53.5896729],[0.1379959,53.5885003],[0.1386014,53.5774252],[0.1379959,53.5885003],[0.1379959,53.5885003],[0.1375858,53.5960038],[0.1364998,53.615869],[0.144325,53.6152169],[0.1531383,53.6139395],[0.1613479,53.6116491],[0.1686268,53.6084371],[0.1746849,53.6044315],[0.1792814,53.5997919],[0.1822336,53.5947032],[0.1834247,53.5893678],[0.1834249,53.5893638],[0.183425,53.5893645],[0.1804894,53.6441449],[0.1794782,53.6490057],[0.1770005,53.6536781],[0.1731376,53.658008],[-0.1077568,53.9117372],[-0.1358251,53.9624245],[-0.1088401,53.9578567],[-0.026438,53.9323027],[0.0453699,53.8974264],[0.110335,53.8585963],[0.1874961,53.8568306],[0.2016549,53.8556504],[0.2902496,53.8428042],[0.3726761,53.8197813],[0.445611,53.7875139],[0.5061328,53.7473055],[0.5518415,53.7007764],[0.5809525,53.6497955],[0.5923616,53.5964039],[0.5923636,53.5963575],[0.5923645,53.5963641],[0.5899606,53.651152],[0.5803101,53.6997927],[0.5559263,53.7465955],[0.5175698,53.7900094],[0.318023,53.9719973],[0.3588435,54.021447],[0.3819112,54.0757571],[0.3854155,54.1316922],[0.3691273,54.1868464],[0.3336732,54.238838],[0.2805213,54.2854131],[0.2119285,54.3245454],[0.0000861,54.4219603],[-0.146027,54.596397],[-0.1987236,54.6449995],[-0.2681207,54.6860145],[-0.3510808,54.7175608],[-0.7709801,54.8408447],[-0.8920899,54.876403],[-0.9841506,54.8964237],[-1.0815025,54.9048775],[-1.1797774,54.901385],[-1.2745631,54.8861028],[-1.2823227,54.8843099],[-1.2344093,54.7631967],[-1.1436084,54.7235212],[-1.1365112,54.71968],[-1.1309462,54.715073],[-1.1271547,54.7099001],[-1.1253002,54.7043858],[-1.1254625,54.6987692],[-1.1276337,54.6932938],[-1.1317189,54.6881969],[-1.1375405,54.6836992],[-1.1378109,54.6835303],[-1.1288534,54.6724847],[-1.1270167,54.6723032],[-1.118341,54.670363],[-1.0811839,54.6594686],[-1.0811839,54.6594686],[-1.081169,54.6594653],[-1.0811839,54.6594686],[-1.0811839,54.6594686],[-1.0895955,54.6613419],[-1.0984896,54.6622436],[-1.1075176,54.6621365],[-1.1163404,54.6610246],[-1.1246268,54.6589497],[-1.1733259,54.6433413],[-1.1773091,54.6417332],[-1.200612,54.620966],[-1.165393,54.6146124],[-1.35,54.55],[-1.6,54.52],[-1.85,54.55],[-2.1,54.6],[-2.17,54.5],[-2.31,54.51],[-2.45,54.52],[-2.75,54.6],[-2.875,54.51],[-3,54.42],[-3.25,54.28],[-3.3660797,54.2428545],[-3.3398898,54.2204796],[-3.3398877,54.2204778],[-3.3066331,54.1920674],[-3.3398877,54.2204778],[-3.3398898,54.2204796],[-3.3660797,54.2428545],[-3.3660797,54.2428545],[-3.3920348,54.2650288],[-3.3920348,54.2650288],[-3.3920352,54.2650291],[-3.3920352,54.2650291],[-3.3920348,54.2650288],[-3.3920348,54.2650288],[-3.3660797,54.2428545],[-3.3660797,54.2428545],[-3.3398898,54.2204796],[-3.3398877,54.2204778],[-3.3438765,54.2192016],[-3.3516601,54.2172253],[-3.3599305,54.2161154],[-3.3684085,54.2159093],[-3.3768079,54.216614],[-3.3848451,54.2182058],[-3.3922487,54.2206308],[-3.3987686,54.2238072],[-3.4041531,54.2276056],[-3.4041562,54.2276078],[-3.4041604,54.2276108],[-3.40417,54.2276176],[-3.404156,54.2276029],[-3.3446848,54.1768345],[-3.3387717,54.1727253],[-3.3315859,54.169383],[-3.3234121,54.1669398],[-3.3145741,54.1654925],[-3.3054218,54.1650984],[-3.2963175,54.1657731],[-3.2943446,54.1660382],[-3.2877453,54.1108301],[-3.2862147,54.105569],[-3.282948,54.1005874],[-3.2780736,54.0960801],[-3.2717826,54.0922234],[-3.1745945,54.0432787],[-3.1673255,54.0402758],[-3.1592087,54.0381502],[-3.1505474,54.0369815],[-3.1416652,54.0368132],[-3.1328937,54.0376518],[-3.1245607,54.0394657],[-3.1169774,54.0421873],[-3.1104272,54.045715],[-3.1051553,54.0499169],[-3.1013591,54.0546359],[-3.0416461,54.1521306],[-3.0386952,54.1484713],[-3.034059,54.1439342],[-3.028002,54.1400137],[-3.0207571,54.13686],[-3.0126023,54.1345942],[-3.0038504,54.1333031],[-2.9462861,54.1282406],[-2.937163,54.1279726],[-2.9281288,54.1287645],[-2.9195387,54.1305853],[-2.9117301,54.1333633],[-2.9050101,54.1369895],[-2.8740042,54.1573895],[-2.8581507,54.1383529],[-3.071804,54.0353235],[-3.1478084,54.0053101],[-3.232347,53.9846981],[-3.322107,53.9742929],[-3.4135825,53.9745005],[-3.5032048,53.985313],[-3.5874734,54.0063083],[-3.663085,54.0366662],[-3.7270579,54.0751983],[-3.7620772,54.1069864],[-3.7621576,54.1070593],[-3.7622706,54.1071619],[-3.7625174,54.1073859]],[[-1.1507328,54.6197435],[-1.1394114,54.6462947],[-1.1020532,54.635343],[-1.15,54.62],[-1.1507328,54.6197435]]]}}
