{
 "type": "Feature",
 "properties": {
  "id": "canada-1783",
  "family": "crown",
  "name": "British North America, 1783"
 },
 "geometry": {
  "type": "Polygon",
  "coordinates": [
   [
    [
     -96,
     48
    ],
    [
     -96,
     51
    ],
    [
     -59,
     51
    ],
    [
     -59,
     45
    ],
    [
     -64.5,
     43
    ],
    [
     -66,
     44.5
    ],
    [
     -68,
     45.7
    ],
    [
     -69.2,
     47
    ],
    [
     -70,
     46
    ],
    [
     -71.5,
     44.9
    ],
    [
     -73.4,
     44.6
    ],
    [
     -74.8,
     44.5
    ],
    [
     -76.2,
     43.3
    ],
    [
     -79,
     43
    ],
    [
     -79.2,
     42.2
    ],
    [
     -82.5,
     41.3
    ],
    [
     -83.2,
     42.3
    ],
    [
     -82.5,
     45.3
    ],
    [
     -84.8,
     46.1
    ],
    [
     -88.5,
     47.9
    ],
    [
     -92,
     48.2
    ],
    [
     -95.2,
     49
    ],
    [
     -96,
     48
    ]
   ]
  ]
 }
}