{
 "type": "Feature",
 "properties": {
  "id": "ct",
  "family": "ratified",
  "name": "Connecticut"
 },
 "geometry": {
  "type": "Polygon",
  "coordinates": [
   [
    [
     -73.66,
     41
    ],
    [
     -73.617,
     41.263
    ],
    [
     -73.575,
     41.525
    ],
    [
     -73.532,
     41.787
    ],
    [
     -73.49,
     42.05
    ],
    [
     -73.152,
     42.044
    ],
    [
     -72.814,
     42.038
    ],
    [
     -72.476,
     42.032
    ],
    [
     -72.138,
     42.026
    ],
    [
     -71.8,
     42.02
    ],
    [
     -71.8,
     41.747
    ],
    [
     -71.8,
     41.473
    ],
    [
     -71.8,
     41.2
    ],
    [
     -71.9,
     41.05
    ],
    [
     -72,
     40.9
    ],
    [
     -72.32,
     40.87
    ],
    [
     -72.64,
     40.84
    ],
    [
     -72.96,
     40.81
    ],
    [
     -73.28,
     40.78
    ],
    [
     -73.6,
     40.75
    ],
    [
     -73.66,
     41
    ]
   ]
  ]
 }
}