{
 "type": "Feature",
 "properties": {
  "id": "de",
  "family": "ratified",
  "name": "Delaware"
 },
 "geometry": {
  "type": "Polygon",
  "coordinates": [
   [
    [
     -75.79,
     39.72
    ],
    [
     -75.48,
     39.785
    ],
    [
     -75.17,
     39.85
    ],
    [
     -75.3,
     39.633
    ],
    [
     -75.43,
     39.417
    ],
    [
     -75.56,
     39.2
    ],
    [
     -75.273,
     39.067
    ],
    [
     -74.987,
     38.933
    ],
    [
     -74.7,
     38.8
    ],
    [
     -74.875,
     38.625
    ],
    [
     -75.05,
     38.45
    ],
    [
     -75.375,
     38.45
    ],
    [
     -75.7,
     38.45
    ],
    [
     -75.722,
     38.767
    ],
    [
     -75.745,
     39.085
    ],
    [
     -75.768,
     39.403
    ],
    [
     -75.79,
     39.72
    ]
   ]
  ]
 }
}