{
 "type": "Feature",
 "properties": {
  "id": "florida-british",
  "family": "crown",
  "name": "East and West Florida, British 1763 to 1783"
 },
 "geometry": {
  "type": "Polygon",
  "coordinates": [
   [
    [
     -91.8,
     31
    ],
    [
     -85,
     31
    ],
    [
     -81.5,
     31
    ],
    [
     -80,
     30.8
    ],
    [
     -79,
     27
    ],
    [
     -80,
     24.5
    ],
    [
     -83,
     24
    ],
    [
     -88,
     29.5
    ],
    [
     -91.8,
     29.8
    ],
    [
     -91.8,
     31
    ]
   ]
  ]
 }
}