{
 "type": "Feature",
 "properties": {
  "id": "ga",
  "family": "ratified",
  "name": "Georgia"
 },
 "geometry": {
  "type": "Polygon",
  "coordinates": [
   [
    [
     -85,
     31
    ],
    [
     -85,
     31.3
    ],
    [
     -85,
     31.6
    ],
    [
     -85,
     31.9
    ],
    [
     -85,
     32.2
    ],
    [
     -85,
     32.5
    ],
    [
     -85,
     32.8
    ],
    [
     -84.903,
     33.113
    ],
    [
     -84.806,
     33.426
    ],
    [
     -84.709,
     33.739
    ],
    [
     -84.611,
     34.051
    ],
    [
     -84.514,
     34.364
    ],
    [
     -84.417,
     34.677
    ],
    [
     -84.32,
     34.99
    ],
    [
     -84.065,
     34.892
    ],
    [
     -83.81,
     34.795
    ],
    [
     -83.555,
     34.698
    ],
    [
     -83.3,
     34.6
    ],
    [
     -83.125,
     34.35
    ],
    [
     -82.95,
     34.1
    ],
    [
     -82.775,
     33.85
    ],
    [
     -82.6,
     33.6
    ],
    [
     -82.4,
     33.4
    ],
    [
     -82.2,
     33.2
    ],
    [
     -82,
     33
    ],
    [
     -81.8,
     32.8
    ],
    [
     -81.6,
     32.6
    ],
    [
     -81.4,
     32.525
    ],
    [
     -81.2,
     32.45
    ],
    [
     -80.875,
     32.344
    ],
    [
     -80.55,
     32.238
    ],
    [
     -80.225,
     32.131
    ],
    [
     -79.9,
     32.025
    ],
    [
     -79.575,
     31.919
    ],
    [
     -79.25,
     31.813
    ],
    [
     -78.925,
     31.706
    ],
    [
     -78.6,
     31.6
    ],
    [
     -78.871,
     31.457
    ],
    [
     -79.143,
     31.314
    ],
    [
     -79.414,
     31.171
    ],
    [
     -79.686,
     31.029
    ],
    [
     -79.957,
     30.886
    ],
    [
     -80.229,
     30.743
    ],
    [
     -80.5,
     30.6
    ],
    [
     -80.75,
     30.7
    ],
    [
     -81,
     30.8
    ],
    [
     -81.25,
     30.9
    ],
    [
     -81.5,
     31
    ],
    [
     -81.85,
     31
    ],
    [
     -82.2,
     31
    ],
    [
     -82.55,
     31
    ],
    [
     -82.9,
     31
    ],
    [
     -83.25,
     31
    ],
    [
     -83.6,
     31
    ],
    [
     -83.95,
     31
    ],
    [
     -84.3,
     31
    ],
    [
     -84.65,
     31
    ],
    [
     -85,
     31
    ]
   ]
  ]
 }
}