{
 "type": "Feature",
 "properties": {
  "id": "ky",
  "family": "ratified",
  "name": "Kentucky, 1792"
 },
 "geometry": {
  "type": "Polygon",
  "coordinates": [
   [
    [
     -89.5,
     37.2
    ],
    [
     -89.175,
     37.3
    ],
    [
     -88.85,
     37.4
    ],
    [
     -88.525,
     37.5
    ],
    [
     -88.2,
     37.6
    ],
    [
     -87.917,
     37.7
    ],
    [
     -87.633,
     37.8
    ],
    [
     -87.35,
     37.9
    ],
    [
     -87.067,
     38
    ],
    [
     -86.783,
     38.1
    ],
    [
     -86.5,
     38.2
    ],
    [
     -86.217,
     38.35
    ],
    [
     -85.933,
     38.5
    ],
    [
     -85.65,
     38.65
    ],
    [
     -85.367,
     38.8
    ],
    [
     -85.083,
     38.95
    ],
    [
     -84.8,
     39.1
    ],
    [
     -84.471,
     39.043
    ],
    [
     -84.143,
     38.986
    ],
    [
     -83.814,
     38.929
    ],
    [
     -83.486,
     38.871
    ],
    [
     -83.157,
     38.814
    ],
    [
     -82.829,
     38.757
    ],
    [
     -82.5,
     38.7
    ],
    [
     -82.333,
     38.4
    ],
    [
     -82.167,
     38.1
    ],
    [
     -82,
     37.8
    ],
    [
     -82.28,
     37.6
    ],
    [
     -82.56,
     37.4
    ],
    [
     -82.84,
     37.2
    ],
    [
     -83.12,
     37
    ],
    [
     -83.4,
     36.8
    ],
    [
     -83.68,
     36.6
    ],
    [
     -84.022,
     36.594
    ],
    [
     -84.365,
     36.588
    ],
    [
     -84.707,
     36.582
    ],
    [
     -85.049,
     36.576
    ],
    [
     -85.392,
     36.571
    ],
    [
     -85.734,
     36.565
    ],
    [
     -86.076,
     36.559
    ],
    [
     -86.419,
     36.553
    ],
    [
     -86.761,
     36.547
    ],
    [
     -87.104,
     36.541
    ],
    [
     -87.446,
     36.535
    ],
    [
     -87.788,
     36.529
    ],
    [
     -88.131,
     36.524
    ],
    [
     -88.473,
     36.518
    ],
    [
     -88.815,
     36.512
    ],
    [
     -89.158,
     36.506
    ],
    [
     -89.5,
     36.5
    ],
    [
     -89.5,
     36.733
    ],
    [
     -89.5,
     36.967
    ],
    [
     -89.5,
     37.2
    ]
   ]
  ]
 }
}