{
 "type": "Feature",
 "properties": {
  "id": "louisiana-spanish",
  "family": "spanish",
  "name": "Spanish Louisiana"
 },
 "geometry": {
  "type": "Polygon",
  "coordinates": [
   [
    [
     -97,
     28
    ],
    [
     -97,
     50
    ],
    [
     -94,
     50
    ],
    [
     -92,
     47.5
    ],
    [
     -90.5,
     44.5
    ],
    [
     -90,
     41
    ],
    [
     -88.5,
     37.5
    ],
    [
     -89,
     35.5
    ],
    [
     -90,
     33
    ],
    [
     -90.5,
     31.5
    ],
    [
     -89,
     30.5
    ],
    [
     -89.5,
     29
    ],
    [
     -93,
     29
    ],
    [
     -97,
     28
    ]
   ]
  ]
 }
}