{
 "type": "Feature",
 "properties": {
  "id": "ma",
  "family": "ratified",
  "name": "Massachusetts, with Maine"
 },
 "geometry": {
  "type": "Polygon",
  "coordinates": [
   [
    [
     -73.49,
     42.05
    ],
    [
     -73.413,
     42.283
    ],
    [
     -73.337,
     42.517
    ],
    [
     -73.26,
     42.75
    ],
    [
     -73.027,
     42.743
    ],
    [
     -72.793,
     42.737
    ],
    [
     -72.56,
     42.73
    ],
    [
     -72.46,
     43.05
    ],
    [
     -72.25,
     43.315
    ],
    [
     -72.04,
     43.58
    ],
    [
     -71.893,
     43.853
    ],
    [
     -71.747,
     44.127
    ],
    [
     -71.6,
     44.4
    ],
    [
     -71.55,
     44.705
    ],
    [
     -71.5,
     45.01
    ],
    [
     -71.233,
     45.14
    ],
    [
     -70.967,
     45.27
    ],
    [
     -70.7,
     45.4
    ],
    [
     -70.525,
     45.675
    ],
    [
     -70.35,
     45.95
    ],
    [
     -70.175,
     46.225
    ],
    [
     -70,
     46.5
    ],
    [
     -69.8,
     46.75
    ],
    [
     -69.6,
     47
    ],
    [
     -69.4,
     47.25
    ],
    [
     -69.2,
     47.5
    ],
    [
     -68.92,
     47.42
    ],
    [
     -68.64,
     47.34
    ],
    [
     -68.36,
     47.26
    ],
    [
     -68.08,
     47.18
    ],
    [
     -67.8,
     47.1
    ],
    [
     -67.543,
     46.886
    ],
    [
     -67.286,
     46.671
    ],
    [
     -67.029,
     46.457
    ],
    [
     -66.771,
     46.243
    ],
    [
     -66.514,
     46.029
    ],
    [
     -66.257,
     45.814
    ],
    [
     -66,
     45.6
    ],
    [
     -65.818,
     45.318
    ],
    [
     -65.636,
     45.036
    ],
    [
     -65.455,
     44.755
    ],
    [
     -65.273,
     44.473
    ],
    [
     -65.091,
     44.191
    ],
    [
     -64.909,
     43.909
    ],
    [
     -64.727,
     43.627
    ],
    [
     -64.545,
     43.345
    ],
    [
     -64.364,
     43.064
    ],
    [
     -64.182,
     42.782
    ],
    [
     -64,
     42.5
    ],
    [
     -64.328,
     42.428
    ],
    [
     -64.656,
     42.356
    ],
    [
     -64.983,
     42.283
    ],
    [
     -65.311,
     42.211
    ],
    [
     -65.639,
     42.139
    ],
    [
     -65.967,
     42.067
    ],
    [
     -66.294,
     41.994
    ],
    [
     -66.622,
     41.922
    ],
    [
     -66.95,
     41.85
    ],
    [
     -67.278,
     41.778
    ],
    [
     -67.606,
     41.706
    ],
    [
     -67.933,
     41.633
    ],
    [
     -68.261,
     41.561
    ],
    [
     -68.589,
     41.489
    ],
    [
     -68.917,
     41.417
    ],
    [
     -69.244,
     41.344
    ],
    [
     -69.572,
     41.272
    ],
    [
     -69.9,
     41.2
    ],
    [
     -70.15,
     41.288
    ],
    [
     -70.4,
     41.375
    ],
    [
     -70.65,
     41.462
    ],
    [
     -70.9,
     41.55
    ],
    [
     -71.13,
     41.65
    ],
    [
     -71.255,
     41.835
    ],
    [
     -71.38,
     42.02
    ],
    [
     -71.681,
     42.024
    ],
    [
     -71.983,
     42.029
    ],
    [
     -72.284,
     42.033
    ],
    [
     -72.586,
     42.037
    ],
    [
     -72.887,
     42.041
    ],
    [
     -73.189,
     42.046
    ],
    [
     -73.49,
     42.05
    ]
   ]
  ]
 }
}