{
 "type": "Feature",
 "properties": {
  "id": "md",
  "family": "ratified",
  "name": "Maryland"
 },
 "geometry": {
  "type": "Polygon",
  "coordinates": [
   [
    [
     -79.48,
     39.72
    ],
    [
     -79.145,
     39.72
    ],
    [
     -78.809,
     39.72
    ],
    [
     -78.474,
     39.72
    ],
    [
     -78.138,
     39.72
    ],
    [
     -77.803,
     39.72
    ],
    [
     -77.467,
     39.72
    ],
    [
     -77.132,
     39.72
    ],
    [
     -76.796,
     39.72
    ],
    [
     -76.461,
     39.72
    ],
    [
     -76.125,
     39.72
    ],
    [
     -75.79,
     39.72
    ],
    [
     -75.768,
     39.403
    ],
    [
     -75.745,
     39.085
    ],
    [
     -75.722,
     38.767
    ],
    [
     -75.7,
     38.45
    ],
    [
     -75.375,
     38.45
    ],
    [
     -75.05,
     38.45
    ],
    [
     -75.233,
     38.267
    ],
    [
     -75.417,
     38.083
    ],
    [
     -75.6,
     37.9
    ],
    [
     -75.8,
     37.9
    ],
    [
     -76,
     37.9
    ],
    [
     -76.133,
     38.2
    ],
    [
     -76.267,
     38.5
    ],
    [
     -76.4,
     38.8
    ],
    [
     -76.725,
     38.75
    ],
    [
     -77.05,
     38.7
    ],
    [
     -77.267,
     38.9
    ],
    [
     -77.483,
     39.1
    ],
    [
     -77.7,
     39.3
    ],
    [
     -78,
     39.367
    ],
    [
     -78.3,
     39.433
    ],
    [
     -78.6,
     39.5
    ],
    [
     -78.893,
     39.573
    ],
    [
     -79.187,
     39.647
    ],
    [
     -79.48,
     39.72
    ]
   ]
  ]
 }
}