{
 "type": "Feature",
 "properties": {
  "id": "nc-1796",
  "family": "ratified",
  "name": "North Carolina"
 },
 "geometry": {
  "type": "Polygon",
  "coordinates": [
   [
    [
     -84.32,
     34.99
    ],
    [
     -84.015,
     34.992
    ],
    [
     -83.71,
     34.995
    ],
    [
     -83.405,
     34.998
    ],
    [
     -83.1,
     35
    ],
    [
     -82.833,
     35.067
    ],
    [
     -82.567,
     35.133
    ],
    [
     -82.3,
     35.2
    ],
    [
     -82.176,
     35.478
    ],
    [
     -82.052,
     35.756
    ],
    [
     -81.928,
     36.034
    ],
    [
     -81.804,
     36.312
    ],
    [
     -81.68,
     36.59
    ],
    [
     -81.369,
     36.583
    ],
    [
     -81.057,
     36.576
    ],
    [
     -80.746,
     36.569
    ],
    [
     -80.434,
     36.561
    ],
    [
     -80.123,
     36.554
    ],
    [
     -79.811,
     36.547
    ],
    [
     -79.5,
     36.54
    ],
    [
     -79.173,
     36.541
    ],
    [
     -78.845,
     36.542
    ],
    [
     -78.518,
     36.543
    ],
    [
     -78.191,
     36.544
    ],
    [
     -77.864,
     36.545
    ],
    [
     -77.536,
     36.545
    ],
    [
     -77.209,
     36.546
    ],
    [
     -76.882,
     36.547
    ],
    [
     -76.555,
     36.548
    ],
    [
     -76.227,
     36.549
    ],
    [
     -75.9,
     36.55
    ],
    [
     -75.6,
     36.55
    ],
    [
     -75.3,
     36.55
    ],
    [
     -75,
     36.55
    ],
    [
     -74.8,
     36.34
    ],
    [
     -74.6,
     36.13
    ],
    [
     -74.4,
     35.92
    ],
    [
     -74.2,
     35.71
    ],
    [
     -74,
     35.5
    ],
    [
     -74.222,
     35.278
    ],
    [
     -74.444,
     35.056
    ],
    [
     -74.667,
     34.833
    ],
    [
     -74.889,
     34.611
    ],
    [
     -75.111,
     34.389
    ],
    [
     -75.333,
     34.167
    ],
    [
     -75.556,
     33.944
    ],
    [
     -75.778,
     33.722
    ],
    [
     -76,
     33.5
    ],
    [
     -76.325,
     33.545
    ],
    [
     -76.65,
     33.59
    ],
    [
     -76.975,
     33.635
    ],
    [
     -77.3,
     33.68
    ],
    [
     -77.625,
     33.725
    ],
    [
     -77.95,
     33.77
    ],
    [
     -78.275,
     33.815
    ],
    [
     -78.6,
     33.86
    ],
    [
     -78.887,
     34.002
    ],
    [
     -79.175,
     34.145
    ],
    [
     -79.463,
     34.288
    ],
    [
     -79.75,
     34.43
    ],
    [
     -80.037,
     34.572
    ],
    [
     -80.325,
     34.715
    ],
    [
     -80.613,
     34.858
    ],
    [
     -80.9,
     35
    ],
    [
     -81.242,
     34.999
    ],
    [
     -81.584,
     34.998
    ],
    [
     -81.926,
     34.997
    ],
    [
     -82.268,
     34.996
    ],
    [
     -82.61,
     34.995
    ],
    [
     -82.952,
     34.994
    ],
    [
     -83.294,
     34.993
    ],
    [
     -83.636,
     34.992
    ],
    [
     -83.978,
     34.991
    ],
    [
     -84.32,
     34.99
    ]
   ]
  ]
 }
}