{
 "type": "Feature",
 "properties": {
  "id": "nc",
  "family": "ratified",
  "name": "North Carolina, with Tennessee"
 },
 "geometry": {
  "type": "Polygon",
  "coordinates": [
   [
    [
     -90.2,
     35
    ],
    [
     -90.06,
     35.3
    ],
    [
     -89.92,
     35.6
    ],
    [
     -89.78,
     35.9
    ],
    [
     -89.64,
     36.2
    ],
    [
     -89.5,
     36.5
    ],
    [
     -89.158,
     36.506
    ],
    [
     -88.815,
     36.512
    ],
    [
     -88.473,
     36.518
    ],
    [
     -88.131,
     36.524
    ],
    [
     -87.788,
     36.529
    ],
    [
     -87.446,
     36.535
    ],
    [
     -87.104,
     36.541
    ],
    [
     -86.761,
     36.547
    ],
    [
     -86.419,
     36.553
    ],
    [
     -86.076,
     36.559
    ],
    [
     -85.734,
     36.565
    ],
    [
     -85.392,
     36.571
    ],
    [
     -85.049,
     36.576
    ],
    [
     -84.707,
     36.582
    ],
    [
     -84.365,
     36.588
    ],
    [
     -84.022,
     36.594
    ],
    [
     -83.68,
     36.6
    ],
    [
     -83.347,
     36.598
    ],
    [
     -83.013,
     36.597
    ],
    [
     -82.68,
     36.595
    ],
    [
     -82.347,
     36.593
    ],
    [
     -82.013,
     36.592
    ],
    [
     -81.68,
     36.59
    ],
    [
     -81.369,
     36.583
    ],
    [
     -81.057,
     36.576
    ],
    [
     -80.746,
     36.569
    ],
    [
     -80.434,
     36.561
    ],
    [
     -80.123,
     36.554
    ],
    [
     -79.811,
     36.547
    ],
    [
     -79.5,
     36.54
    ],
    [
     -79.173,
     36.541
    ],
    [
     -78.845,
     36.542
    ],
    [
     -78.518,
     36.543
    ],
    [
     -78.191,
     36.544
    ],
    [
     -77.864,
     36.545
    ],
    [
     -77.536,
     36.545
    ],
    [
     -77.209,
     36.546
    ],
    [
     -76.882,
     36.547
    ],
    [
     -76.555,
     36.548
    ],
    [
     -76.227,
     36.549
    ],
    [
     -75.9,
     36.55
    ],
    [
     -75.6,
     36.55
    ],
    [
     -75.3,
     36.55
    ],
    [
     -75,
     36.55
    ],
    [
     -74.8,
     36.34
    ],
    [
     -74.6,
     36.13
    ],
    [
     -74.4,
     35.92
    ],
    [
     -74.2,
     35.71
    ],
    [
     -74,
     35.5
    ],
    [
     -74.222,
     35.278
    ],
    [
     -74.444,
     35.056
    ],
    [
     -74.667,
     34.833
    ],
    [
     -74.889,
     34.611
    ],
    [
     -75.111,
     34.389
    ],
    [
     -75.333,
     34.167
    ],
    [
     -75.556,
     33.944
    ],
    [
     -75.778,
     33.722
    ],
    [
     -76,
     33.5
    ],
    [
     -76.325,
     33.545
    ],
    [
     -76.65,
     33.59
    ],
    [
     -76.975,
     33.635
    ],
    [
     -77.3,
     33.68
    ],
    [
     -77.625,
     33.725
    ],
    [
     -77.95,
     33.77
    ],
    [
     -78.275,
     33.815
    ],
    [
     -78.6,
     33.86
    ],
    [
     -78.887,
     34.002
    ],
    [
     -79.175,
     34.145
    ],
    [
     -79.463,
     34.288
    ],
    [
     -79.75,
     34.43
    ],
    [
     -80.037,
     34.572
    ],
    [
     -80.325,
     34.715
    ],
    [
     -80.613,
     34.858
    ],
    [
     -80.9,
     35
    ],
    [
     -81.18,
     35.04
    ],
    [
     -81.46,
     35.08
    ],
    [
     -81.74,
     35.12
    ],
    [
     -82.02,
     35.16
    ],
    [
     -82.3,
     35.2
    ],
    [
     -82.567,
     35.133
    ],
    [
     -82.833,
     35.067
    ],
    [
     -83.1,
     35
    ],
    [
     -83.405,
     34.998
    ],
    [
     -83.71,
     34.995
    ],
    [
     -84.015,
     34.992
    ],
    [
     -84.32,
     34.99
    ],
    [
     -84.666,
     34.991
    ],
    [
     -85.012,
     34.991
    ],
    [
     -85.358,
     34.992
    ],
    [
     -85.704,
     34.992
    ],
    [
     -86.049,
     34.993
    ],
    [
     -86.395,
     34.994
    ],
    [
     -86.741,
     34.994
    ],
    [
     -87.087,
     34.995
    ],
    [
     -87.433,
     34.995
    ],
    [
     -87.779,
     34.996
    ],
    [
     -88.125,
     34.996
    ],
    [
     -88.471,
     34.997
    ],
    [
     -88.816,
     34.998
    ],
    [
     -89.162,
     34.998
    ],
    [
     -89.508,
     34.999
    ],
    [
     -89.854,
     34.999
    ],
    [
     -90.2,
     35
    ]
   ]
  ]
 }
}