{
 "type": "Feature",
 "properties": {
  "id": "new-york-held",
  "family": "held",
  "name": "New York, British 1776 to 1783"
 },
 "geometry": {
  "type": "Polygon",
  "coordinates": [
   [
    [
     -74.3,
     40.45
    ],
    [
     -74.3,
     40.65
    ],
    [
     -74.05,
     40.9
    ],
    [
     -73.75,
     40.95
    ],
    [
     -73.5,
     40.95
    ],
    [
     -72.8,
     41.1
    ],
    [
     -71.8,
     41.2
    ],
    [
     -71.7,
     40.9
    ],
    [
     -72.5,
     40.6
    ],
    [
     -73.8,
     40.4
    ],
    [
     -74,
     40.3
    ],
    [
     -74.3,
     40.45
    ]
   ]
  ]
 }
}