{
 "type": "Feature",
 "properties": {
  "id": "nh",
  "family": "ratified",
  "name": "New Hampshire"
 },
 "geometry": {
  "type": "Polygon",
  "coordinates": [
   [
    [
     -72.56,
     42.73
    ],
    [
     -72.46,
     43.05
    ],
    [
     -72.25,
     43.315
    ],
    [
     -72.04,
     43.58
    ],
    [
     -71.893,
     43.853
    ],
    [
     -71.747,
     44.127
    ],
    [
     -71.6,
     44.4
    ],
    [
     -71.55,
     44.705
    ],
    [
     -71.5,
     45.01
    ],
    [
     -71.233,
     45.14
    ],
    [
     -70.967,
     45.27
    ],
    [
     -70.7,
     45.4
    ],
    [
     -70.74,
     45.12
    ],
    [
     -70.78,
     44.84
    ],
    [
     -70.82,
     44.56
    ],
    [
     -70.86,
     44.28
    ],
    [
     -70.9,
     44
    ],
    [
     -70.833,
     43.693
    ],
    [
     -70.767,
     43.387
    ],
    [
     -70.7,
     43.08
    ],
    [
     -70.5,
     42.99
    ],
    [
     -70.3,
     42.9
    ],
    [
     -70.623,
     42.876
    ],
    [
     -70.946,
     42.851
    ],
    [
     -71.269,
     42.827
    ],
    [
     -71.591,
     42.803
    ],
    [
     -71.914,
     42.779
    ],
    [
     -72.237,
     42.754
    ],
    [
     -72.56,
     42.73
    ]
   ]
  ]
 }
}