{
 "type": "Feature",
 "properties": {
  "id": "nj",
  "family": "ratified",
  "name": "New Jersey"
 },
 "geometry": {
  "type": "Polygon",
  "coordinates": [
   [
    [
     -75.56,
     39.2
    ],
    [
     -75.43,
     39.417
    ],
    [
     -75.3,
     39.633
    ],
    [
     -75.17,
     39.85
    ],
    [
     -74.945,
     40
    ],
    [
     -74.72,
     40.15
    ],
    [
     -74.955,
     40.375
    ],
    [
     -75.19,
     40.6
    ],
    [
     -75.095,
     40.8
    ],
    [
     -75,
     41
    ],
    [
     -74.85,
     41.18
    ],
    [
     -74.7,
     41.36
    ],
    [
     -74.553,
     41.063
    ],
    [
     -74.407,
     40.767
    ],
    [
     -74.26,
     40.47
    ],
    [
     -74.03,
     40.435
    ],
    [
     -73.8,
     40.4
    ],
    [
     -73.85,
     40.1
    ],
    [
     -73.9,
     39.8
    ],
    [
     -74.1,
     39.55
    ],
    [
     -74.3,
     39.3
    ],
    [
     -74.5,
     39.05
    ],
    [
     -74.7,
     38.8
    ],
    [
     -74.987,
     38.933
    ],
    [
     -75.273,
     39.067
    ],
    [
     -75.56,
     39.2
    ]
   ]
  ]
 }
}