{
 "type": "Feature",
 "properties": {
  "id": "northwest-1787",
  "family": "territory",
  "name": "Northwest Territory, 1787"
 },
 "geometry": {
  "type": "Polygon",
  "coordinates": [
   [
    [
     -80.5,
     40.6
    ],
    [
     -80.5,
     40.917
    ],
    [
     -80.5,
     41.233
    ],
    [
     -80.5,
     41.55
    ],
    [
     -80.5,
     41.867
    ],
    [
     -80.5,
     42.183
    ],
    [
     -80.5,
     42.5
    ],
    [
     -80.833,
     42.417
    ],
    [
     -81.167,
     42.333
    ],
    [
     -81.5,
     42.25
    ],
    [
     -81.833,
     42.167
    ],
    [
     -82.167,
     42.083
    ],
    [
     -82.5,
     42
    ],
    [
     -82.733,
     42.167
    ],
    [
     -82.967,
     42.333
    ],
    [
     -83.2,
     42.5
    ],
    [
     -83.122,
     42.811
    ],
    [
     -83.044,
     43.122
    ],
    [
     -82.967,
     43.433
    ],
    [
     -82.889,
     43.744
    ],
    [
     -82.811,
     44.056
    ],
    [
     -82.733,
     44.367
    ],
    [
     -82.656,
     44.678
    ],
    [
     -82.578,
     44.989
    ],
    [
     -82.5,
     45.3
    ],
    [
     -82.787,
     45.45
    ],
    [
     -83.075,
     45.6
    ],
    [
     -83.362,
     45.75
    ],
    [
     -83.65,
     45.9
    ],
    [
     -83.938,
     46.05
    ],
    [
     -84.225,
     46.2
    ],
    [
     -84.513,
     46.35
    ],
    [
     -84.8,
     46.5
    ],
    [
     -85.108,
     46.65
    ],
    [
     -85.417,
     46.8
    ],
    [
     -85.725,
     46.95
    ],
    [
     -86.033,
     47.1
    ],
    [
     -86.342,
     47.25
    ],
    [
     -86.65,
     47.4
    ],
    [
     -86.958,
     47.55
    ],
    [
     -87.267,
     47.7
    ],
    [
     -87.575,
     47.85
    ],
    [
     -87.883,
     48
    ],
    [
     -88.192,
     48.15
    ],
    [
     -88.5,
     48.3
    ],
    [
     -88.818,
     48.327
    ],
    [
     -89.136,
     48.355
    ],
    [
     -89.455,
     48.382
    ],
    [
     -89.773,
     48.409
    ],
    [
     -90.091,
     48.436
    ],
    [
     -90.409,
     48.464
    ],
    [
     -90.727,
     48.491
    ],
    [
     -91.045,
     48.518
    ],
    [
     -91.364,
     48.545
    ],
    [
     -91.682,
     48.573
    ],
    [
     -92,
     48.6
    ],
    [
     -92.32,
     48.68
    ],
    [
     -92.64,
     48.76
    ],
    [
     -92.96,
     48.84
    ],
    [
     -93.28,
     48.92
    ],
    [
     -93.6,
     49
    ],
    [
     -93.92,
     49.08
    ],
    [
     -94.24,
     49.16
    ],
    [
     -94.56,
     49.24
    ],
    [
     -94.88,
     49.32
    ],
    [
     -95.2,
     49.4
    ],
    [
     -95.2,
     49.083
    ],
    [
     -95.2,
     48.767
    ],
    [
     -95.2,
     48.45
    ],
    [
     -95.2,
     48.133
    ],
    [
     -95.2,
     47.817
    ],
    [
     -95.2,
     47.5
    ],
    [
     -94.987,
     47.25
    ],
    [
     -94.775,
     47
    ],
    [
     -94.563,
     46.75
    ],
    [
     -94.35,
     46.5
    ],
    [
     -94.138,
     46.25
    ],
    [
     -93.925,
     46
    ],
    [
     -93.713,
     45.75
    ],
    [
     -93.5,
     45.5
    ],
    [
     -93.3,
     45.25
    ],
    [
     -93.1,
     45
    ],
    [
     -92.9,
     44.75
    ],
    [
     -92.7,
     44.5
    ],
    [
     -92.5,
     44.25
    ],
    [
     -92.3,
     44
    ],
    [
     -92.1,
     43.75
    ],
    [
     -91.9,
     43.5
    ],
    [
     -91.7,
     43.25
    ],
    [
     -91.5,
     43
    ],
    [
     -91.463,
     42.688
    ],
    [
     -91.425,
     42.375
    ],
    [
     -91.388,
     42.063
    ],
    [
     -91.35,
     41.75
    ],
    [
     -91.313,
     41.438
    ],
    [
     -91.275,
     41.125
    ],
    [
     -91.237,
     40.813
    ],
    [
     -91.2,
     40.5
    ],
    [
     -91.045,
     40.2
    ],
    [
     -90.891,
     39.9
    ],
    [
     -90.736,
     39.6
    ],
    [
     -90.582,
     39.3
    ],
    [
     -90.427,
     39
    ],
    [
     -90.273,
     38.7
    ],
    [
     -90.118,
     38.4
    ],
    [
     -89.964,
     38.1
    ],
    [
     -89.809,
     37.8
    ],
    [
     -89.655,
     37.5
    ],
    [
     -89.5,
     37.2
    ],
    [
     -89.175,
     37.3
    ],
    [
     -88.85,
     37.4
    ],
    [
     -88.525,
     37.5
    ],
    [
     -88.2,
     37.6
    ],
    [
     -87.917,
     37.7
    ],
    [
     -87.633,
     37.8
    ],
    [
     -87.35,
     37.9
    ],
    [
     -87.067,
     38
    ],
    [
     -86.783,
     38.1
    ],
    [
     -86.5,
     38.2
    ],
    [
     -86.217,
     38.35
    ],
    [
     -85.933,
     38.5
    ],
    [
     -85.65,
     38.65
    ],
    [
     -85.367,
     38.8
    ],
    [
     -85.083,
     38.95
    ],
    [
     -84.8,
     39.1
    ],
    [
     -84.471,
     39.043
    ],
    [
     -84.143,
     38.986
    ],
    [
     -83.814,
     38.929
    ],
    [
     -83.486,
     38.871
    ],
    [
     -83.157,
     38.814
    ],
    [
     -82.829,
     38.757
    ],
    [
     -82.5,
     38.7
    ],
    [
     -82.25,
     38.938
    ],
    [
     -82,
     39.175
    ],
    [
     -81.75,
     39.413
    ],
    [
     -81.5,
     39.65
    ],
    [
     -81.25,
     39.888
    ],
    [
     -81,
     40.125
    ],
    [
     -80.75,
     40.363
    ],
    [
     -80.5,
     40.6
    ]
   ]
  ]
 }
}