{
 "type": "Feature",
 "properties": {
  "id": "ny",
  "family": "ratified",
  "name": "New York"
 },
 "geometry": {
  "type": "Polygon",
  "coordinates": [
   [
    [
     -74.7,
     41.36
    ],
    [
     -74.92,
     41.573
    ],
    [
     -75.14,
     41.787
    ],
    [
     -75.36,
     42
    ],
    [
     -75.407,
     42.333
    ],
    [
     -75.453,
     42.667
    ],
    [
     -75.5,
     43
    ],
    [
     -75.76,
     43.126
    ],
    [
     -76.02,
     43.252
    ],
    [
     -76.28,
     43.378
    ],
    [
     -76.54,
     43.504
    ],
    [
     -76.8,
     43.63
    ],
    [
     -77.114,
     43.597
    ],
    [
     -77.429,
     43.564
    ],
    [
     -77.743,
     43.531
    ],
    [
     -78.057,
     43.499
    ],
    [
     -78.371,
     43.466
    ],
    [
     -78.686,
     43.433
    ],
    [
     -79,
     43.4
    ],
    [
     -79.067,
     43.133
    ],
    [
     -79.133,
     42.867
    ],
    [
     -79.2,
     42.6
    ],
    [
     -79.387,
     42.4
    ],
    [
     -79.573,
     42.2
    ],
    [
     -79.76,
     42
    ],
    [
     -79.76,
     42.26
    ],
    [
     -79.76,
     42.52
    ],
    [
     -79.6,
     42.767
    ],
    [
     -79.44,
     43.013
    ],
    [
     -79.28,
     43.26
    ],
    [
     -79.12,
     43.507
    ],
    [
     -78.96,
     43.753
    ],
    [
     -78.8,
     44
    ],
    [
     -78.475,
     44.075
    ],
    [
     -78.15,
     44.15
    ],
    [
     -77.825,
     44.225
    ],
    [
     -77.5,
     44.3
    ],
    [
     -77.175,
     44.375
    ],
    [
     -76.85,
     44.45
    ],
    [
     -76.525,
     44.525
    ],
    [
     -76.2,
     44.6
    ],
    [
     -75.92,
     44.66
    ],
    [
     -75.64,
     44.72
    ],
    [
     -75.36,
     44.78
    ],
    [
     -75.08,
     44.84
    ],
    [
     -74.8,
     44.9
    ],
    [
     -74.52,
     44.92
    ],
    [
     -74.24,
     44.94
    ],
    [
     -73.96,
     44.96
    ],
    [
     -73.68,
     44.98
    ],
    [
     -73.4,
     45
    ],
    [
     -73.38,
     44.679
    ],
    [
     -73.36,
     44.357
    ],
    [
     -73.34,
     44.036
    ],
    [
     -73.32,
     43.714
    ],
    [
     -73.3,
     43.393
    ],
    [
     -73.28,
     43.071
    ],
    [
     -73.26,
     42.75
    ],
    [
     -73.337,
     42.517
    ],
    [
     -73.413,
     42.283
    ],
    [
     -73.49,
     42.05
    ],
    [
     -73.532,
     41.787
    ],
    [
     -73.575,
     41.525
    ],
    [
     -73.617,
     41.263
    ],
    [
     -73.66,
     41
    ],
    [
     -73.6,
     40.75
    ],
    [
     -73.28,
     40.78
    ],
    [
     -72.96,
     40.81
    ],
    [
     -72.64,
     40.84
    ],
    [
     -72.32,
     40.87
    ],
    [
     -72,
     40.9
    ],
    [
     -71.7,
     40.9
    ],
    [
     -72,
     40.829
    ],
    [
     -72.3,
     40.757
    ],
    [
     -72.6,
     40.686
    ],
    [
     -72.9,
     40.614
    ],
    [
     -73.2,
     40.543
    ],
    [
     -73.5,
     40.471
    ],
    [
     -73.8,
     40.4
    ],
    [
     -74.03,
     40.435
    ],
    [
     -74.26,
     40.47
    ],
    [
     -74.407,
     40.767
    ],
    [
     -74.553,
     41.063
    ],
    [
     -74.7,
     41.36
    ]
   ]
  ]
 }
}