{
 "type": "Feature",
 "properties": {
  "id": "pa",
  "family": "ratified",
  "name": "Pennsylvania"
 },
 "geometry": {
  "type": "Polygon",
  "coordinates": [
   [
    [
     -80.52,
     39.72
    ],
    [
     -80.52,
     40.042
    ],
    [
     -80.52,
     40.365
    ],
    [
     -80.52,
     40.688
    ],
    [
     -80.52,
     41.01
    ],
    [
     -80.52,
     41.332
    ],
    [
     -80.52,
     41.655
    ],
    [
     -80.52,
     41.977
    ],
    [
     -80.52,
     42.3
    ],
    [
     -80.267,
     42.373
    ],
    [
     -80.013,
     42.447
    ],
    [
     -79.76,
     42.52
    ],
    [
     -79.76,
     42.26
    ],
    [
     -79.76,
     42
    ],
    [
     -79.422,
     42
    ],
    [
     -79.083,
     42
    ],
    [
     -78.745,
     42
    ],
    [
     -78.406,
     42
    ],
    [
     -78.068,
     42
    ],
    [
     -77.729,
     42
    ],
    [
     -77.391,
     42
    ],
    [
     -77.052,
     42
    ],
    [
     -76.714,
     42
    ],
    [
     -76.375,
     42
    ],
    [
     -76.037,
     42
    ],
    [
     -75.698,
     42
    ],
    [
     -75.36,
     42
    ],
    [
     -75.14,
     41.787
    ],
    [
     -74.92,
     41.573
    ],
    [
     -74.7,
     41.36
    ],
    [
     -74.85,
     41.18
    ],
    [
     -75,
     41
    ],
    [
     -75.095,
     40.8
    ],
    [
     -75.19,
     40.6
    ],
    [
     -74.955,
     40.375
    ],
    [
     -74.72,
     40.15
    ],
    [
     -74.945,
     40
    ],
    [
     -75.17,
     39.85
    ],
    [
     -75.48,
     39.785
    ],
    [
     -75.79,
     39.72
    ],
    [
     -76.128,
     39.72
    ],
    [
     -76.466,
     39.72
    ],
    [
     -76.804,
     39.72
    ],
    [
     -77.141,
     39.72
    ],
    [
     -77.479,
     39.72
    ],
    [
     -77.817,
     39.72
    ],
    [
     -78.155,
     39.72
    ],
    [
     -78.493,
     39.72
    ],
    [
     -78.831,
     39.72
    ],
    [
     -79.169,
     39.72
    ],
    [
     -79.506,
     39.72
    ],
    [
     -79.844,
     39.72
    ],
    [
     -80.182,
     39.72
    ],
    [
     -80.52,
     39.72
    ]
   ]
  ]
 }
}