{
 "type": "Feature",
 "properties": {
  "id": "quebec-1774",
  "family": "crown",
  "name": "Province of Quebec after the Quebec Act, 1774"
 },
 "geometry": {
  "type": "Polygon",
  "coordinates": [
   [
    [
     -74.5,
     45
    ],
    [
     -73.4,
     45
    ],
    [
     -71.5,
     45.4
    ],
    [
     -70,
     46.5
    ],
    [
     -67.5,
     47
    ],
    [
     -65.5,
     49
    ],
    [
     -66.5,
     51
    ],
    [
     -74,
     51
    ],
    [
     -79.5,
     49.5
    ],
    [
     -89.5,
     49
    ],
    [
     -92.3,
     46.7
    ],
    [
     -91.2,
     43
    ],
    [
     -91.5,
     40.5
    ],
    [
     -89.5,
     37.2
    ],
    [
     -88.2,
     37.6
    ],
    [
     -86.5,
     38.2
    ],
    [
     -84.8,
     39.1
    ],
    [
     -82.5,
     38.7
    ],
    [
     -80.7,
     40.6
    ],
    [
     -80.5,
     42
    ],
    [
     -78,
     43
    ],
    [
     -76.5,
     43.5
    ],
    [
     -76,
     44.3
    ],
    [
     -74.5,
     45
    ]
   ]
  ]
 }
}