{
 "type": "Feature",
 "properties": {
  "id": "quebec-1763",
  "family": "crown",
  "name": "Province of Quebec, 1763"
 },
 "geometry": {
  "type": "Polygon",
  "coordinates": [
   [
    [
     -74.5,
     45
    ],
    [
     -73.4,
     45
    ],
    [
     -71.5,
     45.4
    ],
    [
     -70,
     46.5
    ],
    [
     -67.5,
     47
    ],
    [
     -65.5,
     49
    ],
    [
     -66.5,
     51
    ],
    [
     -74,
     51
    ],
    [
     -79.5,
     49.5
    ],
    [
     -78.5,
     46
    ],
    [
     -76,
     45.2
    ],
    [
     -74.5,
     45
    ]
   ]
  ]
 }
}