{
 "type": "Feature",
 "properties": {
  "id": "reserve-1763",
  "family": "reserve",
  "name": "Indian Reserve, 1763"
 },
 "geometry": {
  "type": "Polygon",
  "coordinates": [
   [
    [
     -91.2,
     31.2
    ],
    [
     -91.6,
     33
    ],
    [
     -90.2,
     35
    ],
    [
     -89.5,
     37
    ],
    [
     -91.5,
     40.5
    ],
    [
     -91.2,
     43
    ],
    [
     -92.3,
     46.7
    ],
    [
     -89.5,
     48
    ],
    [
     -84.8,
     46.5
    ],
    [
     -82.5,
     45.3
    ],
    [
     -82,
     43
    ],
    [
     -80.5,
     42.3
    ],
    [
     -78.5,
     43
    ],
    [
     -76,
     43.6
    ],
    [
     -75,
     44.9
    ],
    [
     -73.4,
     45
    ],
    [
     -74.8,
     43.5
    ],
    [
     -76,
     41.5
    ],
    [
     -78,
     40
    ],
    [
     -79.5,
     38
    ],
    [
     -81,
     36
    ],
    [
     -83,
     34
    ],
    [
     -84,
     32
    ],
    [
     -85,
     31.2
    ],
    [
     -91.2,
     31.2
    ]
   ]
  ]
 }
}