{
 "type": "Feature",
 "properties": {
  "id": "ri",
  "family": "ratified",
  "name": "Rhode Island"
 },
 "geometry": {
  "type": "Polygon",
  "coordinates": [
   [
    [
     -71.8,
     41.2
    ],
    [
     -71.8,
     41.473
    ],
    [
     -71.8,
     41.747
    ],
    [
     -71.8,
     42.02
    ],
    [
     -71.59,
     42.02
    ],
    [
     -71.38,
     42.02
    ],
    [
     -71.255,
     41.835
    ],
    [
     -71.13,
     41.65
    ],
    [
     -70.9,
     41.55
    ],
    [
     -70.9,
     41.2
    ],
    [
     -71.2,
     41.2
    ],
    [
     -71.5,
     41.2
    ],
    [
     -71.8,
     41.2
    ]
   ]
  ]
 }
}