{
 "type": "Feature",
 "properties": {
  "id": "sc",
  "family": "ratified",
  "name": "South Carolina"
 },
 "geometry": {
  "type": "Polygon",
  "coordinates": [
   [
    [
     -84.32,
     34.99
    ],
    [
     -84.015,
     34.992
    ],
    [
     -83.71,
     34.995
    ],
    [
     -83.405,
     34.998
    ],
    [
     -83.1,
     35
    ],
    [
     -82.833,
     35.067
    ],
    [
     -82.567,
     35.133
    ],
    [
     -82.3,
     35.2
    ],
    [
     -82.02,
     35.16
    ],
    [
     -81.74,
     35.12
    ],
    [
     -81.46,
     35.08
    ],
    [
     -81.18,
     35.04
    ],
    [
     -80.9,
     35
    ],
    [
     -80.613,
     34.858
    ],
    [
     -80.325,
     34.715
    ],
    [
     -80.037,
     34.572
    ],
    [
     -79.75,
     34.43
    ],
    [
     -79.463,
     34.288
    ],
    [
     -79.175,
     34.145
    ],
    [
     -78.887,
     34.002
    ],
    [
     -78.6,
     33.86
    ],
    [
     -78.275,
     33.815
    ],
    [
     -77.95,
     33.77
    ],
    [
     -77.625,
     33.725
    ],
    [
     -77.3,
     33.68
    ],
    [
     -76.975,
     33.635
    ],
    [
     -76.65,
     33.59
    ],
    [
     -76.325,
     33.545
    ],
    [
     -76,
     33.5
    ],
    [
     -76.26,
     33.31
    ],
    [
     -76.52,
     33.12
    ],
    [
     -76.78,
     32.93
    ],
    [
     -77.04,
     32.74
    ],
    [
     -77.3,
     32.55
    ],
    [
     -77.56,
     32.36
    ],
    [
     -77.82,
     32.17
    ],
    [
     -78.08,
     31.98
    ],
    [
     -78.34,
     31.79
    ],
    [
     -78.6,
     31.6
    ],
    [
     -78.925,
     31.706
    ],
    [
     -79.25,
     31.813
    ],
    [
     -79.575,
     31.919
    ],
    [
     -79.9,
     32.025
    ],
    [
     -80.225,
     32.131
    ],
    [
     -80.55,
     32.238
    ],
    [
     -80.875,
     32.344
    ],
    [
     -81.2,
     32.45
    ],
    [
     -81.4,
     32.525
    ],
    [
     -81.6,
     32.6
    ],
    [
     -81.8,
     32.8
    ],
    [
     -82,
     33
    ],
    [
     -82.2,
     33.2
    ],
    [
     -82.4,
     33.4
    ],
    [
     -82.6,
     33.6
    ],
    [
     -82.775,
     33.85
    ],
    [
     -82.95,
     34.1
    ],
    [
     -83.125,
     34.35
    ],
    [
     -83.3,
     34.6
    ],
    [
     -83.555,
     34.698
    ],
    [
     -83.81,
     34.795
    ],
    [
     -84.065,
     34.892
    ],
    [
     -84.32,
     34.99
    ]
   ]
  ]
 }
}