{
 "type": "Feature",
 "properties": {
  "id": "southwest-1790",
  "family": "territory",
  "name": "Southwest Territory, 1790"
 },
 "geometry": {
  "type": "Polygon",
  "coordinates": [
   [
    [
     -90.2,
     35
    ],
    [
     -90.06,
     35.3
    ],
    [
     -89.92,
     35.6
    ],
    [
     -89.78,
     35.9
    ],
    [
     -89.64,
     36.2
    ],
    [
     -89.5,
     36.5
    ],
    [
     -89.158,
     36.506
    ],
    [
     -88.815,
     36.512
    ],
    [
     -88.473,
     36.518
    ],
    [
     -88.131,
     36.524
    ],
    [
     -87.788,
     36.529
    ],
    [
     -87.446,
     36.535
    ],
    [
     -87.104,
     36.541
    ],
    [
     -86.761,
     36.547
    ],
    [
     -86.419,
     36.553
    ],
    [
     -86.076,
     36.559
    ],
    [
     -85.734,
     36.565
    ],
    [
     -85.392,
     36.571
    ],
    [
     -85.049,
     36.576
    ],
    [
     -84.707,
     36.582
    ],
    [
     -84.365,
     36.588
    ],
    [
     -84.022,
     36.594
    ],
    [
     -83.68,
     36.6
    ],
    [
     -83.347,
     36.598
    ],
    [
     -83.013,
     36.597
    ],
    [
     -82.68,
     36.595
    ],
    [
     -82.347,
     36.593
    ],
    [
     -82.013,
     36.592
    ],
    [
     -81.68,
     36.59
    ],
    [
     -81.804,
     36.312
    ],
    [
     -81.928,
     36.034
    ],
    [
     -82.052,
     35.756
    ],
    [
     -82.176,
     35.478
    ],
    [
     -82.3,
     35.2
    ],
    [
     -82.567,
     35.133
    ],
    [
     -82.833,
     35.067
    ],
    [
     -83.1,
     35
    ],
    [
     -83.405,
     34.998
    ],
    [
     -83.71,
     34.995
    ],
    [
     -84.015,
     34.992
    ],
    [
     -84.32,
     34.99
    ],
    [
     -84.666,
     34.991
    ],
    [
     -85.012,
     34.991
    ],
    [
     -85.358,
     34.992
    ],
    [
     -85.704,
     34.992
    ],
    [
     -86.049,
     34.993
    ],
    [
     -86.395,
     34.994
    ],
    [
     -86.741,
     34.994
    ],
    [
     -87.087,
     34.995
    ],
    [
     -87.433,
     34.995
    ],
    [
     -87.779,
     34.996
    ],
    [
     -88.125,
     34.996
    ],
    [
     -88.471,
     34.997
    ],
    [
     -88.816,
     34.998
    ],
    [
     -89.162,
     34.998
    ],
    [
     -89.508,
     34.999
    ],
    [
     -89.854,
     34.999
    ],
    [
     -90.2,
     35
    ]
   ]
  ]
 }
}
