{
 "type": "Feature",
 "properties": {
  "id": "spanish-1783",
  "family": "spanish",
  "name": "Spanish Louisiana and Florida, 1783"
 },
 "geometry": {
  "type": "Polygon",
  "coordinates": [
   [
    [
     -97,
     28
    ],
    [
     -97,
     50
    ],
    [
     -94,
     50
    ],
    [
     -92,
     47.5
    ],
    [
     -90.5,
     44.5
    ],
    [
     -90,
     41
    ],
    [
     -88.5,
     37.5
    ],
    [
     -89,
     35.5
    ],
    [
     -90,
     33
    ],
    [
     -91,
     31
    ],
    [
     -85,
     31
    ],
    [
     -81.5,
     31
    ],
    [
     -80,
     30.8
    ],
    [
     -79,
     27
    ],
    [
     -80,
     24.5
    ],
    [
     -83,
     24
    ],
    [
     -88,
     29.5
    ],
    [
     -93,
     29
    ],
    [
     -97,
     28
    ]
   ]
  ]
 }
}