{
 "type": "Feature",
 "properties": {
  "id": "states-1776",
  "family": "usa",
  "name": "The thirteen united states, 1776"
 },
 "geometry": {
  "type": "Polygon",
  "coordinates": [
   [
    [
     -84.6,
     31.2
    ],
    [
     -84.3,
     33.4
    ],
    [
     -83.3,
     34.6
    ],
    [
     -82.2,
     35.6
    ],
    [
     -81,
     36.6
    ],
    [
     -79.9,
     37.8
    ],
    [
     -78.9,
     38.8
    ],
    [
     -78.3,
     39.9
    ],
    [
     -77.8,
     40.9
    ],
    [
     -76.5,
     41.7
    ],
    [
     -75.4,
     42.4
    ],
    [
     -75,
     43.4
    ],
    [
     -74.6,
     44.2
    ],
    [
     -73.6,
     45.2
    ],
    [
     -71.5,
     45.4
    ],
    [
     -70,
     46.5
    ],
    [
     -67.5,
     47
    ],
    [
     -66,
     45.6
    ],
    [
     -64,
     42.5
    ],
    [
     -67.5,
     39.5
    ],
    [
     -72,
     38
    ],
    [
     -74,
     35.5
    ],
    [
     -76,
     32
    ],
    [
     -79,
     30.5
    ],
    [
     -80.5,
     30
    ],
    [
     -81.4,
     30.6
    ],
    [
     -84.6,
     31.2
    ]
   ]
  ]
 }
}