{
 "type": "Feature",
 "properties": {
  "id": "union-1787",
  "family": "pending",
  "name": "The Union before ratification"
 },
 "geometry": {
  "type": "Polygon",
  "coordinates": [
   [
    [
     -91.1,
     31
    ],
    [
     -90.761,
     31
    ],
    [
     -90.422,
     31
    ],
    [
     -90.083,
     31
    ],
    [
     -89.744,
     31
    ],
    [
     -89.406,
     31
    ],
    [
     -89.067,
     31
    ],
    [
     -88.728,
     31
    ],
    [
     -88.389,
     31
    ],
    [
     -88.05,
     31
    ],
    [
     -87.711,
     31
    ],
    [
     -87.372,
     31
    ],
    [
     -87.033,
     31
    ],
    [
     -86.694,
     31
    ],
    [
     -86.356,
     31
    ],
    [
     -86.017,
     31
    ],
    [
     -85.678,
     31
    ],
    [
     -85.339,
     31
    ],
    [
     -85,
     31
    ],
    [
     -84.65,
     31
    ],
    [
     -84.3,
     31
    ],
    [
     -83.95,
     31
    ],
    [
     -83.6,
     31
    ],
    [
     -83.25,
     31
    ],
    [
     -82.9,
     31
    ],
    [
     -82.55,
     31
    ],
    [
     -82.2,
     31
    ],
    [
     -81.85,
     31
    ],
    [
     -81.5,
     31
    ],
    [
     -81.25,
     30.9
    ],
    [
     -81,
     30.8
    ],
    [
     -80.75,
     30.7
    ],
    [
     -80.5,
     30.6
    ],
    [
     -80.258,
     30.85
    ],
    [
     -80.017,
     31.1
    ],
    [
     -79.775,
     31.35
    ],
    [
     -79.533,
     31.6
    ],
    [
     -79.292,
     31.85
    ],
    [
     -79.05,
     32.1
    ],
    [
     -78.808,
     32.35
    ],
    [
     -78.567,
     32.6
    ],
    [
     -78.325,
     32.85
    ],
    [
     -78.083,
     33.1
    ],
    [
     -77.842,
     33.35
    ],
    [
     -77.6,
     33.6
    ],
    [
     -77.358,
     33.85
    ],
    [
     -77.117,
     34.1
    ],
    [
     -76.875,
     34.35
    ],
    [
     -76.633,
     34.6
    ],
    [
     -76.392,
     34.85
    ],
    [
     -76.15,
     35.1
    ],
    [
     -75.908,
     35.35
    ],
    [
     -75.667,
     35.6
    ],
    [
     -75.425,
     35.85
    ],
    [
     -75.183,
     36.1
    ],
    [
     -74.942,
     36.35
    ],
    [
     -74.7,
     36.6
    ],
    [
     -74.458,
     36.85
    ],
    [
     -74.217,
     37.1
    ],
    [
     -73.975,
     37.35
    ],
    [
     -73.733,
     37.6
    ],
    [
     -73.492,
     37.85
    ],
    [
     -73.25,
     38.1
    ],
    [
     -73.008,
     38.35
    ],
    [
     -72.767,
     38.6
    ],
    [
     -72.525,
     38.85
    ],
    [
     -72.283,
     39.1
    ],
    [
     -72.042,
     39.35
    ],
    [
     -71.8,
     39.6
    ],
    [
     -71.558,
     39.85
    ],
    [
     -71.317,
     40.1
    ],
    [
     -71.075,
     40.35
    ],
    [
     -70.833,
     40.6
    ],
    [
     -70.592,
     40.85
    ],
    [
     -70.35,
     41.1
    ],
    [
     -70.108,
     41.35
    ],
    [
     -69.867,
     41.6
    ],
    [
     -69.625,
     41.85
    ],
    [
     -69.383,
     42.1
    ],
    [
     -69.142,
     42.35
    ],
    [
     -68.9,
     42.6
    ],
    [
     -68.658,
     42.85
    ],
    [
     -68.417,
     43.1
    ],
    [
     -68.175,
     43.35
    ],
    [
     -67.933,
     43.6
    ],
    [
     -67.692,
     43.85
    ],
    [
     -67.45,
     44.1
    ],
    [
     -67.208,
     44.35
    ],
    [
     -66.967,
     44.6
    ],
    [
     -66.725,
     44.85
    ],
    [
     -66.483,
     45.1
    ],
    [
     -66.242,
     45.35
    ],
    [
     -66,
     45.6
    ],
    [
     -65.818,
     45.318
    ],
    [
     -65.636,
     45.036
    ],
    [
     -65.455,
     44.755
    ],
    [
     -65.273,
     44.473
    ],
    [
     -65.091,
     44.191
    ],
    [
     -64.909,
     43.909
    ],
    [
     -64.727,
     43.627
    ],
    [
     -64.545,
     43.345
    ],
    [
     -64.364,
     43.064
    ],
    [
     -64.182,
     42.782
    ],
    [
     -64,
     42.5
    ],
    [
     -64.25,
     42.286
    ],
    [
     -64.5,
     42.071
    ],
    [
     -64.75,
     41.857
    ],
    [
     -65,
     41.643
    ],
    [
     -65.25,
     41.429
    ],
    [
     -65.5,
     41.214
    ],
    [
     -65.75,
     41
    ],
    [
     -66,
     40.786
    ],
    [
     -66.25,
     40.571
    ],
    [
     -66.5,
     40.357
    ],
    [
     -66.75,
     40.143
    ],
    [
     -67,
     39.929
    ],
    [
     -67.25,
     39.714
    ],
    [
     -67.5,
     39.5
    ],
    [
     -67.821,
     39.393
    ],
    [
     -68.143,
     39.286
    ],
    [
     -68.464,
     39.179
    ],
    [
     -68.786,
     39.071
    ],
    [
     -69.107,
     38.964
    ],
    [
     -69.429,
     38.857
    ],
    [
     -69.75,
     38.75
    ],
    [
     -70.071,
     38.643
    ],
    [
     -70.393,
     38.536
    ],
    [
     -70.714,
     38.429
    ],
    [
     -71.036,
     38.321
    ],
    [
     -71.357,
     38.214
    ],
    [
     -71.679,
     38.107
    ],
    [
     -72,
     38
    ],
    [
     -72.2,
     37.75
    ],
    [
     -72.4,
     37.5
    ],
    [
     -72.6,
     37.25
    ],
    [
     -72.8,
     37
    ],
    [
     -73,
     36.75
    ],
    [
     -73.2,
     36.5
    ],
    [
     -73.4,
     36.25
    ],
    [
     -73.6,
     36
    ],
    [
     -73.8,
     35.75
    ],
    [
     -74,
     35.5
    ],
    [
     -74.167,
     35.208
    ],
    [
     -74.333,
     34.917
    ],
    [
     -74.5,
     34.625
    ],
    [
     -74.667,
     34.333
    ],
    [
     -74.833,
     34.042
    ],
    [
     -75,
     33.75
    ],
    [
     -75.167,
     33.458
    ],
    [
     -75.333,
     33.167
    ],
    [
     -75.5,
     32.875
    ],
    [
     -75.667,
     32.583
    ],
    [
     -75.833,
     32.292
    ],
    [
     -76,
     32
    ],
    [
     -76.3,
     31.85
    ],
    [
     -76.6,
     31.7
    ],
    [
     -76.9,
     31.55
    ],
    [
     -77.2,
     31.4
    ],
    [
     -77.5,
     31.25
    ],
    [
     -77.8,
     31.1
    ],
    [
     -78.1,
     30.95
    ],
    [
     -78.4,
     30.8
    ],
    [
     -78.7,
     30.65
    ],
    [
     -79,
     30.5
    ],
    [
     -79.3,
     30.4
    ],
    [
     -79.6,
     30.3
    ],
    [
     -79.9,
     30.2
    ],
    [
     -80.2,
     30.1
    ],
    [
     -80.5,
     30
    ],
    [
     -80.725,
     30.15
    ],
    [
     -80.95,
     30.3
    ],
    [
     -81.175,
     30.45
    ],
    [
     -81.4,
     30.6
    ],
    [
     -81.152,
     30.842
    ],
    [
     -80.903,
     31.084
    ],
    [
     -80.655,
     31.326
    ],
    [
     -80.406,
     31.568
    ],
    [
     -80.158,
     31.81
    ],
    [
     -79.91,
     32.052
    ],
    [
     -79.661,
     32.294
    ],
    [
     -79.413,
     32.535
    ],
    [
     -79.165,
     32.777
    ],
    [
     -78.916,
     33.019
    ],
    [
     -78.668,
     33.261
    ],
    [
     -78.419,
     33.503
    ],
    [
     -78.171,
     33.745
    ],
    [
     -77.923,
     33.987
    ],
    [
     -77.674,
     34.229
    ],
    [
     -77.426,
     34.471
    ],
    [
     -77.177,
     34.713
    ],
    [
     -76.929,
     34.955
    ],
    [
     -76.681,
     35.197
    ],
    [
     -76.432,
     35.439
    ],
    [
     -76.184,
     35.681
    ],
    [
     -75.935,
     35.923
    ],
    [
     -75.687,
     36.165
    ],
    [
     -75.439,
     36.406
    ],
    [
     -75.19,
     36.648
    ],
    [
     -74.942,
     36.89
    ],
    [
     -74.694,
     37.132
    ],
    [
     -74.445,
     37.374
    ],
    [
     -74.197,
     37.616
    ],
    [
     -73.948,
     37.858
    ],
    [
     -73.7,
     38.1
    ],
    [
     -73.452,
     38.342
    ],
    [
     -73.203,
     38.584
    ],
    [
     -72.955,
     38.826
    ],
    [
     -72.706,
     39.068
    ],
    [
     -72.458,
     39.31
    ],
    [
     -72.21,
     39.552
    ],
    [
     -71.961,
     39.794
    ],
    [
     -71.713,
     40.035
    ],
    [
     -71.465,
     40.277
    ],
    [
     -71.216,
     40.519
    ],
    [
     -70.968,
     40.761
    ],
    [
     -70.719,
     41.003
    ],
    [
     -70.471,
     41.245
    ],
    [
     -70.223,
     41.487
    ],
    [
     -69.974,
     41.729
    ],
    [
     -69.726,
     41.971
    ],
    [
     -69.477,
     42.213
    ],
    [
     -69.229,
     42.455
    ],
    [
     -68.981,
     42.697
    ],
    [
     -68.732,
     42.939
    ],
    [
     -68.484,
     43.181
    ],
    [
     -68.235,
     43.423
    ],
    [
     -67.987,
     43.665
    ],
    [
     -67.739,
     43.906
    ],
    [
     -67.49,
     44.148
    ],
    [
     -67.242,
     44.39
    ],
    [
     -66.994,
     44.632
    ],
    [
     -66.745,
     44.874
    ],
    [
     -66.497,
     45.116
    ],
    [
     -66.248,
     45.358
    ],
    [
     -66,
     45.6
    ],
    [
     -66.257,
     45.814
    ],
    [
     -66.514,
     46.029
    ],
    [
     -66.771,
     46.243
    ],
    [
     -67.029,
     46.457
    ],
    [
     -67.286,
     46.671
    ],
    [
     -67.543,
     46.886
    ],
    [
     -67.8,
     47.1
    ],
    [
     -68.08,
     47.18
    ],
    [
     -68.36,
     47.26
    ],
    [
     -68.64,
     47.34
    ],
    [
     -68.92,
     47.42
    ],
    [
     -69.2,
     47.5
    ],
    [
     -69.4,
     47.25
    ],
    [
     -69.6,
     47
    ],
    [
     -69.8,
     46.75
    ],
    [
     -70,
     46.5
    ],
    [
     -70.25,
     46.3
    ],
    [
     -70.5,
     46.1
    ],
    [
     -70.75,
     45.9
    ],
    [
     -71,
     45.7
    ],
    [
     -71.25,
     45.5
    ],
    [
     -71.5,
     45.3
    ],
    [
     -71.817,
     45.25
    ],
    [
     -72.133,
     45.2
    ],
    [
     -72.45,
     45.15
    ],
    [
     -72.767,
     45.1
    ],
    [
     -73.083,
     45.05
    ],
    [
     -73.4,
     45
    ],
    [
     -73.68,
     44.98
    ],
    [
     -73.96,
     44.96
    ],
    [
     -74.24,
     44.94
    ],
    [
     -74.52,
     44.92
    ],
    [
     -74.8,
     44.9
    ],
    [
     -75.033,
     44.7
    ],
    [
     -75.267,
     44.5
    ],
    [
     -75.5,
     44.3
    ],
    [
     -75.733,
     44.1
    ],
    [
     -75.967,
     43.9
    ],
    [
     -76.2,
     43.7
    ],
    [
     -76.511,
     43.667
    ],
    [
     -76.822,
     43.633
    ],
    [
     -77.133,
     43.6
    ],
    [
     -77.444,
     43.567
    ],
    [
     -77.756,
     43.533
    ],
    [
     -78.067,
     43.5
    ],
    [
     -78.378,
     43.467
    ],
    [
     -78.689,
     43.433
    ],
    [
     -79,
     43.4
    ],
    [
     -79.067,
     43.133
    ],
    [
     -79.133,
     42.867
    ],
    [
     -79.2,
     42.6
    ],
    [
     -79.53,
     42.51
    ],
    [
     -79.86,
     42.42
    ],
    [
     -80.19,
     42.33
    ],
    [
     -80.52,
     42.24
    ],
    [
     -80.85,
     42.15
    ],
    [
     -81.18,
     42.06
    ],
    [
     -81.51,
     41.97
    ],
    [
     -81.84,
     41.88
    ],
    [
     -82.17,
     41.79
    ],
    [
     -82.5,
     41.7
    ],
    [
     -82.733,
     41.9
    ],
    [
     -82.967,
     42.1
    ],
    [
     -83.2,
     42.3
    ],
    [
     -83.122,
     42.633
    ],
    [
     -83.044,
     42.967
    ],
    [
     -82.967,
     43.3
    ],
    [
     -82.889,
     43.633
    ],
    [
     -82.811,
     43.967
    ],
    [
     -82.733,
     44.3
    ],
    [
     -82.656,
     44.633
    ],
    [
     -82.578,
     44.967
    ],
    [
     -82.5,
     45.3
    ],
    [
     -82.787,
     45.45
    ],
    [
     -83.075,
     45.6
    ],
    [
     -83.362,
     45.75
    ],
    [
     -83.65,
     45.9
    ],
    [
     -83.938,
     46.05
    ],
    [
     -84.225,
     46.2
    ],
    [
     -84.513,
     46.35
    ],
    [
     -84.8,
     46.5
    ],
    [
     -85.108,
     46.65
    ],
    [
     -85.417,
     46.8
    ],
    [
     -85.725,
     46.95
    ],
    [
     -86.033,
     47.1
    ],
    [
     -86.342,
     47.25
    ],
    [
     -86.65,
     47.4
    ],
    [
     -86.958,
     47.55
    ],
    [
     -87.267,
     47.7
    ],
    [
     -87.575,
     47.85
    ],
    [
     -87.883,
     48
    ],
    [
     -88.192,
     48.15
    ],
    [
     -88.5,
     48.3
    ],
    [
     -88.818,
     48.327
    ],
    [
     -89.136,
     48.355
    ],
    [
     -89.455,
     48.382
    ],
    [
     -89.773,
     48.409
    ],
    [
     -90.091,
     48.436
    ],
    [
     -90.409,
     48.464
    ],
    [
     -90.727,
     48.491
    ],
    [
     -91.045,
     48.518
    ],
    [
     -91.364,
     48.545
    ],
    [
     -91.682,
     48.573
    ],
    [
     -92,
     48.6
    ],
    [
     -92.32,
     48.68
    ],
    [
     -92.64,
     48.76
    ],
    [
     -92.96,
     48.84
    ],
    [
     -93.28,
     48.92
    ],
    [
     -93.6,
     49
    ],
    [
     -93.92,
     49.08
    ],
    [
     -94.24,
     49.16
    ],
    [
     -94.56,
     49.24
    ],
    [
     -94.88,
     49.32
    ],
    [
     -95.2,
     49.4
    ],
    [
     -95.2,
     49.083
    ],
    [
     -95.2,
     48.767
    ],
    [
     -95.2,
     48.45
    ],
    [
     -95.2,
     48.133
    ],
    [
     -95.2,
     47.817
    ],
    [
     -95.2,
     47.5
    ],
    [
     -94.987,
     47.25
    ],
    [
     -94.775,
     47
    ],
    [
     -94.563,
     46.75
    ],
    [
     -94.35,
     46.5
    ],
    [
     -94.138,
     46.25
    ],
    [
     -93.925,
     46
    ],
    [
     -93.713,
     45.75
    ],
    [
     -93.5,
     45.5
    ],
    [
     -93.3,
     45.25
    ],
    [
     -93.1,
     45
    ],
    [
     -92.9,
     44.75
    ],
    [
     -92.7,
     44.5
    ],
    [
     -92.5,
     44.25
    ],
    [
     -92.3,
     44
    ],
    [
     -92.1,
     43.75
    ],
    [
     -91.9,
     43.5
    ],
    [
     -91.7,
     43.25
    ],
    [
     -91.5,
     43
    ],
    [
     -91.463,
     42.688
    ],
    [
     -91.425,
     42.375
    ],
    [
     -91.388,
     42.063
    ],
    [
     -91.35,
     41.75
    ],
    [
     -91.313,
     41.438
    ],
    [
     -91.275,
     41.125
    ],
    [
     -91.237,
     40.813
    ],
    [
     -91.2,
     40.5
    ],
    [
     -91.045,
     40.2
    ],
    [
     -90.891,
     39.9
    ],
    [
     -90.736,
     39.6
    ],
    [
     -90.582,
     39.3
    ],
    [
     -90.427,
     39
    ],
    [
     -90.273,
     38.7
    ],
    [
     -90.118,
     38.4
    ],
    [
     -89.964,
     38.1
    ],
    [
     -89.809,
     37.8
    ],
    [
     -89.655,
     37.5
    ],
    [
     -89.5,
     37.2
    ],
    [
     -89.55,
     36.9
    ],
    [
     -89.6,
     36.6
    ],
    [
     -89.65,
     36.3
    ],
    [
     -89.7,
     36
    ],
    [
     -89.825,
     35.75
    ],
    [
     -89.95,
     35.5
    ],
    [
     -90.075,
     35.25
    ],
    [
     -90.2,
     35
    ],
    [
     -90.343,
     34.714
    ],
    [
     -90.486,
     34.429
    ],
    [
     -90.629,
     34.143
    ],
    [
     -90.771,
     33.857
    ],
    [
     -90.914,
     33.571
    ],
    [
     -91.057,
     33.286
    ],
    [
     -91.2,
     33
    ],
    [
     -91.267,
     32.667
    ],
    [
     -91.333,
     32.333
    ],
    [
     -91.4,
     32
    ],
    [
     -91.467,
     31.667
    ],
    [
     -91.533,
     31.333
    ],
    [
     -91.6,
     31
    ],
    [
     -91.35,
     31
    ],
    [
     -91.1,
     31
    ]
   ]
  ]
 }
}