{
 "type": "Feature",
 "properties": {
  "id": "va-1792",
  "family": "ratified",
  "name": "Virginia"
 },
 "geometry": {
  "type": "Polygon",
  "coordinates": [
   [
    [
     -83.68,
     36.6
    ],
    [
     -83.347,
     36.598
    ],
    [
     -83.013,
     36.597
    ],
    [
     -82.68,
     36.595
    ],
    [
     -82.347,
     36.593
    ],
    [
     -82.013,
     36.592
    ],
    [
     -81.68,
     36.59
    ],
    [
     -81.369,
     36.583
    ],
    [
     -81.057,
     36.576
    ],
    [
     -80.746,
     36.569
    ],
    [
     -80.434,
     36.561
    ],
    [
     -80.123,
     36.554
    ],
    [
     -79.811,
     36.547
    ],
    [
     -79.5,
     36.54
    ],
    [
     -79.173,
     36.541
    ],
    [
     -78.845,
     36.542
    ],
    [
     -78.518,
     36.543
    ],
    [
     -78.191,
     36.544
    ],
    [
     -77.864,
     36.545
    ],
    [
     -77.536,
     36.545
    ],
    [
     -77.209,
     36.546
    ],
    [
     -76.882,
     36.547
    ],
    [
     -76.555,
     36.548
    ],
    [
     -76.227,
     36.549
    ],
    [
     -75.9,
     36.55
    ],
    [
     -75.6,
     36.55
    ],
    [
     -75.3,
     36.55
    ],
    [
     -75,
     36.55
    ],
    [
     -75.12,
     36.82
    ],
    [
     -75.24,
     37.09
    ],
    [
     -75.36,
     37.36
    ],
    [
     -75.48,
     37.63
    ],
    [
     -75.6,
     37.9
    ],
    [
     -75.8,
     37.9
    ],
    [
     -76,
     37.9
    ],
    [
     -76.133,
     38.2
    ],
    [
     -76.267,
     38.5
    ],
    [
     -76.4,
     38.8
    ],
    [
     -76.725,
     38.75
    ],
    [
     -77.05,
     38.7
    ],
    [
     -77.267,
     38.9
    ],
    [
     -77.483,
     39.1
    ],
    [
     -77.7,
     39.3
    ],
    [
     -78,
     39.367
    ],
    [
     -78.3,
     39.433
    ],
    [
     -78.6,
     39.5
    ],
    [
     -78.893,
     39.573
    ],
    [
     -79.187,
     39.647
    ],
    [
     -79.48,
     39.72
    ],
    [
     -79.827,
     39.72
    ],
    [
     -80.173,
     39.72
    ],
    [
     -80.52,
     39.72
    ],
    [
     -80.52,
     40.027
    ],
    [
     -80.52,
     40.333
    ],
    [
     -80.52,
     40.64
    ],
    [
     -80.767,
     40.398
    ],
    [
     -81.015,
     40.155
    ],
    [
     -81.263,
     39.913
    ],
    [
     -81.51,
     39.67
    ],
    [
     -81.757,
     39.428
    ],
    [
     -82.005,
     39.185
    ],
    [
     -82.252,
     38.943
    ],
    [
     -82.5,
     38.7
    ],
    [
     -82.333,
     38.4
    ],
    [
     -82.167,
     38.1
    ],
    [
     -82,
     37.8
    ],
    [
     -82.28,
     37.6
    ],
    [
     -82.56,
     37.4
    ],
    [
     -82.84,
     37.2
    ],
    [
     -83.12,
     37
    ],
    [
     -83.4,
     36.8
    ],
    [
     -83.68,
     36.6
    ]
   ]
  ]
 }
}