{
 "type": "Feature",
 "properties": {
  "id": "va",
  "family": "ratified",
  "name": "Virginia, with Kentucky"
 },
 "geometry": {
  "type": "Polygon",
  "coordinates": [
   [
    [
     -83.68,
     36.6
    ],
    [
     -83.347,
     36.598
    ],
    [
     -83.013,
     36.597
    ],
    [
     -82.68,
     36.595
    ],
    [
     -82.347,
     36.593
    ],
    [
     -82.013,
     36.592
    ],
    [
     -81.68,
     36.59
    ],
    [
     -81.369,
     36.583
    ],
    [
     -81.057,
     36.576
    ],
    [
     -80.746,
     36.569
    ],
    [
     -80.434,
     36.561
    ],
    [
     -80.123,
     36.554
    ],
    [
     -79.811,
     36.547
    ],
    [
     -79.5,
     36.54
    ],
    [
     -79.173,
     36.541
    ],
    [
     -78.845,
     36.542
    ],
    [
     -78.518,
     36.543
    ],
    [
     -78.191,
     36.544
    ],
    [
     -77.864,
     36.545
    ],
    [
     -77.536,
     36.545
    ],
    [
     -77.209,
     36.546
    ],
    [
     -76.882,
     36.547
    ],
    [
     -76.555,
     36.548
    ],
    [
     -76.227,
     36.549
    ],
    [
     -75.9,
     36.55
    ],
    [
     -75.6,
     36.55
    ],
    [
     -75.3,
     36.55
    ],
    [
     -75,
     36.55
    ],
    [
     -75.12,
     36.82
    ],
    [
     -75.24,
     37.09
    ],
    [
     -75.36,
     37.36
    ],
    [
     -75.48,
     37.63
    ],
    [
     -75.6,
     37.9
    ],
    [
     -75.8,
     37.9
    ],
    [
     -76,
     37.9
    ],
    [
     -76.133,
     38.2
    ],
    [
     -76.267,
     38.5
    ],
    [
     -76.4,
     38.8
    ],
    [
     -76.725,
     38.75
    ],
    [
     -77.05,
     38.7
    ],
    [
     -77.267,
     38.9
    ],
    [
     -77.483,
     39.1
    ],
    [
     -77.7,
     39.3
    ],
    [
     -78,
     39.367
    ],
    [
     -78.3,
     39.433
    ],
    [
     -78.6,
     39.5
    ],
    [
     -78.893,
     39.573
    ],
    [
     -79.187,
     39.647
    ],
    [
     -79.48,
     39.72
    ],
    [
     -79.827,
     39.72
    ],
    [
     -80.173,
     39.72
    ],
    [
     -80.52,
     39.72
    ],
    [
     -80.52,
     40.027
    ],
    [
     -80.52,
     40.333
    ],
    [
     -80.52,
     40.64
    ],
    [
     -80.767,
     40.398
    ],
    [
     -81.015,
     40.155
    ],
    [
     -81.263,
     39.913
    ],
    [
     -81.51,
     39.67
    ],
    [
     -81.757,
     39.428
    ],
    [
     -82.005,
     39.185
    ],
    [
     -82.252,
     38.943
    ],
    [
     -82.5,
     38.7
    ],
    [
     -82.829,
     38.757
    ],
    [
     -83.157,
     38.814
    ],
    [
     -83.486,
     38.871
    ],
    [
     -83.814,
     38.929
    ],
    [
     -84.143,
     38.986
    ],
    [
     -84.471,
     39.043
    ],
    [
     -84.8,
     39.1
    ],
    [
     -85.083,
     38.95
    ],
    [
     -85.367,
     38.8
    ],
    [
     -85.65,
     38.65
    ],
    [
     -85.933,
     38.5
    ],
    [
     -86.217,
     38.35
    ],
    [
     -86.5,
     38.2
    ],
    [
     -86.783,
     38.1
    ],
    [
     -87.067,
     38
    ],
    [
     -87.35,
     37.9
    ],
    [
     -87.633,
     37.8
    ],
    [
     -87.917,
     37.7
    ],
    [
     -88.2,
     37.6
    ],
    [
     -88.525,
     37.5
    ],
    [
     -88.85,
     37.4
    ],
    [
     -89.175,
     37.3
    ],
    [
     -89.5,
     37.2
    ],
    [
     -89.5,
     36.967
    ],
    [
     -89.5,
     36.733
    ],
    [
     -89.5,
     36.5
    ],
    [
     -89.158,
     36.506
    ],
    [
     -88.815,
     36.512
    ],
    [
     -88.473,
     36.518
    ],
    [
     -88.131,
     36.524
    ],
    [
     -87.788,
     36.529
    ],
    [
     -87.446,
     36.535
    ],
    [
     -87.104,
     36.541
    ],
    [
     -86.761,
     36.547
    ],
    [
     -86.419,
     36.553
    ],
    [
     -86.076,
     36.559
    ],
    [
     -85.734,
     36.565
    ],
    [
     -85.392,
     36.571
    ],
    [
     -85.049,
     36.576
    ],
    [
     -84.707,
     36.582
    ],
    [
     -84.365,
     36.588
    ],
    [
     -84.022,
     36.594
    ],
    [
     -83.68,
     36.6
    ]
   ]
  ]
 }
}