{
 "type": "Feature",
 "properties": {
  "id": "vt",
  "family": "ratified",
  "name": "Vermont, 1791"
 },
 "geometry": {
  "type": "Polygon",
  "coordinates": [
   [
    [
     -73.26,
     42.75
    ],
    [
     -73.28,
     43.071
    ],
    [
     -73.3,
     43.393
    ],
    [
     -73.32,
     43.714
    ],
    [
     -73.34,
     44.036
    ],
    [
     -73.36,
     44.357
    ],
    [
     -73.38,
     44.679
    ],
    [
     -73.4,
     45
    ],
    [
     -73.083,
     45.002
    ],
    [
     -72.767,
     45.003
    ],
    [
     -72.45,
     45.005
    ],
    [
     -72.133,
     45.007
    ],
    [
     -71.817,
     45.008
    ],
    [
     -71.5,
     45.01
    ],
    [
     -71.55,
     44.705
    ],
    [
     -71.6,
     44.4
    ],
    [
     -71.747,
     44.127
    ],
    [
     -71.893,
     43.853
    ],
    [
     -72.04,
     43.58
    ],
    [
     -72.25,
     43.315
    ],
    [
     -72.46,
     43.05
    ],
    [
     -72.56,
     42.73
    ],
    [
     -72.793,
     42.737
    ],
    [
     -73.027,
     42.743
    ],
    [
     -73.26,
     42.75
    ]
   ]
  ]
 }
}