{"type":"Feature","properties":{"name":"Alvarado’s march from Tenochtitlan to Xetulul, November 1523 – February 1524","style":"solid","arrows":true},"geometry":{"type":"LineString","coordinates":[[-99.133,19.433],[-98.75,19.2],[-98.2,19.04],[-97.9,18.966],[-97.39,18.46],[-97.05,17.8],[-96.72,17.06],[-96.25,16.78],[-95.75,16.55],[-95.24,16.322],[-94.85,16.45],[-94.35,16.47],[-93.75,16.09],[-93.21,15.69],[-92.9,15.44],[-92.68,15.33],[-92.47,15.14],[-92.26,14.905],[-92.1,14.75],[-91.86,14.7],[-91.74,14.62],[-91.645,14.565],[-91.58,14.575],[-91.52,14.588]]}}
