{
 "type": "Feature",
 "properties": {
  "id": "alexandretta",
  "family": "french",
  "name": "Sanjak of Alexandretta, French Mandate of Syria"
 },
 "geometry": {
  "type": "Polygon",
  "coordinates": [
   [
    [
     35.8,
     35.7
    ],
    [
     35.75,
     36.3
    ],
    [
     35.95,
     36.6
    ],
    [
     36.21,
     36.74
    ],
    [
     36.45,
     36.79
    ],
    [
     36.69,
     36.84
    ],
    [
     36.75,
     36.6
    ],
    [
     36.85,
     36.2
    ],
    [
     36.6,
     35.7
    ],
    [
     35.8,
     35.7
    ]
   ]
  ]
 }
}
