{
 "type": "Feature",
 "properties": {
  "id": "british",
  "family": "british",
  "name": "Allied (British) occupation of İstanbul and the Straits"
 },
 "geometry": {
  "type": "Polygon",
  "coordinates": [
   [
    [
     25.9,
     40
    ],
    [
     26,
     40.6
    ],
    [
     26.6,
     40.9
    ],
    [
     27.3,
     41
    ],
    [
     28.2,
     41.35
    ],
    [
     29.2,
     41.4
    ],
    [
     30,
     41.1
    ],
    [
     30.2,
     40.7
    ],
    [
     29.5,
     40.5
    ],
    [
     28.6,
     40.5
    ],
    [
     27.5,
     40.3
    ],
    [
     26.8,
     40
    ],
    [
     26.4,
     39.85
    ],
    [
     25.9,
     40
    ]
   ]
  ]
 }
}