{
 "type": "Feature",
 "properties": {
  "id": "british-south-1919",
  "family": "british",
  "name": "British occupation of Antep, Maraş and Urfa, 1919"
 },
 "geometry": {
  "type": "Polygon",
  "coordinates": [
   [
    [
     36.35,
     37.85
    ],
    [
     37.2,
     38
    ],
    [
     38,
     37.6
    ],
    [
     39,
     37.5
    ],
    [
     39.6,
     37.4
    ],
    [
     39.6,
     36.6
    ],
    [
     38,
     36.6
    ],
    [
     37,
     36.55
    ],
    [
     36.78,
     36.7
    ],
    [
     36.72,
     36.95
    ],
    [
     36.6,
     37.25
    ],
    [
     36.45,
     37.55
    ],
    [
     36.35,
     37.85
    ]
   ]
  ]
 }
}
