{
 "type": "Feature",
 "properties": {
  "id": "french-1919",
  "family": "french",
  "name": "French occupation zone (Cilicia), 1919"
 },
 "geometry": {
  "type": "Polygon",
  "coordinates": [
   [
    [
     33.6,
     35.9
    ],
    [
     33.9,
     37.4
    ],
    [
     34.9,
     37.6
    ],
    [
     35.8,
     37.75
    ],
    [
     36.5,
     37.9
    ],
    [
     36.55,
     37.55
    ],
    [
     36.7,
     37.25
    ],
    [
     36.82,
     36.95
    ],
    [
     36.9,
     36.7
    ],
    [
     36.8,
     35.8
    ],
    [
     36,
     35.75
    ],
    [
     33.6,
     35.9
    ]
   ]
  ]
 }
}
