{
 "type": "Feature",
 "properties": {
  "id": "french",
  "family": "french",
  "name": "French occupation zone (Cilicia)"
 },
 "geometry": {
  "type": "Polygon",
  "coordinates": [
   [
    [
     33.6,
     35.9
    ],
    [
     33.9,
     37.4
    ],
    [
     34.9,
     37.6
    ],
    [
     35.8,
     37.75
    ],
    [
     36.4,
     37.6
    ],
    [
     36.8,
     37.35
    ],
    [
     37.3,
     37.35
    ],
    [
     37.8,
     37.25
    ],
    [
     38,
     36.9
    ],
    [
     37.9,
     36.55
    ],
    [
     36.8,
     35.8
    ],
    [
     36,
     35.75
    ],
    [
     33.6,
     35.9
    ]
   ]
  ]
 }
}
