{
 "type": "Feature",
 "properties": {
  "id": "greek1921",
  "family": "greek",
  "name": "Greek occupation zone, 1921 to 1922"
 },
 "geometry": {
  "type": "Polygon",
  "coordinates": [
   [
    [
     25.8,
     37.1
    ],
    [
     25.8,
     39.9
    ],
    [
     26.4,
     40
    ],
    [
     27,
     40.4
    ],
    [
     27.5,
     40.7
    ],
    [
     29.3,
     40.7
    ],
    [
     29.9,
     40.4
    ],
    [
     30.2,
     40.15
    ],
    [
     30.75,
     39.95
    ],
    [
     30.95,
     39.6
    ],
    [
     30.9,
     39.15
    ],
    [
     30.85,
     38.85
    ],
    [
     30.62,
     38.64
    ],
    [
     30.45,
     38.7
    ],
    [
     30.3,
     38.7
    ],
    [
     29.8,
     38.6
    ],
    [
     28.6,
     37.4
    ],
    [
     27.3,
     37.1
    ],
    [
     25.8,
     37.1
    ]
   ]
  ]
 }
}
