{
 "type": "Feature",
 "properties": {
  "id": "greek-thrace",
  "family": "greek",
  "name": "Greek occupation of Eastern Thrace, 1920 to 1922",
  "clip": [
   "Turkey"
  ]
 },
 "geometry": {
  "type": "Polygon",
  "coordinates": [
   [
    [
     25.9,
     40.5
    ],
    [
     25.9,
     42.2
    ],
    [
     28.1,
     42.2
    ],
    [
     28.75,
     41.45
    ],
    [
     28.65,
     40.95
    ],
    [
     27.6,
     40.85
    ],
    [
     26.7,
     40.65
    ],
    [
     26.2,
     40.45
    ],
    [
     25.9,
     40.5
    ]
   ]
  ]
 }
}
