{
 "type": "Feature",
 "properties": {
  "id": "greek1920",
  "family": "greek",
  "name": "Greek occupation zone, summer 1920"
 },
 "geometry": {
  "type": "Polygon",
  "coordinates": [
   [
    [
     25.8,
     37.1
    ],
    [
     25.8,
     39.9
    ],
    [
     26.4,
     40
    ],
    [
     27,
     40.4
    ],
    [
     27.5,
     40.7
    ],
    [
     29.3,
     40.7
    ],
    [
     29.6,
     40.3
    ],
    [
     29.8,
     38.6
    ],
    [
     28.6,
     37.4
    ],
    [
     27.3,
     37.1
    ],
    [
     25.8,
     37.1
    ]
   ]
  ]
 }
}