{
 "type": "Feature",
 "properties": {
  "id": "rumelia-lost",
  "family": "lost",
  "name": "Ottoman Europe lost in the Balkan Wars, 1912 to 1913"
 },
 "geometry": {
  "type": "Polygon",
  "coordinates": [
   [
    [
     19.2,
     41.9
    ],
    [
     20.3,
     43.1
    ],
    [
     21.5,
     43
    ],
    [
     22.4,
     42.4
    ],
    [
     22.9,
     41.6
    ],
    [
     24,
     41.7
    ],
    [
     25.5,
     41.5
    ],
    [
     26.4,
     41.9
    ],
    [
     26.6,
     41.3
    ],
    [
     26.3,
     40.9
    ],
    [
     26,
     40.5
    ],
    [
     25.5,
     40.3
    ],
    [
     24,
     39.7
    ],
    [
     23,
     39.3
    ],
    [
     22.5,
     39.4
    ],
    [
     21.5,
     39.2
    ],
    [
     21,
     38.9
    ],
    [
     20.6,
     39
    ],
    [
     20,
     39.6
    ],
    [
     19.3,
     40.7
    ],
    [
     19.2,
     41.9
    ]
   ]
  ]
 }
}