{"type":"Feature","properties":{"name":"The Viking fleet from Francia by A Coruña, Lisbon and Cádiz to Seville, August – September 844","style":"solid","arrows":true},"geometry":{"type":"LineString","coordinates":[[-1.3,45.7],[-1.6,44.5],[-2.2,43.6],[-4,43.75],[-6.5,43.8],[-8,43.65],[-8.406,43.39],[-9.35,43.1],[-9.45,42],[-9.05,40.5],[-9.55,39.3],[-9.4,38.68],[-9.139,38.71],[-9.3,38.55],[-8.9,37.6],[-8.99,36.95],[-8,36.88],[-7,36.95],[-6.4,36.6],[-6.3,36.53],[-6.42,36.8],[-6.25,36.97],[-6.08,37.18],[-6.02,37.32],[-5.993,37.389]]}}
