{"type":"Feature","properties":{"family":"austria","name":"Breisgau, held by the Habsburg duke of Modena, 1803 – 1805"},"geometry":{"type":"Polygon","coordinates":[[[7.55,47.8],[7.575,47.675],[7.5875536,47.6122322],[7.5906759,47.6083046],[7.5896657,47.6016713],[7.5928766,47.5856168],[7.6590766,47.5964846],[7.6482765,47.5711559],[7.6086761,47.5644016],[7.6842768,47.5441387],[7.7670777,47.5559587],[7.8210782,47.594796],[7.896679,47.5880417],[7.9110791,47.5610244],[8.0406804,47.5610244],[8.2314823,47.6218132],[8.3067848,47.5923797],[8.35,47.65],[8.15,47.8],[8.2,48.05],[7.95,48.25],[7.6852708,48.25],[7.5798758,48.1148778],[7.5762758,48.054089],[7.6194762,47.9713487],[7.5582756,47.8835427],[7.5654757,47.8497711],[7.55,47.8240355],[7.55,47.8]]]}}
