{"type":"Feature","properties":{"family":"austria","name":"Austrian Empire, 1814 – 1815"},"geometry":{"type":"Polygon","coordinates":[[[8.56,45.9],[8.58,45.8],[8.62,45.72],[8.7,45.58],[8.78,45.45],[8.88,45.35],[9.05,45.24],[9.16,45.18],[9.27,45.13],[9.35,45.1],[9.45,45.1],[9.69,45.06],[9.85,45.1],[10.02,45.12],[10.2,45],[10.42,44.98],[10.5,44.95],[10.65,44.9],[10.8,44.88],[11,44.88],[11.2,44.92],[11.3,44.98],[11.45,44.95],[11.6,44.93],[11.85,44.95],[12.5245407,44.95],[12.5335253,44.9707469],[12.5245407,44.95],[12.5128639,44.9230368],[12.5243549,44.9230366],[12.5312772,44.923464],[12.5379758,44.9247736],[12.5442281,44.926922],[12.5498263,44.9298378],[12.5545843,44.933424],[12.5583439,44.9375616],[12.5609798,44.942113],[12.5609872,44.94213],[12.5609833,44.9421162],[12.5609721,44.942076],[12.5504594,44.9178358],[12.5231068,44.8547657],[12.5218976,44.8526224],[12.5207732,44.8506294],[12.5185576,44.8480425],[12.5175119,44.8468216],[12.4743009,44.8046185],[12.4693707,44.8006752],[12.4666111,44.7991882],[12.4634547,44.7974873],[12.4567787,44.7951763],[12.4495973,44.7938303],[12.447217,44.7937245],[12.4445616,44.7936064],[12.4309907,44.7808789],[12.427036,44.77717],[12.422021,44.7733112],[12.422021,44.7733112],[12.422021,44.7733112],[12.416049,44.7702148],[12.4093459,44.767998],[12.4021654,44.7667446],[12.3947791,44.766502],[12.3874664,44.7672794],[12.3805038,44.7690474],[12.3741547,44.7717391],[12.3479784,44.7854389],[12.3147167,44.8028471],[12.3147167,44.8028471],[12.284752,44.7130601],[12.2999516,44.6754066],[12.5336588,44.6804455],[12.6089944,44.6871342],[12.6809956,44.7043016],[12.7468124,44.7312699],[12.8038301,44.7669726],[12.8497701,44.8099951],[12.8769855,44.8500909],[12.8827811,44.8586294],[12.9015141,44.9109396],[12.9051815,44.9648379],[12.8935939,45.0181671],[12.8671746,45.0687868],[12.8269492,45.1146597],[12.7745097,45.1539351],[12.6970213,45.2012845],[12.6940224,45.2200863],[12.6956698,45.2210009],[12.7127307,45.235107],[13.1458375,45.3662604],[13.1641284,45.2969742],[13.1829201,45.2499275],[13.1999983,45.2253683],[13.2149046,45.1187707],[13.2293946,45.0671823],[13.2447535,45.0408602],[13.2482785,45.0268987],[13.2691052,44.9750224],[13.3040639,44.9271089],[13.3517326,44.8850616],[13.4085699,44.8440183],[13.4224176,44.795867],[13.450525,44.74788],[13.4910234,44.7046033],[13.6063919,44.6035944],[13.6593804,44.5655109],[13.7218407,44.5356175],[13.7913194,44.5150824],[13.865099,44.5047076],[13.8965238,44.5047933],[13.9114982,44.483493],[13.9549771,44.4430103],[14.0083011,44.4090756],[14.0695668,44.3828906],[14.1090361,44.3694385],[14.1252195,44.3652374],[14.1408567,44.3552957],[14.3133358,44.2661411],[14.3738218,44.2408123],[14.3752667,44.2212147],[14.3937441,44.1695181],[14.4260084,44.1214401],[14.4707718,44.0788515],[14.518376,44.0484531],[14.548216,44.01319],[14.8223876,43.7505161],[14.8985185,43.6957076],[14.9703979,43.6570145],[15.0152052,43.637504],[15.038924,43.6195366],[15.0826968,43.591194],[15.1320403,43.5681693],[15.2181916,43.5345343],[15.2834162,43.5145578],[15.3526544,43.5038702],[15.4234277,43.502854],[15.4932046,43.5115458],[15.5380263,43.5237835],[15.5595445,43.5152422],[15.5670798,43.4851243],[15.5945565,43.4350905],[15.6097662,43.4181968],[15.6156899,43.4034033],[15.6492442,43.3564716],[15.6946905,43.3151912],[15.7502734,43.2811364],[15.798159,43.261914],[15.765063,43.2385588],[15.7230391,43.1937202],[15.6942287,43.1436486],[15.6797706,43.0903829],[15.6802132,43.0360863],[15.6954988,42.982958],[15.724972,42.9331441],[15.7647638,42.8809156],[15.8055361,42.8377828],[15.8568664,42.8012407],[15.9168125,42.7726598],[15.983119,42.7531102],[16.0533009,42.7433233],[16.1247337,42.7436649],[16.1947478,42.7541224],[16.2607244,42.774305],[16.3301738,42.8015843],[16.3597288,42.765595],[16.4064154,42.7274675],[16.4569924,42.6993038],[16.4618688,42.6821284],[16.4836407,42.6312024],[16.5185633,42.584423],[16.5652493,42.5436105],[16.6218642,42.5103495],[16.6861992,42.4859291],[16.7557561,42.4712946],[16.8278421,42.4670118],[16.8996704,42.4732464],[17.0143971,42.4917377],[17.081682,42.5076772],[17.1436041,42.5328334],[17.1607388,42.5434006],[17.2132222,42.518518],[17.2913138,42.4978314],[17.6641959,42.4322673],[17.7348997,42.4249788],[17.806172,42.4279451],[17.8753246,42.4410543],[17.8872517,42.4452718],[18.2976621,42.1936656],[18.35862,42.1631632],[18.4265488,42.1423363],[18.4498647,42.1390099],[18.4650278,42.1345651],[18.4747654,42.1235137],[18.5187727,42.0827546],[18.5724695,42.0490317],[18.6338484,42.0235965],[18.6814832,42.0120415],[18.6832059,42.0116236],[18.7106728,41.9934664],[18.7699612,41.9672244],[18.8348103,41.9497742],[18.9028973,41.9417392],[18.9717885,41.9434065],[19.0390223,41.9547163],[19.1021944,41.9752645],[19.1053723,41.9768885],[19.1043019,41.9790415],[19.1032952,41.9853388],[19.1032695,42.0308194],[19.0575651,42.0616217],[19.0530246,42.0653024],[19.0494749,42.0695406],[19.0470378,42.0741915],[19.0457967,42.0790958],[19.0457945,42.0840857],[19.0479344,42.101229],[19.0339723,42.1130132],[19.0120909,42.1120786],[19.0054636,42.1122437],[18.9989866,42.1132981],[18.9928749,42.1152066],[18.9873316,42.117906],[18.9825408,42.1213065],[18.897959,42.1932792],[18.8978432,42.1934005],[18.8979835,42.1932811],[18.9030843,42.1897037],[18.9090156,42.1869188],[18.9155567,42.1850299],[18.9224643,42.1841072],[18.9294816,42.1841852],[18.9363478,42.1852607],[18.9428074,42.187294],[18.9486202,42.1902094],[18.9492674,42.1906917],[18.9492621,42.1906963],[18.9386866,42.1996985],[18.9254149,42.2109957],[18.95,42.27],[18.85,42.38],[18.75,42.48],[18.65,42.55],[18.5004705,42.5998432],[18.499873,42.5993651],[18.475,42.475],[18.4699829,42.4499145],[18.4375844,42.493604],[18.4375844,42.5227197],[18.4375844,42.5594586],[18.3734434,42.5793146],[18.2575826,42.6151816],[17.9947799,42.7401363],[17.8639522,42.8144191],[17.8579786,42.8178109],[17.8111781,42.9106826],[17.703177,42.9191255],[17.6590962,42.8940191],[17.6527765,42.8904197],[17.5555756,42.9343227],[17.6134434,42.9231464],[17.6134533,42.9231444],[17.6149016,42.9235578],[17.614896,42.9235609],[17.5807758,42.9427656],[17.6138401,42.9522056],[17.6635766,42.9664057],[17.6599766,42.9934229],[17.5879759,43.0829175],[17.4403744,43.1521492],[17.400774,43.2163151],[17.2891729,43.3041211],[17.2675727,43.3530899],[17.2855729,43.4375187],[17.2711727,43.4628474],[17.0623706,43.5270133],[16.7131671,43.771857],[16.6980174,43.8009913],[16.6771668,43.8410887],[16.500765,43.9930607],[16.4395644,44.0133236],[16.4143641,44.055538],[16.3279633,44.0825553],[16.2163622,44.20751],[16.1875619,44.2818074],[16.2055621,44.351039],[16.1371614,44.3780563],[16.1587616,44.4168936],[16.1155612,44.5215854],[16.0075601,44.5401597],[16.0435604,44.5891284],[16.0291603,44.6245886],[15.9679597,44.6397858],[15.8887589,44.7242146],[15.8059581,44.6971974],[15.8059581,44.6971974],[15.7267573,44.7698062],[15.7159572,44.8035778],[15.7735577,44.8457922],[15.7303573,44.9268439],[15.7627576,44.9758126],[15.7555576,45.0416671],[15.7915579,45.1902619],[15.8779588,45.2172792],[16.0219602,45.213902],[16.0255603,45.1835076],[16.0687607,45.169999],[16.1227612,45.0957016],[16.2127621,45.0315357],[16.3171632,45.0011413],[16.3423634,45.006207],[16.3891639,45.1176531],[16.4359644,45.1328503],[16.4827648,45.1987048],[16.5295653,45.2223449],[16.8103681,45.1818191],[16.8902559,45.253248],[16.9255693,45.2848223],[16.9471695,45.2358535],[17.0083701,45.2442964],[17.0083701,45.2155906],[17.0371704,45.2307878],[17.0551706,45.2003934],[17.1883719,45.1480475],[17.2459725,45.1548018],[17.2675727,45.1902619],[17.3827738,45.1396046],[17.4439744,45.1615561],[17.4475745,45.1345389],[17.497975,45.1412932],[17.4835748,45.114276],[17.6851769,45.1632447],[17.8363784,45.0636187],[17.9119791,45.0805044],[18.00198,45.1497361],[18.1531815,45.0973902],[18.2395824,45.158179],[18.3943839,45.1193417],[18.5167852,45.0551758],[18.5419854,45.0551758],[18.5491855,45.094013],[18.6103861,45.1007674],[18.6499865,45.0619301],[18.6787868,45.0872587],[18.7255873,45.02647],[18.7903879,45.006207],[18.804788,44.9741241],[18.7723877,44.9420411],[18.8191882,44.8880066],[18.8911889,44.8609894],[19.0171902,44.8660551],[18.9919899,44.9150239],[19.0675907,44.9048924],[19.1323913,44.9538611],[19.0855909,44.9775012],[19.0819908,45.0855702],[19.0459905,45.1379161],[19.1359914,45.1463589],[19.1215912,45.1953277],[19.1414,45.1889199],[19.2259923,45.1615561],[19.1414,45.1889199],[19.1666667,45.1333333],[19.25,44.95],[19.45,44.88],[19.7,44.77],[20,44.68],[20.25,44.68],[20.355,44.755],[20.46,44.83],[20.7,44.85],[20.825,44.775],[20.95,44.7],[21.3,44.8],[21.45,44.75],[21.6,44.7],[21.9,44.55],[22.05,44.525],[22.1132224,44.5144629],[22.1519632,44.5080061],[22.2,44.5],[22.45,44.7],[22.525,44.9],[22.6,45.1],[22.9,45.3],[23.0666667,45.3333333],[23.2333333,45.3666667],[23.4,45.4],[23.85,45.4],[24.06,45.425],[24.27,45.45],[24.385,45.5],[24.5,45.55],[25,45.55],[25.35,45.48],[25.55,45.49],[25.75,45.5],[26,45.55],[26.3,45.72],[26.4,45.95],[26.3,46.2],[26.175,46.385],[26.05,46.57],[25.95,46.685],[25.85,46.8],[25.65,47.1],[25.35,47.32],[25.75,47.38],[26.2,47.5],[26.45,47.65],[26.35,47.9],[26.25,48.05],[26.3,48.25],[26.2,48.5],[26.2272727,48.5090909],[26.35,48.55],[26.2,48.85],[26.225,49.025],[26.25,49.2],[26.15,49.53],[26,49.7],[25.6,49.9],[25.45,49.9733333],[25.3,50.0466667],[25.15,50.12],[24.9666667,50.1633333],[24.7833333,50.2066667],[24.6,50.25],[24.435,50.365],[24.27,50.48],[24.0466667,50.4466667],[23.8233333,50.4133333],[23.6,50.38],[23,50.38],[22.7833333,50.3866667],[22.5666667,50.3933333],[22.35,50.4],[22.2,50.475],[22.05,50.55],[21.95,50.625],[21.85,50.7],[21.75,50.66],[21.4,50.45],[21.2,50.4],[21,50.35],[20.85,50.275],[20.7,50.2],[20.5,50.15],[20.3,50.1],[20.0886364,50.0647727],[20.05,50.03],[19.825,50.015],[19.6,50],[19.5363636,50.0090909],[19.4,50],[19.2,50.04],[19,49.95],[18.55,49.92],[18.4062798,49.92],[18.4807848,49.8963268],[18.4062798,49.92],[18.3691837,49.9317869],[18.3314892,49.92],[18.2935829,49.9081468],[18.289534,49.9123249],[18.2575826,49.9452955],[18.099181,49.9891986],[18.0919809,50.0179044],[18.00198,50.0466102],[18.0307803,50.0027072],[17.8399784,49.9740014],[17.7643776,50.0246587],[17.7211772,50.075316],[17.7319773,50.0955789],[17.6311763,50.1057104],[17.5879759,50.163122],[17.6743767,50.1749421],[17.7463775,50.2171565],[17.7175772,50.2526166],[17.7355774,50.2897653],[17.7067771,50.3117168],[17.6311763,50.2627481],[17.4691747,50.2661252],[17.4295743,50.239108],[17.3863739,50.2728795],[17.3539735,50.2526166],[17.3179732,50.3083397],[17.3359734,50.3134054],[17.2099721,50.3370455],[17.1883719,50.3792599],[16.8931689,50.4332944],[16.8643686,50.4079657],[16.9255693,50.3184711],[16.9867699,50.2846996],[17.0155702,50.2188451],[16.9615696,50.2323537],[16.9543695,50.2137793],[16.8175682,50.1867621],[16.702367,50.0955789],[16.6591666,50.0922018],[16.5655657,50.1428591],[16.5367654,50.207025],[16.4395644,50.2982082],[16.3711637,50.3184711],[16.3423634,50.3691284],[16.2631626,50.3640627],[16.198362,50.4062771],[16.2127621,50.4518687],[16.2883629,50.4923946],[16.3531635,50.4923946],[16.3927639,50.5211004],[16.3927639,50.5599377],[16.4251643,50.5683806],[16.3315633,50.6443665],[16.2307623,50.6612523],[16.1767618,50.6241036],[16.0867609,50.6460551],[15.9823598,50.6038407],[16.00036,50.6359236],[15.9715597,50.6781381],[15.8491585,50.6747609],[15.7915579,50.742304],[15.6727567,50.7338611],[15.4423544,50.7997156],[15.3559536,50.7760756],[15.3415534,50.8317986],[15.2551526,50.8993417],[15.2695527,50.9533762],[15.25,50.9582893],[15.1687517,50.9787048],[15.1435514,51.0107878],[15.1075511,50.9803934],[15.00315,51.0209193],[14.9599496,50.9922134],[14.99595,50.9584419],[14.9815498,50.8588158],[14.8087481,50.8588158],[14.7583476,50.8098471],[14.6143461,50.8453072],[14.6287463,50.9212932],[14.5495455,50.9128503],[14.5747457,50.9753277],[14.4811448,51.037805],[14.398344,51.0124764],[14.2867429,51.0361165],[14.2399424,50.982082],[14.3803438,50.9212932],[14.3479435,50.8807673],[14.2327423,50.8790788],[14.0347403,50.8030928],[13.8907389,50.7811413],[13.8835388,50.742304],[13.8331383,50.7237297],[13.5559356,50.7068439],[13.5163352,50.6916467],[13.5235352,50.6629409],[13.4479345,50.5970864],[13.3687337,50.6291693],[13.2859329,50.5683806],[13.2319323,50.5818892],[13.1599316,50.4974603],[13.0087301,50.4923946],[12.99793,50.4332944],[12.9511295,50.4045886],[12.8179282,50.4434258],[12.7387274,50.4316058],[12.6919269,50.3944571],[12.5119251,50.3893914],[12.3468474,50.2677175],[12.3355234,50.2593709],[12.299523,50.1614334],[12.2275223,50.2374194],[12.2419224,50.2526166],[12.1771218,50.2695024],[12.1699217,50.3032739],[12.1377783,50.307333],[12.0763208,50.315094],[12.1123211,50.2762567],[12.0799208,50.2424851],[12.1843218,50.1715649],[12.1879219,50.1023332],[12.2283274,50.0783274],[12.2419224,50.0702503],[12.2455225,50.0449216],[12.4507245,49.9807557],[12.4723247,49.955427],[12.4615246,49.9317869],[12.5191252,49.911524],[12.4831248,49.8270951],[12.4615246,49.8304723],[12.4543245,49.779815],[12.3823238,49.7426663],[12.4183242,49.7004518],[12.497525,49.6700574],[12.501125,49.6194001],[12.5479255,49.59576],[12.5839258,49.5231512],[12.6235262,49.5096426],[12.6451265,49.4302795],[12.7099271,49.4049508],[12.7783278,49.332342],[12.8575286,49.3222105],[12.8863289,49.3390963],[13.00153,49.2951933],[13.1779318,49.1178927],[13.300333,49.0942526],[13.3723337,49.0385295],[13.397534,48.9777408],[13.4587346,48.9456578],[13.4839348,48.9372149],[13.5163352,48.9709865],[13.6099361,48.9456578],[13.6207362,48.9085091],[13.7251373,48.8679832],[13.8151382,48.7666686],[13.7827378,48.7160113],[13.8151382,48.6957484],[13.797138,48.5978109],[13.7323373,48.5589736],[13.7190255,48.5246326],[13.85,48.35],[13.9,48.1],[13.75,48.025],[13.6,47.95],[13.3,47.95],[13.45,47.75],[13.75,47.45],[13.8,47.25],[13.6,47.05],[13.3,47.05],[13,47.07],[12.7,47.1],[12.4,47.12],[12.1,47.1],[12.3,47.25],[12.5,47.35],[12.65,47.6],[12.720517,47.670517],[12.6523265,47.6758477],[12.497525,47.6285675],[12.4255243,47.6910449],[12.2383224,47.6792248],[12.2383224,47.7315707],[12.1771218,47.7062421],[12.2059221,47.6370104],[12.1735217,47.6049274],[11.9359194,47.6099932],[11.8207182,47.5745331],[11.6191162,47.5897303],[11.5507155,47.5137443],[11.4139141,47.5053014],[11.3671137,47.4698413],[11.3851139,47.4445126],[11.3059131,47.4360697],[11.2375124,47.3938553],[11.1943119,47.4293154],[11.0827108,47.3887896],[10.9783098,47.3904781],[10.9603096,47.4326926],[10.8523085,47.4934813],[10.8919089,47.5154329],[10.8703087,47.5272529],[10.7623076,47.5137443],[10.6075061,47.562713],[10.4815048,47.5323186],[10.4527045,47.5458272],[10.4563046,47.5795988],[10.4275043,47.5762216],[10.4203042,47.4934813],[10.4527045,47.4597098],[10.4275043,47.3955439],[10.3051031,47.3026721],[10.2474572,47.2898288],[10.1611016,47.2705891],[10.1935019,47.3043607],[10.2079021,47.3719038],[10.0819008,47.3583952],[10.0531005,47.4056753],[10.0819008,47.4276268],[10.0243002,47.4884156],[9.9810998,47.4816613],[9.9450995,47.5407615],[9.8334983,47.5340072],[9.8082981,47.5762216],[9.7686977,47.5880417],[9.6750968,47.5221872],[9.5490955,47.5340072],[9.5850959,47.4799727],[9.6498965,47.4512669],[9.6498965,47.4090525],[9.5202952,47.2621463],[9.5634956,47.1979803],[9.5526955,47.1675859],[9.6174962,47.1067972],[9.5814958,47.0561398],[9.8586986,47.015614],[9.8766988,46.927808],[10.1107011,46.8467563],[10.200702,46.8670192],[10.2367024,46.9227422],[10.2943029,46.9227422],[10.3123031,46.9649567],[10.3735037,46.9970396],[10.4599046,46.9362508],[10.4527045,46.863642],[10.4167042,46.7994761],[10.4275043,46.7555731],[10.3699037,46.6728328],[10.3869415,46.65],[10.395104,46.6390612],[10.4055817,46.636604],[10.4055817,46.636604],[10.4055817,46.636604],[10.4599046,46.6238641],[10.4458675,46.5399179],[10.4455045,46.5377466],[10.2943029,46.5512552],[10.2331023,46.5748953],[10.2331023,46.6187983],[10.1935019,46.6272412],[10.1935019,46.6272412],[10.096301,46.6086669],[10.0315003,46.5326809],[10.0279003,46.4465634],[10.1395014,46.4026604],[10.0927009,46.3384945],[10.1575016,46.2625085],[10.1179012,46.2304255],[10.0423004,46.2202941],[10.0315003,46.2608199],[9.9774998,46.2979686],[9.9630996,46.3553803],[9.9198992,46.3705775],[9.7686977,46.3384945],[9.7218972,46.3503145],[9.6750968,46.2912143],[9.5346953,46.2979686],[9.4410944,46.3807089],[9.4338943,46.4989093],[9.3834938,46.4668264],[9.3294933,46.5022865],[9.2646926,46.4854007],[9.2394924,46.436432],[9.2754928,46.3317402],[9.2412627,46.2629312],[9.2250923,46.2304255],[9.0702907,46.1189794],[9.0594906,46.0615678],[9.00189,46.0396163],[9.0162902,45.9923362],[8.9802898,45.9636303],[9.0630906,45.8994644],[9.00189,45.8201013],[8.901089,45.8268556],[8.9118891,45.8825786],[8.8722887,45.9467446],[8.7678877,45.9838933],[8.8326883,46.0666336],[8.8074881,46.0902736],[8.7282873,46.108848],[8.6778868,46.0953394],[8.6777026,46.0954052],[8.62,45.98],[8.56,45.9]],[[15.00315,44.0521609],[15.0473647,44],[15.0473647,44],[15.00315,44.0521609]],[[15.078931,44],[15.078931,44],[15.1435514,43.9491577],[15.078931,44]],[[15.1435514,44.1956899],[15.371836,44],[15.371836,44],[15.1435514,44.1956899]],[[15.2623526,44.011635],[15.2724587,44],[15.2724587,44],[15.2623526,44.011635]],[[15.2960885,44],[15.2960885,44],[15.3847538,43.9694206],[15.2960885,44]],[[16.8375055,42.9899446],[16.8375059,42.9899431],[16.8375062,42.9899416],[16.8375069,42.9899391],[16.8375073,42.9899375],[16.8379252,42.9882605],[16.8399676,42.9800652],[16.8399676,42.9800652],[16.842312,42.9706577],[16.842312,42.9706577],[16.8441257,42.9633798],[16.8441269,42.9633751],[16.8441257,42.9633798],[16.842312,42.9706577],[16.842312,42.9706577],[16.8406791,42.9772098],[16.8399676,42.9800652],[16.8399676,42.9800652],[16.8379252,42.9882605],[16.8375073,42.9899375],[16.8375069,42.9899391],[16.8375062,42.9899416],[16.8375059,42.9899431],[16.8375055,42.9899446]],[[17.3251733,42.7907936],[17.3681916,42.7648511],[17.3755738,42.7603993],[17.3681916,42.7648511],[17.3251733,42.7907936]],[[18.9775898,45.3945798],[19.0361646,45.4204379],[19.0387904,45.421597],[19.0361646,45.4204379],[19.0667644,45.3531183],[19.0207902,45.3574311],[18.9775898,45.3945798]],[[18.99559,45.4739429],[19.0046225,45.4898305],[19.0317724,45.4301007],[19.0387904,45.421597],[19.0317724,45.4301007],[18.99559,45.4739429]]]}}
