{"type":"Feature","properties":{"family":"austria","name":"Austrian Luxembourg and Limburg, 1789 – 1794"},"geometry":{"type":"Polygon","coordinates":[[[4.7826478,49.9588042],[4.8618486,49.9132126],[4.8366484,49.8591781],[4.8582486,49.7865693],[4.9698497,49.7967007],[5.0814508,49.7527977],[5.1678517,49.6869432],[5.2578526,49.692009],[5.301053,49.6633031],[5.297453,49.6126458],[5.3334533,49.6261544],[5.401854,49.6025144],[5.4558546,49.5366598],[5.4558546,49.4995111],[5.5458555,49.5231512],[5.603456,49.5130198],[5.6430564,49.5434142],[5.7906579,49.5383484],[5.8410584,49.4995111],[5.9274593,49.4826254],[5.9598596,49.4420995],[6.0786608,49.452231],[6.1074611,49.4826254],[6.1938619,49.4995111],[6.3450635,49.4556081],[6.3558636,49.5771857],[6.4170642,49.6396631],[6.4170642,49.6700574],[6.4926649,49.7004518],[6.503465,49.7967007],[6.4920799,49.798894],[6.55,49.85],[6.62,50.02],[6.42,50.2],[6.235,50.225],[6.1909854,50.2309479],[6.2550626,50.2559938],[6.2874629,50.3032739],[6.3630636,50.3066511],[6.3738637,50.3286026],[6.3378634,50.3674399],[6.3378634,50.4805745],[6.2082621,50.4856403],[6.1686617,50.522789],[6.1614616,50.5430519],[6.2478625,50.6139721],[6.1578616,50.622415],[6.100261,50.7017782],[6.0102601,50.7085325],[5.99586,50.7507469],[5.9475959,50.7511511],[5.7942579,50.7524355],[5.7675091,50.7649819],[5.8,50.7],[6,50.55],[5.95,50.4],[5.6,50.38],[5.45,50.34],[5.3,50.3],[5.05,50.3],[4.95,50.2],[4.9,50.12],[4.8657774,50.1040295],[4.8618486,50.0837589],[4.8258483,50.063496],[4.7826478,49.9588042]]]}}
