{"type":"Feature","properties":{"family":"austria","name":"Habsburg Monarchy, 1789 – 1794"},"geometry":{"type":"Polygon","coordinates":[[[9.5202952,47.2621463],[9.5634956,47.1979803],[9.5526955,47.1675859],[9.6174962,47.1067972],[9.5814958,47.0561398],[9.8586986,47.015614],[9.8766988,46.927808],[10.1107011,46.8467563],[10.200702,46.8670192],[10.2367024,46.9227422],[10.2943029,46.9227422],[10.3123031,46.9649567],[10.3735037,46.9970396],[10.4599046,46.9362508],[10.4527045,46.863642],[10.4167042,46.7994761],[10.4275043,46.7555731],[10.3699037,46.6728328],[10.3869415,46.65],[10.395104,46.6390612],[10.3869415,46.65],[10.4,46.65],[10.4055817,46.636604],[10.4599046,46.6238641],[10.4458675,46.5399179],[10.4455045,46.5377466],[10.4458675,46.5399179],[10.45,46.53],[10.5,46.34],[10.58,46.26],[10.54,46.13],[10.5,46],[10.5,45.85],[10.65,45.82],[10.8120253,45.8443038],[10.85,45.85],[10.9,45.7],[11,45.75],[11.15,45.8],[11.35,45.9],[11.6,45.95],[11.7,46.05],[11.775,46.175],[11.85,46.3],[12,46.45],[12.25,46.45],[12.325,46.575],[12.39814,46.6969],[12.403924,46.6897186],[12.5479255,46.6525699],[12.7495275,46.6407498],[12.8287283,46.6103554],[12.9005129,46.6046162],[12.9005129,46.6046162],[12.9501299,46.6006493],[13.1455315,46.5850268],[13.2319323,46.5529438],[13.2802294,46.5549426],[13.3,46.55],[13.45,46.5],[13.4833333,46.4],[13.4916967,46.37491],[13.4335343,46.3536917],[13.3651337,46.2895258],[13.4083341,46.208474],[13.4371344,46.2101626],[13.4227342,46.228737],[13.4695347,46.2236712],[13.5919166,46.1919166],[13.25,45.85],[13.25,45.7713134],[13.2139321,45.7795754],[13.25,45.7713134],[13.2865806,45.762934],[13.285916,45.7613422],[13.2826042,45.7568179],[13.2781355,45.7528084],[13.2726686,45.749456],[13.2663977,45.7468795],[13.2595452,45.7451704],[13.2523542,45.7443892],[13.2450797,45.7445637],[13.2379797,45.7456877],[13.2378384,45.7457201],[13.2192525,45.7499791],[13.1698567,45.7280953],[13.1678579,45.7273884],[13.1698567,45.7280953],[13.2192525,45.7499791],[13.2378387,45.74572],[13.2378716,45.7457125],[13.2378712,45.7457126],[13.2378716,45.7457125],[13.2378726,45.7457122],[13.2379512,45.7456876],[13.3534172,45.7192407],[13.3643837,45.7151283],[13.3731223,45.7118514],[13.3606174,45.7080776],[13.3541785,45.705602],[13.348528,45.7023199],[13.3454514,45.6996977],[13.3454514,45.6996977],[13.3454514,45.6996977],[13.3454571,45.6996941],[13.3454634,45.69969],[13.3487019,45.6976166],[13.3609771,45.6897573],[13.3654345,45.6869034],[13.4205687,45.6516036],[13.4205782,45.6515975],[13.4205822,45.6515949],[13.5752335,45.7140016],[13.4205822,45.6515949],[13.4205822,45.6515949],[13.5752335,45.7140016],[13.5816524,45.7172377],[13.5869927,45.7213185],[13.5885514,45.723154],[13.5869927,45.7213185],[13.5910302,45.7260729],[13.5935951,45.7313013],[13.5935951,45.7313013],[13.5945793,45.7367844],[13.5939411,45.7422919],[13.5936626,45.7429527],[13.5932492,45.7439337],[13.6724602,45.6987974],[13.6957811,45.6855086],[13.7029069,45.6775772],[13.6957811,45.6855086],[13.7101632,45.6695007],[13.7062023,45.6634552],[13.704447,45.6607762],[13.7020024,45.6558205],[13.7037914,45.6594472],[13.7020024,45.6558205],[13.7016015,45.6537923],[13.7009761,45.6506283],[13.7011858,45.6480773],[13.7014063,45.6453958],[13.7024584,45.6425408],[13.7014063,45.6453958],[13.7032766,45.6403206],[13.7065158,45.6355944],[13.7076865,45.6344985],[13.7110013,45.6313955],[13.7165637,45.6278825],[13.7230208,45.6245395],[13.7149755,45.6228592],[13.6997089,45.6196706],[13.6928537,45.6177197],[13.6890448,45.6159797],[13.6928537,45.6177197],[13.6866576,45.6148891],[13.681349,45.6112832],[13.6771232,45.6070348],[13.6765096,45.6060624],[13.6741356,45.6023005],[13.6732358,45.5995312],[13.6741356,45.6023005],[13.6724961,45.5972545],[13.6722645,45.5920828],[13.673449,45.5869758],[13.6760056,45.5821213],[13.6746103,45.5847706],[13.6760056,45.5821213],[13.67984,45.577698],[13.6802802,45.5772853],[13.67984,45.577698],[13.6824993,45.5752047],[13.6824993,45.5752047],[13.682498,45.5752046],[13.5662418,45.566621],[13.5630576,45.5661614],[13.5662418,45.566621],[13.682498,45.5752046],[13.682498,45.5752046],[13.6899312,45.5757534],[13.6899312,45.5757534],[13.6899312,45.5757534],[13.6897676,45.5766174],[13.6903354,45.5821017],[13.6924796,45.5873904],[13.6961117,45.5922638],[13.7010809,45.5965191],[13.7071808,45.5999794],[13.7141579,45.6025007],[13.7217218,45.6039782],[13.743469,45.6065879],[13.750805,45.6069685],[13.7581117,45.6063656],[13.7642693,45.6049915],[13.7107371,45.5938319],[13.7282625,45.5773915],[13.75,45.58],[13.85,45.55],[13.95,45.45],[14.05,45.3],[14.2,45.25],[14.1577922,45.1233766],[14.15,45.1],[14.1577922,45.1233766],[14.1796006,45.1328269],[14.1787418,45.1345389],[14.1816106,45.1336979],[14.2075421,45.126096],[14.1816106,45.1336979],[14.2369562,45.157681],[14.2426183,45.1842389],[14.2453606,45.1839946],[14.2523641,45.1823649],[14.2587942,45.1798174],[14.2644119,45.1764472],[14.2690083,45.1723794],[14.2703292,45.1705894],[14.2762727,45.1814336],[14.2799179,45.1864488],[14.2817316,45.1880202],[14.2820925,45.188333],[14.2820925,45.188333],[14.2820925,45.188333],[14.2822182,45.1884419],[14.2822182,45.1884419],[14.2849624,45.1908196],[14.2901854,45.1937864],[14.2849624,45.1908196],[14.2822182,45.1884419],[14.2950927,45.2486422],[14.2822182,45.1884419],[14.2822182,45.1884419],[14.2950927,45.2486422],[14.3041002,45.2632775],[14.3362437,45.3155042],[14.3897433,45.3124883],[14.4638071,45.2806441],[14.3897433,45.3124883],[14.511516,45.2601314],[14.5137488,45.2593737],[14.5140878,45.2592586],[14.5130573,45.257592],[14.5114583,45.2523093],[14.4965354,45.156704],[14.4965431,45.1567052],[14.4965495,45.1567062],[14.5089104,45.2358626],[14.5103812,45.2408596],[14.5131619,45.2455715],[14.5171533,45.2498295],[14.5222125,45.2534811],[14.5281586,45.2563955],[14.5347785,45.2584682],[14.5418352,45.259625],[14.5490756,45.2598244],[14.5562404,45.2590593],[14.5962741,45.2519945],[14.601093,45.2507536],[14.601093,45.2507536],[14.601093,45.2507536],[14.6220165,45.2308368],[14.6220165,45.2308368],[14.6220165,45.2308368],[14.6378426,45.2157722],[14.6578086,45.1891973],[14.6687386,45.1883852],[14.6758525,45.1873169],[14.6900014,45.1798202],[14.6914644,45.179045],[14.6965428,45.1763542],[14.6965998,45.1763241],[14.6965998,45.1763241],[14.6965998,45.1763241],[14.6965998,45.1763241],[14.7537014,45.1460689],[14.7537014,45.1460689],[14.8519485,45.094013],[14.7537014,45.1460689],[14.7537014,45.1460689],[14.6965998,45.1763241],[14.6965998,45.1763241],[14.6965998,45.1763241],[14.6965998,45.1763241],[14.6965428,45.1763542],[14.6965429,45.1763542],[14.6996826,45.1725142],[14.7021503,45.1671483],[14.7029825,45.1615382],[14.7029713,45.1443247],[14.7029713,45.1443247],[14.7029712,45.1441621],[14.702968,45.1392116],[14.7265766,45.1267073],[14.8198384,45.0773113],[14.8806035,44.9574544],[14.8437855,44.8504819],[14.8428918,44.8446668],[14.8437855,44.8504819],[14.8427139,44.8435096],[14.8429333,44.8363624],[14.8442295,44.7941299],[14.8442295,44.7941299],[14.842988,44.8345797],[14.8442295,44.7941299],[14.8442374,44.7941252],[14.844283,44.7940983],[14.8474744,44.7922099],[14.8531802,44.7880075],[14.8574793,44.7830322],[14.8837686,44.7435393],[14.8843488,44.7242146],[14.8955416,44.7101634],[14.8955416,44.7101633],[14.8955416,44.7101633],[14.8951029,44.708829],[14.8921311,44.7041157],[14.8813258,44.6906101],[14.8768777,44.6861647],[14.8739671,44.6842375],[14.8739671,44.6842375],[14.8739671,44.6842375],[14.8739671,44.6842375],[14.8739671,44.6842375],[14.8739671,44.6842375],[14.8730627,44.6836386],[14.8730602,44.6836369],[14.8905172,44.6617374],[14.8730602,44.6836369],[14.8730602,44.6836369],[14.9169185,44.6286174],[14.9169185,44.6286174],[14.9169185,44.6286174],[14.9169237,44.6286161],[14.9363785,44.6234845],[14.9383709,44.6269752],[14.9425723,44.6314745],[14.9479497,44.6352869],[14.9532178,44.6377576],[14.9532178,44.6377576],[14.9532178,44.6377576],[14.9532178,44.6377576],[14.9532178,44.6377576],[14.9532184,44.6377569],[14.9592511,44.6301835],[14.9718602,44.6143542],[14.9718603,44.6143542],[15.04,44.55],[15.055015,44.5360575],[15.055015,44.5360575],[15.0550151,44.5360574],[15.1066785,44.4991318],[15.107812,44.498014],[15.1109173,44.4931612],[15.1126236,44.4879674],[15.1128647,44.4826358],[15.112106,44.479399],[15.2818214,44.3582902],[15.2865509,44.3541567],[15.2870133,44.3535331],[15.3267377,44.3377955],[15.3321895,44.335165],[15.3369195,44.3318968],[15.3757532,44.2999054],[15.434399,44.2686237],[15.4243542,44.2682988],[15.3084764,44.3141959],[15.2623526,44.3324647],[15.3084764,44.3141959],[15.35,44.28],[15.5,44.2],[15.65,44.18],[15.95,44.2],[16.15,44.2],[16.5,43.9],[16.6980174,43.8009913],[16.6771668,43.8410887],[16.500765,43.9930607],[16.4395644,44.0133236],[16.4143641,44.055538],[16.3279633,44.0825553],[16.2163622,44.20751],[16.1875619,44.2818074],[16.2055621,44.351039],[16.1371614,44.3780563],[16.1587616,44.4168936],[16.1155612,44.5215854],[16.0075601,44.5401597],[16.0435604,44.5891284],[16.0291603,44.6245886],[15.9679597,44.6397858],[15.8887589,44.7242146],[15.8059581,44.6971974],[15.8059581,44.6971974],[15.7267573,44.7698062],[15.7159572,44.8035778],[15.7735577,44.8457922],[15.7303573,44.9268439],[15.7627576,44.9758126],[15.7555576,45.0416671],[15.7915579,45.1902619],[15.8779588,45.2172792],[16.0219602,45.213902],[16.0255603,45.1835076],[16.0687607,45.169999],[16.1227612,45.0957016],[16.2127621,45.0315357],[16.3171632,45.0011413],[16.3423634,45.006207],[16.3891639,45.1176531],[16.4359644,45.1328503],[16.4827648,45.1987048],[16.5295653,45.2223449],[16.8103681,45.1818191],[16.8902559,45.253248],[16.9255693,45.2848223],[16.9471695,45.2358535],[17.0083701,45.2442964],[17.0083701,45.2155906],[17.0371704,45.2307878],[17.0551706,45.2003934],[17.1883719,45.1480475],[17.2459725,45.1548018],[17.2675727,45.1902619],[17.3827738,45.1396046],[17.4439744,45.1615561],[17.4475745,45.1345389],[17.497975,45.1412932],[17.4835748,45.114276],[17.6851769,45.1632447],[17.8363784,45.0636187],[17.9119791,45.0805044],[18.00198,45.1497361],[18.1531815,45.0973902],[18.2395824,45.158179],[18.3943839,45.1193417],[18.5167852,45.0551758],[18.5419854,45.0551758],[18.5491855,45.094013],[18.6103861,45.1007674],[18.6499865,45.0619301],[18.6787868,45.0872587],[18.7255873,45.02647],[18.7903879,45.006207],[18.804788,44.9741241],[18.7723877,44.9420411],[18.8191882,44.8880066],[18.8911889,44.8609894],[19.0171902,44.8660551],[18.9919899,44.9150239],[19.0675907,44.9048924],[19.1323913,44.9538611],[19.0855909,44.9775012],[19.0819908,45.0855702],[19.0459905,45.1379161],[19.1359914,45.1463589],[19.1215912,45.1953277],[19.1414,45.1889199],[19.2259923,45.1615561],[19.1414,45.1889199],[19.1666667,45.1333333],[19.25,44.95],[19.45,44.88],[19.7,44.77],[20,44.68],[20.25,44.68],[20.355,44.755],[20.46,44.83],[20.7,44.85],[20.825,44.775],[20.95,44.7],[21.3,44.8],[21.45,44.75],[21.6,44.7],[21.9,44.55],[22.05,44.525],[22.1132224,44.5144629],[22.1519632,44.5080061],[22.2,44.5],[22.45,44.7],[22.525,44.9],[22.6,45.1],[22.9,45.3],[23.0666667,45.3333333],[23.2333333,45.3666667],[23.4,45.4],[23.85,45.4],[24.06,45.425],[24.27,45.45],[24.385,45.5],[24.5,45.55],[25,45.55],[25.35,45.48],[25.55,45.49],[25.75,45.5],[26,45.55],[26.3,45.72],[26.4,45.95],[26.3,46.2],[26.175,46.385],[26.05,46.57],[25.95,46.685],[25.85,46.8],[25.65,47.1],[25.35,47.32],[25.75,47.38],[26.2,47.5],[26.45,47.65],[26.35,47.9],[26.25,48.05],[26.3,48.25],[26.2,48.5],[26.2272727,48.5090909],[26.35,48.55],[26.2,48.85],[26.225,49.025],[26.25,49.2],[26.15,49.53],[26,49.7],[25.6,49.9],[25.45,49.9733333],[25.3,50.0466667],[25.15,50.12],[24.9666667,50.1633333],[24.7833333,50.2066667],[24.6,50.25],[24.435,50.365],[24.27,50.48],[24.15,50.7],[24.1,50.88],[23.95,50.89],[23.8,50.9],[23.4,50.95],[22.6,50.85],[22.2,50.75],[21.85,50.7],[21.75,50.66],[21.4,50.45],[21.2,50.4],[21,50.35],[20.85,50.275],[20.7,50.2],[20.5,50.15],[20.3,50.1],[20.0886364,50.0647727],[19.94,50.04],[19.7,50.02],[19.55,50.01],[19.5363636,50.0090909],[19.5363636,50.0090909],[19.4,50],[19.2,50.04],[19,49.95],[18.6,49.92],[18.55,49.92],[18.4062798,49.92],[18.4807848,49.8963268],[18.4062798,49.92],[18.3691837,49.9317869],[18.3314892,49.92],[18.2935829,49.9081468],[18.289534,49.9123249],[18.2575826,49.9452955],[18.099181,49.9891986],[18.0919809,50.0179044],[18.00198,50.0466102],[18.0307803,50.0027072],[17.8399784,49.9740014],[17.7643776,50.0246587],[17.7211772,50.075316],[17.7319773,50.0955789],[17.6311763,50.1057104],[17.5879759,50.163122],[17.6743767,50.1749421],[17.7463775,50.2171565],[17.7175772,50.2526166],[17.7355774,50.2897653],[17.7067771,50.3117168],[17.6311763,50.2627481],[17.4691747,50.2661252],[17.4295743,50.239108],[17.3863739,50.2728795],[17.3539735,50.2526166],[17.3179732,50.3083397],[17.3359734,50.3134054],[17.2099721,50.3370455],[17.1883719,50.3792599],[16.8931689,50.4332944],[16.8643686,50.4079657],[16.9255693,50.3184711],[16.9867699,50.2846996],[17.0155702,50.2188451],[16.9615696,50.2323537],[16.9543695,50.2137793],[16.8175682,50.1867621],[16.702367,50.0955789],[16.6591666,50.0922018],[16.5655657,50.1428591],[16.5367654,50.207025],[16.4395644,50.2982082],[16.3711637,50.3184711],[16.3423634,50.3691284],[16.2631626,50.3640627],[16.198362,50.4062771],[16.2127621,50.4518687],[16.2883629,50.4923946],[16.3531635,50.4923946],[16.3927639,50.5211004],[16.3927639,50.5599377],[16.4251643,50.5683806],[16.3315633,50.6443665],[16.2307623,50.6612523],[16.1767618,50.6241036],[16.0867609,50.6460551],[15.9823598,50.6038407],[16.00036,50.6359236],[15.9715597,50.6781381],[15.8491585,50.6747609],[15.7915579,50.742304],[15.6727567,50.7338611],[15.4423544,50.7997156],[15.3559536,50.7760756],[15.3415534,50.8317986],[15.2551526,50.8993417],[15.2695527,50.9533762],[15.25,50.9582893],[15.1687517,50.9787048],[15.1435514,51.0107878],[15.1075511,50.9803934],[15.00315,51.0209193],[14.9599496,50.9922134],[14.99595,50.9584419],[14.9815498,50.8588158],[14.8087481,50.8588158],[14.7583476,50.8098471],[14.6143461,50.8453072],[14.6287463,50.9212932],[14.5495455,50.9128503],[14.5747457,50.9753277],[14.4811448,51.037805],[14.398344,51.0124764],[14.2867429,51.0361165],[14.2399424,50.982082],[14.3803438,50.9212932],[14.3479435,50.8807673],[14.2327423,50.8790788],[14.0347403,50.8030928],[13.8907389,50.7811413],[13.8835388,50.742304],[13.8331383,50.7237297],[13.5559356,50.7068439],[13.5163352,50.6916467],[13.5235352,50.6629409],[13.4479345,50.5970864],[13.3687337,50.6291693],[13.2859329,50.5683806],[13.2319323,50.5818892],[13.1599316,50.4974603],[13.0087301,50.4923946],[12.99793,50.4332944],[12.9511295,50.4045886],[12.8179282,50.4434258],[12.7387274,50.4316058],[12.6919269,50.3944571],[12.5119251,50.3893914],[12.3468474,50.2677175],[12.3355234,50.2593709],[12.299523,50.1614334],[12.2275223,50.2374194],[12.2419224,50.2526166],[12.1771218,50.2695024],[12.1699217,50.3032739],[12.1377783,50.307333],[12.0763208,50.315094],[12.1123211,50.2762567],[12.0799208,50.2424851],[12.1843218,50.1715649],[12.1879219,50.1023332],[12.2283274,50.0783274],[12.2419224,50.0702503],[12.2455225,50.0449216],[12.4507245,49.9807557],[12.4723247,49.955427],[12.4615246,49.9317869],[12.5191252,49.911524],[12.4831248,49.8270951],[12.4615246,49.8304723],[12.4543245,49.779815],[12.3823238,49.7426663],[12.4183242,49.7004518],[12.497525,49.6700574],[12.501125,49.6194001],[12.5479255,49.59576],[12.5839258,49.5231512],[12.6235262,49.5096426],[12.6451265,49.4302795],[12.7099271,49.4049508],[12.7783278,49.332342],[12.8575286,49.3222105],[12.8863289,49.3390963],[13.00153,49.2951933],[13.1779318,49.1178927],[13.300333,49.0942526],[13.3723337,49.0385295],[13.397534,48.9777408],[13.4587346,48.9456578],[13.4839348,48.9372149],[13.5163352,48.9709865],[13.6099361,48.9456578],[13.6207362,48.9085091],[13.7251373,48.8679832],[13.8151382,48.7666686],[13.7827378,48.7160113],[13.8151382,48.6957484],[13.797138,48.5978109],[13.7323373,48.5589736],[13.7190255,48.5246326],[13.7179372,48.5218249],[13.6346455,48.5608924],[13.6243362,48.5657279],[13.5976399,48.56706],[13.4551346,48.5741708],[13.4371344,48.4306417],[13.404734,48.3766073],[13.2751328,48.3073756],[13.0339303,48.2634726],[12.8887371,48.2067208],[12.8611286,48.1959295],[12.7387274,48.1131892],[12.7495275,48.0743519],[12.8622374,47.9678309],[12.9907299,47.846394],[12.8622374,47.9678309],[12.8891566,48.0620482],[12.9,48.1],[13.05,48.1],[13.175,48.025],[13.3,47.95],[13.45,47.75],[13.75,47.45],[13.8,47.25],[13.6,47.05],[13.3,47.05],[13,47.07],[12.7,47.1],[12.4,47.12],[12.1,47.1],[12.3,47.25],[12.5,47.35],[12.65,47.6],[12.720517,47.670517],[12.6523265,47.6758477],[12.497525,47.6285675],[12.4255243,47.6910449],[12.2383224,47.6792248],[12.2383224,47.7315707],[12.1771218,47.7062421],[12.2059221,47.6370104],[12.1735217,47.6049274],[11.9359194,47.6099932],[11.8207182,47.5745331],[11.6191162,47.5897303],[11.5507155,47.5137443],[11.4139141,47.5053014],[11.3671137,47.4698413],[11.3851139,47.4445126],[11.3059131,47.4360697],[11.2375124,47.3938553],[11.1943119,47.4293154],[11.0827108,47.3887896],[10.9783098,47.3904781],[10.9603096,47.4326926],[10.8523085,47.4934813],[10.8919089,47.5154329],[10.8703087,47.5272529],[10.7623076,47.5137443],[10.6075061,47.562713],[10.4815048,47.5323186],[10.4527045,47.5458272],[10.4563046,47.5795988],[10.4275043,47.5762216],[10.4203042,47.4934813],[10.4527045,47.4597098],[10.4275043,47.3955439],[10.3051031,47.3026721],[10.2474572,47.2898288],[10.1611016,47.2705891],[10.1935019,47.3043607],[10.2079021,47.3719038],[10.0819008,47.3583952],[10.0531005,47.4056753],[10.0819008,47.4276268],[10.0243002,47.4884156],[9.9810998,47.4816613],[9.9450995,47.5407615],[9.8334983,47.5340072],[9.8082981,47.5762216],[9.7686977,47.5880417],[9.6750968,47.5221872],[9.5490955,47.5340072],[9.5850959,47.4799727],[9.6498965,47.4512669],[9.6498965,47.4090525],[9.5202952,47.2621463]],[[18.9775898,45.3945798],[19.0361646,45.4204379],[19.0387904,45.421597],[19.0361646,45.4204379],[19.0667644,45.3531183],[19.0207902,45.3574311],[18.9775898,45.3945798]],[[18.99559,45.4739429],[19.0046225,45.4898305],[19.0317724,45.4301007],[19.0387904,45.421597],[19.0317724,45.4301007],[18.99559,45.4739429]]]}}
