{"type":"Feature","properties":{"family":"austria","name":"Austrian Netherlands, 1789 – 1794"},"geometry":{"type":"Polygon","coordinates":[[[2.3507472,51.338589],[2.3508475,51.338604],[2.42423,51.3495294],[2.5089047,51.3564467],[2.5940943,51.3527407],[2.6764048,51.338559],[2.752563,51.3144661],[2.8195517,51.2814199],[2.8571909,51.253667],[2.5048031,51.1119644],[2.5048136,51.111966],[2.5048136,51.111966],[2.5121143,51.1130528],[2.5203006,51.1137362],[2.5285433,51.1134211],[2.536537,51.1121192],[2.5439853,51.1098788],[2.5506122,51.1067828],[2.5561723,51.1029461],[2.5578176,51.1012441],[2.5218252,51.0867738],[2.5578256,51.0006563],[2.6082261,50.9618191],[2.5758258,50.9111617],[2.5866259,50.8453072],[2.6190262,50.8166014],[2.6910269,50.8081585],[2.7666277,50.7338611],[2.8854289,50.6967124],[2.9466295,50.7490583],[3.1302313,50.7794527],[3.2454325,50.6713838],[3.2310323,50.6561866],[3.2706327,50.5261661],[3.3606336,50.4890174],[3.4758348,50.5194118],[3.497435,50.4873288],[3.6090361,50.4771974],[3.6450365,50.4451144],[3.6630366,50.3184711],[3.695437,50.2982082],[3.7566376,50.3471769],[3.897039,50.3252254],[4.0050401,50.3437998],[4.098641,50.294831],[4.1238412,50.2576823],[4.1850419,50.2661252],[4.203042,50.2407966],[4.1562416,50.2120908],[4.1274413,50.1276619],[4.1814418,50.1276619],[4.2102421,50.0601188],[4.1310413,50.0179044],[4.1310413,49.9756899],[4.35,49.9491864],[4.4658447,49.9351641],[4.5989499,49.972859],[4.6,49.98],[4.4,49.98],[4.3,50.15],[4.25,50.35],[4.425,50.355],[4.6,50.36],[4.82,50.36],[5,50.42],[5.05,50.6],[4.95,50.8],[5,51],[5.05,51.25],[5.2146521,51.2623489],[5.2146521,51.2944688],[5.1246512,51.3130431],[5.0670507,51.3738319],[5.0814508,51.4379978],[5.0274503,51.4768351],[4.9086491,51.3924063],[4.7610476,51.4126692],[4.8222482,51.4143578],[4.8222482,51.4751465],[4.7790478,51.4954095],[4.6314463,51.4177349],[4.5414454,51.4194235],[4.5198452,51.4278664],[4.5342453,51.4683922],[4.4838448,51.4751465],[4.3758438,51.4430636],[4.4118441,51.3569461],[4.2606426,51.3687662],[4.2744173,51.3404996],[4.2894429,51.309666],[4.2744173,51.3404996],[4.2554428,51.341983],[4.2544948,51.3394313],[4.2210422,51.3687662],[4.2066421,51.3299289],[4.1202412,51.2725173],[3.9510395,51.2100399],[3.8070381,51.2049742],[3.7566376,51.2623858],[3.6090361,51.2910916],[3.5154352,51.2809602],[3.501035,51.2404343],[3.3930339,51.2471886],[3.3534335,51.289403],[3.3498335,51.3755205],[3.3069721,51.3667656],[3.3066285,51.3748047],[3.3073469,51.3804759],[3.3099551,51.3859271],[3.3143379,51.3909157],[3.3203006,51.3952197],[3.3275782,51.3986476],[3.335847,51.4010466],[3.3364513,51.401175],[3.3364511,51.401175],[3.1131378,51.3555578],[3.1034472,51.3526918],[2.9387278,51.2864547],[2.9274369,51.3191024],[2.9176359,51.3745125],[2.9262885,51.4299991],[2.9530906,51.4831889],[2.9969527,51.5317988],[3.0133991,51.5434826],[3.0132199,51.5445472],[3.0199104,51.592054],[2.9910089,51.5861468],[2.893747,51.5573499],[2.3507472,51.338589]]]}}
