{"type":"Feature","properties":{"family":"austria","name":"Austrian Lombardy, 1789 – 1796"},"geometry":{"type":"Polygon","coordinates":[[[8.56,45.9],[8.58,45.8],[8.62,45.72],[8.7,45.58],[8.78,45.45],[8.88,45.35],[9.05,45.24],[9.16,45.18],[9.27,45.13],[9.35,45.1],[9.45,45.1],[9.69,45.06],[9.85,45.1],[10.02,45.12],[10.2,45],[10.42,44.98],[10.5,44.95],[10.65,44.9],[10.8,44.88],[11,44.88],[11.2,44.92],[11.3,44.98],[11.2,45.08],[10.9,45.22],[10.75,45.3],[10.68,45.35],[10.6,45.33],[10.5,45.25],[10.4,45.13],[10.25,45.2],[10.1,45.26],[10.02,45.35],[9.95,45.48],[9.75,45.47],[9.62,45.5],[9.52,45.53],[9.5,45.62],[9.4,45.86],[9.38,45.95],[9.4,46.05],[9.6,46.05],[9.38,46.14],[9.25,46.25],[9.2412627,46.2629312],[9.2250923,46.2304255],[9.0702907,46.1189794],[9.0594906,46.0615678],[9.00189,46.0396163],[9.0162902,45.9923362],[8.9802898,45.9636303],[9.0630906,45.8994644],[9.00189,45.8201013],[8.901089,45.8268556],[8.9118891,45.8825786],[8.8722887,45.9467446],[8.7678877,45.9838933],[8.8326883,46.0666336],[8.8074881,46.0902736],[8.7282873,46.108848],[8.6778868,46.0953394],[8.6777026,46.0954052],[8.62,45.98],[8.56,45.9]]]}}
