{"type":"Feature","properties":{"family":"austria","name":"Austrian Empire, 1805"},"geometry":{"type":"Polygon","coordinates":[[[9.5202952,47.2621463],[9.5634956,47.1979803],[9.5526955,47.1675859],[9.6174962,47.1067972],[9.5814958,47.0561398],[9.8586986,47.015614],[9.8766988,46.927808],[10.1107011,46.8467563],[10.200702,46.8670192],[10.2367024,46.9227422],[10.2943029,46.9227422],[10.3123031,46.9649567],[10.3735037,46.9970396],[10.4599046,46.9362508],[10.4527045,46.863642],[10.4167042,46.7994761],[10.4275043,46.7555731],[10.3699037,46.6728328],[10.3869415,46.65],[10.395104,46.6390612],[10.3869415,46.65],[10.4,46.65],[10.4055817,46.636604],[10.4599046,46.6238641],[10.4458675,46.5399179],[10.4455045,46.5377466],[10.4458675,46.5399179],[10.45,46.53],[10.5,46.34],[10.58,46.26],[10.54,46.13],[10.5,46],[10.5,45.85],[10.65,45.82],[10.8120253,45.8443038],[10.775,45.79],[10.7,45.68],[10.73,45.5],[10.98,45.44],[11.13,45.37],[11.27,45.32],[11.31,45.19],[11.5,45.1],[11.78,45.1],[11.93,45.12],[12.08,45.14],[12.205,45.15],[12.3186341,45.1590907],[12.3157385,45.1765203],[12.3141828,45.1858847],[12.3141827,45.1858855],[12.3067231,45.2307878],[12.3141827,45.1858855],[12.3141828,45.1858847],[12.3157385,45.1765203],[12.3186341,45.1590907],[12.3230794,45.1323327],[12.3186341,45.1590907],[12.3157385,45.1765203],[12.3141828,45.1858847],[12.3143751,45.1859001],[12.3218536,45.1859719],[12.3292091,45.1850171],[12.3361602,45.1830721],[12.3424415,45.1802113],[12.3478129,45.176544],[12.3520694,45.1722104],[12.3550487,45.167376],[12.3566211,45.1622776],[12.356621,45.1622782],[12.344764,45.2339418],[12.3431887,45.2390579],[12.3402375,45.2438622],[12.3360213,45.2481735],[12.3306989,45.2518289],[12.3244713,45.2546905],[12.3175734,45.2566502],[12.3102657,45.257634],[12.3028242,45.2576047],[12.29553,45.2565635],[12.2886585,45.2545496],[12.2824693,45.2516392],[12.2771959,45.2479421],[12.2571889,45.2308786],[12.2485596,45.2464082],[12.2548714,45.2906001],[12.2548856,45.2958909],[12.2534296,45.3010808],[12.2511186,45.3050172],[12.2511773,45.3050848],[12.2537025,45.3097754],[12.2935888,45.411408],[12.2956398,45.4098457],[12.3019928,45.4066473],[12.3091378,45.4044182],[12.3118167,45.4040089],[12.2854362,45.3572015],[12.2834046,45.3522605],[12.2827453,45.3471394],[12.2834818,45.3420243],[12.2855872,45.3371013],[12.2889843,45.3325494],[12.2935496,45.328534],[12.2991168,45.325201],[12.3054836,45.3226716],[12.3124184,45.3210377],[12.3196695,45.3203586],[12.3269734,45.3206589],[12.3340648,45.3219278],[12.3406861,45.3241192],[12.3465968,45.3271534],[12.3515818,45.3309204],[12.3554599,45.335283],[12.3960663,45.3923886],[12.4207276,45.3885294],[12.4282633,45.3878887],[12.4358327,45.3883006],[12.4431403,45.389749],[12.4499011,45.3921774],[12.455851,45.3954911],[12.4607578,45.3995608],[12.4644297,45.4042276],[12.4656681,45.4069718],[12.4929439,45.3993688],[12.5541317,45.3719458],[12.6068171,45.3369034],[12.6491173,45.2955058],[12.6795341,45.2492431],[12.6860634,45.2307664],[12.6986174,45.2235704],[12.6986235,45.2235755],[12.7126212,45.2351456],[13.1458554,45.3663308],[13.1641876,45.2968949],[13.1829719,45.2498666],[13.2000601,45.225292],[13.2149704,45.1186865],[13.2294548,45.0671164],[13.2448205,45.0407805],[13.2483467,45.0268158],[13.269167,44.9749568],[13.3041119,44.927062],[13.3517604,44.8850336],[13.4086408,44.8439606],[13.4224788,44.7958176],[13.4505791,44.7478334],[13.4910711,44.7045626],[13.6064389,44.6035568],[13.6594143,44.565485],[13.7218602,44.5356044],[13.7913239,44.5150829],[13.8650883,44.5047217],[13.8965403,44.504813],[13.9115372,44.4834729],[13.954997,44.4429983],[14.0083004,44.4090718],[14.069545,44.3828946],[14.1090134,44.3694429],[14.1252196,44.3652364],[14.1408776,44.3552815],[14.3133535,44.2661298],[14.3739091,44.2407733],[14.3753523,44.2211699],[14.3938161,44.169485],[14.4260604,44.1214192],[14.4707987,44.0788425],[14.5184535,44.0484047],[14.548299,44.0131367],[14.8224693,43.7504705],[14.8985658,43.6956863],[14.9704439,43.6569945],[15.0152607,43.6374812],[15.0390002,43.6194982],[15.0827484,43.5911717],[15.1320628,43.5681609],[15.2182122,43.5345269],[15.2834161,43.5145584],[15.3526338,43.5038787],[15.4233874,43.5028703],[15.4931461,43.5115694],[15.5379578,43.5238118],[15.5596494,43.5152016],[15.5671879,43.4850684],[15.5946527,43.4350472],[15.6098738,43.4181379],[15.6157783,43.4033828],[15.649314,43.3564562],[15.6947383,43.3151815],[15.7502966,43.2811323],[15.7982586,43.2618754],[15.7651787,43.2385237],[15.7231583,43.1936748],[15.6943509,43.1435934],[15.6798952,43.0903193],[15.6803396,43.0360169],[15.695626,42.9828862],[15.7250987,42.9330738],[15.7648908,42.8808466],[15.8056424,42.8377349],[15.8569425,42.8012124],[15.916851,42.7726481],[15.9831153,42.753111],[16.053253,42.7433314],[16.1246429,42.7436748],[16.1946184,42.7541285],[16.2605635,42.7743023],[16.3301992,42.8016538],[16.3597995,42.7655893],[16.4064637,42.7274629],[16.456678,42.6994886],[16.4566508,42.6995845],[16.4505586,42.7210447],[16.4428163,42.7742648],[16.4495384,42.82756],[16.4704968,42.8788303],[16.5048976,42.9260504],[16.5514078,42.9673505],[16.5968661,42.9943562],[16.5969249,42.9943912],[16.5948395,42.9904312],[16.5936091,42.9851198],[16.5938443,42.9797358],[16.5955354,42.9744938],[16.5986145,42.9696027],[16.6029587,42.9652574],[16.6083945,42.961631],[16.6147055,42.958868],[16.6190242,42.9577535],[16.6162909,42.9563346],[16.6108558,42.9528822],[16.6064404,42.9487218],[16.6032132,42.9440122],[16.6012969,42.9389331],[16.6007645,42.9336784],[16.6016357,42.9284485],[16.6038771,42.9234428],[16.6074029,42.9188523],[16.6120783,42.9148519],[16.6155689,42.912838],[16.6155716,42.9128422],[16.6352129,42.9447971],[16.6155716,42.9128422],[16.6155689,42.912838],[16.6155659,42.912833],[16.5552883,42.8147662],[16.5521526,42.8078544],[16.5509798,42.8006209],[16.5518173,42.7933623],[16.5546301,42.7863763],[16.6547391,42.606416],[16.6589102,42.6005191],[16.6644834,42.5952877],[16.6712685,42.5909002],[16.6790335,42.5875063],[16.6875136,42.5852218],[17.0787031,42.5069869],[17.7869469,42.3653435],[17.7943819,42.3642674],[17.8019527,42.3640562],[18.0109018,42.3695551],[18.1214533,42.3724644],[18.4417016,42.3808924],[18.5008825,42.3824498],[18.5009069,42.3824505],[18.5130969,42.3773053],[18.5193632,42.3752105],[18.5260492,42.3740223],[18.5329174,42.3737831],[18.5397241,42.3745011],[18.5427285,42.3752634],[18.5440753,42.3739191],[18.5502311,42.3700044],[18.5970224,42.3463733],[18.6031244,42.3438852],[18.6097539,42.3423011],[18.6166689,42.3416787],[18.6236174,42.3420407],[18.630346,42.3433739],[18.6641597,42.3527082],[18.7490549,42.2560245],[18.7536026,42.2518219],[18.7591852,42.2483723],[18.7655802,42.2458129],[18.7725329,42.2442456],[18.776391,42.2439722],[18.7250751,42.2064343],[18.6647766,42.1770716],[18.5978932,42.1570574],[18.5270254,42.1471685],[18.4549229,42.1477886],[18.3843813,42.1588937],[18.3369118,42.1740565],[18.3355474,42.1744923],[18.3787791,42.1557223],[18.4464517,42.1383567],[18.4550734,42.1374813],[18.4651642,42.1345222],[18.474921,42.1234491],[18.5189052,42.0827088],[18.5725682,42.0490024],[18.633905,42.0235798],[18.681527,42.0120254],[18.6833181,42.0115908],[18.7107815,41.9934329],[18.7700404,41.9672006],[18.8348556,41.9497586],[18.9029065,41.9417301],[18.971761,41.9434017],[19.0389598,41.9547136],[19.1021002,41.9752618],[19.1053543,41.9769255],[19.1043018,41.9790426],[19.1032952,41.985339],[19.1032695,42.0308211],[19.0575641,42.0616241],[19.0575641,42.0616241],[19.053024,42.0653044],[19.0494746,42.0695422],[19.0470376,42.0741925],[19.0457967,42.0790962],[19.0457945,42.0840855],[19.0479346,42.1012305],[19.0339716,42.1130153],[19.0120913,42.1120808],[19.0054636,42.1122459],[18.9989863,42.1133003],[18.9928743,42.1152089],[18.9873308,42.1179083],[18.9825398,42.1213089],[18.8979582,42.1932816],[18.8978894,42.1933536],[18.8978154,42.1934311],[18.8978153,42.1934312],[18.8979988,42.1932751],[18.9030975,42.1896991],[18.9090261,42.1869155],[18.9155638,42.1850278],[18.9224677,42.1841061],[18.9294812,42.1841848],[18.9363435,42.1852609],[18.9427996,42.1872943],[18.9486094,42.1902096],[18.9492621,42.1906963],[18.9386866,42.1996985],[18.9254149,42.2109957],[18.95,42.27],[18.85,42.38],[18.75,42.48],[18.65,42.55],[18.5004705,42.5998432],[18.499873,42.5993651],[18.475,42.475],[18.4699829,42.4499145],[18.495185,42.4159295],[18.4299237,42.4525758],[18.3722431,42.4510599],[18.2841307,42.4487442],[18.2630442,42.44819],[18.1851907,42.4461439],[18.1400416,42.4449573],[18.1048277,42.4440319],[18.1048277,42.4440319],[17.89825,42.4386027],[17.8935777,42.4384799],[17.8567001,42.4375108],[17.8561556,42.4374964],[17.8056935,42.4361702],[16.7360859,42.6501863],[16.65335,42.7993005],[16.7100907,42.8913728],[16.843477,42.8739941],[16.8509876,42.873583],[16.8584555,42.8743025],[17.0177107,42.9019121],[17.1876291,42.8872684],[17.1948694,42.8871649],[17.2019976,42.8881034],[17.2087376,42.8900475],[17.2148287,42.892922],[17.2200347,42.8966156],[17.2241539,42.9009852],[17.2270266,42.9058617],[17.2285411,42.9110562],[17.2286384,42.9163673],[17.2273144,42.9215891],[17.2246199,42.9265194],[17.2206593,42.9309667],[17.1903986,42.9585312],[17.1367531,42.9643364],[17.1307713,42.9697828],[17.0335703,42.9832915],[17.007296,42.9805292],[17.0065553,42.9807988],[17.0004865,42.9843331],[16.9955618,42.9887175],[16.991999,42.9937584],[16.9857272,43.005513],[16.9857247,43.0055178],[16.8375062,42.9899416],[16.8375059,42.9899431],[16.8375055,42.9899446],[16.8101181,43.0998413],[16.8101179,43.0998419],[16.8101161,43.0998492],[16.8033946,43.1268205],[16.8101161,43.0998492],[16.8101179,43.0998419],[17.1918471,43.0998414],[17.1991062,43.100351],[17.2060873,43.101893],[17.2125182,43.1044074],[17.2181481,43.1077962],[17.2227576,43.1119273],[17.2261665,43.1166397],[17.2282417,43.1217494],[17.2289018,43.1270573],[17.2281207,43.1323562],[17.2261487,43.1369289],[17.2933725,43.106239],[17.3760028,43.0335943],[17.3811966,43.0298466],[17.3872968,43.0269202],[17.3940646,43.0249296],[17.3978604,43.0244125],[17.3978606,43.0244128],[17.3978655,43.0244249],[17.3990777,43.0273833],[17.4026127,43.0321864],[17.4073977,43.0363714],[17.413237,43.0397673],[17.4301486,43.0477007],[17.4328696,43.0368521],[17.4380511,43.0347796],[17.4619746,43.0305716],[17.4558052,43.0276779],[17.4331743,43.017063],[17.4660907,43.0235637],[17.501575,43.0305716],[17.4785588,43.0185765],[17.4691747,43.0136858],[17.4785588,43.0185765],[17.6,42.97],[17.6138401,42.9522056],[17.6635766,42.9664057],[17.6599766,42.9934229],[17.5879759,43.0829175],[17.4403744,43.1521492],[17.400774,43.2163151],[17.2891729,43.3041211],[17.2675727,43.3530899],[17.2855729,43.4375187],[17.2711727,43.4628474],[17.0623706,43.5270133],[16.7131671,43.771857],[16.6980174,43.8009913],[16.6771668,43.8410887],[16.500765,43.9930607],[16.4395644,44.0133236],[16.4143641,44.055538],[16.3279633,44.0825553],[16.2163622,44.20751],[16.1875619,44.2818074],[16.2055621,44.351039],[16.1371614,44.3780563],[16.1587616,44.4168936],[16.1155612,44.5215854],[16.0075601,44.5401597],[16.0435604,44.5891284],[16.0291603,44.6245886],[15.9679597,44.6397858],[15.8887589,44.7242146],[15.8059581,44.6971974],[15.8059581,44.6971974],[15.7267573,44.7698062],[15.7159572,44.8035778],[15.7735577,44.8457922],[15.7303573,44.9268439],[15.7627576,44.9758126],[15.7555576,45.0416671],[15.7915579,45.1902619],[15.8779588,45.2172792],[16.0219602,45.213902],[16.0255603,45.1835076],[16.0687607,45.169999],[16.1227612,45.0957016],[16.2127621,45.0315357],[16.3171632,45.0011413],[16.3423634,45.006207],[16.3891639,45.1176531],[16.4359644,45.1328503],[16.4827648,45.1987048],[16.5295653,45.2223449],[16.8103681,45.1818191],[16.8902559,45.253248],[16.9255693,45.2848223],[16.9471695,45.2358535],[17.0083701,45.2442964],[17.0083701,45.2155906],[17.0371704,45.2307878],[17.0551706,45.2003934],[17.1883719,45.1480475],[17.2459725,45.1548018],[17.2675727,45.1902619],[17.3827738,45.1396046],[17.4439744,45.1615561],[17.4475745,45.1345389],[17.497975,45.1412932],[17.4835748,45.114276],[17.6851769,45.1632447],[17.8363784,45.0636187],[17.9119791,45.0805044],[18.00198,45.1497361],[18.1531815,45.0973902],[18.2395824,45.158179],[18.3943839,45.1193417],[18.5167852,45.0551758],[18.5419854,45.0551758],[18.5491855,45.094013],[18.6103861,45.1007674],[18.6499865,45.0619301],[18.6787868,45.0872587],[18.7255873,45.02647],[18.7903879,45.006207],[18.804788,44.9741241],[18.7723877,44.9420411],[18.8191882,44.8880066],[18.8911889,44.8609894],[19.0171902,44.8660551],[18.9919899,44.9150239],[19.0675907,44.9048924],[19.1323913,44.9538611],[19.0855909,44.9775012],[19.0819908,45.0855702],[19.0459905,45.1379161],[19.1359914,45.1463589],[19.1215912,45.1953277],[19.1414,45.1889199],[19.2259923,45.1615561],[19.1414,45.1889199],[19.1666667,45.1333333],[19.25,44.95],[19.45,44.88],[19.7,44.77],[20,44.68],[20.25,44.68],[20.355,44.755],[20.46,44.83],[20.7,44.85],[20.825,44.775],[20.95,44.7],[21.3,44.8],[21.45,44.75],[21.6,44.7],[21.9,44.55],[22.05,44.525],[22.1132224,44.5144629],[22.1519632,44.5080061],[22.2,44.5],[22.45,44.7],[22.525,44.9],[22.6,45.1],[22.9,45.3],[23.0666667,45.3333333],[23.2333333,45.3666667],[23.4,45.4],[23.85,45.4],[24.06,45.425],[24.27,45.45],[24.385,45.5],[24.5,45.55],[25,45.55],[25.35,45.48],[25.55,45.49],[25.75,45.5],[26,45.55],[26.3,45.72],[26.4,45.95],[26.3,46.2],[26.175,46.385],[26.05,46.57],[25.95,46.685],[25.85,46.8],[25.65,47.1],[25.35,47.32],[25.75,47.38],[26.2,47.5],[26.45,47.65],[26.35,47.9],[26.25,48.05],[26.3,48.25],[26.2,48.5],[26.2272727,48.5090909],[26.35,48.55],[26.2,48.85],[26.225,49.025],[26.25,49.2],[26.15,49.53],[26,49.7],[25.6,49.9],[25.45,49.9733333],[25.3,50.0466667],[25.15,50.12],[24.9666667,50.1633333],[24.7833333,50.2066667],[24.6,50.25],[24.435,50.365],[24.27,50.48],[24.15,50.7],[24.1,50.88],[23.95,51.025],[23.8,51.17],[23.7,51.36],[23.6,51.55],[23.64,51.725],[23.68,51.9],[23.6,52.15],[23.2,52.4],[23.15,52.35],[22.66,52.4],[22.6418398,52.4144214],[22.5625995,52.4773475],[22.49,52.535],[22.32,52.67],[21.85,52.7],[21.65,52.65],[21.45,52.6],[21.05,52.52],[21,52.45],[21.05,52.25],[21.15,52.05],[21.3,51.87],[21.19,51.78],[20.9866667,51.7266667],[20.7833333,51.6733333],[20.58,51.62],[20.22,51.53],[20.0055556,51.53],[19.9916667,51.5175],[19.88,51.35],[19.88,51.09],[19.82,50.63],[19.66,50.54],[19.5,50.45],[19.3,50.3],[19.2,50.04],[19,49.95],[18.6,49.92],[18.55,49.92],[18.4062798,49.92],[18.4807848,49.8963268],[18.4062798,49.92],[18.3691837,49.9317869],[18.3314892,49.92],[18.2935829,49.9081468],[18.289534,49.9123249],[18.2575826,49.9452955],[18.099181,49.9891986],[18.0919809,50.0179044],[18.00198,50.0466102],[18.0307803,50.0027072],[17.8399784,49.9740014],[17.7643776,50.0246587],[17.7211772,50.075316],[17.7319773,50.0955789],[17.6311763,50.1057104],[17.5879759,50.163122],[17.6743767,50.1749421],[17.7463775,50.2171565],[17.7175772,50.2526166],[17.7355774,50.2897653],[17.7067771,50.3117168],[17.6311763,50.2627481],[17.4691747,50.2661252],[17.4295743,50.239108],[17.3863739,50.2728795],[17.3539735,50.2526166],[17.3179732,50.3083397],[17.3359734,50.3134054],[17.2099721,50.3370455],[17.1883719,50.3792599],[16.8931689,50.4332944],[16.8643686,50.4079657],[16.9255693,50.3184711],[16.9867699,50.2846996],[17.0155702,50.2188451],[16.9615696,50.2323537],[16.9543695,50.2137793],[16.8175682,50.1867621],[16.702367,50.0955789],[16.6591666,50.0922018],[16.5655657,50.1428591],[16.5367654,50.207025],[16.4395644,50.2982082],[16.3711637,50.3184711],[16.3423634,50.3691284],[16.2631626,50.3640627],[16.198362,50.4062771],[16.2127621,50.4518687],[16.2883629,50.4923946],[16.3531635,50.4923946],[16.3927639,50.5211004],[16.3927639,50.5599377],[16.4251643,50.5683806],[16.3315633,50.6443665],[16.2307623,50.6612523],[16.1767618,50.6241036],[16.0867609,50.6460551],[15.9823598,50.6038407],[16.00036,50.6359236],[15.9715597,50.6781381],[15.8491585,50.6747609],[15.7915579,50.742304],[15.6727567,50.7338611],[15.4423544,50.7997156],[15.3559536,50.7760756],[15.3415534,50.8317986],[15.2551526,50.8993417],[15.2695527,50.9533762],[15.25,50.9582893],[15.1687517,50.9787048],[15.1435514,51.0107878],[15.1075511,50.9803934],[15.00315,51.0209193],[14.9599496,50.9922134],[14.99595,50.9584419],[14.9815498,50.8588158],[14.8087481,50.8588158],[14.7583476,50.8098471],[14.6143461,50.8453072],[14.6287463,50.9212932],[14.5495455,50.9128503],[14.5747457,50.9753277],[14.4811448,51.037805],[14.398344,51.0124764],[14.2867429,51.0361165],[14.2399424,50.982082],[14.3803438,50.9212932],[14.3479435,50.8807673],[14.2327423,50.8790788],[14.0347403,50.8030928],[13.8907389,50.7811413],[13.8835388,50.742304],[13.8331383,50.7237297],[13.5559356,50.7068439],[13.5163352,50.6916467],[13.5235352,50.6629409],[13.4479345,50.5970864],[13.3687337,50.6291693],[13.2859329,50.5683806],[13.2319323,50.5818892],[13.1599316,50.4974603],[13.0087301,50.4923946],[12.99793,50.4332944],[12.9511295,50.4045886],[12.8179282,50.4434258],[12.7387274,50.4316058],[12.6919269,50.3944571],[12.5119251,50.3893914],[12.3468474,50.2677175],[12.3355234,50.2593709],[12.299523,50.1614334],[12.2275223,50.2374194],[12.2419224,50.2526166],[12.1771218,50.2695024],[12.1699217,50.3032739],[12.1377783,50.307333],[12.0763208,50.315094],[12.1123211,50.2762567],[12.0799208,50.2424851],[12.1843218,50.1715649],[12.1879219,50.1023332],[12.2283274,50.0783274],[12.2419224,50.0702503],[12.2455225,50.0449216],[12.4507245,49.9807557],[12.4723247,49.955427],[12.4615246,49.9317869],[12.5191252,49.911524],[12.4831248,49.8270951],[12.4615246,49.8304723],[12.4543245,49.779815],[12.3823238,49.7426663],[12.4183242,49.7004518],[12.497525,49.6700574],[12.501125,49.6194001],[12.5479255,49.59576],[12.5839258,49.5231512],[12.6235262,49.5096426],[12.6451265,49.4302795],[12.7099271,49.4049508],[12.7783278,49.332342],[12.8575286,49.3222105],[12.8863289,49.3390963],[13.00153,49.2951933],[13.1779318,49.1178927],[13.300333,49.0942526],[13.3723337,49.0385295],[13.397534,48.9777408],[13.4587346,48.9456578],[13.4839348,48.9372149],[13.5163352,48.9709865],[13.6099361,48.9456578],[13.6207362,48.9085091],[13.7251373,48.8679832],[13.8151382,48.7666686],[13.7827378,48.7160113],[13.8151382,48.6957484],[13.797138,48.5978109],[13.7323373,48.5589736],[13.7190255,48.5246326],[13.7179372,48.5218249],[13.6346455,48.5608924],[13.6243362,48.5657279],[13.5976399,48.56706],[13.4551346,48.5741708],[13.4371344,48.4306417],[13.404734,48.3766073],[13.2751328,48.3073756],[13.0339303,48.2634726],[12.8887371,48.2067208],[12.8611286,48.1959295],[12.7387274,48.1131892],[12.7495275,48.0743519],[12.8622374,47.9678309],[12.9907299,47.846394],[12.8622374,47.9678309],[12.8891566,48.0620482],[12.9,48.1],[13.05,48.1],[13.175,48.025],[13.3,47.95],[13.45,47.75],[13.75,47.45],[13.8,47.25],[13.6,47.05],[13.3,47.05],[13,47.07],[12.7,47.1],[12.4,47.12],[12.1,47.1],[12.3,47.25],[12.5,47.35],[12.65,47.6],[12.720517,47.670517],[12.6523265,47.6758477],[12.497525,47.6285675],[12.4255243,47.6910449],[12.2383224,47.6792248],[12.2383224,47.7315707],[12.1771218,47.7062421],[12.2059221,47.6370104],[12.1735217,47.6049274],[11.9359194,47.6099932],[11.8207182,47.5745331],[11.6191162,47.5897303],[11.5507155,47.5137443],[11.4139141,47.5053014],[11.3671137,47.4698413],[11.3851139,47.4445126],[11.3059131,47.4360697],[11.2375124,47.3938553],[11.1943119,47.4293154],[11.0827108,47.3887896],[10.9783098,47.3904781],[10.9603096,47.4326926],[10.8523085,47.4934813],[10.8919089,47.5154329],[10.8703087,47.5272529],[10.7623076,47.5137443],[10.6075061,47.562713],[10.4815048,47.5323186],[10.4527045,47.5458272],[10.4563046,47.5795988],[10.4275043,47.5762216],[10.4203042,47.4934813],[10.4527045,47.4597098],[10.4275043,47.3955439],[10.3051031,47.3026721],[10.2474572,47.2898288],[10.1611016,47.2705891],[10.1935019,47.3043607],[10.2079021,47.3719038],[10.0819008,47.3583952],[10.0531005,47.4056753],[10.0819008,47.4276268],[10.0243002,47.4884156],[9.9810998,47.4816613],[9.9450995,47.5407615],[9.8334983,47.5340072],[9.8082981,47.5762216],[9.7686977,47.5880417],[9.6750968,47.5221872],[9.5490955,47.5340072],[9.5850959,47.4799727],[9.6498965,47.4512669],[9.6498965,47.4090525],[9.5202952,47.2621463]],[[17.4331743,43.017063],[17.4558052,43.0276779],[17.4660907,43.0235637],[17.4331743,43.017063]],[[15.00315,44.0521609],[15.0473647,44],[15.0473647,44],[15.00315,44.0521609]],[[15.078931,44],[15.078931,44],[15.1435514,43.9491577],[15.078931,44]],[[15.1435514,44.1956899],[15.371836,44],[15.371836,44],[15.1435514,44.1956899]],[[15.2623526,44.011635],[15.2724587,44],[15.2724587,44],[15.2623526,44.011635]],[[15.2960885,44],[15.2960885,44],[15.3847538,43.9694206],[15.2960885,44]],[[16.6324215,43.0521687],[16.6395461,43.1033435],[16.6420387,43.1093857],[16.6810068,43.1009659],[16.6916686,43.0998421],[16.709956,43.0998421],[16.7099562,43.0998412],[16.7310529,43.0157199],[16.7251029,43.0168021],[16.7166435,43.0168853],[16.6330335,43.0106103],[16.6373282,43.0122567],[16.6324215,43.0521687]],[[16.7115612,43.2153294],[16.7367856,43.2382887],[16.7454197,43.2436297],[16.8111528,43.2400712],[16.8180348,43.2401581],[16.8247763,43.2411724],[16.8311443,43.2430791],[16.8369186,43.2458123],[16.916109,43.2913872],[16.9211361,43.2948804],[16.9251802,43.2989957],[16.9280989,43.3035884],[16.9297893,43.3084969],[16.9301917,43.3135488],[16.9301017,43.3140503],[16.9301295,43.314053],[16.9378019,43.314777],[16.9378113,43.3147779],[17.044692,43.2210407],[17.0488502,43.2179324],[17.0536381,43.215351],[17.1866678,43.1549191],[16.8707302,43.1956128],[16.8625394,43.1959803],[16.742631,43.1915492],[16.7115612,43.2153294]],[[18.502385,42.4564553],[18.5072051,42.4559278],[18.5072052,42.4559278],[18.5072052,42.4559278],[18.5081652,42.4546321],[18.5081653,42.4546321],[18.5045279,42.4545365],[18.5033922,42.4545066],[18.502385,42.4564553]],[[18.9775898,45.3945798],[19.0361646,45.4204379],[19.0387904,45.421597],[19.0361646,45.4204379],[19.0667644,45.3531183],[19.0207902,45.3574311],[18.9775898,45.3945798]],[[18.99559,45.4739429],[19.0046225,45.4898305],[19.0317724,45.4301007],[19.0387904,45.421597],[19.0317724,45.4301007],[18.99559,45.4739429]]]}}
