{"type":"Feature","properties":{"family":"austria","name":"Austrian Empire, 1809 – 1813"},"geometry":{"type":"Polygon","coordinates":[[[12.0763208,50.315094],[12.1123211,50.2762567],[12.0799208,50.2424851],[12.1843218,50.1715649],[12.1879219,50.1023332],[12.2283274,50.0783274],[12.2419224,50.0702503],[12.2455225,50.0449216],[12.4507245,49.9807557],[12.4723247,49.955427],[12.4615246,49.9317869],[12.5191252,49.911524],[12.4831248,49.8270951],[12.4615246,49.8304723],[12.4543245,49.779815],[12.3823238,49.7426663],[12.4183242,49.7004518],[12.497525,49.6700574],[12.501125,49.6194001],[12.5479255,49.59576],[12.5839258,49.5231512],[12.6235262,49.5096426],[12.6451265,49.4302795],[12.7099271,49.4049508],[12.7783278,49.332342],[12.8575286,49.3222105],[12.8863289,49.3390963],[13.00153,49.2951933],[13.1779318,49.1178927],[13.300333,49.0942526],[13.3723337,49.0385295],[13.397534,48.9777408],[13.4587346,48.9456578],[13.4839348,48.9372149],[13.5163352,48.9709865],[13.6099361,48.9456578],[13.6207362,48.9085091],[13.7251373,48.8679832],[13.8151382,48.7666686],[13.7827378,48.7160113],[13.8151382,48.6957484],[13.797138,48.5978109],[13.7323373,48.5589736],[13.7190255,48.5246326],[13.85,48.35],[13.9,48.1],[13.75,48.025],[13.6,47.95],[13.3,47.95],[13.45,47.75],[13.75,47.45],[13.8,47.25],[13.6,47.05],[13.3,47.05],[13.6,46.95],[13.725,46.9],[13.85,46.85],[14,46.7],[14.1,46.55],[14.1734606,46.4398091],[14.4055441,46.4398091],[14.502745,46.4178576],[14.5387454,46.3790203],[14.566731,46.4099614],[14.75,46.3],[14.95,46.17],[15.1,46.1],[15.4,46],[15.65,45.85],[15.8,45.82],[15.98,45.78],[16.15,45.65],[16.26,45.565],[16.37,45.48],[16.6,45.35],[16.8902559,45.253248],[16.8103681,45.1818191],[16.8902559,45.253248],[16.9255693,45.2848223],[16.9471695,45.2358535],[17.0083701,45.2442964],[17.0083701,45.2155906],[17.0371704,45.2307878],[17.0551706,45.2003934],[17.1883719,45.1480475],[17.2459725,45.1548018],[17.2675727,45.1902619],[17.3827738,45.1396046],[17.4439744,45.1615561],[17.4475745,45.1345389],[17.497975,45.1412932],[17.4835748,45.114276],[17.6851769,45.1632447],[17.8363784,45.0636187],[17.9119791,45.0805044],[18.00198,45.1497361],[18.1531815,45.0973902],[18.2395824,45.158179],[18.3943839,45.1193417],[18.5167852,45.0551758],[18.5419854,45.0551758],[18.5491855,45.094013],[18.6103861,45.1007674],[18.6499865,45.0619301],[18.6787868,45.0872587],[18.7255873,45.02647],[18.7903879,45.006207],[18.804788,44.9741241],[18.7723877,44.9420411],[18.8191882,44.8880066],[18.8911889,44.8609894],[19.0171902,44.8660551],[18.9919899,44.9150239],[19.0675907,44.9048924],[19.1323913,44.9538611],[19.0855909,44.9775012],[19.0819908,45.0855702],[19.0459905,45.1379161],[19.1359914,45.1463589],[19.1215912,45.1953277],[19.1414,45.1889199],[19.2259923,45.1615561],[19.1414,45.1889199],[19.1666667,45.1333333],[19.25,44.95],[19.45,44.88],[19.7,44.77],[20,44.68],[20.25,44.68],[20.355,44.755],[20.46,44.83],[20.7,44.85],[20.825,44.775],[20.95,44.7],[21.3,44.8],[21.45,44.75],[21.6,44.7],[21.9,44.55],[22.05,44.525],[22.1132224,44.5144629],[22.1519632,44.5080061],[22.2,44.5],[22.45,44.7],[22.525,44.9],[22.6,45.1],[22.9,45.3],[23.0666667,45.3333333],[23.2333333,45.3666667],[23.4,45.4],[23.85,45.4],[24.06,45.425],[24.27,45.45],[24.385,45.5],[24.5,45.55],[25,45.55],[25.35,45.48],[25.55,45.49],[25.75,45.5],[26,45.55],[26.3,45.72],[26.4,45.95],[26.3,46.2],[26.175,46.385],[26.05,46.57],[25.95,46.685],[25.85,46.8],[25.65,47.1],[25.35,47.32],[25.75,47.38],[26.2,47.5],[26.45,47.65],[26.35,47.9],[26.25,48.05],[26.3,48.25],[26.2,48.5],[26.2272727,48.5090909],[26.35,48.55],[26.125,48.585],[25.9,48.62],[25.55,48.68],[25.45,48.9],[25.35,49.25],[25.4,49.6],[25.35,50],[25.15,50.12],[24.9666667,50.1633333],[24.7833333,50.2066667],[24.6,50.25],[24.435,50.365],[24.27,50.48],[24.0466667,50.4466667],[23.8233333,50.4133333],[23.6,50.38],[23,50.38],[22.7833333,50.3866667],[22.5666667,50.3933333],[22.35,50.4],[22.2,50.475],[22.05,50.55],[21.95,50.625],[21.85,50.7],[21.75,50.66],[21.4,50.45],[21.2,50.4],[21,50.35],[20.85,50.275],[20.7,50.2],[20.5,50.15],[20.3,50.1],[20.0886364,50.0647727],[19.94,50.04],[19.7,50.02],[19.55,50.01],[19.5363636,50.0090909],[19.5363636,50.0090909],[19.4,50],[19.2,50.04],[19,49.95],[18.6,49.92],[18.55,49.92],[18.4062798,49.92],[18.4807848,49.8963268],[18.4062798,49.92],[18.3691837,49.9317869],[18.3314892,49.92],[18.2935829,49.9081468],[18.289534,49.9123249],[18.2575826,49.9452955],[18.099181,49.9891986],[18.0919809,50.0179044],[18.00198,50.0466102],[18.0307803,50.0027072],[17.8399784,49.9740014],[17.7643776,50.0246587],[17.7211772,50.075316],[17.7319773,50.0955789],[17.6311763,50.1057104],[17.5879759,50.163122],[17.6743767,50.1749421],[17.7463775,50.2171565],[17.7175772,50.2526166],[17.7355774,50.2897653],[17.7067771,50.3117168],[17.6311763,50.2627481],[17.4691747,50.2661252],[17.4295743,50.239108],[17.3863739,50.2728795],[17.3539735,50.2526166],[17.3179732,50.3083397],[17.3359734,50.3134054],[17.2099721,50.3370455],[17.1883719,50.3792599],[16.8931689,50.4332944],[16.8643686,50.4079657],[16.9255693,50.3184711],[16.9867699,50.2846996],[17.0155702,50.2188451],[16.9615696,50.2323537],[16.9543695,50.2137793],[16.8175682,50.1867621],[16.702367,50.0955789],[16.6591666,50.0922018],[16.5655657,50.1428591],[16.5367654,50.207025],[16.4395644,50.2982082],[16.3711637,50.3184711],[16.3423634,50.3691284],[16.2631626,50.3640627],[16.198362,50.4062771],[16.2127621,50.4518687],[16.2883629,50.4923946],[16.3531635,50.4923946],[16.3927639,50.5211004],[16.3927639,50.5599377],[16.4251643,50.5683806],[16.3315633,50.6443665],[16.2307623,50.6612523],[16.1767618,50.6241036],[16.0867609,50.6460551],[15.9823598,50.6038407],[16.00036,50.6359236],[15.9715597,50.6781381],[15.8491585,50.6747609],[15.7915579,50.742304],[15.6727567,50.7338611],[15.4423544,50.7997156],[15.3559536,50.7760756],[15.3415534,50.8317986],[15.2551526,50.8993417],[15.2695527,50.9533762],[15.25,50.9582893],[15.25,50.9582893],[15.1687517,50.9787048],[15.1435514,51.0107878],[15.1075511,50.9803934],[15.00315,51.0209193],[14.9599496,50.9922134],[14.99595,50.9584419],[14.9815498,50.8588158],[14.8087481,50.8588158],[14.7583476,50.8098471],[14.6143461,50.8453072],[14.6287463,50.9212932],[14.5495455,50.9128503],[14.5747457,50.9753277],[14.4811448,51.037805],[14.398344,51.0124764],[14.2867429,51.0361165],[14.2399424,50.982082],[14.3803438,50.9212932],[14.3479435,50.8807673],[14.2327423,50.8790788],[14.0347403,50.8030928],[13.8907389,50.7811413],[13.8835388,50.742304],[13.8331383,50.7237297],[13.5559356,50.7068439],[13.5163352,50.6916467],[13.5235352,50.6629409],[13.4479345,50.5970864],[13.3687337,50.6291693],[13.2859329,50.5683806],[13.2319323,50.5818892],[13.1599316,50.4974603],[13.0087301,50.4923946],[12.99793,50.4332944],[12.9511295,50.4045886],[12.8179282,50.4434258],[12.7387274,50.4316058],[12.6919269,50.3944571],[12.5119251,50.3893914],[12.3468474,50.2677175],[12.3355234,50.2593709],[12.299523,50.1614334],[12.2275223,50.2374194],[12.2419224,50.2526166],[12.1771218,50.2695024],[12.1699217,50.3032739],[12.1377783,50.307333],[12.0763208,50.315094]],[[18.9775898,45.3945798],[19.0361646,45.4204379],[19.0387904,45.421597],[19.0361646,45.4204379],[19.0667644,45.3531183],[19.0207902,45.3574311],[18.9775898,45.3945798]],[[18.99559,45.4739429],[19.0046225,45.4898305],[19.0317724,45.4301007],[19.0387904,45.421597],[19.0317724,45.4301007],[18.99559,45.4739429]]]}}
