{"type":"Feature","properties":{"family":"austria","name":"Austrian Empire, 1806 – 1809"},"geometry":{"type":"Polygon","coordinates":[[[12.0763208,50.315094],[12.1123211,50.2762567],[12.0799208,50.2424851],[12.1843218,50.1715649],[12.1879219,50.1023332],[12.2283274,50.0783274],[12.2419224,50.0702503],[12.2455225,50.0449216],[12.4507245,49.9807557],[12.4723247,49.955427],[12.4615246,49.9317869],[12.5191252,49.911524],[12.4831248,49.8270951],[12.4615246,49.8304723],[12.4543245,49.779815],[12.3823238,49.7426663],[12.4183242,49.7004518],[12.497525,49.6700574],[12.501125,49.6194001],[12.5479255,49.59576],[12.5839258,49.5231512],[12.6235262,49.5096426],[12.6451265,49.4302795],[12.7099271,49.4049508],[12.7783278,49.332342],[12.8575286,49.3222105],[12.8863289,49.3390963],[13.00153,49.2951933],[13.1779318,49.1178927],[13.300333,49.0942526],[13.3723337,49.0385295],[13.397534,48.9777408],[13.4587346,48.9456578],[13.4839348,48.9372149],[13.5163352,48.9709865],[13.6099361,48.9456578],[13.6207362,48.9085091],[13.7251373,48.8679832],[13.8151382,48.7666686],[13.7827378,48.7160113],[13.8151382,48.6957484],[13.797138,48.5978109],[13.7323373,48.5589736],[13.7190255,48.5246326],[13.7179372,48.5218249],[13.6346455,48.5608924],[13.6243362,48.5657279],[13.5976399,48.56706],[13.4551346,48.5741708],[13.4371344,48.4306417],[13.404734,48.3766073],[13.2751328,48.3073756],[13.0339303,48.2634726],[12.8887371,48.2067208],[12.8611286,48.1959295],[12.7387274,48.1131892],[12.7495275,48.0743519],[12.8622374,47.9678309],[12.9907299,47.846394],[12.8935289,47.7231279],[13.0195302,47.7129964],[13.0735307,47.6589619],[13.0267303,47.5424501],[13.0375304,47.4934813],[13.00153,47.4664641],[12.9331293,47.4732184],[12.7783278,47.5542701],[12.7855279,47.6032389],[12.8143281,47.6116818],[12.7531275,47.6488305],[12.7603276,47.6674048],[12.720517,47.670517],[12.65,47.6],[12.5,47.35],[12.3,47.25],[12.1,47.1],[12.4,47.12],[12.7,47.1],[12.95,47.05],[13,46.85],[12.975,46.725],[12.9501299,46.6006493],[12.9005129,46.6046162],[12.9005129,46.6046162],[12.8287283,46.6103554],[12.9005129,46.6046162],[12.9005129,46.6046162],[12.9501299,46.6006493],[13.1455315,46.5850268],[13.2319323,46.5529438],[13.2802294,46.5549426],[13.3,46.55],[13.45,46.5],[13.4833333,46.4],[13.4916967,46.37491],[13.4335343,46.3536917],[13.3651337,46.2895258],[13.4083341,46.208474],[13.4371344,46.2101626],[13.4227342,46.228737],[13.4695347,46.2236712],[13.5919166,46.1919166],[13.25,45.85],[13.25,45.7713134],[13.2139321,45.7795754],[13.25,45.7713134],[13.2865806,45.762934],[13.2866002,45.7629295],[13.2859438,45.7613588],[13.2826257,45.7568292],[13.2781486,45.7528146],[13.2726717,45.7494575],[13.2663898,45.7468772],[13.2595259,45.7451653],[13.2523238,45.7443826],[13.2450393,45.7445568],[13.2401669,45.745328],[13.2379308,45.7456819],[13.2381374,45.7456492],[13.2401256,45.7453345],[13.2381374,45.7456492],[13.3534038,45.7192479],[13.3731445,45.7118453],[13.3606312,45.7080689],[13.3541924,45.7055936],[13.3485414,45.7023122],[13.3454634,45.69969],[13.3487019,45.6976166],[13.3609771,45.6897573],[13.3454634,45.69969],[13.3347087,45.7065757],[13.5847279,45.5465],[13.5562015,45.5647642],[13.4205687,45.6516036],[13.5752215,45.7140105],[13.5816407,45.7172463],[13.5869818,45.7213265],[13.5910206,45.7260798],[13.5935873,45.731307],[13.5945736,45.7367885],[13.5939378,45.7422944],[13.5932464,45.7439363],[13.6957791,45.6855103],[13.7101712,45.6694912],[13.7044526,45.6607631],[13.7020086,45.6558092],[13.700982,45.6506193],[13.7014111,45.6453895],[13.7032793,45.6403172],[13.7065158,45.6355939],[13.7109981,45.6313976],[13.7165568,45.6278868],[13.7230367,45.6245321],[13.6997241,45.6196629],[13.6928683,45.617712],[13.6866714,45.6148815],[13.6813614,45.6112759],[13.677134,45.6070279],[13.6741447,45.6022942],[13.6725033,45.5972491],[13.6722697,45.5920784],[13.6734523,45.5869725],[13.6760072,45.5821193],[13.6798399,45.5776975],[13.6824946,45.5752084],[13.5662668,45.5666261],[13.6824946,45.5752084],[13.6824947,45.5752084],[13.6824947,45.5752084],[13.6898976,45.575755],[13.6898976,45.575755],[13.6898976,45.575755],[13.6898976,45.575755],[13.689736,45.5766117],[13.6903091,45.5820973],[13.6924599,45.5873875],[13.6960996,45.5922625],[13.701077,45.5965194],[13.7071854,45.5999812],[13.7141709,45.6025038],[13.7217428,45.6039823],[13.7434902,45.606592],[13.7508352,45.6069732],[13.7581498,45.60637],[13.7642999,45.6049978],[13.7642693,45.6049915],[13.7107371,45.5938319],[13.7282625,45.5773915],[13.75,45.58],[13.85,45.55],[13.95,45.45],[14.05,45.3],[14.2,45.25],[14.1577922,45.1233766],[14.15,45.1],[14.1577922,45.1233766],[14.1796006,45.1328269],[14.1787418,45.1345389],[14.1816106,45.1336979],[14.2075421,45.126096],[14.1816106,45.1336979],[14.2369562,45.157681],[14.2363424,45.1548018],[14.2369562,45.157681],[14.2426183,45.1842389],[14.2426194,45.184244],[14.2453712,45.184],[14.2523785,45.1823727],[14.258812,45.1798275],[14.2644326,45.1764593],[14.2690313,45.1723933],[14.2703341,45.1706291],[14.2762468,45.1814166],[14.2798963,45.1864369],[14.2822079,45.1884392],[14.2950859,45.2486547],[14.3362335,45.3155105],[14.3897315,45.3124946],[14.5115085,45.2601357],[14.5141005,45.2592561],[14.5130642,45.2575803],[14.5114651,45.2522972],[14.5089131,45.2359473],[14.5103559,45.2408465],[14.5131402,45.2455616],[14.5171369,45.2498227],[14.5222031,45.2534772],[14.5281572,45.256394],[14.5347858,45.2584685],[14.5418512,45.2596262],[14.5491,45.2598257],[14.5562721,45.2590598],[14.596306,45.2519947],[14.6010805,45.2507654],[14.6010806,45.2507653],[14.6379601,45.2156603],[14.6297334,45.2234912],[14.6241079,45.228846],[14.6220165,45.2308368],[14.6378426,45.2157722],[14.6378426,45.2157722],[14.6379601,45.2156603],[14.6578415,45.1891975],[14.668764,45.1883858],[14.6758401,45.1873235],[14.6575466,45.1970163],[14.6758401,45.1873235],[14.6758401,45.1873235],[14.6758401,45.1873235],[14.6758525,45.1873169],[14.6900014,45.1798202],[14.6914644,45.179045],[14.6965428,45.1763542],[14.6965998,45.1763241],[14.6965998,45.1763241],[14.6965998,45.1763241],[14.7537014,45.1460689],[14.7537014,45.1460689],[14.8519485,45.094013],[14.7537014,45.1460689],[14.7537014,45.1460689],[14.6965998,45.1763241],[14.6997094,45.1725225],[14.7021767,45.1671592],[14.7030087,45.1615513],[14.7029937,45.1391985],[14.7029937,45.1391985],[14.7029729,45.1082646],[14.7029937,45.1391984],[14.8198419,45.07731],[14.8806118,44.9574441],[14.8437937,44.85047],[14.842722,44.8434979],[14.8442371,44.7941404],[14.8475034,44.7922078],[14.8532068,44.7880072],[14.8575036,44.7830345],[14.8837674,44.7435788],[14.8837686,44.7435393],[14.8843488,44.7242146],[14.8955416,44.7101634],[14.8955536,44.7101484],[14.8951231,44.7088398],[14.8921517,44.7041276],[14.8813464,44.6906221],[14.8768951,44.6861738],[14.8759468,44.6855459],[14.8712759,44.6824533],[14.8730624,44.6836361],[14.9169157,44.628623],[14.9363687,44.6234918],[14.9383594,44.626975],[14.9425651,44.6314744],[14.9479473,44.6352868],[14.9532184,44.6377569],[14.9592511,44.6301835],[14.9718602,44.6143542],[14.9718603,44.6143542],[15.04,44.55],[15.055015,44.5360575],[15.055015,44.5360575],[15.0550151,44.5360574],[15.0067501,44.5705541],[15.0550151,44.5360574],[15.0550151,44.5360574],[15.1066785,44.4991318],[15.1066785,44.4991318],[15.1067507,44.4990802],[15.1078351,44.4980108],[15.1109392,44.4931577],[15.1126435,44.4879638],[15.1128817,44.4826322],[15.112122,44.479401],[15.2818427,44.3582858],[15.2865722,44.354152],[15.2870338,44.3535292],[15.3267574,44.3377915],[15.3322098,44.3351608],[15.3369398,44.3318926],[15.3757731,44.2999009],[15.4344086,44.268624],[15.434399,44.2686237],[15.4243542,44.2682988],[15.3084764,44.3141959],[15.2623526,44.3324647],[15.3084764,44.3141959],[15.35,44.28],[15.5,44.2],[15.65,44.18],[15.95,44.2],[16.15,44.2],[16.5,43.9],[16.6980174,43.8009913],[16.6771668,43.8410887],[16.500765,43.9930607],[16.4395644,44.0133236],[16.4143641,44.055538],[16.3279633,44.0825553],[16.2163622,44.20751],[16.1875619,44.2818074],[16.2055621,44.351039],[16.1371614,44.3780563],[16.1587616,44.4168936],[16.1155612,44.5215854],[16.0075601,44.5401597],[16.0435604,44.5891284],[16.0291603,44.6245886],[15.9679597,44.6397858],[15.8887589,44.7242146],[15.8059581,44.6971974],[15.8059581,44.6971974],[15.7267573,44.7698062],[15.7159572,44.8035778],[15.7735577,44.8457922],[15.7303573,44.9268439],[15.7627576,44.9758126],[15.7555576,45.0416671],[15.7915579,45.1902619],[15.8779588,45.2172792],[16.0219602,45.213902],[16.0255603,45.1835076],[16.0687607,45.169999],[16.1227612,45.0957016],[16.2127621,45.0315357],[16.3171632,45.0011413],[16.3423634,45.006207],[16.3891639,45.1176531],[16.4359644,45.1328503],[16.4827648,45.1987048],[16.5295653,45.2223449],[16.8103681,45.1818191],[16.8902559,45.253248],[16.9255693,45.2848223],[16.9471695,45.2358535],[17.0083701,45.2442964],[17.0083701,45.2155906],[17.0371704,45.2307878],[17.0551706,45.2003934],[17.1883719,45.1480475],[17.2459725,45.1548018],[17.2675727,45.1902619],[17.3827738,45.1396046],[17.4439744,45.1615561],[17.4475745,45.1345389],[17.497975,45.1412932],[17.4835748,45.114276],[17.6851769,45.1632447],[17.8363784,45.0636187],[17.9119791,45.0805044],[18.00198,45.1497361],[18.1531815,45.0973902],[18.2395824,45.158179],[18.3943839,45.1193417],[18.5167852,45.0551758],[18.5419854,45.0551758],[18.5491855,45.094013],[18.6103861,45.1007674],[18.6499865,45.0619301],[18.6787868,45.0872587],[18.7255873,45.02647],[18.7903879,45.006207],[18.804788,44.9741241],[18.7723877,44.9420411],[18.8191882,44.8880066],[18.8911889,44.8609894],[19.0171902,44.8660551],[18.9919899,44.9150239],[19.0675907,44.9048924],[19.1323913,44.9538611],[19.0855909,44.9775012],[19.0819908,45.0855702],[19.0459905,45.1379161],[19.1359914,45.1463589],[19.1215912,45.1953277],[19.1414,45.1889199],[19.2259923,45.1615561],[19.1414,45.1889199],[19.1666667,45.1333333],[19.25,44.95],[19.45,44.88],[19.7,44.77],[20,44.68],[20.25,44.68],[20.355,44.755],[20.46,44.83],[20.7,44.85],[20.825,44.775],[20.95,44.7],[21.3,44.8],[21.45,44.75],[21.6,44.7],[21.9,44.55],[22.05,44.525],[22.1132224,44.5144629],[22.1519632,44.5080061],[22.2,44.5],[22.45,44.7],[22.525,44.9],[22.6,45.1],[22.9,45.3],[23.0666667,45.3333333],[23.2333333,45.3666667],[23.4,45.4],[23.85,45.4],[24.06,45.425],[24.27,45.45],[24.385,45.5],[24.5,45.55],[25,45.55],[25.35,45.48],[25.55,45.49],[25.75,45.5],[26,45.55],[26.3,45.72],[26.4,45.95],[26.3,46.2],[26.175,46.385],[26.05,46.57],[25.95,46.685],[25.85,46.8],[25.65,47.1],[25.35,47.32],[25.75,47.38],[26.2,47.5],[26.45,47.65],[26.35,47.9],[26.25,48.05],[26.3,48.25],[26.2,48.5],[26.2272727,48.5090909],[26.35,48.55],[26.2,48.85],[26.225,49.025],[26.25,49.2],[26.15,49.53],[26,49.7],[25.6,49.9],[25.45,49.9733333],[25.3,50.0466667],[25.15,50.12],[24.9666667,50.1633333],[24.7833333,50.2066667],[24.6,50.25],[24.435,50.365],[24.27,50.48],[24.15,50.7],[24.1,50.88],[23.95,51.025],[23.8,51.17],[23.7,51.36],[23.6,51.55],[23.64,51.725],[23.68,51.9],[23.6,52.15],[23.2,52.4],[23.15,52.35],[22.66,52.4],[22.6418398,52.4144214],[22.5625995,52.4773475],[22.49,52.535],[22.32,52.67],[21.85,52.7],[21.65,52.65],[21.45,52.6],[21.05,52.52],[21,52.45],[21.05,52.25],[21.15,52.05],[21.3,51.87],[21.19,51.78],[20.9866667,51.7266667],[20.7833333,51.6733333],[20.58,51.62],[20.22,51.53],[20.0055556,51.53],[19.9916667,51.5175],[19.88,51.35],[19.88,51.09],[19.82,50.63],[19.66,50.54],[19.5,50.45],[19.3,50.3],[19.2,50.04],[19,49.95],[18.6,49.92],[18.55,49.92],[18.4062798,49.92],[18.4807848,49.8963268],[18.4062798,49.92],[18.3691837,49.9317869],[18.3314892,49.92],[18.2935829,49.9081468],[18.289534,49.9123249],[18.2575826,49.9452955],[18.099181,49.9891986],[18.0919809,50.0179044],[18.00198,50.0466102],[18.0307803,50.0027072],[17.8399784,49.9740014],[17.7643776,50.0246587],[17.7211772,50.075316],[17.7319773,50.0955789],[17.6311763,50.1057104],[17.5879759,50.163122],[17.6743767,50.1749421],[17.7463775,50.2171565],[17.7175772,50.2526166],[17.7355774,50.2897653],[17.7067771,50.3117168],[17.6311763,50.2627481],[17.4691747,50.2661252],[17.4295743,50.239108],[17.3863739,50.2728795],[17.3539735,50.2526166],[17.3179732,50.3083397],[17.3359734,50.3134054],[17.2099721,50.3370455],[17.1883719,50.3792599],[16.8931689,50.4332944],[16.8643686,50.4079657],[16.9255693,50.3184711],[16.9867699,50.2846996],[17.0155702,50.2188451],[16.9615696,50.2323537],[16.9543695,50.2137793],[16.8175682,50.1867621],[16.702367,50.0955789],[16.6591666,50.0922018],[16.5655657,50.1428591],[16.5367654,50.207025],[16.4395644,50.2982082],[16.3711637,50.3184711],[16.3423634,50.3691284],[16.2631626,50.3640627],[16.198362,50.4062771],[16.2127621,50.4518687],[16.2883629,50.4923946],[16.3531635,50.4923946],[16.3927639,50.5211004],[16.3927639,50.5599377],[16.4251643,50.5683806],[16.3315633,50.6443665],[16.2307623,50.6612523],[16.1767618,50.6241036],[16.0867609,50.6460551],[15.9823598,50.6038407],[16.00036,50.6359236],[15.9715597,50.6781381],[15.8491585,50.6747609],[15.7915579,50.742304],[15.6727567,50.7338611],[15.4423544,50.7997156],[15.3559536,50.7760756],[15.3415534,50.8317986],[15.2551526,50.8993417],[15.2695527,50.9533762],[15.25,50.9582893],[15.1687517,50.9787048],[15.1435514,51.0107878],[15.1075511,50.9803934],[15.00315,51.0209193],[14.9599496,50.9922134],[14.99595,50.9584419],[14.9815498,50.8588158],[14.8087481,50.8588158],[14.7583476,50.8098471],[14.6143461,50.8453072],[14.6287463,50.9212932],[14.5495455,50.9128503],[14.5747457,50.9753277],[14.4811448,51.037805],[14.398344,51.0124764],[14.2867429,51.0361165],[14.2399424,50.982082],[14.3803438,50.9212932],[14.3479435,50.8807673],[14.2327423,50.8790788],[14.0347403,50.8030928],[13.8907389,50.7811413],[13.8835388,50.742304],[13.8331383,50.7237297],[13.5559356,50.7068439],[13.5163352,50.6916467],[13.5235352,50.6629409],[13.4479345,50.5970864],[13.3687337,50.6291693],[13.2859329,50.5683806],[13.2319323,50.5818892],[13.1599316,50.4974603],[13.0087301,50.4923946],[12.99793,50.4332944],[12.9511295,50.4045886],[12.8179282,50.4434258],[12.7387274,50.4316058],[12.6919269,50.3944571],[12.5119251,50.3893914],[12.3468474,50.2677175],[12.3355234,50.2593709],[12.299523,50.1614334],[12.2275223,50.2374194],[12.2419224,50.2526166],[12.1771218,50.2695024],[12.1699217,50.3032739],[12.1377783,50.307333],[12.0763208,50.315094]],[[14.6575466,45.1970163],[14.6379601,45.2156603],[14.6378426,45.2157722],[14.6378426,45.2157722],[14.6220165,45.2308368],[14.6220165,45.2308368],[14.6378426,45.2157722],[14.6378426,45.2157722],[14.6379601,45.2156603],[14.6575466,45.1970163]],[[14.5542756,45.2953183],[14.5583109,45.2914771],[14.5583109,45.2914771],[14.5542756,45.2953183]],[[18.9775898,45.3945798],[19.0361646,45.4204379],[19.0387904,45.421597],[19.0361646,45.4204379],[19.0667644,45.3531183],[19.0207902,45.3574311],[18.9775898,45.3945798]],[[18.99559,45.4739429],[19.0046225,45.4898305],[19.0317724,45.4301007],[19.0387904,45.421597],[19.0317724,45.4301007],[18.99559,45.4739429]]]}}
