{"type":"Feature","properties":{"family":"spain","name":"Balearic Islands, held by the Spanish patriots, 1808 – 1813"},"geometry":{"type":"Polygon","coordinates":[[[0.8686472,38.8954847],[0.8736823,38.838741],[0.893861,38.784079],[0.9282556,38.7339211],[0.9753175,38.690485],[1.032949,38.6556879],[1.0405717,38.6528315],[1.0396707,38.6233093],[1.0504531,38.5729316],[1.0731654,38.5250426],[1.1069738,38.4813525],[1.1506547,38.4434182],[1.2026397,38.4125897],[1.2610725,38.3899622],[1.3238743,38.376339],[1.3888158,38.3722034],[1.4535946,38.3777021],[1.5097134,38.391156],[1.5537212,38.3849161],[1.6201715,38.3856362],[1.6852227,38.3963167],[1.7464744,38.4165637],[1.8016619,38.4456304],[1.848738,38.4824429],[1.8859475,38.5256396],[1.9118927,38.57362],[1.9255871,38.6246028],[1.9264945,38.6766917],[1.9145536,38.7279446],[1.8901835,38.7764468],[1.8542722,38.8203824],[1.8486805,38.8249584],[1.8961209,38.8634998],[1.9342195,38.9112005],[1.9588443,38.9640009],[1.968901,39.0196213],[1.96392,39.0756546],[1.9498136,39.138175],[1.9318563,39.1876115],[2.1848213,39.3066346],[2.1848559,39.3066508],[2.4239948,39.4191686],[2.1848559,39.3066508],[2.1848213,39.3066346],[2.1846287,39.3065439],[2.2376032,39.2814988],[2.2522987,39.2771233],[2.2859074,39.2539168],[2.3420908,39.2278084],[2.403559,39.2102788],[2.4681576,39.2019418],[2.5216205,39.2028813],[2.5226982,39.201688],[2.5684476,39.1673665],[2.5664407,39.1452677],[2.5747127,39.093494],[2.5956482,39.0439207],[2.6284417,38.9983951],[2.6718522,38.9586099],[2.7186462,38.9232471],[2.7718232,38.8902405],[2.8322142,38.8659192],[2.8975118,38.8512101],[2.9652273,38.8466734],[3.0327829,38.8524816],[3.0976069,38.8684137],[3.1572282,38.8938629],[3.2093677,38.9278592],[3.2520236,38.9691053],[3.283548,39.0160247],[3.3089361,39.0649232],[3.3144533,39.0795951],[3.469901,39.1756573],[3.52582,39.218986],[3.5677439,39.2709589],[3.7922133,39.6333948],[3.8075119,39.6662912],[3.9070863,39.6608341],[4.0689469,39.5860911],[4.1402406,39.5609475],[4.2169734,39.5486179],[4.2953362,39.5497138],[4.3455451,39.5547612],[4.4135522,39.5669776],[4.4770966,39.5893235],[4.5336694,39.6209183],[4.5810283,39.6605155],[4.6164905,39.7055423],[4.6174104,39.7063102],[4.6539234,39.7528368],[4.6776104,39.8040399],[4.6874849,39.8578499],[4.6831146,39.9120871],[4.6646439,39.9645494],[4.6327931,40.013102],[4.4677069,40.2110801],[4.4268176,40.2510566],[4.3767993,40.2844635],[4.3194233,40.3101095],[4.2567313,40.3270787],[4.2323019,40.329938],[4.2189485,40.334524],[4.1523802,40.3463718],[4.0840553,40.3482055],[4.0165523,40.3399559],[3.7130673,40.2789406],[3.6490712,40.2607529],[3.5908941,40.2334873],[3.5407197,40.198171],[3.500422,40.1561326],[3.4753565,40.1152532],[3.4456847,40.1470394],[3.3951908,40.1832733],[3.3363605,40.2112478],[3.2714722,40.2298752],[3.2030471,40.2384308],[3.1337489,40.2365812],[3.0662764,40.2243985],[2.6942536,40.1260983],[2.6366872,40.1061733],[2.5847321,40.07869],[2.1235142,39.7823026],[2.0734594,39.7424302],[2.0351113,39.6955234],[2.0100721,39.6435731],[1.9993714,39.5887792],[2.0034272,39.5334568],[2.0220342,39.4799381],[2.0543777,39.4304737],[2.0977083,39.3782371],[2.117067,39.3589634],[2.117174,39.3590138],[2.1171923,39.3590224],[2.3759841,39.4808265],[2.1171923,39.3590224],[2.117174,39.3590138],[1.886504,39.2504456],[1.8544159,39.2812155],[1.8001448,39.3158049],[1.737961,39.3412335],[1.6513002,39.3683462],[1.5743993,39.3847365],[1.4946789,39.387149],[1.4163504,39.3754562],[1.2502039,39.334778],[1.1803544,39.3107949],[1.1189933,39.2755854],[1.0577709,39.2315582],[1.0155535,39.1950697],[0.9825922,39.1532567],[0.9813312,39.1507089],[0.9753628,39.1469472],[0.9331242,39.1079728],[0.9011204,39.0635269],[0.880477,39.0152016],[0.8719082,38.964724],[0.8686472,38.8954847]],[[1.5717135,39.1022849],[1.608822,39.1197506],[1.608826,39.1197525],[1.608826,39.1197525],[1.6088446,39.1197612],[1.608826,39.1197525],[1.608826,39.1197525],[1.608822,39.1197506],[1.5855964,39.1088191],[1.608822,39.1197506],[1.608826,39.1197525],[1.608826,39.1197525],[1.7693745,39.1953169],[1.608826,39.1197525],[1.608826,39.1197525],[1.608822,39.1197506],[1.5717135,39.1022849]],[[3.803438,40.0181498],[3.8285899,40],[3.8285899,40],[3.803438,40.0181498]],[[3.8214382,40.0468556],[4,40.0669988],[4.1058411,40.0789386],[4,40.0669988],[3.8214382,40.0468556]],[[3.8322383,39.9354095],[3.8905092,39.932194],[4,39.9261521],[4,39.9261521],[4.0158402,39.925278],[4,39.9261521],[4,39.9261521],[3.8905092,39.932194],[3.8322383,39.9354095]],[[4.2412448,40],[4.2412448,40],[4.2642426,39.9860668],[4.2412448,40]]]}}
