{"type":"Feature","properties":{"family":"other","name":"Regencies of Algiers, Tunis and Tripoli, under Ottoman suzerainty, 1789 – 1815"},"geometry":{"type":"Polygon","coordinates":[[[-8.6814868,27.2845886],[-4.8222482,24.9948778],[-0.2314285,22],[-0.7369616,22],[-0.4051549,21.7836797],[-0.3489956,21.7534363],[-0.2869274,21.7356255],[-0.2220689,21.7311429],[9.383476,21.7304156],[9.4427098,21.733965],[9.4999225,21.7486734],[9.5527221,21.7739263],[9.9360724,22],[9.3943439,22],[11.9683197,23.5173727],[13.4839348,23.1796572],[13.599136,23.1188685],[14.2147421,22.6156724],[14.9815498,22.9956023],[15.9859599,23.4447639],[18.9120441,22],[18.2977486,22],[18.7741501,21.7647192],[18.8209511,21.7456494],[18.8705577,21.7344502],[18.9214401,21.7314657],[24.9530168,21.7331606],[24.9308686,21.734734],[24.8753391,21.7493148],[24.8240326,21.7738121],[24.7789739,21.8072598],[24.7419449,21.8483385],[24.7144148,21.8954269],[24.6974813,21.9466648],[24.6946576,21.9733089],[24.78778,21.9733115],[24.979496,21.9733169],[24.977286,21.9734736],[24.9717238,21.9749339],[24.9665864,21.9773874],[24.9620776,21.9807371],[24.9583758,21.9848503],[24.9556279,21.9895638],[24.9539428,21.9946911],[24.9533905,22],[24.9824498,22],[24.9824498,29.1808609],[24.8636486,29.5033791],[24.8708487,29.6384653],[24.798848,29.7971916],[24.8132481,29.8900633],[24.6872469,30.1433499],[24.6872469,30.1821872],[24.7628476,30.3172734],[24.9068491,30.4979511],[24.9896499,30.7512377],[24.9824498,30.8255351],[24.8816488,31.0382959],[24.8492485,31.3489941],[24.8600486,31.381077],[25.0220502,31.4942117],[25.0868509,31.6141007],[25.1516515,31.6563151],[25.1405014,31.6814186],[25.1434418,31.6823554],[25.1495594,31.6832054],[25.1557573,31.6830241],[25.1617978,31.6818184],[25.1674488,31.6796347],[25.1724938,31.6765566],[25.1767391,31.6727024],[25.180022,31.6682197],[25.1817728,31.6642795],[25.1813446,31.6656832],[25.1453691,31.7467405],[25.1413001,31.7531033],[25.0601786,31.8466823],[25.0538711,31.9120046],[25.0643986,31.9155368],[25.1261825,31.9249447],[25.1889726,31.9238139],[25.2502918,31.9121883],[25.3077219,31.8905255],[25.3590013,31.8596785],[25.402116,31.820862],[25.4174503,31.8000044],[25.422198,31.8007884],[25.2722266,32.0793933],[25.2384073,32.1277287],[25.1932315,32.1690463],[25.1386887,32.201511],[25.0771928,32.223678],[24.8282269,32.2880955],[24.7701152,32.2982169],[24.71074,32.299125],[24.6521748,32.2907858],[24.5118265,32.2592091],[24.2393419,32.2684466],[24.2240714,32.28381],[24.177205,32.3159142],[24.1238855,32.3399888],[23.9651807,32.3959],[23.8941392,32.4130713],[23.4691151,32.4714975],[23.4697651,32.4761724],[23.463928,32.5306941],[23.4449192,32.5830506],[23.4263304,32.6114636],[23.4270334,32.632833],[23.4232069,32.682044],[23.4086109,32.7298067],[23.3837258,32.7744945],[23.349385,32.8145829],[23.306749,32.8487019],[23.2572667,32.8756834],[23.2026262,32.8946024],[22.6488986,33.0365741],[22.5126383,33.1085617],[22.4635738,33.1297369],[22.4108267,33.1435824],[22.3625931,33.1489487],[22.3617176,33.149717],[22.3141317,33.1784694],[22.2609864,33.1995024],[22.2040691,33.2121058],[22.1452979,33.215853],[22.0866559,33.2106158],[21.873259,33.1746928],[21.6747233,33.2009367],[21.6068566,33.2038039],[21.5397377,33.1947388],[21.4763771,33.1741458],[21.4196138,33.1429461],[21.290947,33.0545151],[21.0302462,33.039951],[20.9650184,33.0305415],[20.9034643,33.0101835],[20.4127962,32.7952612],[20.3444394,32.7547643],[19.8545031,32.3723504],[19.8177564,32.3380155],[19.7885623,32.2989016],[19.6557856,32.0807501],[19.6333204,32.0328773],[19.6221091,31.9822834],[19.6011656,31.7829261],[19.6008683,31.7386604],[19.60917,31.6949668],[19.7147361,31.3320761],[19.7294955,31.2938221],[19.7508116,31.2578805],[19.8323801,31.1425849],[19.8325256,31.0987115],[19.767022,30.9651113],[19.420529,30.6380671],[19.2593401,30.5663989],[19.0050861,30.5633254],[18.8369585,30.6422474],[18.4185134,30.9688768],[18.3699354,30.9998463],[18.3152694,31.022259],[18.0934404,31.0913555],[18.0859966,31.0987649],[18.0461975,31.1319143],[18.0001516,31.1585562],[17.9492992,31.1778534],[17.0436846,31.4387274],[16.9824613,31.4505102],[16.1320822,31.5369813],[15.9609087,31.6060281],[15.7680912,31.8017154],[15.6802967,32.0068838],[15.6885651,32.146816],[15.6848095,32.2036247],[15.6669919,32.2584792],[15.6358854,32.3089247],[15.4491137,32.545681],[15.4100418,32.5859651],[15.3624442,32.6191457],[15.3081013,32.6439752],[15.2490529,32.6595186],[14.6124516,32.7699],[14.3893788,32.9236825],[14.3441241,32.9496888],[14.2942146,32.9688304],[14.2411163,32.9805437],[13.6641218,33.0630024],[13.3875961,33.165897],[13.3327589,33.1814414],[13.2754544,33.18849],[13.2175511,33.1868122],[13.1609378,33.1764624],[12.7871801,33.0772419],[12.4489115,33.0977228],[12.0096944,33.3155459],[11.9672155,33.3331032],[11.812065,33.3855986],[11.751119,33.4005245],[11.6878293,33.4051643],[11.6811279,33.4045475],[11.5251315,33.4869336],[11.4917284,33.5008967],[11.4858434,33.5052729],[11.4342119,33.5308418],[11.4300843,33.5881087],[11.4091894,33.6468717],[11.3728606,33.7001637],[11.3654033,33.7086686],[11.3667374,33.7110274],[11.3820835,33.7624038],[11.3850866,33.8152728],[11.3756091,33.8675997],[11.3539948,33.917367],[11.3210588,33.9626531],[11.2780585,34.0017062],[11.1484108,34.0981669],[11.0958988,34.1299138],[11.0367734,34.1523476],[10.9734096,34.1645652],[10.9083575,34.1660746],[10.7133628,34.1542303],[10.6540846,34.1459667],[10.5976584,34.1287991],[10.5460201,34.1033167],[10.5009376,34.0703936],[10.4639487,34.0311584],[10.4381888,33.9899626],[10.4188287,34.0052461],[10.3729193,34.0592851],[10.3549329,34.1224505],[10.3551518,34.1227354],[10.7377655,34.2948601],[10.7876972,34.3223679],[10.8307386,34.3569458],[10.8649477,34.3968631],[10.9125903,34.3780937],[10.9703914,34.3606079],[11.0311363,34.3523754],[11.0926833,34.353686],[11.152863,34.3644931],[11.2095533,34.3844154],[11.260752,34.4127495],[11.2744629,34.4219868],[11.4379517,34.4855923],[11.4903637,34.5110686],[11.536199,34.5440837],[11.5738759,34.5835034],[11.6020877,34.6279723],[11.6198484,34.6759594],[11.6265283,34.7258101],[11.6248506,34.7438482],[11.6258514,34.7463368],[11.6338798,34.797298],[11.63001,34.8485715],[11.6143616,34.8982959],[11.587484,34.9446626],[11.5503387,34.9859828],[11.5042673,35.0207489],[11.4509431,35.0476907],[11.4226656,35.0590711],[11.4536888,35.1000373],[11.4760856,35.1480009],[11.487004,35.1985544],[11.486029,35.24987],[11.4731745,35.3000895],[11.4488863,35.3473912],[11.4140286,35.3900563],[11.3983898,35.405714],[11.410222,35.4521048],[11.4171551,35.5097822],[11.4088162,35.567316],[11.38556,35.622048],[11.369423,35.6435274],[11.3662186,35.6839379],[11.3477928,35.7376732],[11.3161213,35.7871505],[11.2725436,35.8302427],[11.2189199,35.8650941],[11.1575516,35.8902015],[11.1178798,35.902417],[11.1042993,35.9243174],[11.064973,35.9654153],[11.0165918,35.9995932],[10.9609608,36.0255691],[10.9001635,36.0423674],[10.8753588,36.0450934],[10.8241089,36.1395223],[10.834428,36.1752445],[10.913557,36.1988457],[10.9683798,36.219909],[11.0176275,36.2486227],[11.0596789,36.2840445],[11.0931434,36.3250108],[11.2824588,36.6087401],[11.3320263,36.6389024],[11.3810514,36.6753745],[11.4201894,36.7188981],[11.447884,36.7677605],[11.4630232,36.8200359],[11.464985,36.8736607],[11.4536657,36.9265142],[11.3753167,37.1529593],[11.3519259,37.2015181],[11.3172453,37.2455559],[11.2725563,37.2834237],[11.2195224,37.313701],[11.1601274,37.3352508],[11.0966003,37.3472629],[11.0313303,37.349285],[10.9667741,37.3412407],[10.8187177,37.3107611],[10.7557963,37.2922816],[10.6986958,37.2642492],[10.6496705,37.2277732],[10.6084896,37.1903518],[10.6075288,37.213645],[10.5929102,37.2643339],[10.5663397,37.3118202],[10.5287894,37.3543303],[10.4816482,37.3902739],[10.4266706,37.4183046],[10.213803,37.5046704],[10.1395862,37.5264196],[10.0790419,37.5321425],[10.040498,37.5560471],[9.982834,37.5793697],[9.9206097,37.5935289],[9.805038,37.6104709],[9.7315139,37.6147259],[9.6585601,37.6062278],[9.1241175,37.4944527],[9.0560948,37.4735974],[8.9952833,37.4416231],[8.6670378,37.2241798],[8.4690158,37.1818974],[8.3314202,37.2161297],[8.260456,37.2272468],[8.188151,37.2260088],[8.1178511,37.2124729],[8.0332273,37.1882143],[8.0323248,37.1890573],[7.9791299,37.2222324],[7.9187031,37.2462739],[7.8534728,37.2602142],[7.7860659,37.2634919],[7.6745698,37.2599255],[7.5502489,37.3172071],[7.492639,37.3382276],[7.431109,37.3502889],[7.3678357,37.3529643],[7.1655555,37.3461847],[7.1011334,37.3389688],[7.0396663,37.3220247],[6.9834458,37.2959847],[6.9345624,37.2618196],[6.8948266,37.2208014],[6.8914307,37.2154006],[6.8589544,37.2213489],[6.8064735,37.2262226],[6.8050137,37.2279669],[6.7618732,37.2633197],[6.7113605,37.2917987],[6.6551716,37.3124445],[6.5288158,37.3480063],[6.4566062,37.3614045],[6.3824814,37.3619119],[6.3100327,37.3495042],[6.2427679,37.3247825],[6.0985088,37.255361],[6.047423,37.2251167],[6.004401,37.1877394],[5.9709668,37.1445634],[5.9699074,37.1428522],[5.6687218,37.0966496],[5.5942444,37.0777286],[5.5272938,37.0455601],[5.3667914,36.9461818],[5.3452877,36.9679116],[5.2970248,37.0012153],[5.2417788,37.0266443],[4.9241867,37.1417801],[4.8620675,37.1585988],[4.7970622,37.1654848],[3.8831943,37.1874315],[3.8107139,37.1826486],[3.7412675,37.1655457],[3.4258947,37.0562959],[3.3083684,37.0766804],[3.244877,37.0826971],[3.1811458,37.0790065],[3.1194858,37.0657432],[3.0808108,37.0506731],[3.0543637,37.058989],[2.9866876,37.0739763],[2.9166318,37.0774193],[2.8472596,37.0691687],[2.7816027,37.0495859],[2.7225258,37.0195268],[2.5109081,36.8846459],[2.391215,36.9025216],[2.3173378,36.9068668],[2.2441317,36.898134],[1.9251474,36.8301331],[1.3545654,36.8173045],[1.2881769,36.8103027],[0.9668234,36.7492858],[0.9015765,36.7309034],[0.842517,36.7021421],[0.6974289,36.6135652],[0.215036,36.4541672],[0.165448,36.4335813],[0.1208793,36.4066136],[-0.0951737,36.2508987],[-0.1454211,36.205179],[-0.1814494,36.1514295],[-0.187006,36.1402386],[-0.2111415,36.15145],[-0.2721794,36.1682715],[-0.3360477,36.1752985],[-0.4003415,36.1722678],[-0.5339517,36.1553074],[-0.5931662,36.1431615],[-0.6485577,36.1224624],[-0.6982508,36.0939131],[-0.7405684,36.0584817],[-0.7550747,36.0406946],[-0.8196071,36.0433527],[-0.8866572,36.034948],[-0.9501116,36.0156979],[-1.1809692,35.92254],[-1.2477571,35.8866833],[-1.3990135,35.7817401],[-1.4504069,35.7367027],[-1.487722,35.6833275],[-1.5449672,35.5735317],[-1.6330665,35.5452129],[-1.6775763,35.5276276],[-1.718299,35.5048167],[-1.9251095,35.3688296],[-2.0027516,35.3472291],[-2.1481308,35.3545328],[-2.2045276,35.3573661],[-2.2669577,35.3556272],[-2.3277991,35.3443311],[-2.3848576,35.3238865],[-2.4360793,35.2950317],[-2.4796264,35.2588071],[-2.5139434,35.2165166],[-2.5378127,35.1696797],[-2.5483484,35.1280662],[-2.526368,35.126809],[-2.4345852,35.1729312],[-2.4291816,35.175116],[-2.423385,35.1764612],[-2.4173892,35.176922],[-2.4113946,35.1764829],[-2.4056015,35.1751587],[-2.2203712,35.1172337],[-2.2303603,35.1154114],[-2.2366432,35.113705],[-2.2423735,35.111005],[-2.2473191,35.107421],[-2.2512795,35.1030982],[-2.2537541,35.0988025],[-2.2230222,35.0891927],[-2.1942219,35.0030753],[-2.00342,34.9186464],[-1.9782198,34.8646119],[-1.7694177,34.7413458],[-1.8702187,34.5961282],[-1.704617,34.4796163],[-1.8090181,34.373236],[-1.7478175,34.2904957],[-1.6686167,34.0794235],[-1.7190172,33.8987457],[-1.701017,33.7721025],[-1.7478175,33.7028708],[-1.6614166,33.6454592],[-1.6110161,33.522193],[-1.6830168,33.3685325],[-1.6758168,33.238512],[-1.499415,33.0595228],[-1.503015,32.975094],[-1.5570156,32.9328795],[-1.4238142,32.7420703],[-1.0314103,32.4938495],[-1.1214112,32.4178635],[-1.2186122,32.3925348],[-1.2438124,32.3570747],[-1.2762128,32.200037],[-1.3086131,32.167954],[-1.3050131,32.1510683],[-1.2114121,32.1578226],[-1.1898119,32.1257396],[-1.2114121,32.0902795],[-2.5146251,32.1324939],[-2.8818288,32.0767709],[-2.9394294,32.0480651],[-2.8278283,31.7947785],[-3.2202322,31.7171039],[-3.5910359,31.6782666],[-3.6594366,31.6478722],[-3.6738367,31.3895199],[-3.7458375,31.3844542],[-3.8142381,31.337174],[-3.8142381,31.2206622],[-3.8430384,31.1700049],[-3.8106381,31.1429876],[-3.7314373,31.1767592],[-3.6234362,31.0872646],[-3.5550356,30.9555556],[-3.6594366,30.8373552],[-3.6450365,30.7107119],[-3.8358384,30.6279716],[-4.1562416,30.5857571],[-4.3722437,30.5080826],[-4.4838448,30.3831279],[-4.6242462,30.2851904],[-4.8762488,30.1804986],[-5.1750518,29.9778693],[-5.2722527,29.8866862],[-5.5386554,29.523642],[-5.6358564,29.4949362],[-5.7222572,29.523642],[-5.7546575,29.6148252],[-5.99946,29.5793651],[-6.2730627,29.5793651],[-6.697867,29.5168877],[-6.7842678,29.4459675],[-6.9570696,29.5084448],[-7.0686707,29.5168877],[-7.2594726,29.467919],[-7.3494735,29.3834901],[-7.6518765,29.3767358],[-8.0370804,29.0998091],[-8.3682837,28.9157542],[-8.4294843,28.8414568],[-8.6670867,28.7114364],[-8.6814868,27.6611413],[-8.6814868,27.2845886]],[[-2.1582216,35.1010128],[-2,35.0811343],[-1.9566196,35.0756841],[-2.1582216,35.1010128]],[[0.0342003,35.8625611],[0.1028354,36],[0.1028354,36],[0.0342003,35.8625611]],[[1.9746197,36.5616321],[2,36.5670432],[2.3310233,36.6376181],[1.9746197,36.5616321]],[[7.8678787,36.853756],[8,36.8707676],[8.0514805,36.877396],[7.8678787,36.853756]],[[10.0063001,34.1706067],[10.055527,34],[10.0711007,33.9460259],[10.0063001,34.1706067]],[[10.511195,36],[10.511195,36],[10.5175052,35.9807615],[10.511195,36]],[[13.8295383,32.7944162],[14,32.7564582],[14,32.7564582],[13.8295383,32.7944162]],[[15.3595536,31.9653248],[15.3703537,32.1595112],[15.3614821,32],[15.3595536,31.9653248]],[[17.9083791,30.8626838],[18,30.8342069],[18.2071821,30.7698121],[17.9083791,30.8626838]],[[21.8792188,32.9024852],[22,32.9138155],[22.095221,32.9227481],[21.8792188,32.9024852]],[[23.9708397,32.0666394],[24,32.0517185],[24,32.0517185],[23.9708397,32.0666394]],[[24.5468455,31.9906534],[24.5882933,32],[24.5882933,32],[24.5468455,31.9906534]],[[24.7340473,32.0328679],[24.8612871,32],[24.8612871,32],[24.9824498,31.9687019],[24.7340473,32.0328679]]]}}
