{"type":"Feature","properties":{"family":"britain","name":"Kingdoms of Great Britain and Ireland, 1789 – 1800"},"geometry":{"type":"Polygon","coordinates":[[[-10.9171008,52.1424941],[-10.9055027,52.0903917],[-10.8777027,52.0406697],[-10.8377205,51.9867775],[-10.8332202,51.9819321],[-10.8347184,51.9800992],[-10.8574684,51.9301968],[-10.864288,51.8785453],[-10.8549805,51.827055],[-10.8299436,51.7776235],[-10.790147,51.7320665],[-10.7573543,51.7073467],[-10.7522184,51.6983208],[-10.71528,51.6495344],[-10.6635135,51.6062733],[-10.5990061,51.5702493],[-10.576918,51.5621638],[-10.5764756,51.5591678],[-10.5513301,51.5072875],[-10.5100881,51.4595853],[-10.4544496,51.4179727],[-10.3866735,51.3841123],[-10.3094847,51.3593537],[-10.2259663,51.3446821],[-10.2176258,51.3437659],[-10.2134025,51.3358994],[-10.1701642,51.2891469],[-10.1129746,51.2487088],[-10.0441364,51.2161897],[-9.9663964,51.1928773],[-9.8828378,51.1796929],[-9.7967623,51.1771574],[-9.7115665,51.1853713],[-9.630614,51.2040111],[-9.5547792,51.2270347],[-9.4818352,51.2113375],[-9.4014019,51.2040964],[-9.3202134,51.2064062],[-9.1663062,51.2198271],[-9.0902135,51.2308602],[-9.0184834,51.2502751],[-8.9750562,51.2684237],[-8.9522564,51.266477],[-8.8720185,51.2690121],[-8.793879,51.2807714],[-8.7205106,51.3013536],[-8.707356,51.3070731],[-8.7031723,51.3067843],[-8.6223929,51.3107117],[-8.5441609,51.3239627],[-8.4820534,51.3427908],[-8.4712538,51.3430657],[-8.3902391,51.3550881],[-8.3143455,51.3765504],[-8.2463603,51.4066675],[-8.1887945,51.4443354],[-8.1437924,51.4881704],[-8.1385861,51.496373],[-8.0338762,51.5503358],[-7.9530197,51.5581034],[-7.8523875,51.5756004],[-7.7612659,51.6074734],[-7.6355396,51.6645999],[-7.5943457,51.6877097],[-7.5819336,51.6895593],[-7.5065268,51.7107573],[-7.3737893,51.7577831],[-7.3009071,51.7900538],[-7.240106,51.8308289],[-7.2132069,51.8585777],[-7.1498902,51.8631322],[-7.1246097,51.8608264],[-7.0367453,51.8638833],[-7.0261836,51.8617863],[-6.9439283,51.8555817],[-6.8612457,51.8590323],[-6.7810616,51.8720163],[-6.706218,51.8940743],[-6.6393777,51.9244248],[-6.6287995,51.9314718],[-6.403942,51.9176416],[-6.312972,51.9177893],[-6.2239783,51.9294807],[-6.1407496,51.9522186],[-6.0668421,51.985035],[-6.0054333,52.0265301],[-5.9591885,52.0749291],[-5.919195,52.1288265],[-5.8908426,52.1799573],[-5.879613,52.2335253],[-5.8860181,52.2873885],[-5.9074431,52.3341113],[-5.8392091,52.396716],[-5.7967344,52.445889],[-5.7716056,52.4993187],[-5.7649491,52.5547489],[-5.7683972,52.6240645],[-5.7227966,52.7020148],[-5.6067271,52.8211752],[-5.5714174,52.8663628],[-5.5504521,52.9147028],[-5.544596,52.964545],[-5.5541024,53.0141818],[-5.5786967,53.0619068],[-5.5872637,53.0716472],[-5.5853313,53.0818989],[-5.5830374,53.1257562],[-5.5926275,53.1692555],[-5.6338571,53.2832452],[-5.6238927,53.2992015],[-5.609633,53.3502923],[-5.6119764,53.4020683],[-5.6308966,53.4526199],[-5.6469991,53.4745592],[-5.6280192,53.5230222],[-5.6262314,53.5796404],[-5.6444101,53.6352304],[-5.6818281,53.6873342],[-5.7368922,53.733639],[-5.7805108,53.7630977],[-5.7834962,53.8141582],[-5.7533446,53.8258167],[-5.6096071,53.8930151],[-5.5476711,53.9278608],[-5.4977297,53.9688662],[-5.4902509,53.9783312],[-5.4828117,53.9796207],[-5.4087761,54.0027847],[-5.2435281,54.0253175],[-5.2265847,53.9803315],[-5.1896615,53.9312485],[-5.1370618,53.887419],[-5.0708902,53.8505587],[-4.9937619,53.8221066],[-4.9086997,53.8031706],[-4.8190194,53.7944872],[-4.6437523,53.7877761],[-4.5433769,53.79036],[-4.4463295,53.805769],[-4.357228,53.8332706],[-4.2803327,53.8715562],[-4.0570204,54.0093974],[-3.9801314,54.0727606],[-3.9002613,54.1636713],[-3.8660777,54.2144913],[-3.8607385,54.232411],[-3.8553873,54.2128054],[-3.8280044,54.167158],[-3.7872075,54.1250941],[-3.6859878,54.0392961],[-3.6819612,54.0365137],[-3.6527109,53.991867],[-3.6034739,53.94639],[-3.5399653,53.90755],[-3.5153976,53.8952365],[-3.5155383,53.8932679],[-3.5032434,53.7565351],[-3.4901999,53.7052016],[-3.4872222,53.7002464],[-3.5241835,53.6582063],[-3.549634,53.6032669],[-3.5500796,53.5985776],[-3.5586599,53.5968634],[-3.6353871,53.5761032],[-3.7510381,53.5964524],[-3.8393072,53.6064025],[-3.9291578,53.605789],[-3.9709009,53.6004987],[-4.0052659,53.6187117],[-4.0750501,53.6439902],[-4.1514066,53.6614052],[-4.3034697,53.6868917],[-4.4001341,53.6964919],[-4.49803,53.6935462],[-4.5925408,53.6781936],[-4.7372687,53.6442186],[-4.8175768,53.6195247],[-4.88795,53.5858518],[-4.9455919,53.544551],[-4.9650398,53.5230059],[-4.9860068,53.5143739],[-5.0494775,53.4747547],[-5.0980927,53.4283072],[-5.1298834,53.3769619],[-5.1435956,53.3228456],[-5.1387328,53.2681919],[-5.1155654,53.2152474],[-5.0751077,53.1661806],[-5.0190669,53.122994],[-4.954466,53.0898585],[-4.9607174,53.0854077],[-5.1257237,52.9447406],[-5.1694361,52.8980082],[-5.1968773,52.8469765],[-5.2070151,52.793675],[-5.1995117,52.7402161],[-5.1747275,52.6887106],[-5.1336967,52.6411846],[-5.0780781,52.5995015],[-5.0100842,52.5652905],[-4.9323916,52.5398854],[-4.8480376,52.5242746],[-4.760305,52.5190647],[-4.5432049,52.5190886],[-4.5275834,52.4916684],[-4.5388014,52.4639941],[-4.5698411,52.4439853],[-4.8910546,52.3624057],[-4.9605553,52.3399595],[-5.0223602,52.3103037],[-5.0450832,52.2946632],[-5.12788,52.2931161],[-5.2135371,52.2807515],[-5.2934023,52.2581659],[-5.3642523,52.2262743],[-5.4232455,52.1863662],[-5.4371126,52.1720401],[-5.4555601,52.1674167],[-5.5289034,52.1438242],[-5.5936495,52.1121709],[-5.6474895,52.073596],[-5.6885215,52.0294846],[-5.715317,51.9814161],[-5.7364283,51.9273035],[-5.7481639,51.8752642],[-5.7433407,51.8228103],[-5.7221992,51.771929],[-5.6855912,51.724541],[-5.6833568,51.7226855],[-5.6807667,51.6923401],[-5.6578658,51.638671],[-5.6178272,51.5890394],[-5.5623866,51.5455304],[-5.4939694,51.5018142],[-5.4296108,51.4679115],[-5.3560155,51.4423771],[-5.3229047,51.4356811],[-5.1950875,51.3782176],[-5.1211989,51.3513879],[-5.0403666,51.3341215],[-4.9557105,51.3270833],[-4.8704901,51.3305443],[-4.7879853,51.3443713],[-4.6197937,51.3838383],[-4.5960861,51.3658211],[-4.5723997,51.3536588],[-4.5887347,51.3409412],[-4.6280018,51.2935107],[-4.6360166,51.2760111],[-4.6374097,51.2743345],[-4.647764,51.2730921],[-4.7245697,51.2537479],[-4.7939685,51.2255183],[-4.8533768,51.1894612],[-4.9005998,51.1469248],[-4.9339131,51.0994955],[-4.9521232,51.0489369],[-4.9859888,50.8806354],[-5.0236856,50.8492324],[-5.0419316,50.8470188],[-5.1229309,50.8255873],[-5.195187,50.7940845],[-5.2310177,50.7702495],[-5.283001,50.7482007],[-5.33724,50.7149964],[-5.3813098,50.6762335],[-5.4138416,50.6331405],[-5.4264961,50.6040063],[-5.4611805,50.5848996],[-5.5131856,50.5417881],[-5.5504724,50.4929137],[-5.5538462,50.4845026],[-5.8411237,50.4123376],[-5.9096202,50.3902046],[-5.9706457,50.3605003],[-6.0221772,50.3242177],[-6.0625206,50.2825669],[-6.0903657,50.2369335],[-6.1048265,50.1888313],[-6.1218544,50.0790105],[-6.1221462,50.0275974],[-6.1072853,49.9770863],[-6.0778571,49.9293056],[-6.0349657,49.8859796],[-5.9801891,49.8486669],[-5.915519,49.8187068],[-5.843288,49.7971723],[-5.7660879,49.7848333],[-5.6866792,49.7821306],[-5.5613965,49.7854866],[-5.513464,49.7898906],[-5.498694,49.7772159],[-5.4402651,49.7429687],[-5.37299,49.7164122],[-5.2992522,49.6984821],[-5.2216523,49.6898091],[-5.1429201,49.6906982],[-5.0658236,49.7011183],[-4.9930759,49.720703],[-4.9272446,49.7487632],[-4.8706647,49.7843101],[-4.7372709,49.8852412],[-4.6897034,49.9293008],[-4.6659605,49.9645587],[-4.5570733,50.0111042],[-4.4924099,50.045057],[-4.4587758,50.0713842],[-4.3883984,50.0832394],[-4.3154197,50.0638649],[-4.2364514,50.0535459],[-4.2249891,50.0534803],[-4.217417,50.0508988],[-4.1425334,50.0359495],[-4.1048217,50.0331559],[-4.0848002,50.0204512],[-4.02766,49.9900634],[-3.9631651,49.9665908],[-3.8933113,49.9507559],[-3.8202517,49.9430457],[-3.746233,49.9436971],[-3.6173654,49.9520915],[-3.5306769,49.963712],[-3.4496517,49.9867526],[-3.3778666,50.0201993],[-3.3185094,50.0625779],[-3.2742399,50.1120157],[-3.2470706,50.1663219],[-3.2430875,50.1786101],[-3.1876731,50.2141336],[-3.1344615,50.2557456],[-3.0951175,50.3032768],[-3.071237,50.3548532],[-3.063817,50.4084347],[-3.0668599,50.4257679],[-3.0647675,50.4268777],[-2.932698,50.4466258],[-2.8324864,50.4089968],[-2.8286128,50.4029378],[-2.7835981,50.3591897],[-2.7262938,50.3217826],[-2.6588573,50.2921069],[-2.5838072,50.2712632],[-2.5209779,50.2624219],[-2.5066514,50.6010026],[-2.5209779,50.2624219],[-2.5416664,49.773485],[-2.5521679,49.5253007],[-2.5533568,49.4972032],[-2.5521679,49.5253007],[-2.5416664,49.773485],[-2.5691379,49.7723447],[-2.650728,49.7578213],[-2.726024,49.7328888],[-2.8993091,49.6599263],[-2.9641028,49.6260665],[-3.0171062,49.5844889],[-3.0562084,49.5368759],[-3.0798752,49.4851485],[-3.0872059,49.4313875],[-3.0779617,49.3777479],[-3.0525661,49.3263727],[-3.0120802,49.2793076],[-2.958153,49.2384207],[-2.8929509,49.2053306],[-2.8190702,49.1813439],[-2.739435,49.1674062],[-2.6571858,49.1640661],[-2.6443863,49.1643816],[-2.6308525,49.1124445],[-2.6004474,49.0613706],[-2.5550176,49.0153617],[-2.4964621,48.9763002],[-2.4456563,48.953913],[-2.4095884,48.9618004],[-2.33461,48.9685362],[-2.2590104,48.9660797],[-2.185396,48.954515],[-2.1307664,48.9384895],[-2.1055274,48.9475442],[-2.0281399,48.963347],[-1.9924308,48.9681458],[-2.003516,49.0123043],[-2.0004642,49.0662272],[-1.9932968,49.1001885],[-2.0152916,49.1312915],[-2.0226562,49.1451144],[-2.0192502,49.1452131],[-2.0116066,49.146414],[-2.0044513,49.1485447],[-1.9980449,49.1515275],[-1.9926208,49.155254],[-1.9883768,49.1595883],[-1.9854678,49.1643726],[-1.9674372,49.2048918],[-1.9658722,49.2107449],[-1.9663038,49.2166813],[-1.9687118,49.2224127],[-1.983096,49.2460578],[-1.9873347,49.2512739],[-1.9932079,49.2557628],[-2.0004344,49.2593091],[-2.061654,49.282961],[-2.0682606,49.2850184],[-2.0753188,49.2862814],[-2.0826066,49.2867104],[-2.0827739,49.2867104],[-2.2407902,49.3657793],[-2.2819668,49.4537206],[-2.2984583,49.5086632],[-2.2977851,49.537498],[-2.3180348,49.558082],[-2.3482819,49.6095378],[-2.3618304,49.6638901],[-2.3580622,49.7188803],[-2.3495167,49.7562749],[-2.3495664,49.7562865],[-2.4008414,49.768194],[-2.430333,49.7708881],[-2.4438864,49.4674056],[-2.430333,49.7708881],[-2.4084756,50.2603071],[-2.3960182,50.5392482],[-2.4084756,50.2603071],[-2.3416013,50.2676458],[-2.2651524,50.2862262],[-2.195679,50.3138559],[-2.1400359,50.3469751],[-2.0310135,50.3358263],[-1.9448205,50.332646],[-1.8594091,50.3406688],[-1.7782917,50.3595648],[-1.7048127,50.3885565],[-1.6872656,50.3991548],[-1.6864276,50.3989385],[-1.6024853,50.3890334],[-1.5895934,50.3891872],[-1.5140087,50.3572663],[-1.4371912,50.3315492],[-1.3538461,50.3163319],[-1.2674339,50.3122448],[-1.1815356,50.3194569],[-1.0997117,50.3376692],[-1.025362,50.3661263],[-0.8222528,50.462751],[-0.7809013,50.4608047],[-0.7011315,50.4666956],[-0.6245139,50.4820252],[-0.5537648,50.5062506],[-0.5034863,50.5322681],[-0.282741,50.5565334],[0.1690973,50.4857481],[0.2472361,50.47814],[0.3262145,50.4798515],[0.4033294,50.4908237],[0.4759387,50.5106808],[0.5415471,50.5387422],[0.5978887,50.5740449],[0.6025978,50.5776012],[0.7263502,50.5968631],[0.8175608,50.6182424],[0.8986272,50.6521086],[0.9396715,50.6495531],[1.0249547,50.6496482],[1.1084978,50.6604785],[1.1406863,50.669146],[1.1407523,50.6691638],[1.1388776,50.6795354],[1.1505733,50.741761],[1.1706554,50.7948166],[1.1640188,50.8151319],[1.1551757,50.8698607],[1.1640877,50.9245819],[1.1904434,50.9770166],[1.2331969,51.0249741],[1.2906026,51.0664444],[1.3602825,51.0996847],[1.6997335,51.2286291],[1.7579053,51.2469597],[1.8198605,51.2595485],[1.8447275,51.2632509],[1.8599096,51.3089526],[1.8612844,51.359563],[1.8545995,51.4136188],[1.8387524,51.4679859],[1.8054021,51.5192068],[1.7559003,51.565117],[1.6922987,51.60377],[1.6172677,51.6335219],[1.5668989,51.6453745],[1.6022491,51.6659005],[1.6491808,51.7052178],[1.6839408,51.7491424],[1.7053562,51.7962391],[1.7053827,51.7963275],[1.7484069,51.8327778],[1.8167958,51.8535497],[1.8896776,51.8891623],[1.9487958,51.9334685],[1.9914566,51.9844823],[2.0156829,52.0399101],[2.0565163,52.1987125],[2.1800425,52.3860435],[2.2035219,52.4336979],[2.2122621,52.48318],[2.2059158,52.5328071],[2.1363312,52.7778944],[2.1152102,52.8254241],[2.080087,52.8698425],[2.0320988,52.9096586],[1.9728274,52.9435319],[1.5508516,53.142095],[1.471615,53.1716701],[1.3838273,53.1907524],[1.0724455,53.2366415],[0.9580396,53.2442263],[0.7917419,53.242271],[0.7896039,53.2661135],[0.7699558,53.3144412],[0.6742388,53.4802606],[0.6318277,53.533571],[0.5904058,53.565182],[0.5928012,53.5851852],[0.5899146,53.6510473],[0.5802673,53.6996789],[0.5558866,53.7464765],[0.5175325,53.7898891],[0.3179628,53.9719147],[0.3588465,54.0214456],[0.3818969,54.0757323],[0.38539,54.1316449],[0.3690967,54.1867794],[0.3336433,54.2387552],[0.2804972,54.2853199],[0.2119138,54.3244477],[0.000089,54.4218649],[-0.1460051,54.5963021],[-0.1986697,54.6448869],[-0.2680264,54.685895],[-0.3509422,54.7174465],[-0.7713914,54.8413199],[-0.7717419,54.8417399],[-0.8238806,54.8823915],[-0.8552941,54.899113],[-0.9038094,55.0247562],[-0.9343175,55.0772425],[-1.0597549,55.2354953],[-1.1603357,55.6253189],[-1.1828613,55.6763925],[-1.2226247,55.7240155],[-1.2781589,55.7663595],[-1.3473719,55.801793],[-1.4276227,55.8289467],[-1.4917744,55.8460515],[-1.7287764,56.0584319],[-1.7951483,56.1050636],[-1.8784037,56.1423825],[-1.974463,56.1685406],[-2.113135,56.1960559],[-2.0934898,56.2456616],[-2.0910281,56.2968851],[-2.1060811,56.3474407],[-2.1381714,56.3954985],[-2.1548122,56.4106941],[-2.0956795,56.452403],[-2.0473153,56.5114045],[-1.9841935,56.6216506],[-1.8099883,56.7376175],[-1.750612,56.7871142],[-1.7122441,56.8425027],[-1.6968152,56.9011327],[-1.6962292,56.9108318],[-1.6181086,56.9860332],[-1.5751804,57.0403013],[-1.5548947,57.0983471],[-1.5578227,57.148735],[-1.5328551,57.1918705],[-1.3659578,57.3057902],[-1.3149694,57.3479518],[-1.2792771,57.394479],[-1.260173,57.4437645],[-1.2583862,57.4940993],[-1.2740494,57.5437313],[-1.3443276,57.6841453],[-1.3734941,57.7271628],[-1.4159357,57.766912],[-1.4704591,57.802237],[-1.6360246,57.8921919],[-1.7180863,57.9281005],[-1.8125742,57.9540709],[-1.9152847,57.9689416],[-2.0216239,57.9720463],[-3.018993,57.9413445],[-3.1927508,57.9700035],[-2.7817361,58.1717634],[-2.7092751,58.2154441],[-2.6560393,58.2662561],[-2.5793852,58.3622283],[-2.5512064,58.4087434],[-2.5394205,58.4571551],[-2.5444791,58.5058839],[-2.5523583,58.5230437],[-2.549602,58.5261137],[-2.5152675,58.576983],[-2.5148587,58.5785092],[-2.4782141,58.6077701],[-2.4397604,58.6583166],[-2.4129882,58.7073216],[-2.3753632,58.723276],[-2.303988,58.7599673],[-2.24739,58.8030715],[-2.2077136,58.850999],[-2.1952622,58.8809365],[-2.1267016,58.9129617],[-2.0656505,58.9551729],[-2.0215117,59.0026835],[-1.9960225,59.0536998],[-1.9902318,59.1062882],[-1.9915631,59.1111787],[-1.976698,59.1192738],[-1.9241905,59.1611346],[-1.8874463,59.2072178],[-1.86777,59.2559682],[-1.8672747,59.2691728],[-1.767458,59.2517357],[-1.6612681,59.2447926],[-1.5545045,59.2488876],[-1.4514708,59.2638551],[-1.3563303,59.2890909],[-1.3061198,59.3058688],[-1.2280931,59.3376058],[-1.1629773,59.3762244],[-1.113104,59.4203691],[-1.0802906,59.4684849],[-1.0768012,59.4806076],[-1.0660149,59.4960456],[-1.0509012,59.5478131],[-1.0557558,59.6000796],[-1.0599061,59.608615],[-1.0129539,59.6191879],[-0.9295621,59.6485661],[-0.8585282,59.6853674],[-0.8024319,59.7282771],[-0.7633423,59.7757575],[-0.7427387,59.8261005],[-0.7372318,59.8516337],[-0.7139861,59.8709901],[-0.6778023,59.9218155],[-0.6747518,59.9324202],[-0.6288718,59.9619934],[-0.5819325,60.0084001],[-0.5489971,60.0504927],[-0.5179302,60.1082143],[-0.5130258,60.1679199],[-0.5224906,60.1936491],[-0.5177708,60.1966348],[-0.4597965,60.2420324],[-0.4124143,60.2883158],[-0.3836481,60.3382292],[-0.3746408,60.3899374],[-0.377789,60.4044855],[-0.3552096,60.4141848],[-0.2887855,60.4567328],[-0.2405719,60.5049065],[-0.2125418,60.5568167],[-0.2058956,60.6104188],[-0.2210005,60.6635915],[-0.2573589,60.714221],[-0.2670466,60.7221646],[-0.2500428,60.7461902],[-0.225135,60.7963821],[-0.2202032,60.8479613],[-0.2355223,60.8990402],[-0.2706221,60.9477409],[-0.3242917,60.9922647],[-0.3946122,61.0309605],[-0.4790199,61.0623875],[-0.5296364,61.0776909],[-0.6315313,61.1018067],[-0.7415405,61.1153349],[-0.8549973,61.1177007],[-0.9127424,61.1131282],[-0.9519578,61.1125007],[-1.0581179,61.1004727],[-1.157313,61.0786041],[-1.2456809,61.0477497],[-1.3198087,61.0091127],[-1.3722494,60.9678368],[-1.3729132,60.9676869],[-1.4618721,60.9358315],[-1.5359287,60.8960003],[-1.5531976,60.8818274],[-1.635884,60.8567028],[-1.6416756,60.8540594],[-1.7041036,60.839704],[-1.7950771,60.8060587],[-1.8541839,60.7727693],[-1.8642051,60.7696982],[-1.9444719,60.7322341],[-2.0076303,60.6876405],[-2.0897063,60.6147458],[-2.1305983,60.5685469],[-2.1532365,60.5194159],[-2.1569095,60.4690748],[-2.1450627,60.4306184],[-2.1585194,60.4208072],[-2.2577621,60.4061131],[-2.3495133,60.3823408],[-2.4073424,60.3636431],[-2.4941827,60.328673],[-2.5645902,60.285612],[-2.6156164,60.2363047],[-2.6451731,60.1828548],[-2.6521089,60.1275327],[-2.6362419,60.0726772],[-2.5983479,60.0205964],[-2.5401112,59.9734715],[-2.4640388,59.9332676],[-2.4173085,59.9131252],[-2.3316198,59.8828624],[-2.2359828,59.8614666],[-2.133973,59.8497346],[-2.0293871,59.8481025],[-1.9261106,59.8566307],[-1.9043594,59.8607107],[-1.8816011,59.8157718],[-1.8572983,59.7906845],[-1.9344328,59.7625647],[-2.0029286,59.7319928],[-2.0734476,59.6936439],[-2.1278405,59.6491244],[-2.1641031,59.6001286],[-2.1773156,59.5596395],[-2.228719,59.5721133],[-2.3271421,59.5850564],[-2.4286689,59.5881993],[-2.5295071,59.5814243],[-2.5650937,59.5753642],[-2.5710787,59.5753707],[-2.6297648,59.5696422],[-2.7058115,59.5963827],[-2.7981997,59.6170203],[-2.8967037,59.6283853],[-2.9977065,59.63006],[-3.0974927,59.6219825],[-3.1923949,59.6044497],[-3.3046119,59.5772443],[-3.3973054,59.5484177],[-3.4763402,59.5105882],[-3.5384095,59.4653621],[-3.5809578,59.4146529],[-3.6022809,59.3605974],[-3.60222,59.3557847],[-3.6346046,59.3459331],[-3.7083677,59.3125573],[-3.7685705,59.2727392],[-3.8131389,59.2278834],[-3.8405694,59.1795661],[-3.8821824,59.0679555],[-3.8914978,59.0175256],[-3.8905135,59.0121052],[-3.9175744,58.9849562],[-3.945568,58.9348266],[-3.9543029,58.8828537],[-3.9498291,58.8613178],[-4.0231823,58.8656479],[-4.1263553,58.8610097],[-4.225651,58.8458353],[-4.3170739,58.8207361],[-4.3192984,58.8199685],[-4.3323487,58.8232735],[-4.4264635,58.8414714],[-4.5256335,58.8499022],[-4.550367,58.8495013],[-4.615559,58.86439],[-4.7183683,58.8758569],[-4.772787,58.876115],[-4.8385373,58.8863751],[-4.9421691,58.8967076],[-5.0477122,58.8959639],[-5.1507505,58.8841752],[-5.2469799,58.8618345],[-5.3323986,58.8298743],[-5.4034821,58.7896261],[-5.4573315,58.7427613],[-5.4917908,58.6912188],[-5.4957809,58.6824651],[-5.520661,58.668189],[-5.57215,58.6238047],[-5.6062724,58.5750982],[-5.6218309,58.5238826],[-5.6211521,58.5138495],[-5.6294925,58.4999922],[-5.6683054,58.4873826],[-5.676034,58.505533],[-5.7175234,58.5543623],[-5.8175562,58.6458876],[-5.8728692,58.6868937],[-5.9419302,58.7218418],[-6.0223566,58.7495078],[-6.1113463,58.7689201],[-6.2057786,58.7793959],[-6.3023287,58.7805662],[-6.3975926,58.7723899],[-6.4882147,58.7551552],[-6.5710136,58.7294691],[-7.0222714,58.556187],[-7.0781048,58.5311033],[-7.1184019,58.5101662],[-7.1289556,58.5096719],[-7.2268236,58.4944971],[-7.3169334,58.4694825],[-7.3957088,58.4356265],[-7.46005,58.3942771],[-7.4929406,58.361544],[-7.508349,58.3533238],[-7.5614549,58.311724],[-7.5988889,58.2656669],[-7.6194111,58.2167547],[-7.6330135,58.1592914],[-7.6361867,58.1112685],[-7.6231988,58.0637047],[-7.610086,58.0428681],[-7.612976,58.0374161],[-7.6204602,57.9837828],[-7.6077402,57.9304224],[-7.6047273,57.9256792],[-7.6061886,57.9226745],[-7.7030473,57.903068],[-7.7908826,57.8730212],[-7.8651139,57.8339967],[-7.9225934,57.7876746],[-7.9903743,57.7182101],[-8.0266957,57.6699941],[-8.0449727,57.6189406],[-8.0445996,57.5669533],[-8.0256681,57.5159629],[-7.988953,57.4678554],[-7.9358726,57.4244032],[-7.9252558,57.4185545],[-7.9266332,57.414832],[-7.9269196,57.3626592],[-7.9168258,57.3344416],[-7.940146,57.2968229],[-7.9522195,57.2425222],[-7.9437971,57.188016],[-7.9238947,57.1513681],[-7.9928848,57.0825442],[-8.0308837,57.033509],[-8.0503706,56.981363],[-8.0506618,56.9281445],[-8.0318263,56.8759248],[-7.994671,56.8267283],[-7.9406982,56.7824544],[-7.8720385,56.7448066],[-7.7913637,56.715229],[-7.7017834,56.6948532],[-7.6067282,56.6844573],[-7.5098255,56.6844383],[-7.4147686,56.6947972],[-7.2893789,56.7155726],[-7.3354823,56.6948025],[-7.3967542,56.653616],[-7.442001,56.6066031],[-7.4695079,56.5556101],[-7.4782714,56.5026318],[-7.468028,56.4497323],[-7.4392519,56.3989645],[-7.3931258,56.3522903],[-7.3314845,56.3115071],[-7.2235051,56.252701],[-7.148802,56.2192486],[-7.0638388,56.1945577],[-6.971889,56.1795755],[-6.8764789,56.1748757],[-6.781259,56.1806386],[-6.7791999,56.1810001],[-6.7381665,56.1477705],[-6.7183001,56.1346733],[-6.7315906,56.1168908],[-6.7502483,56.0640089],[-6.7501637,56.0560235],[-6.7852928,56.0400284],[-6.8463146,55.9983864],[-6.8912112,55.9507824],[-6.91824,55.8991297],[-6.9738913,55.7317511],[-6.9819571,55.6789406],[-6.971555,55.6262598],[-6.9431581,55.5757377],[-6.9098288,55.5415449],[-7.147648,55.619614],[-7.2320986,55.6412846],[-7.3224391,55.6532741],[-7.415202,55.6551219],[-7.5068211,55.6467575],[-7.5937772,55.6285024],[-7.6727406,55.601058],[-7.7407051,55.5654761],[-7.7880062,55.5286516],[-7.8069482,55.5254195],[-7.8099505,55.5255484],[-7.9023323,55.5192157],[-7.9907142,55.5027786],[-8.034931,55.4886417],[-8.0652987,55.4870071],[-8.1521279,55.4725416],[-8.2324666,55.4489731],[-8.2724708,55.431041],[-8.2787873,55.4310374],[-8.3711631,55.4258063],[-8.4599265,55.4104267],[-8.5416348,55.3854964],[-8.6131343,55.351983],[-8.6716866,55.3111843],[-8.7129665,55.2669378],[-8.7713322,55.252672],[-8.8468601,55.2232234],[-8.9109123,55.1860031],[-8.9610955,55.1424226],[-8.9955608,55.0941296],[-9.0167435,55.0535271],[-9.0338854,55.0041925],[-9.0347294,54.9538923],[-9.0290612,54.9357093],[-9.0804426,54.9131317],[-9.147207,54.8772811],[-9.2005057,54.8346467],[-9.2383405,54.7868639],[-9.2593221,54.7357591],[-9.2627163,54.6832788],[-9.2586721,54.6444591],[-9.2441998,54.5920656],[-9.2316932,54.5725452],[-9.7366127,54.605382],[-9.8383218,54.6052687],[-9.9375195,54.5922956],[-10.0091195,54.5726632],[-10.0179923,54.5729397],[-10.105294,54.5659875],[-10.1887138,54.5495669],[-10.2652125,54.5242778],[-10.3320167,54.4910427],[-10.4471655,54.4214924],[-10.5038287,54.3795118],[-10.5450721,54.3318469],[-10.5693226,54.2803813],[-10.5756904,54.2271413],[-10.5660093,54.1833423],[-10.6069921,54.1614549],[-10.6610613,54.118129],[-10.6993178,54.0693827],[-10.7202932,54.0171612],[-10.72322,53.9635406],[-10.7080515,53.9106447],[-10.6754531,53.8605604],[-10.6267656,53.8152566],[-10.5639446,53.7765084],[-10.494577,53.7479328],[-10.5333622,53.7245809],[-10.583043,53.6792231],[-10.6163595,53.6289086],[-10.6320255,53.575672],[-10.6294775,53.5216581],[-10.6125356,53.4783707],[-10.6204165,53.4619888],[-10.6280622,53.4112398],[-10.6195517,53.3605464],[-10.595245,53.311715],[-10.5560575,53.2664793],[-10.5034204,53.2264405],[-10.4392257,53.1930116],[-10.3657571,53.1673693],[-10.2856091,53.1504149],[-10.259942,53.1465612],[-10.2615229,53.1358147],[-10.2514875,53.0822921],[-10.2239818,53.0310369],[-10.1801565,52.9840824],[-10.1217939,52.9432848],[-10.0512317,52.9102523],[-9.9920798,52.8925298],[-10.2380642,52.7563067],[-10.2963634,52.7167445],[-10.3406674,52.6710322],[-10.3692965,52.620952],[-10.3811944,52.5684495],[-10.3768963,52.5250177],[-10.430001,52.506089],[-10.7367,52.3703105],[-10.8010115,52.33528],[-10.8528746,52.2932737],[-10.890333,52.2459079],[-10.9119991,52.1949994],[-10.9171008,52.1424941]],[[-10.2655027,51.988474],[-10.213978,52],[-10.213978,52],[-10.2655027,51.988474]],[[-10.2187022,53.9860609],[-10.2054942,54],[-10.2054942,54],[-10.2187022,53.9860609]],[[-10.1899019,54.0164553],[-10.1372779,54],[-10.1359014,53.9995696],[-10.1372779,54],[-10.1899019,54.0164553]],[[-10.1863019,52.1100516],[-10,52.1386194],[-9.9991,52.1387574],[-10,52.1386194],[-10.1863019,52.1100516]],[[-10.1359014,53.9995696],[-10.1327954,54],[-10,54.018403],[-10,54.018403],[-9.9774998,54.0215211],[-10,54.018403],[-10,54.018403],[-10.1327954,54],[-10.1359014,53.9995696]],[[-10.0567006,53.9134521],[-10,53.8947371],[-9.9594996,53.8813692],[-10,53.8947371],[-10.0567006,53.9134521]],[[-10.0459005,53.5993768],[-10,53.6042099],[-10,53.6042099],[-10.0459005,53.5993768]],[[-10.0243002,53.3849274],[-10,53.382916],[-10,53.382916],[-9.9630996,53.3798617],[-10,53.382916],[-10,53.382916],[-10.0243002,53.3849274]],[[-10.0099001,54.2190846],[-10,54.2146732],[-9.9378994,54.1870016],[-10,54.2146732],[-10.0099001,54.2190846]],[[-10.0063001,53.5436537],[-10,53.5469042],[-9.9702997,53.5622281],[-10,53.5469042],[-10.0063001,53.5436537]],[[-10,51.7856518],[-10,51.7856518],[-9.8838988,51.8229935],[-10,51.7856518]],[[-10,53.5768222],[-10,53.5768222],[-9.9702997,53.5622281],[-10,53.5768222]],[[-9.9774998,54.0215211],[-9.9509361,54],[-9.9509361,54],[-9.9378994,53.9894381],[-9.9509361,54],[-9.9509361,54],[-9.9774998,54.0215211]],[[-8.0082801,51.8550764],[-8,51.8570183],[-7.8930789,51.8820937],[-8,51.8570183],[-8.0082801,51.8550764]],[[-8.00468,55.1748193],[-8,55.1754698],[-7.9074791,55.188328],[-8,55.1754698],[-8.00468,55.1748193]],[[-7.1118711,57.9896777],[-7.0830925,58],[-7.0830925,58],[-7.1118711,57.9896777]],[[-7.0763584,56.7692574],[-7.0621516,56.7744094],[-6.9933675,56.811755],[-6.940681,56.8544742],[-6.9202035,56.8433928],[-6.8947468,56.8342141],[-7.0003137,56.7889227],[-7.0278702,56.7743549],[-7.0763584,56.7692574]],[[-6.7626676,58.0031863],[-6.7588079,58],[-6.6726667,57.9288889],[-6.7588079,58],[-6.7626676,58.0031863]],[[-6.7086671,58.0031863],[-6.70666,58],[-6.6618666,57.9288889],[-6.70666,58],[-6.7086671,58.0031863]],[[-6.509589,58],[-6.509589,58],[-6.4566646,57.976169],[-6.509589,58]],[[-6.3594636,54.0164553],[-6.2822817,54],[-6.2822817,54],[-6.3594636,54.0164553]],[[-6.1794618,56.7553277],[-6,56.7798151],[-5.9814598,56.7823449],[-6,56.7798151],[-6.1794618,56.7553277]],[[-6.1134082,54],[-6.1110611,54.0012581],[-6.1134082,54],[-6.1134082,54]],[[-6.100261,56.6962275],[-6,56.685502],[-6,56.685502],[-5.895059,56.674276],[-6,56.685502],[-6,56.685502],[-6.100261,56.6962275]],[[-6.0606606,55.0735047],[-6,55.0592784],[-5.9742597,55.0532418],[-6,55.0592784],[-6.0606606,55.0735047]],[[-6.0606606,55.8097244],[-6,55.806563],[-5.9634596,55.8046587],[-6,55.806563],[-6.0606606,55.8097244]],[[-6.0498605,53.0100633],[-6,52.9647514],[-5.9922599,52.9577174],[-6,52.9647514],[-6.0498605,53.0100633]],[[-6.0318603,56.6185529],[-6,56.5752942],[-5.9634596,56.5256812],[-6,56.5752942],[-6.0318603,56.6185529]],[[-6.0282603,57.0626487],[-6,57.1024147],[-5.9886599,57.1183718],[-6,57.1024147],[-6.0282603,57.0626487]],[[-6.0174602,57.3868556],[-6,57.4409069],[-6,57.4409069],[-6.0174602,57.3868556]],[[-6,55.9404787],[-6,55.9404787],[-5.8878589,55.9768935],[-6,55.9404787]],[[-5.9850599,56.0089765],[-5.9842278,56],[-5.9814598,55.9701392],[-5.9842278,56],[-5.9850599,56.0089765]],[[-5.788584,56],[-5.6898569,56.1119797],[-5.788584,56],[-5.788584,56]],[[-5.697057,55.9161048],[-5.6101091,56],[-5.6101091,56],[-5.697057,55.9161048]],[[-5.697057,55.9819593],[-5.6783912,56],[-5.6783912,56],[-5.697057,55.9819593]],[[-5.6432462,56],[-5.6250563,56.0241737],[-5.6432462,56],[-5.6432462,56]],[[-5.4558546,55.954942],[-5.4491525,56],[-5.4450545,56.0275509],[-5.4491525,56],[-5.4558546,55.954942]],[[-5.3658537,58.0285149],[-5.3224296,58],[-5.3224296,58],[-5.3658537,58.0285149]],[[-5.3370534,55.9971565],[-5.333938,56],[-5.333938,56],[-5.3370534,55.9971565]],[[-5.304653,50.0803817],[-5.2485672,50],[-5.2485672,50],[-5.304653,50.0803817]],[[-5.1554535,50],[-5.1462515,50.0111501],[-5.1554535,50],[-5.1554535,50]],[[-5.1246512,56.0106651],[-5.113649,56],[-5.113649,56],[-5.1246512,56.0106651]],[[-5.0886509,51.976654],[-5.0800692,52],[-5.0800692,52],[-5.0886509,51.976654]],[[-5.0388094,54.0532324],[-4.8251514,54.0823662],[-4.8251514,54.0823662],[-5.0388094,54.0532324]],[[-4.9050491,56.0545681],[-4.8958644,56],[-4.8942489,55.9904022],[-4.8958644,56],[-4.9050491,56.0545681]],[[-4.8654487,56.0663881],[-4.8531409,56],[-4.8510485,55.9887136],[-4.8531409,56],[-4.8654487,56.0663881]],[[-4.8438484,56.063011],[-4.7862746,56],[-4.7790478,55.9920907],[-4.7862746,56],[-4.8438484,56.063011]],[[-4.800648,56.030928],[-4.7443592,56],[-4.7443592,56],[-4.800648,56.030928]],[[-4.2282423,51.1931541],[-4,51.2210061],[-3.7854379,51.2471886],[-4,51.2210061],[-4.2282423,51.1931541]],[[-4.0842408,57.5861077],[-4,57.5883983],[-3.8358384,57.592862],[-4,57.5883983],[-4.0842408,57.5861077]],[[-4.0554406,52.5288188],[-4,52.5392204],[-3.9474395,52.5490817],[-4,52.5392204],[-4.0554406,52.5288188]],[[-4.0518405,52.5423274],[-4,52.5456812],[-4,52.5456812],[-4.0518405,52.5423274]],[[-4.0482405,52.7213166],[-4,52.7319645],[-4,52.7319645],[-4.0482405,52.7213166]],[[-4.0410404,57.8174428],[-4,57.8354894],[-4,57.8354894],[-3.9834398,57.8427714],[-4,57.8354894],[-4,57.8354894],[-4.0410404,57.8174428]],[[-4.0230402,57.6975538],[-4,57.6964731],[-3.9870399,57.6958652],[-4,57.6964731],[-4.0230402,57.6975538]],[[-4.0050401,58.5705482],[-4,58.5703118],[-3.897039,58.5654825],[-4,58.5703118],[-4.0050401,58.5705482]],[[-4,57.913489],[-4,57.913489],[-3.9870399,57.9086259],[-4,57.913489]],[[-3.9906399,57.9609718],[-3.8608358,58],[-3.8608358,58],[-3.8502385,58.0031863],[-3.8608358,58],[-3.8608358,58],[-3.9906399,57.9609718]],[[-3.6666367,56.0123537],[-3.4439613,56],[-3.4439613,56],[-3.3318333,55.9937793],[-3.4439613,56],[-3.4439613,56],[-3.6666367,56.0123537]],[[-2.9013714,59.0741175],[-2.8050162,59.1204788],[-2.749748,59.147071],[-2.8050162,59.1204788],[-2.9013714,59.0741175]],[[-2.8710287,53.9793066],[-2.8489697,54],[-2.8489697,54],[-2.8710287,53.9793066]],[[-2.7682269,59.2369106],[-2.7117699,59.2641125],[-2.7117699,59.2641125],[-2.6643591,59.2869557],[-2.7117699,59.2641125],[-2.7117699,59.2641125],[-2.7682269,59.2369106]],[[-2.6631448,59.2875408],[-2.6418867,59.2977832],[-2.6171136,59.3097193],[-2.6418867,59.2977832],[-2.6631448,59.2875408]],[[-2.6267265,59.3191379],[-2.58437,59.3254957],[-1.6485952,59.776366],[-2.58437,59.3254957],[-2.6267265,59.3191379]],[[-2.4796343,56],[-2.4796343,56],[-2.3094231,55.9346791],[-2.4796343,56]],[[-2.0754208,57.1538319],[-2,57.2871711],[-1.9818198,57.3193125],[-2,57.2871711],[-2.0754208,57.1538319]],[[-2.0394204,50.7406154],[-2,50.7287819],[-2,50.7287819],[-2.0394204,50.7406154]],[[-2,57.7023783],[-2,57.7023783],[-1.99622,57.7026195],[-2,57.7023783]],[[-1.3230132,59.9771331],[-1.3129061,60],[-1.3129061,60],[-1.3230132,59.9771331]],[[-1.205417,60],[-1.205417,60],[-1.200612,59.985576],[-1.205417,60]],[[-0.2682027,50.8317986],[0,50.7898656],[0,50.7898656],[-0.2682027,50.8317986]],[[-0.2049231,54],[-0.2049231,54],[-0.1494015,53.8999435],[-0.2049231,54]],[[-0.1494015,53.8999435],[0,53.7651138],[0,53.7651138],[0.1350014,53.6432798],[0,53.7651138],[0,53.7651138],[-0.1494015,53.8999435]],[[1.2258635,52],[1.2258635,52],[1.2690127,51.9817197],[1.2258635,52]]]}}
