{"type":"Feature","properties":{"family":"client","name":"Italian Republic, 1802 – 1805"},"geometry":{"type":"Polygon","coordinates":[[[7.86,45.93],[7.95,45.88],[8.08,45.86],[8.2,45.82],[8.27,45.77],[8.3,45.68],[8.37,45.6],[8.4,45.5],[8.42,45.38],[8.45,45.27],[8.5,45.18],[8.55,45.1],[8.79,45.11],[9.03,45.12],[9.27,45.13],[9.35,45.1],[9.45,45.1],[9.69,45.06],[9.85,45.1],[10.02,45.12],[10.2,45],[10.42,44.98],[10.5,44.95],[10.4,44.55],[10.25,44.4],[10.1428571,44.3892857],[10.05,44.38],[9.85,44.45],[9.7,44.4],[9.85,44.25],[10.02,44.1],[9.9926613,44.058992],[9.9882999,44.0606038],[9.957098,44.0503592],[9.9600525,44.0456283],[9.9642219,44.0413837],[9.9694452,44.0377922],[9.9755287,44.0349868],[9.9898751,44.0296864],[9.964764,44.0233357],[9.9575569,44.0220703],[9.9501447,44.0218487],[9.9428165,44.0226798],[9.9358586,44.024531],[9.9295427,44.0273301],[9.8792432,44.0548764],[9.8690238,44.0333303],[9.866052,44.028606],[9.8618786,44.0243775],[9.856658,44.0208009],[9.8505828,44.0180082],[9.8438775,44.0161024],[9.8367892,44.0151538],[9.8295796,44.0151974],[9.8225145,44.0162316],[9.8158546,44.0182182],[9.8098456,44.021084],[9.4735633,44.2162137],[9.4431284,44.2129171],[9.4354808,44.212652],[9.4279164,44.213501],[9.4234589,44.2146998],[9.6203491,44.0313796],[9.6209023,44.0220567],[9.6378987,43.9712943],[9.6681242,43.9238321],[9.7104231,43.881438],[9.7631995,43.8456872],[9.887778,43.7760851],[9.9375734,43.7482644],[10.0009108,43.7195789],[10.0708375,43.7005451],[10.1445804,43.6919162],[10.2192213,43.6940336],[10.2406954,43.6978144],[10.2406948,43.6978179],[10.2213325,43.802916],[10.2213321,43.8029238],[10.2213281,43.8029362],[10.2181476,43.8201999],[10.2181461,43.8202079],[10.2181349,43.8202688],[10.2180592,43.8206797],[10.2146012,43.8394501],[10.1785528,43.9070099],[10.171634,43.9133851],[10.1716251,43.9133952],[10.1675872,43.9180131],[10.1716251,43.9133952],[10.171625,43.9133953],[10.1377608,43.9446011],[10.1377568,43.9446057],[10.1377545,43.9446084],[10.1377531,43.9446099],[10.142609,43.9409116],[10.1483579,43.9379303],[10.154783,43.9357813],[10.1616546,43.9345414],[10.1642508,43.9344362],[10.1687274,43.9342548],[10.1757487,43.9349319],[10.1927264,43.9377615],[10.1927261,43.9377617],[10.1672869,43.9612145],[10.1672869,43.9612145],[10.1397992,43.9865558],[10.1252163,44],[10.1397992,43.9865558],[10.1672869,43.9612145],[10.22,43.97],[10.32,44],[10.3478571,44.015],[10.4413333,44.0653333],[10.45,44.07],[10.5095238,44.117619],[10.55,44.15],[10.67,44.14],[10.9,44.18],[11,44.15],[11.2,44.18],[11.45,44.15],[11.65,44.1],[11.85,43.97],[12.05,43.82],[12.3,43.9],[12.5,43.95],[12.74,43.97],[12.7525334,43.9762667],[12.6835344,44],[12.6835344,44],[12.6595266,44.0082579],[12.6835344,44],[12.6835344,44],[12.7525334,43.9762667],[12.7862354,43.9646743],[12.7862357,43.9646742],[12.7862358,43.9646742],[12.7871421,43.9658988],[12.7892386,43.9707832],[12.7900172,43.9758648],[12.7894493,43.980961],[12.7875552,43.9858888],[12.7844025,43.9904711],[12.7801043,43.9945433],[12.7748149,43.9979589],[12.7687242,44.0005951],[12.6824132,44.0302901],[12.6824087,44.0302936],[12.6824118,44.0302926],[12.768736,44.0005973],[12.9457365,43.9397097],[12.9546877,43.935374],[13.0831105,43.851025],[13.0831133,43.8510232],[13.0831149,43.8510221],[13.1070354,43.889029],[13.1236547,43.9387018],[13.1269831,43.989743],[13.1168671,44.0403225],[13.0936364,44.0886219],[13.0580971,44.1329006],[13.0115066,44.1715589],[12.7245038,44.3672698],[12.6616019,44.5294654],[12.6584027,44.5984818],[12.7109823,44.6289556],[12.757878,44.669007],[12.7931276,44.7147143],[12.8838687,44.8647152],[12.9055407,44.9120039],[12.9146144,44.961306],[12.9107496,45.0109501],[12.8940445,45.0592484],[12.8650368,45.104555],[12.8246895,45.1453219],[12.7743613,45.1801533],[12.6986174,45.2235704],[12.6860634,45.2307664],[12.6795341,45.2492431],[12.6491173,45.2955058],[12.6068171,45.3369034],[12.5541317,45.3719458],[12.4929439,45.3993688],[12.4656681,45.4069718],[12.4644297,45.4042276],[12.4607578,45.3995608],[12.455851,45.3954911],[12.4499011,45.3921774],[12.4431403,45.389749],[12.4358327,45.3883006],[12.4282633,45.3878887],[12.4207276,45.3885294],[12.3960663,45.3923886],[12.3554599,45.335283],[12.3515818,45.3309204],[12.3465968,45.3271534],[12.3406861,45.3241192],[12.3340648,45.3219278],[12.3269734,45.3206589],[12.3196695,45.3203586],[12.3124184,45.3210377],[12.3054836,45.3226716],[12.2991168,45.325201],[12.2935496,45.328534],[12.2889843,45.3325494],[12.2855872,45.3371013],[12.2834818,45.3420243],[12.2827453,45.3471394],[12.2834046,45.3522605],[12.2854362,45.3572015],[12.3118167,45.4040089],[12.3091378,45.4044182],[12.3019928,45.4066473],[12.2956398,45.4098457],[12.2935888,45.411408],[12.2537025,45.3097754],[12.2511773,45.3050848],[12.2511186,45.3050172],[12.2534296,45.3010808],[12.2548856,45.2958909],[12.2548714,45.2906001],[12.2485596,45.2464082],[12.2571889,45.2308786],[12.2771959,45.2479421],[12.2824693,45.2516392],[12.2886585,45.2545496],[12.29553,45.2565635],[12.3028242,45.2576047],[12.3102657,45.257634],[12.3175734,45.2566502],[12.3244713,45.2546905],[12.3306989,45.2518289],[12.3360213,45.2481735],[12.3402375,45.2438622],[12.3431887,45.2390579],[12.344764,45.2339418],[12.356621,45.1622782],[12.3566211,45.1622776],[12.3550487,45.167376],[12.3520694,45.1722104],[12.3478129,45.176544],[12.3424415,45.1802113],[12.3361602,45.1830721],[12.3292091,45.1850171],[12.3218536,45.1859719],[12.3143751,45.1859001],[12.3141828,45.1858847],[12.3157385,45.1765203],[12.3141828,45.1858847],[12.3141827,45.1858855],[12.3067231,45.2307878],[12.3141827,45.1858855],[12.3141828,45.1858847],[12.3157385,45.1765203],[12.3186341,45.1590907],[12.205,45.15],[12.08,45.14],[11.93,45.12],[11.78,45.1],[11.5,45.1],[11.31,45.19],[11.27,45.32],[11.13,45.37],[10.98,45.44],[10.73,45.5],[10.7,45.68],[10.775,45.79],[10.8120253,45.8443038],[10.65,45.82],[10.5,45.85],[10.5,46],[10.54,46.13],[10.58,46.26],[10.5,46.34],[10.45,46.53],[10.4458675,46.5399179],[10.4455045,46.5377466],[10.2943029,46.5512552],[10.2331023,46.5748953],[10.2331023,46.6187983],[10.1935019,46.6272412],[10.1935019,46.6272412],[10.096301,46.6086669],[10.0315003,46.5326809],[10.0279003,46.4465634],[10.1395014,46.4026604],[10.0927009,46.3384945],[10.1575016,46.2625085],[10.1179012,46.2304255],[10.0423004,46.2202941],[10.0315003,46.2608199],[9.9774998,46.2979686],[9.9630996,46.3553803],[9.9198992,46.3705775],[9.7686977,46.3384945],[9.7218972,46.3503145],[9.6750968,46.2912143],[9.5346953,46.2979686],[9.4410944,46.3807089],[9.4338943,46.4989093],[9.3834938,46.4668264],[9.3294933,46.5022865],[9.2646926,46.4854007],[9.2394924,46.436432],[9.2754928,46.3317402],[9.2412627,46.2629312],[9.2250923,46.2304255],[9.0702907,46.1189794],[9.0594906,46.0615678],[9.00189,46.0396163],[9.0162902,45.9923362],[8.9802898,45.9636303],[9.0630906,45.8994644],[9.00189,45.8201013],[8.901089,45.8268556],[8.9118891,45.8825786],[8.8722887,45.9467446],[8.7678877,45.9838933],[8.8326883,46.0666336],[8.8074881,46.0902736],[8.7282873,46.108848],[8.6778868,46.0953394],[8.6777026,46.0954052],[8.602286,46.1223566],[8.5086851,46.208474],[8.45,46.2304948],[8.4366844,46.2354913],[8.4222842,46.2760171],[8.4471949,46.4112203],[8.4474845,46.4127919],[8.4461398,46.415441],[8.4461398,46.415441],[8.4294843,46.448252],[8.400684,46.4516292],[8.3178832,46.4330548],[8.2818828,46.3705775],[8.0766808,46.2625085],[8.1306813,46.196654],[8.1090811,46.1274223],[8.0262803,46.0919622],[7.9866799,45.9990905],[7.896679,45.9822047],[7.86,45.9439734],[7.86,45.9439734],[7.86,45.93]],[[10,44.05628],[10,44.05628],[10.02,44.048889],[10.02,44.048889],[10.0532216,44.0366119],[10.0532221,44.0366117],[10.0532258,44.0366104],[10.0532271,44.0366099],[10.0532282,44.0366095],[10.0532282,44.0366095],[10.0532288,44.0366093],[10.053229,44.0366092],[10.1071011,44.0167007],[10.053229,44.0366092],[10.0532288,44.0366093],[10.0532282,44.0366095],[10.0532282,44.0366095],[10.0532271,44.0366099],[10.0532258,44.0366104],[10.0532221,44.0366117],[10.0532216,44.0366119],[10.02,44.048889],[10.02,44.048889],[10,44.05628]],[[10.1071011,44.0167007],[10.1252163,44],[10.1252163,44],[10.1071011,44.0167007]],[[12.4867249,44.862678],[12.5128616,44.9230314],[12.5128639,44.9230368],[12.5245407,44.95],[12.5335253,44.9707469],[12.5245407,44.95],[12.5128639,44.9230368],[12.5128616,44.9230314],[12.4867249,44.862678]]]}}
