{"type":"Feature","properties":{"family":"client","name":"Cisalpine Republic, 1797 – 1800"},"geometry":{"type":"Polygon","coordinates":[[[8.56,45.9],[8.58,45.8],[8.62,45.72],[8.7,45.58],[8.78,45.45],[8.88,45.35],[9.05,45.24],[9.16,45.18],[9.27,45.13],[9.35,45.1],[9.45,45.1],[9.69,45.06],[9.85,45.1],[10.02,45.12],[10.2,45],[10.42,44.98],[10.5,44.95],[10.4,44.55],[10.25,44.4],[10.1428571,44.3892857],[10.05,44.38],[9.85,44.45],[9.7,44.4],[9.85,44.25],[10.02,44.1],[9.9926613,44.058992],[9.9882999,44.0606038],[9.957098,44.0503592],[9.9570977,44.0503591],[9.9600522,44.0456282],[9.9642214,44.0413837],[9.9694445,44.0377923],[9.9755279,44.034987],[9.9898737,44.0296868],[9.9647648,44.0233366],[9.9575576,44.0220711],[9.9501452,44.0218496],[9.9428168,44.0226807],[9.9358587,44.0245319],[9.9295426,44.027331],[9.8792435,44.054877],[9.869024,44.0333305],[9.8660522,44.0286063],[9.8618789,44.0243779],[9.8566583,44.0208014],[9.8505832,44.0180088],[9.8438778,44.0161031],[9.8367896,44.0151545],[9.82958,44.0151981],[9.8225148,44.0162323],[9.8158549,44.0182189],[9.8098458,44.0210847],[9.473563,44.216214],[9.4431286,44.2129174],[9.435481,44.2126523],[9.4279166,44.2135012],[9.4234551,44.2147012],[9.6203486,44.0313772],[9.6209019,44.0220521],[9.637897,43.9712913],[9.6681208,43.9238307],[9.7104177,43.881438],[9.763192,43.8456883],[9.8885465,43.775652],[9.9375645,43.7482653],[10.0009003,43.7195802],[10.0708258,43.7005465],[10.144568,43.6919177],[10.2192089,43.694035],[10.2406948,43.6978179],[10.2213325,43.802916],[10.2213321,43.8029238],[10.2213281,43.8029362],[10.2181476,43.8201999],[10.2181461,43.8202079],[10.2181349,43.8202688],[10.2180592,43.8206797],[10.2146012,43.8394501],[10.1785528,43.9070099],[10.171634,43.9133851],[10.1716251,43.9133952],[10.1675872,43.9180131],[10.1716251,43.9133952],[10.171625,43.9133953],[10.1377608,43.9446011],[10.1377568,43.9446057],[10.1377545,43.9446084],[10.1377412,43.9446185],[10.1426084,43.9409115],[10.1483573,43.9379302],[10.1547822,43.9357813],[10.1616537,43.9345415],[10.1687263,43.934255],[10.1757476,43.9349321],[10.1927261,43.9377617],[10.1672869,43.9612145],[10.22,43.97],[10.32,44],[10.3478571,44.015],[10.4413333,44.0653333],[10.45,44.07],[10.5095238,44.117619],[10.55,44.15],[10.67,44.14],[10.9,44.18],[11,44.15],[11.2,44.18],[11.45,44.15],[11.65,44.1],[11.85,43.97],[12.05,43.82],[12.3,43.9],[12.5,43.95],[12.74,43.97],[12.7525334,43.9762667],[12.6835344,44],[12.6835344,44],[12.6595266,44.0082579],[12.6835344,44],[12.6835344,44],[12.7525334,43.9762667],[12.7862354,43.9646743],[12.7862357,43.9646742],[12.7871416,43.9658984],[12.7892384,43.9707831],[12.7900172,43.9758649],[12.7894495,43.9809614],[12.7875555,43.9858895],[12.7844029,43.990472],[12.7801048,43.9945443],[12.7748153,43.9979601],[12.7687246,44.0005963],[12.6824133,44.0302914],[12.6824118,44.0302926],[12.768736,44.0005973],[12.9457365,43.9397097],[12.9546877,43.935374],[13.0831105,43.851025],[13.0831133,43.8510232],[13.1070329,43.8890279],[13.123654,43.9387039],[13.1269837,43.9897484],[13.1168684,44.0403308],[13.0936378,44.0886329],[13.058098,44.1329136],[13.0115066,44.1715731],[12.9678901,44.2013155],[12.7245029,44.3672831],[12.6616023,44.5294732],[12.6584042,44.5984773],[12.7109769,44.6289474],[12.7578737,44.6689999],[12.7931246,44.7147085],[12.8838668,44.8647102],[12.90554,44.9120016],[12.9146144,44.9613067],[12.9107497,45.0109536],[12.8940441,45.0592546],[12.8650354,45.1045636],[12.8246866,45.1453324],[12.7743567,45.1801649],[12.6986235,45.2235755],[12.6860611,45.2307763],[12.6795345,45.2492461],[12.6491177,45.2955106],[12.6068172,45.3369098],[12.5541316,45.3719533],[12.4929435,45.3993771],[12.4656714,45.4069793],[12.4656681,45.4069718],[12.4644297,45.4042276],[12.4607578,45.3995608],[12.455851,45.3954911],[12.4499011,45.3921774],[12.4431403,45.389749],[12.4358327,45.3883006],[12.4282633,45.3878887],[12.4207276,45.3885294],[12.3960663,45.3923886],[12.3554599,45.335283],[12.3515818,45.3309204],[12.3465968,45.3271534],[12.3406861,45.3241192],[12.3340648,45.3219278],[12.3269734,45.3206589],[12.3196695,45.3203586],[12.3124184,45.3210377],[12.3054836,45.3226716],[12.2991168,45.325201],[12.2935496,45.328534],[12.2889843,45.3325494],[12.2855872,45.3371013],[12.2834818,45.3420243],[12.2827453,45.3471394],[12.2834046,45.3522605],[12.2854362,45.3572015],[12.3118167,45.4040089],[12.3091378,45.4044182],[12.3019928,45.4066473],[12.2956398,45.4098457],[12.2935888,45.411408],[12.2537025,45.3097754],[12.2511773,45.3050848],[12.2511186,45.3050172],[12.2534296,45.3010808],[12.2548856,45.2958909],[12.2548714,45.2906001],[12.2485596,45.2464082],[12.2571889,45.2308786],[12.2771959,45.2479421],[12.2824693,45.2516392],[12.2886585,45.2545496],[12.29553,45.2565635],[12.3028242,45.2576047],[12.3102657,45.257634],[12.3175734,45.2566502],[12.3244713,45.2546905],[12.3306989,45.2518289],[12.3360213,45.2481735],[12.3402375,45.2438622],[12.3431887,45.2390579],[12.344764,45.2339418],[12.356621,45.1622782],[12.3550486,45.1673764],[12.3520694,45.1722109],[12.3478129,45.1765447],[12.3424415,45.180212],[12.3361603,45.1830729],[12.3292092,45.185018],[12.3218538,45.1859728],[12.3143753,45.1859009],[12.3141827,45.1858855],[12.3067231,45.2307878],[12.3141827,45.1858855],[12.3141828,45.1858847],[12.3157385,45.1765203],[12.3186341,45.1590907],[12.205,45.15],[12.08,45.14],[11.93,45.12],[11.78,45.1],[11.5,45.1],[11.31,45.19],[11.27,45.32],[11.13,45.37],[10.98,45.44],[10.73,45.5],[10.7,45.68],[10.775,45.79],[10.8120253,45.8443038],[10.65,45.82],[10.5,45.85],[10.5,46],[10.54,46.13],[10.58,46.26],[10.5,46.34],[10.45,46.53],[10.4458675,46.5399179],[10.4455045,46.5377466],[10.2943029,46.5512552],[10.2331023,46.5748953],[10.2331023,46.6187983],[10.1935019,46.6272412],[10.1935019,46.6272412],[10.096301,46.6086669],[10.0315003,46.5326809],[10.0279003,46.4465634],[10.1395014,46.4026604],[10.0927009,46.3384945],[10.1575016,46.2625085],[10.1179012,46.2304255],[10.0423004,46.2202941],[10.0315003,46.2608199],[9.9774998,46.2979686],[9.9630996,46.3553803],[9.9198992,46.3705775],[9.7686977,46.3384945],[9.7218972,46.3503145],[9.6750968,46.2912143],[9.5346953,46.2979686],[9.4410944,46.3807089],[9.4338943,46.4989093],[9.3834938,46.4668264],[9.3294933,46.5022865],[9.2646926,46.4854007],[9.2394924,46.436432],[9.2754928,46.3317402],[9.2412627,46.2629312],[9.2250923,46.2304255],[9.0702907,46.1189794],[9.0594906,46.0615678],[9.00189,46.0396163],[9.0162902,45.9923362],[8.9802898,45.9636303],[9.0630906,45.8994644],[9.00189,45.8201013],[8.901089,45.8268556],[8.9118891,45.8825786],[8.8722887,45.9467446],[8.7678877,45.9838933],[8.8326883,46.0666336],[8.8074881,46.0902736],[8.7282873,46.108848],[8.6778868,46.0953394],[8.6777026,46.0954052],[8.62,45.98],[8.56,45.9]],[[12.3141827,45.1858855],[12.3141828,45.1858847],[12.3157385,45.1765203],[12.3186341,45.1590907],[12.3186341,45.1590907],[12.3157385,45.1765203],[12.3141828,45.1858847],[12.3141827,45.1858855]],[[10,44.05628],[10,44.05628],[10.02,44.048889],[10.02,44.048889],[10.0532216,44.0366119],[10.0532221,44.0366117],[10.0532258,44.0366104],[10.0532271,44.0366099],[10.0532282,44.0366095],[10.0532282,44.0366095],[10.0532288,44.0366093],[10.053229,44.0366092],[10.1071011,44.0167007],[10.053229,44.0366092],[10.0532288,44.0366093],[10.0532282,44.0366095],[10.0532282,44.0366095],[10.0532271,44.0366099],[10.0532258,44.0366104],[10.0532221,44.0366117],[10.0532216,44.0366119],[10.02,44.048889],[10.02,44.048889],[10,44.05628]],[[10.1071011,44.0167007],[10.1252163,44],[10.1252163,44],[10.1071011,44.0167007]],[[12.4867249,44.862678],[12.5128616,44.9230314],[12.5128639,44.9230368],[12.5245407,44.95],[12.5335253,44.9707469],[12.5245407,44.95],[12.5128639,44.9230368],[12.5128616,44.9230314],[12.4867249,44.862678]]]}}
