{"type":"Feature","properties":{"family":"client","name":"Kingdom of Italy, 1809 – 1813"},"geometry":{"type":"Polygon","coordinates":[[[7.86,45.93],[7.95,45.88],[8.08,45.86],[8.2,45.82],[8.27,45.77],[8.3,45.68],[8.37,45.6],[8.4,45.5],[8.42,45.38],[8.45,45.27],[8.5,45.18],[8.55,45.1],[8.79,45.11],[9.03,45.12],[9.27,45.13],[9.35,45.1],[9.45,45.1],[9.69,45.06],[9.85,45.1],[10.02,45.12],[10.2,45],[10.42,44.98],[10.5,44.95],[10.4,44.55],[10.25,44.4],[10.1428571,44.3892857],[10.05,44.38],[10.1428571,44.3892857],[10.3,44.35],[10.325,44.175],[10.3478571,44.015],[10.32,44],[10.4413333,44.0653333],[10.45,44.07],[10.5095238,44.117619],[10.55,44.15],[10.67,44.14],[10.9,44.18],[11,44.15],[11.2,44.18],[11.45,44.15],[11.65,44.1],[11.85,43.97],[12.05,43.82],[12.18,43.68],[12.3,43.62],[12.55,43.5],[12.75,43.3],[12.9,43.05],[13.05,42.85],[13.2,42.75],[13.38,42.75],[13.6,42.83],[13.76,42.86],[13.9137986,42.8888372],[13.9226723,42.8626559],[13.9228647,42.862692],[13.9296224,42.8644784],[13.9357776,42.8671931],[13.9410959,42.8707326],[13.9453746,42.8749621],[13.9484504,42.8797206],[13.950206,42.8848267],[13.9505741,42.8900859],[13.9495403,42.8952977],[13.9495432,42.8952832],[13.9795149,42.806709],[14.081438,42.6498885],[14.0994427,42.6559964],[14.1567313,42.6863405],[14.2051045,42.7241735],[14.2427678,42.7681056],[14.2683112,42.8165204],[14.2807632,42.8676321],[14.2796304,42.9195511],[14.2649205,42.9703532],[13.9718291,43.6431922],[13.9439654,43.6903454],[13.9042167,43.7328243],[13.8540059,43.7690824],[13.7951469,43.797797],[13.471656,43.9242461],[13.181884,44.1149643],[13.0922048,44.1584728],[12.8890287,44.2285201],[12.7287516,44.3563341],[12.6616095,44.5294874],[12.6584112,44.5984829],[12.7109767,44.6289501],[12.7578746,44.6690047],[12.7931265,44.7147151],[12.883868,44.8647183],[12.9055414,44.9120113],[12.9146159,44.9613176],[12.9107513,45.0109653],[12.8940459,45.0592666],[12.8650374,45.1045753],[12.8246891,45.1453435],[12.7743597,45.1801751],[12.6988922,45.2234422],[12.712806,45.2349618],[13.1459018,45.3659277],[13.1235176,45.4505998],[13.1170392,45.5019826],[13.1246347,45.5532892],[13.1460635,45.6026412],[13.1666942,45.6299026],[13.153818,45.6621396],[13.1803934,45.6877487],[13.1841774,45.6922486],[13.1866506,45.6971731],[13.1877203,45.7023378],[13.1873461,45.7075497],[13.1855415,45.7126135],[13.1823738,45.7173399],[13.1779612,45.7215517],[13.1724687,45.7250912],[13.1674471,45.7272482],[13.169861,45.7281023],[13.2192379,45.7499782],[13.3534237,45.7192325],[13.3730971,45.7118551],[13.3606137,45.7080879],[13.3541743,45.705612],[13.3485235,45.7023289],[13.3438661,45.6983579],[13.3403706,45.6938426],[13.3381632,45.6889468],[13.3373237,45.6838477],[13.3378821,45.6787299],[13.3398177,45.6737788],[13.3430601,45.6691735],[13.3474918,45.6650806],[13.3529522,45.6616482],[13.3592436,45.6590003],[13.3844356,45.6505611],[13.3914752,45.6487655],[13.3988786,45.6479542],[13.4063668,45.6481578],[13.413658,45.6493686],[13.4204776,45.6515411],[13.5467396,45.7024935],[13.5396742,45.7002731],[13.532046,45.6990806],[13.5242301,45.6989846],[13.5165461,45.6999891],[13.5093084,45.702053],[13.502813,45.7050919],[13.4973258,45.7089814],[13.4941342,45.7124182],[13.5559356,45.737361],[13.5274566,45.725867],[13.53,45.73],[13.5242319,45.7588405],[13.5235352,45.7593125],[13.5240727,45.7596366],[13.5,45.88],[13.6066877,45.9333439],[13.6243362,45.9670075],[13.6063361,45.9855818],[13.5091351,45.9670075],[13.4623346,46.0058448],[13.5055351,46.0666336],[13.6171362,46.1257338],[13.6303792,46.1588623],[13.6219596,46.1841213],[13.4695347,46.2236712],[13.4227342,46.228737],[13.4371344,46.2101626],[13.4083341,46.208474],[13.3651337,46.2895258],[13.4335343,46.3536917],[13.4916967,46.37491],[13.4916967,46.37491],[13.4916967,46.37491],[13.5307353,46.3891518],[13.5444677,46.4],[13.4833334,46.4],[13.45,46.5],[13.3,46.55],[13.2802294,46.5549426],[13.2319323,46.5529438],[13.1455315,46.5850268],[12.9005129,46.6046162],[12.8287283,46.6103554],[12.7495275,46.6407498],[12.5479255,46.6525699],[12.403924,46.6897186],[12.3427234,46.7657045],[12.2743227,46.7842789],[12.2671227,46.8687078],[12.1267213,46.9092336],[12.1411214,46.927808],[12.1123211,46.9936625],[12.202322,47.0527627],[12.2059221,47.0797799],[12.1807218,47.0848456],[11.7343173,46.9700224],[11.4715147,47.0071711],[11.4103141,46.9700224],[11.3131131,46.9869082],[11.1727117,46.9632681],[11.0827108,46.9007907],[11.0539105,46.8146733],[10.99631,46.7690817],[10.7227072,46.7859675],[10.7407074,46.8298705],[10.6471065,46.863642],[10.5283053,46.8433791],[10.4527045,46.863642],[10.4167042,46.7994761],[10.4275043,46.7555731],[10.3699037,46.6728328],[10.395104,46.6390612],[10.4599046,46.6238641],[10.4455045,46.5377466],[10.2943029,46.5512552],[10.2331023,46.5748953],[10.2331023,46.6187983],[10.1935019,46.6272412],[10.096301,46.6086669],[10.096301,46.6086669],[10.0315003,46.5326809],[10.0279003,46.4465634],[10.1395014,46.4026604],[10.0927009,46.3384945],[10.1575016,46.2625085],[10.1179012,46.2304255],[10.0423004,46.2202941],[10.0315003,46.2608199],[9.9774998,46.2979686],[9.9630996,46.3553803],[9.9198992,46.3705775],[9.7686977,46.3384945],[9.7218972,46.3503145],[9.6750968,46.2912143],[9.5346953,46.2979686],[9.4410944,46.3807089],[9.4338943,46.4989093],[9.3834938,46.4668264],[9.3294933,46.5022865],[9.2646926,46.4854007],[9.2394924,46.436432],[9.2754928,46.3317402],[9.2250923,46.2304255],[9.0702907,46.1189794],[9.0594906,46.0615678],[9.00189,46.0396163],[9.0162902,45.9923362],[8.9802898,45.9636303],[9.0630906,45.8994644],[9.00189,45.8201013],[8.901089,45.8268556],[8.9118891,45.8825786],[8.8722887,45.9467446],[8.7678877,45.9838933],[8.8326883,46.0666336],[8.8074881,46.0902736],[8.7282873,46.108848],[8.6778868,46.0953394],[8.602286,46.1223566],[8.5086851,46.208474],[8.4366844,46.2354913],[8.4222842,46.2760171],[8.4471949,46.4112203],[8.4474845,46.4127919],[8.4461398,46.415441],[8.4294843,46.448252],[8.400684,46.4516292],[8.3178832,46.4330548],[8.2818828,46.3705775],[8.0766808,46.2625085],[8.1306813,46.196654],[8.1090811,46.1274223],[8.0262803,46.0919622],[7.9866799,45.9990905],[7.896679,45.9822047],[7.86,45.9439734],[7.86,45.93]],[[12.4867249,44.862678],[12.5335253,44.9707469],[12.5245407,44.95],[12.4867249,44.862678]],[[12.4996993,44.1754693],[12.5248643,44.1910437],[12.5374246,44.1973344],[12.5400898,44.1946075],[12.5467418,44.1380917],[12.4996993,44.1754693]],[[12.6343532,44.0282518],[12.6343964,44.0282858],[12.6403061,44.0314148],[12.6469552,44.0336538],[12.6540878,44.0349169],[12.6614295,44.0351553],[12.6686981,44.0343599],[12.6756138,44.0325614],[12.7694913,44.0002662],[12.7687271,44.000597],[12.6824154,44.0302921],[12.6773579,44.0343105],[12.8194022,44.2480529],[12.8214097,44.2510486],[12.8452837,44.2428252],[12.9899304,44.1930008],[13.0539311,44.1649271],[13.1088449,44.1282981],[13.1524867,44.0845858],[13.1831354,44.0355425],[13.1996006,43.9831292],[13.2012649,43.9294359],[13.1881028,43.8765976],[13.160675,43.8267096],[13.1455839,43.8099857],[12.9546872,43.9353697],[12.9456944,43.9397198],[12.8440746,43.9746773],[12.8429635,43.9749907],[12.8440808,43.9746063],[12.8504665,43.9718089],[12.8559555,43.9681571],[12.8603295,43.9637962],[12.8634147,43.9589],[12.8650888,43.9536631],[12.8652854,43.9482938],[12.8639972,43.9430057],[12.8616676,43.9387282],[12.8279414,43.9503289],[12.74,43.97],[12.7525334,43.9762667],[12.7525334,43.9762667],[12.6595266,44.0082579],[12.6343532,44.0282518]]]}}
