{"type":"Feature","properties":{"family":"client","name":"Kingdom of Italy, 1806 – 1808"},"geometry":{"type":"Polygon","coordinates":[[[7.86,45.93],[7.95,45.88],[8.08,45.86],[8.2,45.82],[8.27,45.77],[8.3,45.68],[8.37,45.6],[8.4,45.5],[8.42,45.38],[8.45,45.27],[8.5,45.18],[8.55,45.1],[8.79,45.11],[9.03,45.12],[9.27,45.13],[9.35,45.1],[9.45,45.1],[9.69,45.06],[9.85,45.1],[10.02,45.12],[10.2,45],[10.42,44.98],[10.5,44.95],[10.4,44.55],[10.25,44.4],[10.1428571,44.3892857],[10.05,44.38],[10.1428571,44.3892857],[10.3,44.35],[10.325,44.175],[10.3478571,44.015],[10.32,44],[10.3478571,44.015],[10.4413333,44.0653333],[10.45,44.07],[10.5095238,44.117619],[10.55,44.15],[10.67,44.14],[10.9,44.18],[11,44.15],[11.2,44.18],[11.45,44.15],[11.65,44.1],[11.85,43.97],[12.05,43.82],[12.3,43.9],[12.5,43.95],[12.74,43.97],[12.7525334,43.9762667],[12.6835344,44],[12.6835344,44],[12.6595266,44.0082579],[12.6835344,44],[12.6835344,44],[12.7525334,43.9762667],[12.7862354,43.9646743],[12.7871418,43.9658988],[12.7892399,43.970784],[12.7900198,43.9758664],[12.7894532,43.9809634],[12.7875601,43.9858919],[12.7844083,43.9904747],[12.7801107,43.9945473],[12.7748217,43.9979631],[12.7687336,44.0005984],[12.7687311,44.0005994],[12.7687336,44.0005984],[12.768736,44.0005973],[12.9457365,43.9397097],[12.9546877,43.935374],[13.0831105,43.851025],[13.107043,43.8890418],[13.1236747,43.9387268],[13.1270126,43.9897794],[13.1169031,44.0403687],[13.0936757,44.0886756],[13.0581371,44.132959],[13.011545,44.1716188],[12.7125507,44.3754417],[12.6855786,44.4278887],[12.652403,44.5953429],[12.6541666,44.5960129],[12.7109575,44.628928],[12.7578602,44.6689829],[12.7931167,44.7146951],[12.8838642,44.8647054],[12.9055381,44.9120038],[12.9146112,44.961316],[12.9107437,45.0109695],[12.8940338,45.0592762],[12.8650199,45.1045894],[12.8246656,45.1453608],[12.7743304,45.1801941],[12.6989096,45.2234309],[12.7127923,45.2349267],[13.1458797,45.3661103],[13.1641134,45.2970335],[13.182921,45.249947],[13.1999725,45.2254249],[13.2148679,45.1188653],[13.2293685,45.0672375],[13.2447185,45.0409278],[13.2482368,45.0269899],[13.2690799,44.9750671],[13.3040684,44.9271085],[13.3517779,44.8850214],[13.4085296,44.8440378],[13.422383,44.7959057],[13.4505098,44.7478971],[13.4910289,44.7045983],[13.6064088,44.6035795],[13.6594227,44.5654778],[13.7219063,44.5355676],[13.7914051,44.5150178],[13.8652005,44.5046306],[13.8965676,44.5047118],[13.9114866,44.4834991],[13.9550024,44.4429924],[14.0083668,44.4090375],[14.0696741,44.3828374],[14.1091477,44.3693853],[14.1252926,44.3651942],[14.1408887,44.3552787],[14.3133875,44.2661189],[14.3737205,44.2408566],[14.3751644,44.2213084],[14.3936627,44.1695849],[14.4259594,44.1214793],[14.4707649,44.078865],[14.518312,44.0485108],[14.5481146,44.0132849],[14.8223136,43.7505851],[14.8984949,43.6957479],[14.9703826,43.6570526],[15.0151649,43.6375526],[15.0388465,43.6196144],[15.0826651,43.5912445],[15.1320607,43.5681969],[15.2182216,43.5345614],[15.2834827,43.514574],[15.3527545,43.5038756],[15.4235569,43.5028487],[15.493357,43.51153],[15.5379034,43.5236824],[15.5593975,43.5153315],[15.5669227,43.4852629],[15.5944238,43.4352072],[15.6096077,43.4183495],[15.6155746,43.4034706],[15.6491681,43.356533],[15.6946596,43.3152459],[15.7502912,43.2811842],[15.7980468,43.2620239],[15.7648546,43.2386194],[15.7228347,43.1938166],[15.6940267,43.1437797],[15.6795689,43.0905448],[15.6800104,43.0362725],[15.6952939,42.9831597],[15.7247648,42.9333508],[15.7645599,42.8811168],[15.8053785,42.8379398],[15.8567754,42.8013564],[15.9168027,42.7727406],[15.9831988,42.7531654],[16.0534715,42.7433635],[16.1249891,42.7437017],[16.1950755,42.7541669],[16.261106,42.7743672],[16.3301808,42.8015053],[16.3596662,42.7656578],[16.4064034,42.7275377],[16.4566508,42.6995845],[16.4505586,42.7210447],[16.4428163,42.7742648],[16.4495384,42.82756],[16.4704968,42.8788303],[16.5048976,42.9260504],[16.5514078,42.9673505],[16.5968661,42.9943562],[16.5948009,42.9904321],[16.5935743,42.9851228],[16.5938144,42.9797407],[16.595511,42.9745004],[16.5985963,42.9696106],[16.6029471,42.9652662],[16.6083898,42.9616401],[16.6147074,42.9588768],[16.6190145,42.9577658],[16.6162399,42.9563255],[16.6108073,42.9528749],[16.6063953,42.9487172],[16.6031718,42.9440111],[16.6012596,42.9389359],[16.6007312,42.9336852],[16.6016062,42.928459],[16.6038512,42.9234564],[16.6073802,42.918868],[16.6120585,42.9148685],[16.6155716,42.9128422],[16.6155689,42.912838],[16.6155659,42.912833],[16.5552883,42.8147662],[16.5521526,42.8078544],[16.5509798,42.8006209],[16.5518173,42.7933623],[16.5546301,42.7863763],[16.6547391,42.606416],[16.6589102,42.6005191],[16.6644834,42.5952877],[16.6712685,42.5909002],[16.6790335,42.5875063],[16.6875136,42.5852218],[17.0787031,42.5069869],[17.7869469,42.3653435],[17.7943819,42.3642674],[17.8019527,42.3640562],[18.0109018,42.3695551],[18.1214533,42.3724644],[18.4417016,42.3808924],[18.5008825,42.3824498],[18.5009069,42.3824505],[18.5009422,42.3824514],[18.5130693,42.3773328],[18.5198858,42.3751008],[18.5271727,42.3739366],[18.5346267,42.3738889],[18.5419374,42.3749597],[18.5427667,42.3752188],[18.5440345,42.3739536],[18.5501968,42.3700352],[18.5969888,42.3464038],[18.6031061,42.3439098],[18.6097532,42.3423216],[18.6166868,42.3416974],[18.6236533,42.34206],[18.6303978,42.3433961],[18.6641431,42.3527118],[18.7490096,42.2560626],[18.7535649,42.2518545],[18.7591591,42.2483998],[18.7655685,42.2458363],[18.7725375,42.2442664],[18.7764174,42.2439915],[18.776391,42.2439722],[18.7250751,42.2064343],[18.6647766,42.1770716],[18.5978932,42.1570574],[18.5270254,42.1471685],[18.4549229,42.1477886],[18.3843813,42.1588937],[18.3369118,42.1740565],[18.3784538,42.1560119],[18.4461963,42.138601],[18.454988,42.1377028],[18.4647642,42.1348397],[18.474464,42.1238324],[18.5185314,42.0830305],[18.5723184,42.0492698],[18.6338093,42.023806],[18.6830061,42.0118821],[18.710473,41.9937338],[18.7698252,41.9674724],[18.8347471,41.9500014],[18.9029111,41.9419455],[18.9718784,41.9435921],[19.0391826,41.954882],[19.1024151,41.9754107],[19.1053602,41.9769135],[19.1053543,41.9769255],[19.1043018,41.9790426],[19.1032952,41.985339],[19.1032695,42.0308211],[19.0575641,42.0616241],[19.0575641,42.0616241],[19.053024,42.0653044],[19.0494746,42.0695422],[19.0470376,42.0741925],[19.0457967,42.0790962],[19.0457945,42.0840855],[19.0479346,42.1012305],[19.0339716,42.1130153],[19.0120913,42.1120808],[19.0054636,42.1122459],[18.9989863,42.1133003],[18.9928743,42.1152089],[18.9873308,42.1179083],[18.9825398,42.1213089],[18.8979582,42.1932816],[18.8978894,42.1933536],[18.8978154,42.1934311],[18.8979524,42.1933146],[18.903057,42.1897346],[18.9089938,42.1869466],[18.9155419,42.1850544],[18.9224573,42.1841285],[18.9294828,42.1842033],[18.9363569,42.185276],[18.9428237,42.1873066],[18.9486426,42.1902196],[18.9492719,42.1906879],[18.9492695,42.1906899],[18.9492674,42.1906917],[18.9492674,42.1906917],[18.9492621,42.1906963],[18.9386866,42.1996985],[18.9254149,42.2109957],[18.95,42.27],[18.85,42.38],[18.75,42.48],[18.65,42.55],[18.5004705,42.5998432],[18.499873,42.5993651],[18.475,42.475],[18.4699829,42.4499145],[18.495185,42.4159295],[18.4299237,42.4525758],[18.3722431,42.4510599],[18.2630442,42.44819],[18.2841307,42.4487442],[18.1851907,42.4461439],[18.1400416,42.4449573],[18.1048277,42.4440319],[18.1048277,42.4440319],[17.89825,42.4386027],[17.8935777,42.4384799],[17.8567001,42.4375108],[17.8561556,42.4374964],[17.8056935,42.4361702],[16.7360859,42.6501863],[16.65335,42.7993005],[16.7100907,42.8913728],[16.7100907,42.8913728],[16.7247656,42.9151855],[16.7100961,42.8913815],[16.8434921,42.8740023],[16.8510171,42.8735905],[16.8584981,42.8743111],[17.0177411,42.9019197],[17.1876463,42.8872783],[17.1948907,42.8871741],[17.2020221,42.8881107],[17.2087649,42.890052],[17.2148579,42.8929228],[17.2200655,42.896612],[17.2241859,42.9009769],[17.2270595,42.9058486],[17.2285746,42.9110384],[17.2286724,42.9163455],[17.2273485,42.9215643],[17.2246541,42.9264926],[17.220693,42.9309395],[17.190403,42.9585307],[17.1903986,42.9585312],[17.1367531,42.9643364],[17.1307713,42.9697828],[17.0335703,42.9832915],[17.007296,42.9805292],[17.0065553,42.9807988],[17.0004865,42.9843331],[16.9955618,42.9887175],[16.991999,42.9937584],[16.9857272,43.005513],[16.8375073,42.9899375],[16.8375069,42.9899391],[16.8375062,42.9899416],[16.8375059,42.9899431],[16.8375055,42.9899446],[16.8101181,43.0998413],[16.8101179,43.0998419],[16.8101161,43.0998492],[17.1918741,43.099851],[17.1991383,43.1003609],[17.2061233,43.1019027],[17.2125568,43.1044164],[17.2181879,43.107804],[17.2227972,43.1119334],[17.2262046,43.1166437],[17.228277,43.1217512],[17.2289332,43.1270567],[17.2281472,43.1323532],[17.2261702,43.1369239],[17.2933444,43.106261],[17.3759699,43.0336209],[17.3811713,43.0298682],[17.3872816,43.0269375],[17.3940613,43.0249434],[17.3978655,43.0244249],[17.3990777,43.0273833],[17.4026127,43.0321864],[17.4073977,43.0363714],[17.413237,43.0397673],[17.4301486,43.0477007],[17.4328696,43.0368521],[17.4380511,43.0347796],[17.4380511,43.0347796],[17.4619746,43.0305716],[17.4558052,43.0276779],[17.4331743,43.017063],[17.4660907,43.0235637],[17.501575,43.0305716],[17.4785588,43.0185765],[17.4691747,43.0136858],[17.4785588,43.0185765],[17.6,42.97],[17.6138401,42.9522056],[17.6635766,42.9664057],[17.6599766,42.9934229],[17.5879759,43.0829175],[17.4403744,43.1521492],[17.400774,43.2163151],[17.2891729,43.3041211],[17.2675727,43.3530899],[17.2855729,43.4375187],[17.2711727,43.4628474],[17.0623706,43.5270133],[16.7131671,43.771857],[16.6980174,43.8009913],[16.5,43.9],[16.15,44.2],[15.95,44.2],[15.65,44.18],[15.5,44.2],[15.35,44.28],[15.3084764,44.3141959],[15.2623526,44.3324647],[15.3084764,44.3141959],[15.4243542,44.2682988],[15.434399,44.2686237],[15.4344086,44.268624],[15.3757731,44.2999009],[15.3369398,44.3318926],[15.3322098,44.3351608],[15.3267574,44.3377915],[15.2870338,44.3535292],[15.2865722,44.354152],[15.2818427,44.3582858],[15.112122,44.479401],[15.1128817,44.4826322],[15.1126435,44.4879638],[15.1109392,44.4931577],[15.1078351,44.4980108],[15.1067507,44.4990802],[15.1066785,44.4991318],[15.1066785,44.4991318],[15.0550151,44.5360574],[15.0550151,44.5360574],[15.0067501,44.5705541],[15.0550151,44.5360574],[15.055015,44.5360575],[15.055015,44.5360575],[15.04,44.55],[14.9718603,44.6143542],[14.9718602,44.6143542],[14.9592511,44.6301835],[14.9532184,44.6377569],[14.9479473,44.6352868],[14.9425651,44.6314744],[14.9383594,44.626975],[14.9363687,44.6234918],[14.9169157,44.628623],[14.8730624,44.6836361],[14.8730624,44.6836361],[14.8759468,44.6855459],[14.8768951,44.6861738],[14.8813464,44.6906221],[14.8921517,44.7041276],[14.8951231,44.7088398],[14.8955536,44.7101484],[14.8955416,44.7101634],[14.8843488,44.7242146],[14.8837686,44.7435393],[14.8837674,44.7435788],[14.8575036,44.7830345],[14.8532068,44.7880072],[14.8475034,44.7922078],[14.8442371,44.7941404],[14.842722,44.8434979],[14.8437937,44.85047],[14.8806118,44.9574441],[14.8198419,45.07731],[14.7029937,45.1391984],[14.7029937,45.1391985],[14.7029937,45.1391985],[14.7030087,45.1615513],[14.7021767,45.1671592],[14.6997094,45.1725225],[14.6965998,45.1763241],[14.7537014,45.1460689],[14.7537014,45.1460689],[14.8519485,45.094013],[14.7537014,45.1460689],[14.7537014,45.1460689],[14.6965998,45.1763241],[14.6965998,45.1763241],[14.6965998,45.1763241],[14.6965998,45.1763241],[14.6965428,45.1763542],[14.6914644,45.179045],[14.6900014,45.1798202],[14.6758525,45.1873169],[14.6758401,45.1873235],[14.6758401,45.1873235],[14.6758401,45.1873235],[14.6575466,45.1970163],[14.6758401,45.1873235],[14.668764,45.1883858],[14.6578415,45.1891975],[14.6379601,45.2156603],[14.6378426,45.2157722],[14.6378426,45.2157722],[14.6220165,45.2308368],[14.6220165,45.2308368],[14.6220165,45.2308368],[14.601093,45.2507536],[14.601093,45.2507536],[14.601093,45.2507536],[14.6010806,45.2507653],[14.6010806,45.2507653],[14.5583109,45.2914771],[14.5583109,45.2914771],[14.5542756,45.2953183],[14.5583109,45.2914771],[14.5583109,45.2914771],[14.6010806,45.2507653],[14.6010805,45.2507654],[14.596306,45.2519947],[14.5562721,45.2590598],[14.5491,45.2598257],[14.5418512,45.2596262],[14.5347858,45.2584685],[14.5281572,45.256394],[14.5222031,45.2534772],[14.5171369,45.2498227],[14.5131402,45.2455616],[14.5103559,45.2408465],[14.5089131,45.2359473],[14.5114651,45.2522972],[14.5130642,45.2575803],[14.5141005,45.2592561],[14.5115085,45.2601357],[14.3897315,45.3124946],[14.3362335,45.3155105],[14.2950859,45.2486547],[14.2822079,45.1884392],[14.2798963,45.1864369],[14.2762468,45.1814166],[14.2703341,45.1706291],[14.2690313,45.1723933],[14.2644326,45.1764593],[14.258812,45.1798275],[14.2523785,45.1823727],[14.2453712,45.184],[14.2426194,45.184244],[14.2426183,45.1842389],[14.2369562,45.157681],[14.2363424,45.1548018],[14.2369562,45.157681],[14.1816106,45.1336979],[14.2075421,45.126096],[14.1816106,45.1336979],[14.1787418,45.1345389],[14.1796006,45.1328269],[14.1577922,45.1233766],[14.15,45.1],[14.1577922,45.1233766],[14.2,45.25],[14.05,45.3],[13.95,45.45],[13.85,45.55],[13.75,45.58],[13.7282625,45.5773915],[13.7107371,45.5938319],[13.7642693,45.6049915],[13.7642999,45.6049978],[13.7581498,45.60637],[13.7508352,45.6069732],[13.7434902,45.606592],[13.7217428,45.6039823],[13.7141709,45.6025038],[13.7071854,45.5999812],[13.701077,45.5965194],[13.6960996,45.5922625],[13.6924599,45.5873875],[13.6903091,45.5820973],[13.689736,45.5766117],[13.6898976,45.575755],[13.6898976,45.575755],[13.6898976,45.575755],[13.6824947,45.5752084],[13.6824946,45.5752084],[13.6824946,45.5752084],[13.6798399,45.5776975],[13.6760072,45.5821193],[13.6734523,45.5869725],[13.6722697,45.5920784],[13.6725033,45.5972491],[13.6741447,45.6022942],[13.677134,45.6070279],[13.6813614,45.6112759],[13.6866714,45.6148815],[13.6928683,45.617712],[13.6997241,45.6196629],[13.7230367,45.6245321],[13.7165568,45.6278868],[13.7109981,45.6313976],[13.7065158,45.6355939],[13.7032793,45.6403172],[13.7014111,45.6453895],[13.700982,45.6506193],[13.7020086,45.6558092],[13.7044526,45.6607631],[13.7101712,45.6694912],[13.6957791,45.6855103],[13.5932464,45.7439363],[13.5939378,45.7422944],[13.5945736,45.7367885],[13.5935873,45.731307],[13.5910206,45.7260798],[13.5869818,45.7213265],[13.5816407,45.7172463],[13.5752215,45.7140105],[13.4205687,45.6516036],[13.4205687,45.6516036],[13.3654345,45.6869034],[13.3609771,45.6897573],[13.3487019,45.6976166],[13.3609771,45.6897573],[13.3654345,45.6869034],[13.4205687,45.6516036],[13.4205782,45.6515975],[13.4205822,45.6515949],[13.4205822,45.6515949],[13.4205822,45.6515949],[13.5562015,45.5647642],[13.4205822,45.6515949],[13.4205822,45.6515949],[13.4205822,45.6515949],[13.4205782,45.6515975],[13.4205687,45.6516036],[13.3654345,45.6869034],[13.3609771,45.6897573],[13.3487019,45.6976166],[13.3454634,45.69969],[13.3454571,45.6996941],[13.3454514,45.6996977],[13.3347087,45.7065757],[13.3454514,45.6996977],[13.3454571,45.6996941],[13.3454634,45.69969],[13.3485414,45.7023122],[13.3541924,45.7055936],[13.3606312,45.7080689],[13.3731445,45.7118453],[13.3534038,45.7192479],[13.2381374,45.7456492],[13.2401256,45.7453345],[13.2401669,45.745328],[13.2450393,45.7445568],[13.2523238,45.7443826],[13.2595259,45.7451653],[13.2663898,45.7468772],[13.2726717,45.7494575],[13.2781486,45.7528146],[13.2826257,45.7568292],[13.2859438,45.7613588],[13.2866002,45.7629295],[13.2865806,45.762934],[13.25,45.7713134],[13.2139321,45.7795754],[13.25,45.7713134],[13.25,45.85],[13.5919166,46.1919166],[13.4695347,46.2236712],[13.4227342,46.228737],[13.4371344,46.2101626],[13.4083341,46.208474],[13.3651337,46.2895258],[13.4335343,46.3536917],[13.4916967,46.37491],[13.4833333,46.4],[13.45,46.5],[13.3,46.55],[13.2802294,46.5549426],[13.2319323,46.5529438],[13.1455315,46.5850268],[12.9501299,46.6006493],[12.9005129,46.6046162],[12.9005129,46.6046162],[12.8287283,46.6103554],[12.7495275,46.6407498],[12.5479255,46.6525699],[12.403924,46.6897186],[12.39814,46.6969],[12.325,46.575],[12.25,46.45],[12,46.45],[11.85,46.3],[11.775,46.175],[11.7,46.05],[11.6,45.95],[11.35,45.9],[11.15,45.8],[11,45.75],[10.9,45.7],[10.85,45.85],[10.8120253,45.8443038],[10.65,45.82],[10.5,45.85],[10.5,46],[10.54,46.13],[10.58,46.26],[10.5,46.34],[10.45,46.53],[10.4458675,46.5399179],[10.4455045,46.5377466],[10.2943029,46.5512552],[10.2331023,46.5748953],[10.2331023,46.6187983],[10.1935019,46.6272412],[10.1935019,46.6272412],[10.096301,46.6086669],[10.0315003,46.5326809],[10.0279003,46.4465634],[10.1395014,46.4026604],[10.0927009,46.3384945],[10.1575016,46.2625085],[10.1179012,46.2304255],[10.0423004,46.2202941],[10.0315003,46.2608199],[9.9774998,46.2979686],[9.9630996,46.3553803],[9.9198992,46.3705775],[9.7686977,46.3384945],[9.7218972,46.3503145],[9.6750968,46.2912143],[9.5346953,46.2979686],[9.4410944,46.3807089],[9.4338943,46.4989093],[9.3834938,46.4668264],[9.3294933,46.5022865],[9.2646926,46.4854007],[9.2394924,46.436432],[9.2754928,46.3317402],[9.2412627,46.2629312],[9.2250923,46.2304255],[9.0702907,46.1189794],[9.0594906,46.0615678],[9.00189,46.0396163],[9.0162902,45.9923362],[8.9802898,45.9636303],[9.0630906,45.8994644],[9.00189,45.8201013],[8.901089,45.8268556],[8.9118891,45.8825786],[8.8722887,45.9467446],[8.7678877,45.9838933],[8.8326883,46.0666336],[8.8074881,46.0902736],[8.7282873,46.108848],[8.6778868,46.0953394],[8.6777026,46.0954052],[8.602286,46.1223566],[8.5086851,46.208474],[8.45,46.2304948],[8.4366844,46.2354913],[8.4222842,46.2760171],[8.4471949,46.4112203],[8.4474845,46.4127919],[8.4461398,46.415441],[8.4461398,46.415441],[8.4294843,46.448252],[8.400684,46.4516292],[8.3178832,46.4330548],[8.2818828,46.3705775],[8.0766808,46.2625085],[8.1306813,46.196654],[8.1090811,46.1274223],[8.0262803,46.0919622],[7.9866799,45.9990905],[7.896679,45.9822047],[7.86,45.9439734],[7.86,45.9439734],[7.86,45.93]],[[17.4331743,43.017063],[17.4558052,43.0276779],[17.4660907,43.0235637],[17.4331743,43.017063]],[[12.4867249,44.862678],[12.5128616,44.9230314],[12.5128639,44.9230368],[12.5245407,44.95],[12.5335253,44.9707469],[12.5245407,44.95],[12.5128639,44.9230368],[12.5128616,44.9230314],[12.4867249,44.862678]],[[14.5315453,45.1345389],[14.5469631,45.2328889],[14.5495455,45.2493622],[14.596346,45.2375421],[14.5869798,45.2258271],[14.5855459,45.2240335],[14.5869798,45.2258271],[14.5469631,45.2328889],[14.5315453,45.1345389]],[[15.00315,44.0521609],[15.0473647,44],[15.0473647,44],[15.00315,44.0521609]],[[15.078931,44],[15.078931,44],[15.1435514,43.9491577],[15.078931,44]],[[15.1435514,44.1956899],[15.371836,44],[15.371836,44],[15.1435514,44.1956899]],[[15.2623526,44.011635],[15.2724587,44],[15.2724587,44],[15.2623526,44.011635]],[[15.2960885,44],[15.2960885,44],[15.3847538,43.9694206],[15.2960885,44]],[[16.6324215,43.0521687],[16.6395461,43.1033435],[16.6420387,43.1093857],[16.6420424,43.1093944],[16.6810137,43.1009741],[16.6916914,43.0998486],[16.7099544,43.0998487],[16.7031901,43.1268205],[16.709956,43.0998421],[16.7099562,43.0998412],[16.7310529,43.0157199],[16.731053,43.0157195],[16.73876,42.9849885],[16.7310556,43.015709],[16.7250869,43.0167948],[16.7166083,43.0168783],[16.6330213,43.0106057],[16.6330335,43.0106103],[16.6373282,43.0122567],[16.6324215,43.0521687]],[[16.7115606,43.2153289],[16.7115612,43.2153294],[16.7367856,43.2382887],[16.7454197,43.2436297],[16.7454306,43.2436365],[16.8111742,43.2400784],[16.8180644,43.2401655],[16.824813,43.2411804],[16.8311865,43.2430882],[16.8369644,43.2458228],[16.9161541,43.2913984],[16.9211793,43.2948904],[16.9252206,43.2990037],[16.9281358,43.3035937],[16.9298224,43.3084992],[16.9302206,43.3135478],[16.9301295,43.314053],[16.9378019,43.314777],[16.9253941,43.3256582],[17.0446633,43.2210635],[17.0488247,43.2179532],[17.0536168,43.2153696],[17.1867173,43.1549004],[16.8707224,43.1956039],[16.8625106,43.1959726],[16.742637,43.1915434],[16.7115606,43.2153289]],[[16.8033946,43.1268205],[16.8101161,43.0998492],[16.8101179,43.0998419],[16.8101181,43.0998413],[16.8375055,42.9899446],[16.8375059,42.9899431],[16.8375062,42.9899416],[16.8375069,42.9899391],[16.8375073,42.9899375],[16.8379252,42.9882605],[16.8399676,42.9800652],[16.8399676,42.9800652],[16.8406791,42.9772098],[16.842312,42.9706577],[16.842312,42.9706577],[16.8441257,42.9633798],[16.8441269,42.9633751],[16.8441257,42.9633798],[16.842312,42.9706577],[16.842312,42.9706577],[16.8406791,42.9772098],[16.8399676,42.9800652],[16.8399676,42.9800652],[16.8379252,42.9882605],[16.8375069,42.9899391],[16.8375062,42.9899416],[16.8375059,42.9899431],[16.8375055,42.9899446],[16.8101181,43.0998413],[16.8101179,43.0998419],[16.8033946,43.1268205]],[[18.502385,42.4564553],[18.5072051,42.4559278],[18.5072052,42.4559278],[18.5072052,42.4559278],[18.5081652,42.4546321],[18.5081653,42.4546321],[18.5045279,42.4545365],[18.5033922,42.4545066],[18.502385,42.4564553]]]}}
