{"type":"Feature","properties":{"family":"france","name":"Corfu and Paxos, held by France, 1809 – 1813"},"geometry":{"type":"Polygon","coordinates":[[[19.2747997,39.7551172],[19.2793897,39.7045052],[19.2961994,39.6554473],[19.324611,39.6096732],[19.3636033,39.5687935],[19.517301,39.4354598],[19.545602,39.3688416],[19.5758987,39.3167754],[19.6196294,39.2707918],[19.6748245,39.2329364],[19.7390169,39.2048901],[19.7903723,39.187681],[19.790443,39.1821645],[19.802968,39.1331143],[19.8269226,39.086695],[19.861466,39.0444943],[19.9054012,39.007953],[19.9572173,38.9783165],[20.0218832,38.9480221],[20.0836208,38.9251656],[20.1498943,38.9121372],[20.2181548,38.9094378],[20.2857791,38.917171],[20.307146,38.9231005],[20.3501681,38.9350396],[20.4088428,38.9623565],[20.4595372,38.9980705],[20.5002846,39.0408052],[20.5289347,39.0879919],[20.5294929,39.0889113],[20.5455112,39.138975],[20.5454966,39.1389857],[20.4550115,39.2048192],[20.4501049,39.2092404],[20.4465394,39.214376],[20.4444819,39.2199859],[20.444029,39.225808],[20.4461285,39.2595703],[20.3178765,39.2773256],[20.3111629,39.2788005],[20.3049639,39.2812814],[20.2995283,39.284669],[20.2950739,39.2888274],[20.2917795,39.2935898],[20.2625764,39.3483376],[20.2150106,39.3795624],[20.2093737,39.3842577],[20.2053285,39.3898485],[20.1837127,39.430368],[20.1817194,39.4354965],[20.1810773,39.4408285],[20.1818118,39.446154],[20.1838944,39.4512629],[20.1872432,39.4559539],[20.1917265,39.4600418],[20.1971674,39.4633655],[20.2020833,39.4652959],[20.1890214,39.4775361],[20.1853083,39.4817793],[20.1827012,39.4864881],[20.1812942,39.4914928],[20.1812052,39.4944219],[20.1257135,39.503801],[20.119276,39.5054042],[20.1133594,39.507934],[20.1081853,39.5112958],[20.1039475,39.5153637],[20.1008046,39.5199854],[20.0988746,39.524988],[20.0988746,39.524988],[20.09823,39.5301842],[20.0988953,39.5353793],[20.1008458,39.5403787],[20.1387641,39.6116096],[19.9666125,39.6764571],[19.9604485,39.6794171],[19.9552102,39.6832918],[19.9511229,39.6879147],[19.9483624,39.6930874],[19.9470476,39.6985873],[19.9472354,39.7041782],[19.9489182,39.7096197],[19.952718,39.7179484],[19.952718,39.7179484],[19.952718,39.7179484],[19.952718,39.7179486],[19.9565961,39.7198428],[19.961233,39.7231384],[19.9612364,39.7231418],[19.9650272,39.7270197],[19.9678527,39.7313567],[19.9678557,39.7313613],[19.9696267,39.7360224],[19.9823118,39.7855915],[19.9829725,39.7907211],[19.9823514,39.7958536],[19.9804711,39.8008017],[19.9773998,39.8053847],[19.9732496,39.8094351],[19.9681719,39.8128051],[19.9623521,39.8153715],[19.961494,39.8156696],[19.9709979,39.8514099],[19.8905371,39.8826273],[19.884657,39.8854996],[19.8796314,39.8892058],[19.8756579,39.8936001],[19.8728928,39.89851],[19.8714453,39.9037423],[19.8713724,39.9090912],[19.8726775,39.9143465],[19.8753094,39.9193013],[19.8791648,39.9237607],[19.8997567,39.9430906],[19.8401015,40.0218903],[19.8401015,40.0218903],[19.760759,40.0376295],[19.7542367,40.0394623],[19.7483113,40.0422391],[19.7432131,40.045852],[19.7391402,40.0501607],[19.7212871,40.0735967],[19.7212836,40.0736012],[19.7119045,40.0713277],[19.4844418,39.9950679],[19.4266057,39.9703681],[19.3853089,39.9438442],[19.3758744,39.9377847],[19.3340464,39.8984802],[19.3025953,39.8538547],[19.2826183,39.805495],[19.2747997,39.7551172]],[[19.9351994,39.7412231],[19.9490401,39.7882897],[19.9478607,39.790796],[19.9495995,39.7901918],[19.9490401,39.7882897],[19.9351994,39.7412231]],[[20.0815747,39.4368507],[20.0936009,39.433902],[20.1188012,39.378179],[20.1134299,39.3731402],[20.0815747,39.4368507]],[[20.0922159,39.4625456],[20.1041892,39.4596098],[20.1101418,39.4576651],[20.1155275,39.4549063],[20.1201615,39.4514281],[20.1238854,39.4473497],[20.1265715,39.4428107],[20.1517485,39.3870801],[20.1533984,39.3817079],[20.153598,39.376188],[20.1523392,39.3707518],[20.1496752,39.365627],[20.1457178,39.3610285],[20.1404523,39.3560908],[20.1444176,39.3607313],[20.1470983,39.3660382],[20.1482781,39.3716619],[20.1479041,39.3773518],[20.1459925,39.3828541],[20.1141627,39.4465734],[20.1114059,39.4508931],[20.1076982,39.4547654],[20.1031575,39.4580669],[20.0979286,39.4606923],[20.0922159,39.4625456]]]}}
