{"type":"Feature","properties":{"family":"britain","name":"Anglo-Corsican Kingdom, 1793 – 1796"},"geometry":{"type":"Polygon","coordinates":[[[8.1830769,42.3797259],[8.1896926,42.3264932],[8.1967305,42.3090527],[8.1870673,42.2783505],[8.1844698,42.2268372],[8.1951443,42.1758981],[8.1961627,42.1738001],[8.1959929,42.173071],[8.1986176,42.1176347],[8.2164538,42.0637665],[8.2369083,42.0320542],[8.2278427,42.0026088],[8.2260432,41.9487668],[8.23865,41.8957315],[8.2641904,41.8282663],[8.289426,41.7798889],[8.2966113,41.7714054],[8.2963156,41.7253731],[8.3104793,41.6722124],[8.3385497,41.6222334],[8.3793687,41.5774438],[8.4312758,41.5396387],[8.4387914,41.5360251],[8.4406808,41.5143522],[8.4574648,41.4655491],[8.4860356,41.4199303],[8.5253781,41.3790791],[8.5741104,41.3444107],[8.630534,41.3171241],[8.7172906,41.2831881],[8.8007473,41.2505429],[8.8127181,41.2363961],[8.8621341,41.1977132],[8.9206915,41.1671229],[8.9860869,41.1458226],[8.9871615,41.1455635],[8.9876198,41.1458077],[8.987636,41.1458163],[8.9876786,41.145839],[8.9877987,41.145903],[8.9878649,41.1459382],[8.9881218,41.1460751],[8.9953268,41.1483501],[9.1123233,41.1743567],[9.1362195,41.2487169],[9.1383459,41.2533973],[9.1415733,41.2577072],[9.1457934,41.2615017],[9.1508645,41.264653],[9.156616,41.2670551],[9.2178352,41.2873256],[9.224456,41.2889599],[9.2313725,41.2896019],[9.2383237,41.2892273],[9.2450473,41.2878503],[9.2512899,41.2855228],[9.256816,41.2823326],[9.2928176,41.2569964],[9.2977257,41.2527326],[9.301347,41.2477946],[9.3019707,41.2462487],[9.306242,41.2445289],[9.3116727,41.2411725],[9.3161283,41.2370841],[9.3177711,41.2347693],[9.3195139,41.2356571],[9.3258206,41.2376837],[9.332525,41.2387705],[9.3387324,41.2388675],[9.3392723,41.2403523],[9.3427162,41.2453685],[9.3474734,41.2497359],[9.3906742,41.2818282],[9.3958871,41.2850306],[9.4018044,41.287445],[9.4082179,41.2889863],[9.4149017,41.2896003],[9.4216204,41.2892654],[9.4281375,41.2879932],[9.4342235,41.2858287],[9.4396641,41.2828481],[9.4442678,41.2791562],[9.4478729,41.2748831],[9.4503526,41.2701791],[9.4509763,41.2685687],[9.4570419,41.2693035],[9.4643777,41.2690539],[9.4714921,41.2676869],[9.478087,41.2652598],[9.4924901,41.2585031],[9.4984455,41.2550029],[9.5032927,41.2506421],[9.5068167,41.2456144],[9.5088615,41.2401432],[9.5093365,41.2344712],[9.5080613,41.2119606],[9.5080591,41.2119222],[9.5080544,41.2118402],[9.5080529,41.2118124],[9.5080522,41.2118004],[9.5080504,41.2117693],[9.5256444,41.2289431],[9.5562078,41.2744111],[9.5852519,41.3300491],[9.6043772,41.3806687],[9.6060383,41.3959942],[9.6446284,41.4351001],[9.6660259,41.4619665],[9.6812517,41.4810839],[9.705076,41.531577],[9.7113634,41.5647261],[9.7292493,41.5935406],[9.7541975,41.6484901],[9.7628733,41.7061557],[9.7637943,41.8689985],[9.8550828,41.9669525],[9.89269,42.0182942],[9.9145796,42.0744455],[9.9196854,42.1327795],[9.8934446,42.5752678],[9.8818136,42.6318318],[9.8541997,42.6853141],[9.8335324,42.7087213],[9.8448352,42.7501506],[9.8508401,42.8247035],[9.8303442,43.0121999],[9.8270854,43.0256851],[9.8267659,43.0254752],[9.8267433,43.0254604],[9.8267309,43.0254523],[9.8266937,43.0254278],[9.8266364,43.0253902],[9.801098,43.0086201],[9.7830978,43.028883],[9.8082981,43.0660317],[9.8159019,43.0656355],[9.8159712,43.0656319],[9.8159757,43.0656316],[9.8159998,43.0656304],[9.8160525,43.0656276],[9.8165627,43.065601],[9.7932654,43.1101834],[9.7564291,43.1535916],[9.7089891,43.1911399],[9.6526418,43.2214717],[9.5894149,43.2434892],[9.5215933,43.2563945],[9.4059055,43.269962],[9.3368629,43.2732382],[9.2681957,43.2670696],[9.202329,43.2516743],[9.141585,43.2275956],[9.0880989,43.1956828],[9.0437419,43.1570598],[9.0100551,43.1130845],[8.9881967,43.0653001],[8.978904,43.0153796],[8.9813189,42.9813267],[8.9645333,42.977217],[8.897826,42.9483493],[8.8409083,42.9098839],[8.8162165,42.8892459],[8.70542,42.8666605],[8.6365321,42.846897],[8.6229811,42.8404599],[8.5965497,42.836246],[8.5284834,42.814107],[8.4679497,42.7823345],[8.4174414,42.7422438],[8.3790246,42.695492],[8.3542552,42.6440072],[8.3387803,42.5971476],[8.294563,42.5714328],[8.2476344,42.5306598],[8.2125947,42.4838584],[8.1908003,42.4328775],[8.1830769,42.3797259]],[[8.6562866,41.978588],[8.6606342,42],[8.6634866,42.0140481],[8.6606342,42],[8.6562866,41.978588]]]}}
