{"type":"Feature","properties":{"family":"client","name":"Free City of Danzig, under French protection, 1807 – 1813"},"geometry":{"type":"Polygon","coordinates":[[[18.4,54.5],[18.425,54.35],[18.45,54.2],[18.75,54.15],[19.05,54.25],[18.9756678,54.3491096],[18.7183872,54.381188],[18.9756678,54.3491096],[19.00279,54.3457279],[19.0271505,54.3478154],[19.0180752,54.3599324],[19.0138318,54.3643838],[19.0082275,54.3682911],[19.0014617,54.3715151],[18.9937757,54.3739405],[18.9854435,54.3754811],[18.8854775,54.3879505],[18.7391626,54.4062013],[18.8854775,54.3879505],[19.0043074,54.3731382],[19.3616144,54.4037566],[19.4241829,54.4249802],[19.4007459,54.4566665],[19.3585871,54.5013074],[19.3026382,54.5405284],[19.2348807,54.572915],[19.1577393,54.5972962],[19.0739949,54.6127884],[18.9734988,54.6253938],[18.931424,54.6549204],[18.8738397,54.6886945],[18.8068249,54.7160813],[18.7324673,54.7362209],[18.6872664,54.7432021],[18.7746799,54.7133774],[18.7815279,54.710504],[18.7873644,54.7069633],[18.852149,54.6596639],[18.8560795,54.6562963],[18.8590904,54.6526252],[18.877066,54.6256017],[18.8795044,54.6204719],[18.8801563,54.6151647],[18.8789968,54.6098864],[18.8760719,54.6048423],[18.8616565,54.5862729],[18.8570971,54.5816691],[18.8510719,54.5776714],[18.8438143,54.5744342],[18.835605,54.5720828],[18.8267613,54.5707079],[18.8176251,54.5703628],[18.8085493,54.5710607],[18.7998845,54.5727748],[18.7919656,54.5754386],[18.7850988,54.5789494],[18.7795498,54.5831714],[18.6739546,54.6821554],[18.4688129,54.7516821],[18.4653061,54.7474093],[18.5136571,54.7006568],[18.5170397,54.6966674],[18.519243,54.692411],[18.5202075,54.6880033],[18.5213175,54.6732142],[18.5215864,54.6732374],[18.5305428,54.6730058],[18.5392564,54.6717871],[18.5474051,54.6696263],[18.5546873,54.6666035],[18.5608339,54.6628303],[18.565618,54.6584464],[18.5688631,54.6536139],[18.6155665,54.5573481],[18.6172872,54.5506069],[18.6196445,54.4832674],[18.6185692,54.4885012],[18.6157347,54.493542],[18.6112566,54.4981632],[18.6053074,54.5021863],[18.5981169,54.5054555],[18.5899629,54.5078444],[18.5811611,54.5092605],[18.5722272,54.5101539],[18.5732201,54.482678],[18.5666667,54.4833333],[18.4,54.5]]]}}
