{"type":"Feature","properties":{"family":"other","name":"Denmark–Norway, 1789 – 1813"},"geometry":{"type":"Polygon","coordinates":[[[4.0864084,61.0796527],[4.0887214,61.0270536],[4.1120357,60.9756658],[4.1525349,60.9150367],[4.1972789,60.8654414],[4.2613203,60.8211631],[4.2745808,60.8150611],[4.2777196,60.8109712],[4.3022478,60.7918858],[4.2996162,60.7898988],[4.2592985,60.7394731],[4.2405005,60.6861248],[4.2308422,60.6185451],[4.2348031,60.5623321],[4.2623545,60.5077382],[4.3121913,60.4571237],[4.3820724,60.4126668],[4.4275393,60.3936328],[4.4261405,60.3655834],[4.4196147,60.358166],[4.3969584,60.3064997],[4.3951303,60.2536371],[4.4141013,60.2016102],[4.4530501,60.1524096],[4.5104085,60.1079092],[4.5839327,60.0697968],[4.6320006,60.0492785],[4.6388143,60.0052729],[4.6389618,60.0049985],[4.5960801,59.9596183],[4.5703147,59.9058752],[4.5685566,59.8766498],[4.5624073,59.8697248],[4.5392681,59.8196698],[4.5354791,59.7683186],[4.5510894,59.7175367],[4.580191,59.6765734],[4.5762466,59.6536435],[4.5846075,59.6064377],[4.6091314,59.5606971],[4.6529671,59.5002758],[4.6543432,59.4797486],[4.6685187,59.4201458],[4.6554737,59.3854221],[4.6461071,59.3378817],[4.6477209,59.327272],[4.6363553,59.2801731],[4.6444297,59.2266308],[4.6895397,59.0967953],[4.7162626,59.0473564],[4.760615,59.0014013],[4.8209421,58.9605759],[4.8950392,58.9263372],[4.9802343,58.8999035],[5.0178982,58.8927684],[4.9845194,58.8415549],[4.9624326,58.7932526],[4.9578423,58.7436747],[4.9708296,58.6945016],[5.0008833,58.6473932],[5.1723486,58.4420296],[5.2193462,58.3973892],[5.281413,58.3581514],[5.3563182,58.3256978],[5.4414015,58.3011675],[5.5413173,58.2784215],[5.5635072,58.2516256],[5.6289213,58.2041858],[5.7120803,58.1652615],[5.8090703,58.1366611],[6.0264132,58.0877065],[6.0268094,58.0833629],[6.0503644,58.0327689],[6.0917685,57.9855068],[6.1494242,57.9433236],[6.235948,57.8912406],[6.3117999,57.8538931],[6.4001737,57.8254442],[6.4974428,57.8070534],[6.5996404,57.7994692],[6.6590582,57.7982811],[6.6799779,57.7869304],[6.7594494,57.7576961],[6.8477834,57.7369898],[6.9418143,57.7255509],[7.0381857,57.7237873],[7.1334635,57.7317621],[7.2242495,57.7491913],[7.2827966,57.7677155],[7.5031161,57.750015],[7.6049698,57.7472503],[7.7058253,57.7553713],[7.8016647,57.774055],[7.8886566,57.8025567],[7.9045338,57.8104755],[7.9710223,57.8144338],[8.0755729,57.8266442],[8.1672475,57.8487957],[8.2658473,57.8553794],[8.3636832,57.8671509],[8.4553532,57.8888684],[8.5373286,57.9196994],[8.6064312,57.9584594],[8.6550019,57.9994806],[8.6608479,58.0001508],[8.7566207,58.0227172],[8.8417943,58.0551326],[8.9127918,58.0960487],[8.9665971,58.1437583],[9.003109,58.1852281],[9.2719055,58.3131109],[9.3473337,58.3575564],[9.3915473,58.399236],[9.5447575,58.470746],[9.6159275,58.5113085],[9.6436384,58.5355277],[9.6740333,58.5483901],[9.7748305,58.6004482],[9.8397291,58.6411244],[9.8882798,58.6875897],[9.8884982,58.6879544],[9.9492539,58.6908992],[10.1136413,58.707656],[10.2093009,58.7223697],[10.2978933,58.7462443],[10.3109564,58.7516188],[10.331444,58.7541984],[10.4323661,58.7727284],[10.4483088,58.7777371],[10.4302231,58.9984469],[10.5313561,57.7642645],[10.5122904,57.9969336],[10.3734793,57.9826058],[10.2821692,57.9682555],[10.1976048,57.9450716],[10.1227929,57.9138829],[10.0414582,57.8727509],[9.8751731,57.8565043],[9.7732706,57.8403975],[9.6800499,57.8132617],[9.5996662,57.7763136],[9.5356693,57.7312056],[9.1940713,57.4256015],[8.5650937,57.3917757],[8.4646351,57.3803642],[8.3707094,57.3580691],[8.2873326,57.3258476],[8.2180432,57.28508],[8.0530249,57.1646588],[8.0047194,57.1211822],[7.8040096,56.8928671],[7.7705873,56.8419259],[7.760261,56.8027238],[7.7541032,56.7951184],[7.6586727,56.6360286],[7.6406807,56.5955666],[7.6342376,56.5540639],[7.6266175,56.0271984],[7.6358666,55.9723807],[7.6514792,55.9439524],[7.6971306,55.7792596],[7.6296164,55.6093483],[7.6181916,55.5548899],[7.6264601,55.5002551],[7.6539997,55.4476969],[7.6996045,55.3993739],[7.7613457,55.3572634],[7.8366585,55.323082],[7.9659709,55.275563],[7.991857,55.2445062],[8.0184225,55.2233169],[8.0109199,55.2010674],[7.9846757,55.1749148],[7.8672131,55.0225144],[7.8389554,54.9733102],[7.8276345,54.9219149],[7.8188465,54.7513338],[7.8252149,54.6981989],[7.8291812,54.6898055],[7.8288024,54.6419387],[7.8464265,54.5896717],[7.8813435,54.5404279],[7.9321424,54.4961118],[7.9968165,54.4584313],[8.0728454,54.4288341],[8.1524769,54.403993],[8.1451589,54.3898754],[8.1365631,54.3361701],[8.146435,54.2825455],[8.1743091,54.2311402],[8.2190122,54.1839961],[8.2985429,54.116714],[8.3374629,54.0900999],[8.2812667,54.0593658],[8.2566743,54.0394784],[8.2295957,54.0175806],[8.1924993,53.9707591],[8.1766984,53.9334029],[8.1712967,53.9206323],[8.1667094,53.8690467],[8.1788433,53.817895],[8.2071938,53.7690474],[8.2314317,53.7440928],[8.2314887,53.7440341],[8.2344197,53.7417295],[8.2379688,53.7373624],[8.2380765,53.7372516],[8.2440195,53.7311329],[8.2506728,53.7242829],[8.3076558,53.6852263],[8.3760452,53.6532912],[8.4533489,53.62963],[8.4641109,53.6277549],[8.4641113,53.6277548],[8.4447102,53.6570546],[8.4421761,53.6624737],[8.4415923,53.6680863],[8.4451397,53.7170562],[8.4454316,53.7179692],[8.4455278,53.7195293],[8.4475204,53.7245026],[8.4460515,53.7199081],[8.4475733,53.724668],[8.5204689,53.84976],[8.5232079,53.8535011],[8.5205339,53.8498488],[8.5302626,53.8665434],[8.5339943,53.8713402],[8.5392393,53.875616],[8.5457972,53.8792069],[8.5711637,53.8905674],[8.5620314,53.8851036],[8.5711723,53.8905725],[8.5955407,53.9014861],[8.5955551,53.9014912],[8.5956182,53.9015136],[8.595621,53.9015146],[8.5956218,53.9015148],[8.5956807,53.9015357],[8.5956218,53.9015148],[8.595621,53.9015146],[8.5956182,53.9015136],[8.5955551,53.9014912],[8.6250146,53.9146848],[8.6276379,53.9156344],[8.6301924,53.91669],[8.6313929,53.9170018],[8.625066,53.9146831],[8.5958231,53.9015862],[8.5958226,53.9015859],[8.5956552,53.9015109],[8.5956012,53.9014868],[8.5891678,53.8979825],[8.5839848,53.8938188],[8.5802418,53.8891486],[8.5780758,53.8841433],[8.5775656,53.8789863],[8.5787292,53.8738669],[8.5815234,53.8689725],[8.5858453,53.8644826],[8.5869185,53.8637432],[8.598865,53.869092],[8.6232282,53.88],[8.6232282,53.88],[8.6526865,53.8931892],[8.6232282,53.88],[8.6967654,53.88],[8.6967654,53.88],[8.7373853,53.8678458],[8.7383608,53.8688469],[8.7411942,53.8737105],[8.7424139,53.8788028],[8.7419751,53.883939],[8.739893,53.8889324],[8.7362429,53.8936014],[8.7311568,53.8977762],[8.7248195,53.901305],[8.717653,53.9039876],[8.7174612,53.9040594],[8.7174612,53.9040594],[8.6733629,53.9172565],[8.6722144,53.9175239],[8.6722144,53.9175239],[8.6721253,53.9175446],[8.6700953,53.9180172],[8.6700953,53.9180172],[8.6695862,53.9181357],[8.6666095,53.9188287],[8.6676384,53.9186836],[8.6700953,53.9180172],[8.6721253,53.9175446],[8.6722144,53.9175239],[8.6733487,53.9172647],[8.8693934,53.858612],[8.9997359,53.8692367],[8.9999234,53.8692328],[9.1498722,53.8660816],[9.1494272,53.8654293],[9.1477645,53.8603836],[9.1477522,53.8552435],[9.1481252,53.8540936],[9.1817917,53.8568399],[9.1890569,53.8574326],[9.1932207,53.8577722],[9.325,53.79],[9.4046156,53.7490548],[9.3687195,53.7811439],[9.3614641,53.7876299],[9.3547552,53.7936272],[9.3522937,53.7958277],[9.3333548,53.812758],[9.3522937,53.7958277],[9.3547552,53.7936272],[9.3614641,53.7876299],[9.3687195,53.7811439],[9.4046156,53.7490548],[9.4046156,53.7490548],[9.4410405,53.716493],[9.4458568,53.7121875],[9.4458568,53.7121875],[9.4458876,53.71216],[9.5814958,53.5909339],[9.4458876,53.71216],[9.4458568,53.7121875],[9.4458568,53.7121875],[9.4410405,53.716493],[9.4046156,53.7490548],[9.4046156,53.7490548],[9.3687195,53.7811439],[9.3614641,53.7876299],[9.3547552,53.7936272],[9.3522937,53.7958277],[9.3267975,53.8186198],[9.3172055,53.8271946],[9.3103774,53.8332985],[9.3103743,53.8333013],[9.3064016,53.8368526],[9.301617,53.8411298],[9.3016169,53.8411299],[9.2754928,53.8644834],[9.3016169,53.8411299],[9.301617,53.8411298],[9.3064016,53.8368526],[9.3103743,53.8333013],[9.3103774,53.8332985],[9.3172055,53.8271946],[9.3267975,53.8186198],[9.3522937,53.7958277],[9.3547552,53.7936272],[9.3614641,53.7876299],[9.3687195,53.7811439],[9.4046156,53.7490548],[9.4046156,53.7490548],[9.4410405,53.716493],[9.4458568,53.7121875],[9.4888771,53.6951218],[9.4928136,53.6785762],[9.4948505,53.673552],[9.4984638,53.6688505],[9.5035203,53.6646439],[9.5098345,53.6610865],[9.5469826,53.6437564],[9.5378425,53.6823402],[9.65,53.63],[9.7,53.6066667],[9.8,53.56],[9.95,53.62],[10.1,53.63],[10.2,53.52],[10.35,53.6],[10.5,53.72],[10.62,53.82],[10.7,53.88],[10.80875,53.9283333],[10.88,53.96],[10.8940597,53.9713817],[10.902709,53.9607323],[10.9397434,53.9723128],[10.9386473,53.9775429],[10.9353879,53.9830065],[10.9234041,53.9977801],[11.0324087,54.031847],[11.0397292,54.033671],[11.0474758,54.0347251],[11.1699531,54.0448628],[11.1780878,54.0451033],[11.1861666,54.0444952],[11.1939347,54.0430577],[11.2011476,54.0408362],[11.2075781,54.0379006],[11.2723826,54.0024241],[11.2786252,53.9982102],[11.283256,53.99333],[11.2860767,53.987993],[11.289295,53.9785366],[11.3164654,53.9854808],[11.3256514,53.9871785],[11.3298015,53.9874086],[11.3298461,53.9875855],[11.3329315,53.9926204],[11.3376465,53.997198],[11.3916312,54.0394284],[11.397336,54.0431187],[11.4040997,54.0461292],[11.4116914,54.0483569],[11.4198515,54.0497258],[11.4283011,54.0501889],[11.4659281,54.0501916],[11.4841339,54.0706833],[11.4834797,54.0723686],[11.4833544,54.0780547],[11.4852624,54.0836302],[11.4891199,54.0888472],[11.4947559,54.0934737],[11.5019204,54.0973041],[11.5023382,54.0974838],[11.5198147,54.1316726],[11.528055,54.1790443],[11.5323421,54.1801928],[11.6045531,54.2104895],[11.6655983,54.2483127],[11.7132027,54.2922742],[11.7425539,54.3362471],[11.7912224,54.3210603],[11.8794619,54.3055632],[11.9476685,54.3018212],[11.971168,54.300532],[12.0627623,54.3061627],[12.1506708,54.3222355],[12.2314551,54.3481231],[12.3019398,54.3828132],[12.3593331,54.4249466],[12.4013356,54.4728678],[12.4262338,54.5246876],[12.4329751,54.5783554],[12.4319963,54.599343],[12.527989,54.665509],[12.5493218,54.6834013],[12.5982094,54.6839323],[12.6856348,54.6947062],[12.7679628,54.7148792],[12.842212,54.7437233],[12.9056778,54.7801957],[12.9560273,54.8229744],[12.9913855,54.8705046],[12.9970125,54.8854577],[13.0104073,54.9210528],[13.0123329,54.9727685],[13.0057319,55.0234513],[12.9912826,55.0725508],[12.9612834,55.1192925],[12.9167099,55.162073],[12.8933387,55.1772228],[12.9017125,55.1860212],[12.9295484,55.2381765],[12.9314898,55.2499761],[12.5805808,55.3157657],[12.9318784,55.2499032],[13.3799669,55.1658941],[13.396354,55.1640875],[14.2164864,55.1325445],[14.6382961,55.1163213],[14.2169033,55.1325284],[14.2117146,55.105626],[14.2189602,55.0544194],[14.2429705,55.0049157],[14.2828183,54.9589009],[14.3370185,54.9180292],[14.4035876,54.8837646],[14.4801179,54.8573312],[14.8671139,54.7499455],[14.9502079,54.7320505],[15.0375915,54.723486],[15.1261738,54.7245542],[15.2128242,54.7352171],[15.2944766,54.7550976],[15.3682319,54.7834918],[15.431456,54.819393],[15.4818708,54.8615255],[15.5176367,54.9083876],[15.5982445,55.0482269],[15.6188655,55.1011261],[15.6206146,55.155333],[15.6033435,55.2086582],[15.5676772,55.2589385],[15.515,55.3041263],[15.4474097,55.3423745],[15.057893,55.5206536],[14.9768555,55.5503094],[14.8868454,55.5700581],[14.8390875,55.5745794],[14.791612,55.5790741],[14.6951359,55.5769797],[14.6014532,55.5638623],[14.5144764,55.5402701],[14.4378224,55.5071883],[14.3746553,55.4659954],[14.3275534,55.4184031],[14.2984058,55.3663824],[14.2388303,55.2038058],[14.2384759,55.2038194],[13.4120723,55.2356334],[12.9325875,55.3255257],[12.9321148,55.3256143],[12.6194526,55.3842313],[12.9321148,55.3256143],[12.9280682,55.3466827],[12.9204906,55.3668784],[12.9204826,55.3668998],[12.8434149,55.3563167],[12.8344278,55.3555849],[12.8253639,55.3558401],[12.8165548,55.3570729],[12.8165548,55.3570729],[12.8083232,55.3592382],[12.8009705,55.3622568],[12.794766,55.3660181],[12.794766,55.3660181],[12.7899375,55.3703843],[12.7866622,55.3751956],[12.7850609,55.3802755],[12.7851928,55.3854379],[12.7870538,55.3904934],[12.8157981,55.4428499],[12.8192104,55.4474869],[12.8240784,55.451686],[12.8302336,55.4553012],[12.8374624,55.458207],[12.8455138,55.4603024],[12.854108,55.4615145],[12.8629463,55.4618012],[12.8717214,55.4611525],[12.8801283,55.459591],[12.9146962,55.4510633],[12.9146188,55.4558651],[12.91646,55.4612091],[12.9201557,55.4662364],[12.9225086,55.4681996],[12.874359,55.5381529],[12.8718888,55.5430676],[12.8718888,55.5430676],[12.8711025,55.5481598],[12.872029,55.5532464],[12.8827935,55.5836447],[12.8827935,55.5836447],[12.8856973,55.5889405],[12.8904545,55.5937907],[12.8968645,55.5979902],[12.9932753,55.6492778],[13.0050546,55.6869976],[12.9810717,55.7066654],[12.9045251,55.7238919],[12.8959623,55.7264072],[12.8884732,55.7298412],[12.8823633,55.7340539],[12.8778821,55.7388738],[12.8670674,55.7540669],[12.8645574,55.7588171],[12.8636359,55.7637474],[12.8643346,55.7686911],[12.8666305,55.7734809],[12.8704464,55.7779546],[12.8898006,55.7961341],[12.8817892,55.8195346],[12.7889668,55.8675432],[12.7813623,55.872565],[12.7761603,55.8784752],[12.7096478,55.9850096],[12.6606363,56.0260207],[12.6606416,56.0260261],[12.6660402,56.0316538],[12.6698281,56.0368024],[12.6716448,56.0422765],[12.671412,56.047843],[12.6691388,56.0532647],[12.6649212,56.0583107],[12.6589382,56.0627657],[12.6514446,56.0664398],[12.6514446,56.0664398],[12.5773643,56.0957093],[12.5146042,56.1205061],[12.5773427,56.0957178],[12.5617282,56.1087835],[12.5563676,56.1147309],[12.4628582,56.2606821],[12.4171184,56.2849808],[12.4109978,56.2889259],[12.4063602,56.2934522],[12.403379,56.2983907],[12.4021664,56.303557],[12.4027684,56.3087581],[12.4051632,56.3137995],[12.4051632,56.3137995],[12.4092619,56.3184927],[12.4149119,56.3226623],[12.4219023,56.3261522],[12.4299716,56.3288316],[12.438818,56.3306004],[12.438818,56.3306004],[12.4481104,56.3313923],[12.4575007,56.3311775],[12.4666372,56.3299642],[12.4751778,56.3277978],[12.7137448,56.2505854],[12.772429,56.2588468],[12.7768035,56.2717171],[12.7117101,56.3153645],[12.4250291,56.3794752],[12.3311071,56.3943976],[12.2336694,56.3985644],[12.1367179,56.3918042],[12.0442336,56.3743944],[11.9739892,56.3515901],[11.960003,56.3470496],[11.684024,56.2346041],[11.6237595,56.2278833],[11.5999653,56.2237728],[11.4133694,56.2554058],[11.3760144,56.2594571],[11.3778927,56.2620759],[11.4331285,56.369932],[11.4500953,56.4215638],[11.4500832,56.422015],[11.4833221,56.4165233],[11.5733408,56.4112665],[11.6635674,56.4152439],[11.7509561,56.4283213],[11.8325509,56.4500568],[11.9055799,56.4797154],[11.9675453,56.516292],[12.0361486,56.5650424],[12.0889488,56.6115271],[12.1236958,56.6629236],[12.1284318,56.6798205],[12.1388877,56.7171242],[12.1338134,56.7718965],[12.1085946,56.8249747],[12.0641957,56.8741536],[12.0023967,56.9173814],[11.9257292,56.9528479],[11.8373754,56.979063],[11.7633879,56.9912427],[11.7410348,56.9949224],[11.6407635,56.9997569],[11.5407936,56.9933623],[11.445344,56.9760083],[11.3078157,56.9420109],[11.2247338,56.9157752],[11.1526443,56.8812216],[11.0942763,56.8396747],[11.0518113,56.7927226],[11.0429045,56.7747282],[10.9718027,56.7912909],[10.8822586,56.8019725],[10.8111043,56.8030202],[10.7812658,56.8802938],[10.7829874,56.8816694],[10.8213705,56.9311705],[10.833862,56.9531129],[10.8355578,56.9526087],[10.9304703,56.9366692],[11.0292611,56.9313206],[11.1280298,56.9367739],[11.2228769,56.9528138],[11.3100479,56.9788065],[11.3860739,57.0137236],[11.4479035,57.0561799],[11.4631398,57.0691021],[11.4792129,57.0741193],[11.5506177,57.1075139],[11.6092545,57.1476087],[11.6211025,57.1598981],[11.6529953,57.1929791],[11.680223,57.2420075],[11.6898955,57.2929393],[11.6903348,57.3250207],[11.6820991,57.3758094],[11.6562463,57.4248537],[11.6136363,57.4703917],[11.555746,57.5107811],[11.4846231,57.54456],[11.402816,57.570502],[11.313282,57.5876628],[11.2420396,57.5935391],[11.2192763,57.5954167],[11.1242275,57.5934805],[11.0691567,57.5866191],[11.1131598,57.6284556],[11.144052,57.6789132],[11.1559262,57.7316305],[11.14824,57.7845707],[11.1343428,57.8108447],[11.1212066,57.8356799],[11.0757998,57.8829664],[11.022512,57.9186906],[11.0137274,57.9245799],[10.9373737,57.9588859],[10.84971,57.9845327],[10.7541781,58.0005073],[10.6545495,58.0061773],[10.6475024,58.0058341],[10.5697831,59.0015157],[10.5834632,58.826256],[10.5934326,58.8296638],[10.6158972,58.8412865],[10.6422742,58.8345206],[10.6440057,58.8340765],[10.678184,58.81774],[10.769531,58.7892804],[10.8700313,58.7709745],[10.9236471,58.7642718],[10.9236471,58.7642718],[11.0080649,58.7581168],[11.0196702,58.7469866],[11.0818184,58.7074669],[11.1570428,58.6746865],[11.1617213,58.6733265],[11.1606028,58.6763625],[11.1608526,58.6820592],[11.1633813,58.6922059],[11.1520755,58.6952966],[11.1437729,58.6981228],[11.1366594,58.7017183],[11.1309953,58.7059515],[11.1269883,58.7106677],[11.1247855,58.7156945],[11.1247855,58.7156945],[11.1244684,58.7208478],[11.1260494,58.7259391],[11.1294715,58.730782],[11.1615559,58.7654506],[11.1751332,58.8308977],[11.1721664,58.8319405],[11.164591,58.8351834],[11.1583291,58.8391048],[11.1536041,58.8435652],[11.1505848,58.8484058],[11.1493795,58.8534543],[11.1464261,58.9073643],[11.0781833,58.9316724],[11.0703331,58.9350987],[11.0639367,58.9392515],[11.0592422,58.9439703],[11.056432,58.9490724],[11.0556159,58.9543603],[11.0568264,58.9596289],[11.0600174,58.9646742],[11.0650661,58.9693004],[11.0717774,58.9733281],[11.0809726,58.9778555],[11.0755687,58.982219],[11.0718203,58.9872205],[11.0700697,58.9925057],[11.0687722,59.0021329],[11.0738579,59.0033866],[11.0820629,59.006547],[11.088918,59.0104689],[11.0941608,59.0150027],[11.0975904,59.019975],[11.1206373,59.0677007],[11.1570765,59.0927494],[11.164874,59.0907344],[11.1753836,59.0893046],[11.2131282,59.0862454],[11.2131299,59.0862466],[11.2195122,59.09063],[11.3203132,59.0990729],[11.3563136,59.0923186],[11.3923139,59.0197098],[11.4391144,58.991004],[11.4535145,58.8964436],[11.4823148,58.8863122],[11.6119161,58.8930665],[11.6659167,58.9200837],[11.6947169,58.9741182],[11.8099181,59.2713078],[11.6695167,59.5803174],[11.6947169,59.6225319],[11.8279183,59.6596806],[11.8927189,59.7052722],[11.903519,59.7846353],[11.8423184,59.8386698],[11.8495185,59.8724413],[11.9431194,59.9028357],[12.1447214,59.89777],[12.2923229,59.9585588],[12.4471245,60.0514305],[12.5119251,60.117285],[12.5227252,60.1983367],[12.4903249,60.3114714],[12.5947259,60.3942117],[12.6091261,60.4870834],[12.3499235,60.7927159],[12.2527225,61.0020995],[12.5119251,61.0493797],[12.702727,61.0460025],[12.7387274,61.1422514],[12.8395284,61.2266803],[12.8899289,61.3499464],[12.6127261,61.54751],[12.4147241,61.5829701],[12.1627216,61.7248106],[12.3175232,62.2347609],[12.3139231,62.2854182],[12.0907209,62.585985],[12.1555216,62.7109397],[12.0943209,62.9068147],[12.2239222,63.001375],[11.9935199,63.2884331],[12.2203222,63.4741766],[12.1699217,63.5974428],[12.2923229,63.656543],[12.6811268,63.9571097],[12.9835298,64.0584244],[13.2355324,64.0905073],[13.9627396,64.0094556],[14.1463415,64.1681819],[14.1607416,64.2053306],[14.095941,64.4653715],[13.6423364,64.5835719],[14.3119431,65.0833908],[14.3803438,65.2404285],[14.5135451,65.318103],[14.5099451,65.4650092],[14.5099451,65.4650092],[14.5174051,65.5],[14.5820145,65.5],[14.5820145,65.5],[14.5819136,65.5031707],[14.5790255,65.5085668],[14.5735453,65.5136032],[14.5657021,65.5180681],[14.555825,65.5217734],[14.5443294,65.5245631],[14.5316991,65.5263197],[14.5191816,65.526934],[14.5184662,65.5269691],[14.5191816,65.526934],[14.5194162,65.5269225],[15.1609905,65.5269236],[15.1609887,65.5269333],[15.1567786,65.549082],[15.1223408,65.5997117],[15.0646214,65.6465763],[14.9857299,65.6878679],[14.8886337,65.7219856],[14.7770508,65.7476009],[14.6553056,65.7637128],[14.535853,65.7693282],[14.5281526,65.7696902],[12.5666452,65.7697407],[12.4927672,65.7662249],[12.4065379,65.7697736],[12.2175574,65.7697768],[12.098593,65.765189],[11.9837088,65.7517203],[11.8768181,65.7298302],[11.7815394,65.7002641],[11.7010658,65.6640262],[11.6380559,65.6223426],[11.5945466,65.5766178],[11.5758289,65.5499938],[11.5530927,65.5],[12.2180089,65.5],[12.2059221,65.4869607],[12.2311223,65.4869607],[12.198722,65.4734521],[12.3139231,65.4954036],[12.3283233,65.4666978],[12.1591216,65.3957776],[12.2095221,65.3772032],[12.1807218,65.350186],[12.1411214,65.3636946],[12.1087211,65.3434317],[12.0799208,65.3079715],[12.1231212,65.3029058],[12.0547205,65.2201655],[12.2491225,65.2809543],[12.2095221,65.3248573],[12.3355234,65.3316116],[12.4903249,65.3873347],[12.5083251,65.3974661],[12.4507245,65.426172],[12.4435244,65.4666978],[12.4050661,65.5],[12.5758593,65.5],[12.5767258,65.4987808],[12.6559266,65.4802064],[12.6091261,65.4599435],[12.7819278,65.4599435],[12.6307263,65.4329263],[12.7135271,65.3704489],[12.601926,65.4329263],[12.5839258,65.4177291],[12.5479255,65.4464349],[12.4795248,65.4464349],[12.5479255,65.3636946],[12.6631266,65.3552517],[12.6919269,65.329923],[12.497525,65.3704489],[12.4183242,65.3349888],[12.4795248,65.3366774],[12.4507245,65.3130373],[12.3427234,65.3029058],[12.2455225,65.2336741],[12.4363244,65.2725114],[12.4579246,65.2539371],[12.7135271,65.2539371],[12.4075241,65.2471828],[12.3535235,65.2269198],[12.4399244,65.2269198],[12.497525,65.1999026],[12.3823238,65.1779511],[12.3679237,65.1509339],[12.501125,65.1441795],[12.6667267,65.1965254],[12.9331293,65.3333002],[12.9295293,65.3130373],[12.7891279,65.2134112],[12.6163262,65.1492453],[12.601926,65.1374252],[12.6379264,65.1306709],[12.2414896,65.0601912],[12.174312,65.0601934],[12.1555216,65.054685],[12.174312,65.0601934],[12.299523,65.0968994],[12.3103231,65.110408],[12.2239222,65.1239166],[12.2707227,65.1644425],[12.1663217,65.2117226],[12.0943209,65.1779511],[12.0871209,65.1441795],[12.1231212,65.1306709],[12.0439204,65.1070308],[12.0475205,65.0850793],[11.9791198,65.0833908],[12.1216605,65.0601951],[12.0586599,65.0601972],[12.0586598,65.0601972],[12.0547205,65.0648164],[12.0495623,65.0601975],[12.0151202,65.0293563],[12.0495623,65.0601975],[12,65.0601991],[11.9865298,65.0601996],[11.9791198,65.0681936],[11.9529906,65.0602007],[11.8135181,65.0175363],[11.9529906,65.0602007],[11.9286239,65.0602015],[11.844107,65.0602043],[11.7760389,65.0393619],[11.844107,65.0602043],[11.8440594,65.0602043],[11.7648744,65.0602069],[11.7648083,65.0602069],[11.7648083,65.0602069],[11.6945501,65.0602092],[11.6695167,65.0445535],[11.6945501,65.0602092],[11.701917,65.0648164],[11.6731167,65.0715707],[11.7667177,65.1019651],[11.7631176,65.1188509],[11.5795158,65.110408],[11.5243886,65.0602148],[11.5183152,65.054685],[11.5243886,65.0602148],[11.4559588,65.060217],[11.4559588,65.060217],[11.4558932,65.060217],[10.2361407,65.0602571],[10.2137581,65.0449885],[10.1427171,64.9839347],[10.0982438,64.9332577],[10.0786011,64.8798358],[10.0844354,64.8258239],[10.1153647,64.7733886],[10.1700169,64.7246212],[10.2461058,64.6814565],[10.255837,64.6777682],[10.2075732,64.6694756],[10.1041851,64.6404912],[10.0162287,64.6033543],[9.9470937,64.5595245],[9.9150448,64.5340791],[9.8679919,64.4860252],[9.849526,64.4477221],[9.7881808,64.4225744],[9.7369819,64.3908615],[9.6954899,64.3735299],[9.62457,64.3286408],[9.616771,64.3205888],[9.6028548,64.3164724],[9.5173349,64.2785214],[9.4733303,64.2490898],[9.4558998,64.2429253],[9.3671688,64.2043413],[9.2983326,64.1587328],[9.2521521,64.1079966],[9.2304129,64.0542321],[9.2334087,64.0069404],[9.2319181,64.0065369],[9.186997,64.0258714],[9.0865307,64.0546894],[8.9750447,64.0743373],[8.856872,64.0840484],[8.7366274,64.0834434],[8.6190133,64.072546],[8.5086208,64.0517822],[7.9727576,63.9206915],[7.8775879,63.8915316],[7.7968155,63.85495],[7.7333295,63.8122824],[7.6893566,63.7650801],[7.6663891,63.7150514],[7.6659403,63.6966733],[7.4647834,63.6425718],[7.3686231,63.6103086],[7.2889309,63.5701838],[7.228832,63.5238084],[7.1906298,63.4730359],[7.1757263,63.4198858],[7.184583,63.3664606],[7.2099199,63.325801],[7.1851458,63.3175835],[7.162805,63.3066796],[7.0983574,63.2934471],[7.0000178,63.2609357],[6.9995376,63.2606953],[6.9391583,63.24847],[6.6098432,63.1616704],[6.5174533,63.1313593],[6.4397372,63.093602],[6.4110485,63.076623],[6.3691613,63.0459196],[6.3117051,63.0163493],[6.2533994,62.9706624],[6.2159583,62.9206717],[6.195102,62.8800628],[6.1920238,62.869736],[6.180232,62.8599214],[6.1538707,62.857588],[6.0444326,62.8427111],[5.9434734,62.8184267],[5.8548283,62.7856637],[5.7818315,62.7456713],[5.727188,62.6999687],[5.7159456,62.6837079],[5.708565,62.6828001],[5.6010706,62.6578318],[5.5367355,62.6341545],[5.4222541,62.6314835],[5.3099232,62.618263],[5.2056074,62.5950548],[5.1134597,62.5627884],[5.037114,62.5227521],[4.9795389,62.4765387],[4.9696579,62.4629115],[4.8863339,62.4449758],[4.7814205,62.4160493],[4.6854203,62.3827928],[4.6063956,62.341075],[4.547681,62.2926968],[4.5116975,62.239737],[4.4998625,62.1844601],[4.5059011,62.1581912],[4.4781633,62.1390603],[4.4336146,62.0886845],[4.4122875,62.0364746],[4.3612418,62.0125755],[4.2971805,61.9668589],[4.2542611,61.9159874],[4.2341606,61.8620769],[4.2375905,61.8073578],[4.2642871,61.7540826],[4.273461,61.744754],[4.2721305,61.7424063],[4.2642793,61.6917192],[4.2766164,61.6412283],[4.3086092,61.5927214],[4.3590427,61.547908],[4.4212696,61.5111991],[4.415276,61.5049352],[4.3899849,61.4548064],[4.3851758,61.4032907],[4.397987,61.3618037],[4.3966938,61.3611276],[4.3404804,61.3171326],[4.3307225,61.3045949],[4.3143492,61.2940705],[4.2869269,61.2662318],[4.278904,61.2629196],[4.2033397,61.224894],[4.1447395,61.1805045],[4.1052879,61.131463],[4.0864084,61.0796527]],[[12.0151202,65.0293563],[12,65.0456679],[11.9971061,65.0487899],[11.9865298,65.0601996],[11.9971061,65.0487899],[12,65.0456679],[12.0151202,65.0293563]],[[5.1210512,62.0253773],[5.1514849,62],[5.1534515,61.9983601],[5.1514849,62],[5.1210512,62.0253773]],[[5.2290523,61.9578342],[5.2794824,62],[5.2794824,62],[5.2290523,61.9578342]],[[5.603456,59.9619359],[5.6528532,60],[5.6538565,60.0007732],[5.6528532,60],[5.603456,59.9619359]],[[5.8122581,62.2448924],[6,62.3127218],[6,62.3127218],[5.8122581,62.2448924]],[[5.8518585,58.9656753],[6,58.8997086],[6,58.8997086],[5.8518585,58.9656753]],[[5.8626586,61.1186113],[6,61.1205634],[6.100261,61.1219885],[6,61.1205634],[5.8626586,61.1186113]],[[5.8878589,61.8835368],[6,61.8725652],[6.4746647,61.8261252],[6,61.8725652],[5.8878589,61.8835368]],[[5.9130591,59.0281527],[6,59.025132],[6.0102601,59.0247755],[6,59.025132],[5.9130591,59.0281527]],[[5.9490595,62.2448924],[6,62.2269723],[6.0642606,62.2043665],[6,62.2269723],[5.9490595,62.2448924]],[[5.9562596,58.4776765],[6,58.4024504],[6.0102601,58.3848047],[6,58.4024504],[5.9562596,58.4776765]],[[5.9562596,62.1402006],[6,62.1196844],[6.0426604,62.0996747],[6,62.1196844],[5.9562596,62.1402006]],[[5.9742597,58.9639867],[6,58.9754851],[6.0498605,58.9977583],[6,58.9754851],[5.9742597,58.9639867]],[[5.9778598,62.2803525],[6,62.2864479],[6.3090631,62.3715357],[6,62.2864479],[5.9778598,62.2803525]],[[5.99586,59.3405395],[6,59.3392449],[6.0390604,59.3270309],[6,59.3392449],[5.99586,59.3405395]],[[5.99586,59.3405395],[6,59.3436633],[6,59.3436633],[5.99586,59.3405395]],[[5.99586,60.2641912],[6,60.2639],[6.1398614,60.2540598],[6,60.2639],[5.99586,60.2641912]],[[5.99946,62.3664699],[6,62.3662972],[6.0786608,62.3411413],[6,62.3662972],[5.99946,62.3664699]],[[6,59.4597142],[6,59.4597142],[6.1542615,59.4773142],[6,59.4597142]],[[6,61.1849282],[6,61.1849282],[6.0354604,61.2047288],[6,61.1849282]],[[7.00027,58.0302035],[7.006124,58],[7.0074701,57.9930548],[7.006124,58],[7.00027,58.0302035]],[[7.0074701,57.9930548],[7.0253257,58],[7.1550716,58.0504664],[7.0253257,58],[7.0074701,57.9930548]],[[7.9290793,63.1786756],[8,63.1467412],[8,63.1467412],[8.0190802,63.1381498],[8,63.1467412],[8,63.1467412],[7.9290793,63.1786756]],[[7.9290793,63.1786756],[8,63.2021568],[8.1126811,63.2394644],[8,63.2021568],[7.9290793,63.1786756]],[[7.9326793,58.1095666],[8,58.1499844],[8.0226802,58.1636011],[8,58.1499844],[7.9326793,58.1095666]],[[7.9722797,62.9777349],[8,62.9700149],[8.0874809,62.9456519],[8,62.9700149],[7.9722797,62.9777349]],[[7.9938799,62.7362684],[8,62.7345327],[8.1486815,62.6923654],[8,62.7345327],[7.9938799,62.7362684]],[[7.99748,63.0925582],[8,63.093031],[8.0874809,63.1094439],[8,63.093031],[7.99748,63.0925582]],[[8,63.0189399],[8,63.0189399],[8.1486815,62.9507177],[8,63.0189399]],[[8.6322924,53.9173315],[8.6353645,53.9180335],[8.6384045,53.9188232],[8.6393794,53.918951],[8.6402254,53.9191444],[8.6322924,53.9173315]],[[8.6323842,53.9173525],[8.6326602,53.9174524],[8.6355661,53.9180859],[8.6353645,53.9180335],[8.6323842,53.9173525]],[[8.6402254,53.9191444],[8.6440154,53.9195587],[8.6406181,53.9191873],[8.6410766,53.9192873],[8.6441294,53.9195737],[8.6471659,53.9199717],[8.6478797,53.9199812],[8.6454673,53.9197175],[8.6485904,53.9200589],[8.6402254,53.9191444]],[[8.649288,53.9200576],[8.6499399,53.9201188],[8.6529226,53.920051],[8.6514193,53.9200537],[8.6519669,53.9200528],[8.649288,53.9200576]],[[8.6530968,53.9200507],[8.6561397,53.9200912],[8.6565933,53.9200443],[8.6530968,53.9200507]],[[8.6570973,53.9200434],[8.6580626,53.9199342],[8.6589089,53.9199149],[8.6616476,53.9195286],[8.6595398,53.9197671],[8.662355,53.9194486],[8.6649806,53.9191771],[8.6652021,53.9191265],[8.6636473,53.9193024],[8.6654513,53.9190983],[8.6570973,53.9200434]],[[8.8326883,54.0367183],[8.8632055,54],[8.8632055,54],[8.8326883,54.0367183]],[[9.7938979,55.080259],[10,54.9803656],[10.0099001,54.9755672],[10,54.9803656],[9.7938979,55.080259]],[[9.7938979,55.6746382],[10,55.7008541],[10.0063001,55.7016555],[10,55.7008541],[9.7938979,55.6746382]],[[9.804698,56.6405044],[10,56.660491],[10.0027,56.6607673],[10,56.660491],[9.804698,56.6405044]],[[9.8442984,64.0330957],[9.8879783,64],[9.8910989,63.9976356],[9.8879783,64],[9.8442984,64.0330957]],[[9.8910989,63.9976356],[9.9005506,64],[9.9450995,64.0111442],[9.9005506,64],[9.8910989,63.9976356]],[[9.9270993,63.8845009],[10,63.9068583],[10.1143011,63.9419125],[10,63.9068583],[9.9270993,63.8845009]],[[9.9808442,64],[9.9898087,64.0086005],[10,64.0183782],[10.0171002,64.0347843],[10,64.0183782],[9.9898087,64.0086005],[9.9808442,64]],[[9.9810998,63.492751],[10,63.4956005],[10.0819008,63.5079482],[10,63.4956005],[9.9810998,63.492751]],[[9.9846998,55.1275392],[10,55.1268868],[10.0243002,55.1258506],[10,55.1268868],[9.9846998,55.1275392]],[[9.9955,57.0930431],[10,57.0912118],[10.2403024,56.9934171],[10,57.0912118],[9.9955,57.0930431]],[[9.9991,64.1090817],[10,64.1090426],[10.1935019,64.1006388],[10,64.1090426],[9.9991,64.1090817]],[[10,54.5355439],[10,54.5355439],[10.0279003,54.5601772],[10,54.5355439]],[[10,58.9710531],[10,58.9710531],[10.0135001,58.9724296],[10,58.9710531]],[[10,63.9319921],[10,63.9319921],[10.1431014,63.9655526],[10,63.9319921]],[[10,63.9681412],[10,63.9681412],[10.1287013,63.9875041],[10,63.9681412]],[[10.5751058,63.8085149],[11.1528762,64],[11.1528762,64],[11.1763118,64.007767],[11.1528762,64],[11.1528762,64],[10.5751058,63.8085149]],[[10.7803078,54.009701],[10.847526,54],[10.8739087,53.9961924],[10.847526,54],[10.7803078,54.009701]],[[11.2968452,54.49136],[11.3411241,54.4406761],[11.341311,54.4405049],[11.3544131,54.4255084],[11.3578305,54.4203404],[11.3593628,54.4148748],[11.358946,54.409342],[11.3565986,54.4039751],[11.3524201,54.3990001],[11.346587,54.3946265],[11.3393453,54.3910383],[11.331,54.3883866],[11.3219024,54.3867828],[11.3124351,54.3862945],[11.2993304,54.3864043],[11.2993034,54.386406],[11.3084148,54.3868497],[11.3172128,54.388333],[11.3253375,54.3907973],[11.3324711,54.3941461],[11.3383341,54.3982483],[11.3426967,54.4029436],[11.3453876,54.408048],[11.3463007,54.4133617],[11.3463179,54.428244],[11.3450482,54.4345357],[11.3412937,54.440482],[11.2968452,54.49136]],[[11.3,54.4133808],[11.3,54.4282632],[11.3131131,54.413271],[11.3,54.4133808]],[[11.6420999,65.0602109],[11.6420999,65.0602109],[11.6587166,65.0648164],[11.6569311,65.0602104],[11.6515165,65.0462421],[11.6569311,65.0602104],[11.6420999,65.0602109]],[[11.7451175,64.8841386],[12,64.9445859],[12.0655207,64.9601246],[12,64.9445859],[11.7451175,64.8841386]],[[11.8639186,55.9735164],[11.9289737,56],[11.9289737,56],[11.8639186,55.9735164]],[[11.9107191,55.659441],[12,55.6979676],[12.00072,55.6982783],[12,55.6979676],[11.9107191,55.659441]],[[11.9611196,54.6935748],[12,54.727285],[12.0799208,54.796578],[12,54.727285],[11.9611196,54.6935748]],[[12.5809625,56],[12.6235262,56.0444366],[12.5809625,56],[12.5809625,56]]]}}
