{"type":"Feature","properties":{"family":"other","name":"Kingdom of Denmark, 1814 – 1815"},"geometry":{"type":"Polygon","coordinates":[[[7.6178088,55.5549775],[7.6260782,55.5003696],[7.6536212,55.4478311],[7.6992339,55.3995185],[7.7609894,55.3574074],[7.8363243,55.3232144],[7.9655304,55.275725],[7.9914156,55.2446698],[8.0180129,55.2234555],[8.0104458,55.2010252],[7.9841697,55.1748512],[7.866695,55.0224665],[7.838459,54.97332],[7.8271428,54.9219856],[7.8183265,54.7514107],[7.8246953,54.6982799],[7.828641,54.6899382],[7.8282754,54.6419664],[7.8459129,54.5897386],[7.8808424,54.5405266],[7.931655,54.4962316],[7.9963468,54.458559],[8.0724,54.4289553],[8.1519638,54.4041308],[8.144599,54.3899506],[8.1359732,54.336291],[8.1458138,54.282706],[8.1736581,54.2313299],[8.2183369,54.1842013],[8.29786,54.1169124],[8.3363073,54.0906233],[8.3370588,54.0901094],[8.2805645,54.0592185],[8.2288839,54.0174365],[8.1917925,53.9706267],[8.1706089,53.9205182],[8.1660541,53.868955],[8.1782336,53.817828],[8.2066425,53.7690051],[8.2291821,53.7458488],[8.2344202,53.74173],[8.2383035,53.7369514],[8.2386744,53.7360968],[8.2501923,53.7242637],[8.3072572,53.6852272],[8.3757387,53.6533078],[8.4531424,53.6296576],[8.4641467,53.6277434],[8.4447285,53.6570585],[8.4421934,53.6624797],[8.4416094,53.6680943],[8.4451573,53.7170642],[8.4475894,53.7246738],[8.5302628,53.8665429],[8.5339947,53.87134],[8.53924,53.875616],[8.5457982,53.8792071],[8.6250157,53.914685],[8.6322413,53.9173307],[8.6401742,53.9191423],[8.64854,53.9200571],[8.6570493,53.9200434],[8.6570824,53.9200397],[8.6485797,53.9200555],[8.6401927,53.9191392],[8.6322397,53.9173224],[8.624997,53.9146684],[8.5955324,53.9014723],[8.5890962,53.8979669],[8.5839122,53.893803],[8.58017,53.8891336],[8.5780064,53.8841297],[8.5775002,53.8789748],[8.5786691,53.8738578],[8.58147,53.8689661],[8.5857995,53.8644788],[8.5868887,53.8637299],[8.5869185,53.8637432],[8.598865,53.869092],[8.6232282,53.88],[8.6232282,53.88],[8.6526865,53.8931892],[8.6232282,53.88],[8.6967654,53.88],[8.6967654,53.88],[8.7373853,53.8678458],[8.7373853,53.8678458],[8.7374312,53.867832],[8.7384172,53.868842],[8.7412559,53.8737033],[8.7424795,53.8787936],[8.742043,53.8839281],[8.7399615,53.8889201],[8.7363102,53.8935884],[8.7312213,53.8977633],[8.7248794,53.9012929],[8.7175756,53.9040261],[8.8693779,53.8586102],[8.9997638,53.8692386],[9.1498104,53.8660837],[9.1493678,53.8654365],[9.1477001,53.8603938],[9.1476836,53.8552563],[9.1480619,53.8540885],[9.1481252,53.8540936],[9.1817917,53.8568399],[9.1890569,53.8574326],[9.1932207,53.8577722],[9.325,53.79],[9.4046156,53.7490548],[9.3687195,53.7811439],[9.3614641,53.7876299],[9.3547552,53.7936272],[9.3522937,53.7958277],[9.3333548,53.812758],[9.3267975,53.8186198],[9.3172055,53.8271946],[9.3103774,53.8332985],[9.3103743,53.8333013],[9.3064016,53.8368526],[9.301617,53.8411298],[9.3016169,53.8411299],[9.2754928,53.8644834],[9.3016169,53.8411299],[9.301617,53.8411298],[9.3064016,53.8368526],[9.3103743,53.8333013],[9.3103774,53.8332985],[9.3172055,53.8271946],[9.3267975,53.8186198],[9.3333548,53.812758],[9.3522937,53.7958277],[9.3547552,53.7936272],[9.3614641,53.7876299],[9.3687195,53.7811439],[9.4046156,53.7490548],[9.4046156,53.7490548],[9.4410405,53.716493],[9.4458568,53.7121875],[9.4458568,53.7121875],[9.4458876,53.71216],[9.4888047,53.6951349],[9.4927432,53.6785793],[9.4947788,53.6735597],[9.4983905,53.6688618],[9.5034457,53.6646576],[9.509759,53.661101],[9.5469882,53.6437328],[9.5469826,53.6437564],[9.5378425,53.6823402],[9.65,53.63],[9.7,53.6066667],[9.8,53.56],[9.95,53.62],[10.1,53.63],[10.2,53.52],[10.35,53.6],[10.5,53.72],[10.62,53.82],[10.7,53.88],[10.80875,53.9283333],[10.88,53.96],[10.8940597,53.9713817],[10.902709,53.9607323],[10.9397434,53.9723128],[10.9398058,53.9723323],[10.9387145,53.9775425],[10.9354585,53.9830004],[10.9234566,53.997796],[11.0324098,54.0318467],[11.0397306,54.0336709],[11.0474774,54.034725],[11.1699547,54.0448627],[11.1780893,54.0451031],[11.1861679,54.0444951],[11.1939359,54.0430577],[11.2011486,54.0408362],[11.2075788,54.0379007],[11.2723834,54.0024243],[11.2786256,53.9982106],[11.2832561,53.9933306],[11.2860768,53.9879939],[11.2892954,53.9785362],[11.3164666,53.9854805],[11.3256526,53.9871783],[11.3298017,53.9874084],[11.3298462,53.9875849],[11.3329317,53.9926197],[11.3376468,53.9971973],[11.3916315,54.0394278],[11.3973365,54.0431182],[11.4041005,54.0461288],[11.4116925,54.0483567],[11.4198529,54.0497256],[11.4283027,54.0501887],[11.4663961,54.0501914],[11.4842782,54.0703108],[11.4834796,54.0723679],[11.4833544,54.078054],[11.4852626,54.0836295],[11.4891202,54.0888466],[11.4947565,54.0934732],[11.5019211,54.0973037],[11.5030318,54.0977814],[11.5204362,54.131815],[11.5286722,54.1791637],[11.5323917,54.1801583],[11.604727,54.2104479],[11.6658887,54.2482658],[11.7135976,54.2922234],[11.7428885,54.3359833],[11.7907645,54.3210533],[11.8791236,54.3055488],[11.9476775,54.3017932],[11.9477524,54.3017891],[11.9477524,54.3017891],[11.9709656,54.3005175],[12.0627043,54.3061557],[12.1507571,54.3222433],[12.2316771,54.3481517],[12.3022816,54.3828671],[12.359772,54.4250279],[12.4018441,54.4729762],[12.4267812,54.5248202],[12.4335292,54.5785069],[12.4325451,54.5995372],[12.5285034,54.6656916],[12.5496005,54.6833872],[12.5980024,54.6839122],[12.6855653,54.6946945],[12.768029,54.7148841],[12.8424046,54.7437515],[12.9059805,54.7802517],[12.9564183,54.8230607],[12.9918385,54.8706209],[12.9974739,54.8855781],[13.0108935,54.9211961],[13.0128226,54.9729334],[13.0062125,55.0236165],[12.9917596,55.0726845],[12.9617606,55.1193923],[12.9171906,55.1621399],[12.893726,55.17734],[12.9020968,55.1861289],[12.9299653,55.2382951],[12.9318784,55.2499032],[13.3799669,55.1658941],[13.396354,55.1640875],[14.2164864,55.1325445],[14.2112437,55.1054064],[14.2184628,55.0542465],[14.2424315,55.0047915],[14.2822268,54.9588222],[14.3363693,54.9179881],[14.4028818,54.8837497],[14.4793634,54.8573282],[14.8663836,54.7499211],[14.9496006,54.7320065],[15.0371369,54.7234395],[15.1258907,54.7245234],[15.2127196,54.7352195],[15.2945457,54.7551487],[15.3684585,54.783604],[15.4318135,54.8195747],[15.4823245,54.8617798],[15.5181457,54.9087126],[15.5987364,55.0485631],[15.6193434,55.1014361],[15.6210943,55.1556009],[15.6038423,55.2088736],[15.5682115,55.2590977],[15.5155833,55.3042324],[15.4480499,55.3424365],[15.0585381,55.5206867],[14.9774324,55.5503595],[14.8873221,55.5701127],[14.7919643,55.5791199],[14.6953487,55.5770037],[14.6015206,55.5638525],[14.5144023,55.5402163],[14.4376197,55.5070829],[14.3743455,55.4658339],[14.3271655,55.4181848],[14.2979745,55.3661105],[14.2384759,55.2038194],[14.2388303,55.2038058],[14.6987117,55.1861018],[14.2388303,55.2038058],[13.4120723,55.2356334],[12.9321148,55.3256143],[12.6194526,55.3842313],[12.9321148,55.3256143],[12.9325875,55.3255257],[12.9284999,55.3468051],[12.9209412,55.3669403],[12.9204906,55.3668784],[12.8434589,55.3563001],[12.834468,55.3555686],[12.8253988,55.3558256],[12.8165834,55.3570616],[12.8083448,55.3592315],[12.8009852,55.3622556],[12.7947743,55.3660231],[12.7899404,55.370396],[12.786661,55.3752139],[12.7850571,55.3803],[12.7851882,55.3854678],[12.7870501,55.3905274],[12.8157948,55.4428842],[12.8192051,55.4475187],[12.8240693,55.4517147],[12.8302192,55.4553268],[12.8374417,55.4582294],[12.8454864,55.460322],[12.8540742,55.4615318],[12.8629069,55.4618169],[12.8716778,55.4611673],[12.8800825,55.4596056],[12.9146926,55.4510674],[12.9146139,55.4558911],[12.9164522,55.4612345],[12.9201435,55.4662606],[12.9224993,55.4682276],[12.8743602,55.5381666],[12.8718862,55.5430883],[12.8710983,55.5481869],[12.8720254,55.553279],[12.88279,55.5836775],[12.8856923,55.5889713],[12.8904458,55.5938189],[12.8968506,55.5980153],[12.9932711,55.6493077],[13.0050467,55.6870155],[12.9810983,55.7066549],[12.9045705,55.723877],[12.8959949,55.7263963],[12.8884937,55.7298365],[12.8823733,55.734057],[12.877884,55.7388856],[12.8670692,55.7540787],[12.8645559,55.7588341],[12.863632,55.7637691],[12.8643294,55.7687168],[12.866625,55.7735096],[12.8704417,55.7779852],[12.8897947,55.7961635],[12.881792,55.8195385],[12.7889919,55.8675352],[12.7836653,55.8707744],[12.7793498,55.8744581],[12.7761612,55.8784879],[12.7096522,55.985016],[12.6606501,56.0260189],[12.6660696,56.0316686],[12.6698571,56.0368163],[12.6716741,56.0422887],[12.6714422,56.0478529],[12.6691707,56.0532721],[12.6649553,56.0583155],[12.6589749,56.0627684],[12.6514837,56.0664409],[12.5773279,56.0957397],[12.5617388,56.1087841],[12.5563688,56.1147417],[12.462866,56.2606816],[12.4171421,56.2849717],[12.411016,56.2889196],[12.4063719,56.293449],[12.4033837,56.2983906],[12.4021638,56.30356],[12.4027583,56.308764],[12.4051458,56.3138082],[12.4092378,56.3185039],[12.4148817,56.3226756],[12.421867,56.3261671],[12.4299325,56.3288478],[12.4387764,56.3306173],[12.4480678,56.3314093],[12.4574587,56.3311942],[12.4665974,56.32998],[12.4751418,56.3278122],[12.7137013,56.2506014],[12.772423,56.2588679],[12.7767946,56.2717295],[12.7117243,56.3153613],[12.7115159,56.315501],[12.4253866,56.3794781],[12.3313698,56.3944142],[12.2338233,56.3985816],[12.1367578,56.3918086],[12.0441629,56.3743739],[11.9598338,56.3469934],[11.6839748,56.2346002],[11.6237239,56.227877],[11.6000898,56.2237938],[11.4136429,56.255399],[11.3762109,56.25946],[11.3781464,56.2621591],[11.4333674,56.3700238],[11.4503185,56.4216413],[11.4503104,56.4219414],[11.4831444,56.4165164],[11.5732257,56.4112565],[11.6635194,56.415238],[11.7509749,56.4283264],[11.8326313,56.4500792],[11.9057124,56.4797599],[11.9677168,56.5163618],[12.03632,56.5651189],[12.0891276,56.6116178],[12.1238733,56.6630242],[12.1390562,56.7172295],[12.1339666,56.772001],[12.1087282,56.825073],[12.0643073,56.8742411],[12.0024858,56.9174546],[11.9257965,56.9529047],[11.8374224,56.9791028],[11.7410629,56.9949462],[11.6407736,56.9997669],[11.5407858,56.9933614],[11.4453173,56.9760001],[11.3078024,56.942008],[11.2247009,56.9157727],[11.1525883,56.8812224],[11.0941937,56.839681],[11.0516992,56.7927352],[11.0428017,56.7747835],[10.9718858,56.7912953],[10.8822885,56.8019756],[10.8112593,56.8030167],[10.7813942,56.8803185],[10.7831154,56.8816938],[10.8214939,56.931194],[10.8339422,56.953065],[10.8354663,56.9526119],[10.9304044,56.9366676],[11.0292255,56.9313176],[11.1280265,56.9367734],[11.2229047,56.9528194],[11.3101027,56.9788215],[11.3861491,57.01375],[11.447991,57.0562186],[11.4632064,57.0691249],[11.479242,57.0741308],[11.5506646,57.1075353],[11.6093133,57.1476405],[11.6530593,57.1930209],[11.6802858,57.2420579],[11.6899512,57.2929959],[11.6903843,57.3250781],[11.6821371,57.3758676],[11.6562717,57.4249096],[11.6136492,57.4704425],[11.5557479,57.5108244],[11.4846164,57.5445943],[11.4028037,57.5705267],[11.3132669,57.5876783],[11.2192606,57.595424],[11.1242126,57.5934813],[11.0691425,57.5866169],[11.1131563,57.6284769],[11.1440358,57.6789392],[11.155895,57.7316594],[11.1481933,57.7846005],[11.1211458,57.8357082],[11.0757279,57.882991],[11.0136491,57.9245992],[10.9372944,57.958899],[10.8496354,57.9845397],[10.7541134,58.000509],[10.6544989,58.0061753],[10.5547344,58.0013144],[10.3734652,57.9826035],[10.2821648,57.9682564],[10.1976094,57.9450762],[10.1228052,57.9138914],[10.0414341,57.872743],[9.8751152,57.8564955],[9.7732191,57.8403931],[9.6800064,57.8132624],[9.5996315,57.7763193],[9.5356439,57.7312158],[9.1939489,57.4255669],[8.5649447,57.3917458],[8.4644747,57.3803427],[8.3705442,57.3580571],[8.2871689,57.3258456],[8.2178871,57.2850878],[8.0528687,57.1646828],[8.0045695,57.1212182],[7.8038405,56.8929283],[7.7704254,56.8420159],[7.7600944,56.8028075],[7.7539179,56.7951815],[7.6584677,56.6361061],[7.6404796,56.5956708],[7.6340359,56.5541924],[7.6263199,56.0273437],[7.6355533,55.9725499],[7.6511585,55.9441281],[7.6967994,55.7793642],[7.6292339,55.6094043],[7.6178088,55.5549775]],[[8.6634704,53.91932],[8.6654076,53.9191018],[8.6654152,53.9191],[8.6634704,53.91932]],[[8.8326883,54.0367183],[8.8632055,54],[8.8632055,54],[8.8326883,54.0367183]],[[9.7938979,55.080259],[10,54.9803656],[10.0099001,54.9755672],[10,54.9803656],[9.7938979,55.080259]],[[9.7938979,55.6746382],[10,55.7008541],[10.0063001,55.7016555],[10,55.7008541],[9.7938979,55.6746382]],[[9.804698,56.6405044],[10,56.660491],[10.0027,56.6607673],[10,56.660491],[9.804698,56.6405044]],[[9.9846998,55.1275392],[10,55.1268868],[10.0243002,55.1258506],[10,55.1268868],[9.9846998,55.1275392]],[[9.9955,57.0930431],[10,57.0912118],[10.2403024,56.9934171],[10,57.0912118],[9.9955,57.0930431]],[[10,54.5355439],[10,54.5355439],[10.0279003,54.5601772],[10,54.5355439]],[[10.7803078,54.009701],[10.847526,54],[10.8739087,53.9961924],[10.847526,54],[10.7803078,54.009701]],[[11.2993017,54.3864062],[11.3084106,54.3868494],[11.3172224,54.3883336],[11.3253603,54.3907992],[11.3325057,54.3941496],[11.3383785,54.3982538],[11.3427485,54.402951],[11.3454439,54.4080572],[11.3463585,54.4133725],[11.3463754,54.4282548],[11.3451071,54.4345389],[11.3414129,54.4403892],[11.3544133,54.425509],[11.3578307,54.420341],[11.3593629,54.4148755],[11.3589459,54.4093426],[11.3565983,54.4039756],[11.3524195,54.3990005],[11.3465861,54.3946268],[11.3393441,54.3910386],[11.3309986,54.3883868],[11.3219007,54.386783],[11.3124332,54.3862947],[11.2993286,54.3864044],[11.2993017,54.3864062]],[[11.3,54.4133808],[11.3,54.4282632],[11.3131131,54.413271],[11.3,54.4133808]],[[11.8639186,55.9735164],[11.9289737,56],[11.9289737,56],[11.8639186,55.9735164]],[[11.9107191,55.659441],[12,55.6979676],[12.00072,55.6982783],[12,55.6979676],[11.9107191,55.659441]],[[11.9611196,54.6935748],[12,54.727285],[12.0799208,54.796578],[12,54.727285],[11.9611196,54.6935748]],[[12.5809625,56],[12.6235262,56.0444366],[12.5809625,56],[12.5809625,56]]]}}
