{"type":"Feature","properties":{"family":"other","name":"Dutch Republic, 1789 – 1794"},"geometry":{"type":"Polygon","coordinates":[[[2.9176359,51.3745125],[2.9274369,51.3191024],[2.9387278,51.2864547],[3.1034472,51.3526918],[3.1131378,51.3555578],[3.3364511,51.401175],[3.3364513,51.401175],[3.335847,51.4010466],[3.3275782,51.3986476],[3.3203006,51.3952197],[3.3143379,51.3909157],[3.3099551,51.3859271],[3.3073469,51.3804759],[3.3066285,51.3748047],[3.3069721,51.3667656],[3.3498335,51.3755205],[3.3534335,51.289403],[3.3930339,51.2471886],[3.501035,51.2404343],[3.5154352,51.2809602],[3.6090361,51.2910916],[3.7566376,51.2623858],[3.8070381,51.2049742],[3.9510395,51.2100399],[4.1202412,51.2725173],[4.2066421,51.3299289],[4.2210422,51.3687662],[4.2544948,51.3394313],[4.2554428,51.341983],[4.2744173,51.3404996],[4.2606426,51.3687662],[4.4118441,51.3569461],[4.3758438,51.4430636],[4.4838448,51.4751465],[4.5342453,51.4683922],[4.5198452,51.4278664],[4.5414454,51.4194235],[4.6314463,51.4177349],[4.7790478,51.4954095],[4.8222482,51.4751465],[4.8222482,51.4143578],[4.7610476,51.4126692],[4.9086491,51.3924063],[5.0274503,51.4768351],[5.0814508,51.4379978],[5.0670507,51.3738319],[5.1246512,51.3130431],[5.2146521,51.2944688],[5.2146521,51.2623489],[5.45,51.28],[5.4604744,51.2779051],[5.4918549,51.2860259],[5.5092544,51.2681491],[5.85,51.2],[5.85,51],[5.7,50.85],[5.7517514,50.772373],[5.7675091,50.7649819],[5.7942579,50.7524355],[5.9475959,50.7511511],[5.99586,50.7507469],[5.9670597,50.7946499],[5.99946,50.8014042],[6.0102601,50.8402415],[6.0570606,50.8520615],[6.0642606,50.9077846],[5.99946,50.9297361],[6.00306,50.9736391],[5.8778763,50.965484],[5.8734587,50.9651962],[5.8518585,51.0428708],[5.8716531,51.0401628],[5.9382594,51.0310507],[5.9814598,51.0749537],[6.1470615,51.1526283],[6.1254613,51.1644483],[6.1578616,51.1796455],[6.0606606,51.1712026],[6.0570606,51.2117285],[6.1938619,51.3451261],[6.2038735,51.45],[6.204662,51.4582608],[6.1938619,51.5089181],[6.0858609,51.5950355],[6.090202,51.609798],[6.100261,51.6440043],[6.0394944,51.6605056],[6.0318603,51.6625786],[6.0290824,51.6709176],[6.0138601,51.7166131],[5.9930692,51.7207925],[5.9382594,51.7318103],[5.9634596,51.7757133],[5.9310593,51.8162392],[5.958968,51.823096],[6.0822608,51.8533879],[6.1578616,51.8415678],[6.1279095,51.8618606],[6.0973636,51.8825557],[6.0930609,51.8854708],[6.1254613,51.8972909],[6.2511671,51.8700778],[6.2511671,51.8700778],[6.2658627,51.8668965],[6.3450635,51.8213049],[6.3810638,51.8280592],[6.3774638,51.8601422],[6.4638646,51.8483221],[6.4736345,51.85265],[6.4736345,51.85265],[6.4736345,51.85265],[6.5286653,51.8770279],[6.7158672,51.8989794],[6.8094681,51.9597682],[6.7770678,52.0019827],[6.6726667,52.0492628],[6.7482675,52.1032973],[6.8310683,52.1134288],[6.892088,52.15],[7.0254703,52.2299406],[7.0238063,52.2363793],[7.0110701,52.2856636],[7.0470705,52.3650268],[6.9750698,52.4511442],[6.899469,52.4325699],[6.7158672,52.4612757],[6.6726667,52.5423274],[6.7446674,52.5592132],[6.7050671,52.5828532],[6.701467,52.6183134],[6.7374674,52.6351991],[7.0182702,52.6267562],[7.0362704,52.6470192],[7.0614706,52.8243198],[7.1838718,52.9661603],[7.175796,53.1],[7.1730717,53.1451495],[7.1946719,53.2447755],[7.2161623,53.2684633],[7.2084022,53.2704736],[7.172807,53.2772628],[7.2036085,53.3112723],[7.1303299,53.3154802],[7.1299678,53.3166044],[7.1266665,53.3214699],[7.1218491,53.3258611],[7.1156978,53.3296114],[7.1084455,53.3325785],[7.1003672,53.3346501],[7.0917692,53.3357473],[7.0829778,53.3358287],[7.0298256,53.333208],[6.9946137,53.3467247],[6.9768129,53.4479741],[6.9768276,53.4536889],[6.9788637,53.4592737],[7.0184001,53.5302082],[7.0220874,53.5351132],[7.0273377,53.5394865],[7.0339432,53.5431545],[7.0416418,53.5459717],[7.0501279,53.547826],[7.0590647,53.5486439],[7.068097,53.5483928],[7.0753615,53.5477555],[7.0482919,53.5731095],[7.0442829,53.5778271],[7.0418988,53.5829182],[7.0412317,53.5881875],[7.0423077,53.593433],[7.0450861,53.5984532],[7.049461,53.6030557],[7.0552648,53.6070636],[7.131953,53.6504305],[7.0621579,53.6817865],[6.9768361,53.7055831],[6.8849983,53.7183994],[6.7906483,53.7196759],[6.6226791,53.71144],[6.6194015,53.7133041],[6.5461095,53.7413022],[6.4650646,53.7604762],[6.3792777,53.7701118],[6.3120518,53.7737162],[6.2524834,53.77691],[6.1680476,53.7767296],[6.085139,53.7673048],[6.0066448,53.7489639],[5.9474163,53.731171],[5.6929989,53.7372624],[5.6127813,53.7348856],[5.5345441,53.7241696],[5.5158898,53.7194436],[5.4775048,53.7162308],[5.3183077,53.6929953],[5.1482527,53.6697214],[5.0541941,53.6500877],[4.9697226,53.6187255],[4.8867672,53.5796961],[4.8245854,53.5441308],[4.8192063,53.5395908],[4.790728,53.5332329],[4.7190704,53.5074053],[4.6567184,53.4741487],[4.5487921,53.4046214],[4.4976636,53.3646628],[4.4599345,53.319726],[4.4368816,53.271384],[4.4358131,53.2643735],[4.3422594,53.1862207],[4.2994019,53.1419483],[4.2713336,53.0936107],[4.2590203,53.0429586],[4.262851,52.9918204],[4.2748604,52.9616089],[4.0946885,52.444246],[3.8716187,52.2419188],[3.8376182,52.2350635],[3.7608207,52.2081188],[3.6944727,52.172272],[3.641261,52.1289905],[3.6033165,52.0800407],[3.582131,52.0274146],[3.5817823,52.0222121],[3.5501814,52.0060077],[3.4987138,51.9667989],[3.4734808,51.9599549],[3.4016374,51.9285446],[3.3415571,51.8888705],[3.2956681,51.8425589],[3.270185,51.7990062],[3.1953449,51.7660615],[3.1324082,51.7322189],[3.0811253,51.6915523],[3.0433593,51.6455661],[3.02046,51.5959563],[3.0199104,51.592054],[3.0132199,51.5445472],[3.0133991,51.5434826],[2.9969527,51.5317988],[2.9530906,51.4831889],[2.9262885,51.4299991],[2.9176359,51.3745125]],[[3.8718387,51.5494439],[4,51.5329128],[4,51.5329128],[3.8718387,51.5494439]],[[3.9402394,51.7419418],[4,51.7076824],[4,51.7076824],[4.0374404,51.6862187],[4,51.7076824],[4,51.7076824],[3.9402394,51.7419418]],[[3.9582396,51.4565722],[4,51.4430475],[4.1094411,51.4076035],[4,51.4430475],[3.9582396,51.4565722]],[[3.9834398,51.4109806],[4,51.404644],[4.0453682,51.3872842],[4.1202412,51.3586347],[4.0453682,51.3872842],[4,51.404644],[3.9834398,51.4109806]],[[3.9870399,51.5899698],[4,51.5830525],[4.0914409,51.5342468],[4,51.5830525],[3.9870399,51.5899698]],[[3.9870399,51.5899698],[4,51.5932856],[4.0662407,51.6102327],[4,51.5932856],[3.9870399,51.5899698]],[[4,51.6298781],[4,51.6298781],[4.0878409,51.6440043],[4,51.6298781]],[[6.6128405,53.5982836],[6.6133224,53.6034532],[6.6154599,53.6084731],[6.6191749,53.6131581],[6.6243311,53.6173356],[6.6307386,53.6208517],[6.6381614,53.6235765],[6.646326,53.6254097],[6.7283749,53.6386051],[6.7723992,53.6456852],[6.7808617,53.6465435],[6.7894457,53.6464439],[6.797845,53.64539],[6.8057604,53.6434192],[6.8129098,53.640602],[6.8190385,53.6370385],[6.8239284,53.6328559],[6.8383188,53.617654],[6.8419364,53.6127426],[6.8438453,53.6075039],[6.843971,53.6021448],[6.842309,53.5968766],[6.8389257,53.5919072],[6.833955,53.5874327],[6.8275934,53.5836294],[6.8200919,53.5806473],[6.8117462,53.5786037],[6.7947146,53.5755655],[6.7975466,53.5723969],[6.8001357,53.5671379],[6.8008818,53.5616767],[6.799755,53.5562386],[6.7968024,53.5510479],[6.7921464,53.5463184],[6.7859792,53.542245],[6.785789,53.5421617],[6.7785555,53.5389956],[6.770181,53.536704],[6.7612008,53.5354644],[6.7519845,53.535328],[6.7429117,53.5363004],[6.6637554,53.5498008],[6.6546561,53.5520059],[6.6465672,53.5553218],[6.639867,53.5595934],[6.6348695,53.564621],[6.616851,53.5882548],[6.6140316,53.5931545],[6.6128405,53.5982836]]]}}
