{"type":"Feature","properties":{"family":"ottoman","name":"Ottoman Egypt under Muhammad Ali, 1805 – 1815"},"geometry":{"type":"Polygon","coordinates":[[[24.6872469,30.1433499],[24.8132481,29.8900633],[24.798848,29.7971916],[24.8708487,29.6384653],[24.8636486,29.5033791],[24.9824498,29.1808609],[24.9824498,22],[24.9533905,22],[24.9539428,21.9946911],[24.9556279,21.9895638],[24.9583758,21.9848503],[24.9620776,21.9807371],[24.9665864,21.9773874],[24.9717238,21.9749339],[24.977286,21.9734736],[24.979496,21.9733169],[24.78778,21.9733115],[24.6946576,21.9733089],[24.6974813,21.9466648],[24.7144148,21.8954269],[24.7419449,21.8483385],[24.7789739,21.8072598],[24.8240326,21.7738121],[24.8753391,21.7493148],[24.9308686,21.734734],[24.9530168,21.7331606],[24.9884321,21.7306447],[31.2465891,21.7302795],[31.3037167,21.7342953],[31.3436642,21.7446954],[31.3865821,21.7340023],[31.4409965,21.7302639],[36.8797264,21.7306638],[36.939408,21.7352817],[36.9967714,21.7511671],[37.0493831,21.7776457],[37.0950081,21.8135938],[37.1317039,21.8574853],[37.1579025,21.9074554],[37.1724781,21.9613793],[37.182803,22.0282338],[37.1854753,22.0778708],[37.1782549,22.1271437],[37.1613769,22.1743736],[37.1354066,22.2179497],[37.1012217,22.2563835],[37.0599835,22.2883612],[36.6999967,22.5179872],[36.6964446,22.5290809],[36.6676033,22.5783662],[36.6283454,22.621104],[36.580361,22.655443],[36.5300025,22.6842786],[36.480791,22.7662756],[36.4496746,22.8082107],[36.4105697,22.8440333],[36.3648627,22.8724666],[36.3141791,22.8924961],[36.0766666,22.9625671],[36.0043449,23.067401],[35.9717794,23.1062443],[35.9320949,23.1390265],[35.9201824,23.1457408],[35.7843516,23.5404168],[35.7829609,23.6339842],[35.8280988,23.6346817],[35.885467,23.6462352],[35.939186,23.6679735],[35.9871258,23.699035],[36.027382,23.7381884],[36.0583504,23.7838806],[36.0787912,23.8342976],[36.0878792,23.8874357],[36.0852385,23.9411803],[36.0709592,23.99339],[36.0455965,24.0419818],[35.9917118,24.1231231],[35.9591726,24.1631887],[35.9190884,24.197108],[35.8728293,24.2237156],[35.8219811,24.2420969],[35.7828122,24.2525458],[35.7412272,24.3027937],[35.7011835,24.3422565],[35.6811491,24.355425],[35.6300239,24.4381583],[35.605312,24.471899],[35.5753093,24.5018884],[35.4525496,24.6072807],[35.448002,24.6379226],[35.4274605,24.6904687],[34.8175631,25.841458],[34.7960175,25.8752324],[34.6004973,26.1353565],[34.304906,26.6940946],[34.3043778,26.7383488],[34.293302,26.7854625],[34.2993019,26.8367965],[34.2994599,26.8958917],[34.2943326,26.9459748],[34.2788498,26.9943376],[34.253538,27.039295],[34.1418717,27.1982487],[34.1418737,27.198977],[34.178308,27.210337],[34.228176,27.2361558],[34.2716692,27.2698845],[34.3072166,27.310309],[34.3335292,27.3559735],[34.3496467,27.4052314],[34.3549737,27.4563047],[34.3527333,27.4764736],[34.3710799,27.4817001],[34.4249086,27.508654],[34.4715112,27.5446821],[34.508966,27.588304],[34.5357216,27.6377258],[34.5411116,27.6569209],[34.5907855,27.6527554],[34.6078266,27.65283],[34.6120431,27.6511755],[34.674004,27.6395366],[34.7373442,27.6394697],[34.7993434,27.6509768],[34.8573379,27.673563],[34.908833,27.7062573],[34.9516081,27.7476531],[34.9838121,27.7959685],[35.0091062,27.8448843],[35.0288925,27.896219],[35.0366652,27.9500082],[35.0320925,28.0040787],[35.0153415,28.0562428],[34.9873548,28.1039085],[34.8465485,28.0714656],[34.8645486,28.1119914],[34.8357484,28.1170572],[34.803348,28.0714656],[34.8177482,28.1119914],[34.7709477,28.0934171],[34.7097471,28.1406973],[34.6521465,28.1035486],[34.6665467,28.0714656],[34.6125461,28.0309397],[34.6053461,28.0967942],[34.5729457,28.0934171],[34.6269463,28.1761574],[34.6593466,28.1710916],[34.6485465,28.201486],[34.6737467,28.2707177],[34.6881469,28.2639634],[34.6737467,28.277472],[34.803348,28.5273815],[34.7781478,28.6641562],[34.8393484,28.8279482],[34.8429484,28.8904256],[34.8249482,28.900557],[34.8573486,28.9630344],[34.8537485,29.0457747],[34.8676315,29.0930933],[34.8403597,29.0995283],[34.7837943,29.1246114],[34.7399835,29.1552731],[34.7511571,29.1728591],[34.7537416,29.1782109],[34.7549541,29.1839207],[34.7651207,29.301161],[34.9032829,29.4646579],[34.8902701,29.463132],[34.8845644,29.4629262],[34.8789127,29.4636387],[34.8735075,29.4652453],[34.868533,29.4676913],[34.8678409,29.4681979],[34.8861489,29.4898705],[34.8465485,29.5692336],[34.8249482,29.7414685],[34.7421474,29.9407206],[34.7349473,30.0133294],[34.598146,30.3442906],[34.5261453,30.4101451],[34.5369454,30.4827539],[34.504545,30.5300341],[34.4793448,30.6516117],[34.2489425,31.2122193],[34.198542,31.3135339],[34.1717089,31.2985507],[34.1695184,31.3029512],[34.1677119,31.3078],[34.1670024,31.3128529],[34.1674152,31.3179302],[34.168936,31.3228512],[34.1715107,31.3274408],[34.1750478,31.3315354],[34.1777818,31.3341334],[34.0336438,31.2536464],[33.903816,31.2174409],[33.9025324,31.220443],[33.8877668,31.2673254],[33.8830546,31.315717],[33.8885644,31.3640512],[33.9041337,31.4107606],[33.929272,31.4543282],[33.9631748,31.4933367],[34.0109303,31.538838],[33.6319658,31.4042541],[33.3625149,31.4751724],[33.3000019,31.485796],[33.2362463,31.4854635],[33.2073612,31.4802463],[33.1733985,31.4900038],[33.1103117,31.4966448],[33.0859958,31.4970933],[33.023805,31.4929671],[32.9637778,31.4784725],[32.9082691,31.4541777],[32.8298494,31.4109609],[32.827568,31.4105187],[32.67579,31.366827],[32.5429767,31.4706507],[32.4999231,31.4988427],[32.4518254,31.520311],[32.4001099,31.5344178],[32.326989,31.5485568],[32.2649065,31.5854431],[32.2215372,31.6522639],[32.1887266,31.6933074],[32.147607,31.7285147],[32.099572,31.7566853],[32.0462559,31.776858],[31.989477,31.7883439],[31.9311748,31.7907504],[31.8733422,31.7839951],[31.5841572,31.7263429],[31.2211834,31.8562568],[31.1587577,31.8722927],[31.0937826,31.8771055],[31.0290259,31.8704902],[30.9499384,31.8552295],[30.935968,31.8550363],[30.8736446,31.8432856],[30.5327318,31.7469416],[30.4524632,31.7676562],[30.3929683,31.7778104],[30.3322888,31.778103],[30.2726666,31.7685231],[30.2163038,31.7494247],[30.1652791,31.7215127],[30.1591264,31.7165018],[30.1515847,31.7125159],[30.1076292,31.6779994],[30.072105,31.6370489],[30.052677,31.6025186],[29.995341,31.5961115],[29.9324524,31.5770014],[29.8757047,31.5470354],[29.3359229,31.1870803],[29.1372167,31.1032973],[29.1192661,31.1023466],[28.9933457,31.1781296],[28.9250623,31.2092147],[28.5353951,31.3361524],[28.4863618,31.3482559],[28.4356876,31.3534304],[28.1317182,31.3629205],[28.1093788,31.3962707],[28.0709728,31.4346471],[28.0248469,31.4662363],[27.9726196,31.4899262],[27.9161281,31.5048822],[27.8573638,31.5105773],[27.7983995,31.5068111],[27.7413155,31.4937168],[27.6401667,31.4615172],[27.6362658,31.4623102],[27.5794235,31.5332967],[27.5407837,31.5728034],[27.4940322,31.605335],[27.4408722,31.6297023],[27.3832457,31.645014],[26.0260516,31.8802188],[25.965473,31.8853302],[25.9048878,31.8805001],[25.422198,31.8007884],[25.4174503,31.8000044],[25.402116,31.820862],[25.3590013,31.8596785],[25.3077219,31.8905255],[25.2502918,31.9121883],[25.1889726,31.9238139],[25.1261825,31.9249447],[25.0643986,31.9155368],[25.0538711,31.9120046],[25.0601786,31.8466823],[25.1413001,31.7531033],[25.1453691,31.7467405],[25.1813446,31.6656832],[25.1817728,31.6642795],[25.180022,31.6682197],[25.1767391,31.6727024],[25.1724938,31.6765566],[25.1674488,31.6796347],[25.1617978,31.6818184],[25.1557573,31.6830241],[25.1495594,31.6832054],[25.1434418,31.6823554],[25.1405014,31.6814186],[25.1516515,31.6563151],[25.0868509,31.6141007],[25.0220502,31.4942117],[24.8600486,31.381077],[24.8492485,31.3489941],[24.8816488,31.0382959],[24.9824498,30.8255351],[24.9896499,30.7512377],[24.9068491,30.4979511],[24.7628476,30.3172734],[24.6872469,30.1821872],[24.6872469,30.1433499]],[[27.9272793,31.0990846],[28,31.0974604],[28.1540815,31.0940189],[28,31.0974604],[27.9272793,31.0990846]],[[31.253296,22],[31.3581136,22.1884624],[31.4229142,22.2272997],[31.4625146,22.2154796],[31.4913149,22.1732652],[31.4350253,22],[31.253296,22]],[[31.9449194,31.5212289],[32,31.4366773],[32,31.4366773],[32.0241202,31.3996514],[32,31.4366773],[32,31.4366773],[31.9449194,31.5212289]],[[31.9881199,31.2307937],[32,31.2276095],[32.0385204,31.217285],[32,31.2276095],[31.9881199,31.2307937]],[[32.5569256,29.9863122],[32.5685985,30],[32.5685985,30],[32.5569256,29.9863122]],[[33.4425344,28.0157425],[33.4571887,28],[33.5541355,27.8958536],[33.4571887,28],[33.4425344,28.0157425]],[[33.6477365,31.117659],[34,31.2159022],[34.0473405,31.2291051],[34,31.2159022],[33.6477365,31.117659]],[[33.7629376,28.0241854],[33.7940701,28],[33.8781388,27.9346908],[33.7940701,28],[33.7629376,28.0241854]],[[33.9825398,27.8907878],[34,27.8723612],[34,27.8723612],[34.0545405,27.8148018],[34,27.8723612],[34,27.8723612],[33.9825398,27.8907878]],[[34.4901449,27.9954796],[34.4965699,28],[34.5189452,28.0157425],[34.4965699,28],[34.4901449,27.9954796]],[[34.5189452,28.0157425],[34.5385236,28],[34.5441454,27.9954796],[34.5385236,28],[34.5189452,28.0157425]],[[35.8869589,22.7355614],[36,22.7022821],[36.2253623,22.6359354],[36,22.7022821],[35.8869589,22.7355614]]]}}
