{"type":"Feature","properties":{"family":"other","name":"Principality of Elba, under Napoleon, 1814 – 1815"},"geometry":{"type":"Polygon","coordinates":[[[9.7890456,42.9265334],[9.7961484,42.9123064],[9.7983643,42.906242],[9.7991067,42.8999878],[9.7989001,42.6304635],[9.8033476,42.6249843],[9.8502532,42.5778252],[9.8966672,42.5393832],[9.9520872,42.5081048],[10.0145066,42.4851158],[10.0816754,42.4712425],[10.1511788,42.4669833],[10.2205215,42.4724911],[10.2356613,42.4747809],[10.2770781,42.4586123],[10.3447901,42.4435057],[10.41516,42.4382598],[10.4855869,42.4430686],[10.5534679,42.4577542],[10.6162907,42.4817737],[10.6717235,42.5142383],[10.7176991,42.5539448],[10.7524918,42.5994195],[10.7524918,42.5994195],[10.7747819,42.648971],[10.7837081,42.7007522],[10.7799653,42.7413251],[10.7889654,42.7584472],[10.7889051,42.7584644],[10.7165978,42.7791526],[10.7103178,42.7814712],[10.7047534,42.7846247],[10.7001082,42.7884977],[10.696552,42.7929488],[10.6942152,42.7978152],[10.6931834,42.802919],[10.6934946,42.8080737],[10.6951379,42.8130906],[10.6980535,42.8177863],[10.7021348,42.8219888],[10.7308508,42.8462457],[10.7385229,42.8895738],[10.7266934,42.9038327],[10.6283436,42.9303892],[10.5812569,42.9261481],[10.5798231,42.923116],[10.5763181,42.9186724],[10.5763181,42.9186724],[10.5717281,42.914795],[10.5662193,42.9116239],[10.5599908,42.9092738],[10.5312003,42.9008343],[10.5239081,42.8993112],[10.5163447,42.8989139],[10.5088306,42.8996591],[10.5016836,42.9015154],[10.4952066,42.9044041],[10.4896738,42.9082029],[10.471672,42.9233957],[10.4674067,42.9278242],[10.4644356,42.9327873],[10.4428103,42.9817494],[10.4412382,42.9871271],[10.4411893,42.9926262],[10.442666,42.9980185],[10.4456074,43.0030796],[10.4498916,43.0075993],[10.4828361,43.0357091],[10.5054851,43.1328902],[10.5054851,43.1328902],[10.5056046,43.1334029],[10.4726795,43.1397893],[10.4013344,43.1431926],[10.3304351,43.1364693],[10.2626662,43.119874],[10.2005893,43.094035],[10.1473442,43.0604351],[10.053174,43.0516563],[9.9854221,43.0404766],[9.9217727,43.0201841],[9.8645006,42.9915059],[9.8156445,42.9554678],[9.7890456,42.9265334]],[[10.0128669,42.5808935],[10.0134624,42.5862863],[10.0155077,42.5914831],[10.0189209,42.5962749],[10.0477121,42.6283656],[10.0523293,42.6325356],[10.0579797,42.6359486],[10.0644385,42.638469],[10.0714488,42.6399964],[10.0787319,42.64047],[10.0859978,42.639871],[10.0929574,42.6382233],[10.0993338,42.6355924],[10.1048735,42.6320829],[10.1093561,42.6278345],[10.1237512,42.6109448],[10.1271927,42.6057341],[10.1290427,42.6001026],[10.1326311,42.5798385],[10.1328337,42.5743132],[10.1315031,42.5688734],[10.1286953,42.5637473],[10.1245287,42.5591501],[10.1191781,42.5552746],[10.1128683,42.5522832],[10.1058639,42.5503015],[10.0984586,42.5494124],[10.0909629,42.5496533],[10.0441821,42.5547169],[10.0370583,42.5560346],[10.0304343,42.5583724],[10.0245763,42.5616366],[10.0197197,42.5656958],[10.0160601,42.5703871],[10.0137446,42.5755218],[10.0128669,42.5808935]]]}}
