{"type":"Feature","properties":{"family":"russia","name":"Grand Duchy of Finland, under the Russian tsar, 1809 – 1815"},"geometry":{"type":"Polygon","coordinates":[[[19.1085256,60.3963483],[19.2032458,60.3466689],[19.2697573,60.303725],[19.3174672,60.2550537],[19.3445227,60.2026342],[19.3494548,60.1533366],[19.3670028,60.1207615],[19.4314276,60.0969044],[19.5002738,60.0594554],[19.553677,60.0162079],[19.589783,59.9687155],[19.6073767,59.9186772],[19.6059157,59.867875],[19.5978896,59.8482927],[19.6125366,59.8229829],[19.6139291,59.8145997],[19.6240933,59.8126796],[19.7184405,59.8051903],[19.7330564,59.8010669],[19.7644617,59.7959583],[19.8092311,59.7750174],[19.8885081,59.7442755],[19.9776396,59.7214477],[20.0735615,59.7073145],[20.1729931,59.7023587],[20.2725425,59.7067496],[20.2809304,59.7079367],[20.2925146,59.7074852],[20.3980805,59.713971],[20.4969509,59.7250798],[20.5527898,59.6988716],[20.6523176,59.6691886],[20.7620424,59.6509278],[20.8084869,59.6459015],[20.9132776,59.6398857],[21.0183876,59.6443224],[21.1198064,59.6590428],[21.1434533,59.6652113],[21.2085199,59.6768112],[21.2957283,59.7024365],[21.3720013,59.7358288],[21.4346323,59.7758196],[21.4813685,59.8210048],[21.4921635,59.8391041],[21.5021607,59.8380573],[21.6086831,59.8323433],[21.7153675,59.83729],[21.8180632,59.8527053],[21.8296039,59.8557923],[21.8924372,59.8466417],[21.9326864,59.8452463],[21.9938119,59.8062066],[22.0731038,59.771935],[22.1639625,59.7460059],[22.2629806,59.7293852],[22.3664674,59.722691],[22.4005925,59.7238414],[22.4070833,59.7125472],[22.4548092,59.6658971],[22.5193806,59.6247745],[22.5983301,59.5907145],[22.6886816,59.5649841],[22.7870603,59.5485383],[22.8898134,59.5419862],[22.9931375,59.5455703],[23.3360549,59.5740399],[23.4348126,59.5870751],[23.5269681,59.6093431],[23.609194,59.6400442],[23.6784982,59.678073],[23.6896446,59.6871918],[23.7963996,59.687084],[23.8000385,59.6872882],[23.8191768,59.6857922],[23.8798813,59.6841169],[23.9902665,59.6867773],[24.0133497,59.6897929],[24.0972843,59.700758],[24.1964549,59.7254748],[24.2155276,59.7330185],[24.2396381,59.7301155],[24.3438775,59.7281058],[24.4307176,59.7226465],[24.5334393,59.726139],[24.6330004,59.7394145],[24.7257921,59.7619926],[24.8084338,59.793055],[24.8995704,59.8345475],[24.9558844,59.860186],[24.9843966,59.8762786],[25.0295938,59.8785636],[25.1138243,59.8812204],[25.1775226,59.8894073],[25.2122855,59.8938752],[25.3043524,59.9155377],[25.3368136,59.9273164],[25.38679,59.9454505],[25.4184955,59.9593908],[25.4369279,59.9545736],[25.542717,59.9394883],[25.6056956,59.9371373],[25.6523722,59.9353949],[25.7220516,59.9399088],[25.7614284,59.9424597],[25.8654428,59.9603954],[25.9220496,59.9771877],[25.9868502,59.9773515],[26.0938402,59.988588],[26.1942189,60.0103148],[26.2839332,60.0416582],[26.3593318,60.0813552],[26.3601768,60.0820332],[26.407011,60.1019709],[26.4243498,60.1093522],[26.4354296,60.1097475],[26.5378777,60.1237201],[26.5936135,60.1375616],[26.6496607,60.1420488],[26.702822,60.1490977],[26.774771,60.1514375],[26.872389,60.1638496],[26.9315623,60.1775336],[26.9385464,60.1770295],[27.0469354,60.1800255],[27.1520214,60.1936135],[27.2496526,60.2172538],[27.2977712,60.2074128],[27.3962253,60.1924559],[27.4985368,60.1869307],[27.6011122,60.191031],[27.7003501,60.2046129],[27.7024804,60.2051347],[27.7149169,60.2055078],[27.8178978,60.2188912],[27.913763,60.2419303],[27.9444577,60.2534206],[28.0249309,60.2712831],[28.1103521,60.3009764],[28.1829331,60.3381645],[28.2400029,60.3815035],[28.2476633,60.3908268],[28.4401913,60.4988383],[28.3897661,60.5474035],[28.3856912,60.5525283],[28.3838109,60.5579514],[28.3842047,60.5634474],[28.386857,60.5687875],[28.3916588,60.5737497],[28.3984108,60.5781271],[28.4068326,60.5817375],[28.4165737,60.5844304],[28.4272283,60.5860936],[28.4383522,60.5866577],[28.5068088,60.5866581],[28.517923,60.5860955],[28.5180931,60.5860691],[28.5065466,60.6251023],[28.5060854,60.6307004],[28.5079898,60.6362222],[28.5121787,60.6414294],[28.5184721,60.646097],[28.526599,60.6500233],[28.5293601,60.6511039],[28.446797,60.6431951],[28.438627,60.6193471],[28.4360384,60.6145462],[28.4317008,60.6100617],[28.4257619,60.6060457],[28.4184236,60.6026345],[28.4099352,60.5999436],[28.4005844,60.5980642],[28.3988932,60.5978926],[28.399735,60.5932849],[28.398702,60.5882128],[28.3957457,60.5833287],[28.3909728,60.5788071],[28.3845544,60.5748096],[28.37672,60.5714788],[28.3677498,60.5689337],[28.3579638,60.5672649],[28.3477114,60.566532],[28.3373581,60.5667612],[28.3272732,60.5679443],[28.3150081,60.5700009],[28.2559235,60.5302504],[28.2483168,60.5261076],[28.2391377,60.5228276],[28.2287806,60.5205513],[28.21769,60.5193764],[27.9083344,60.5025057],[27.8972304,60.5024463],[27.8863257,60.5034927],[27.8760687,60.5056017],[27.8668815,60.5086868],[27.8601982,60.5120842],[27.8574117,60.5101237],[27.8500934,60.5066104],[27.8415747,60.5038305],[27.832153,60.5018812],[27.8221569,60.5008302],[27.811935,60.5007142],[27.8084227,60.5010007],[27.8084678,60.5010814],[27.8092462,60.5063413],[27.8079315,60.5115754],[27.8074465,60.5122988],[27.8075613,60.5124556],[27.8091776,60.5174715],[27.8088556,60.5225479],[27.8079543,60.526064],[27.8106069,60.5259799],[27.8217603,60.5267615],[27.8323541,60.5286477],[27.8419418,60.5315591],[27.8501189,60.535373],[27.8791739,60.5517616],[27.8624786,60.5681351],[27.8156782,60.5276093],[27.7940779,60.532675],[27.8084781,60.552938],[28.4816848,60.9328678],[28.6148861,60.9615737],[28.798488,61.0966598],[29.201692,61.2452546],[29.3168932,61.3381264],[29.4644946,61.4141124],[29.5184952,61.4749011],[29.6336963,61.5103613],[29.7776978,61.5931015],[29.8424984,61.6606446],[29.9792998,61.7281877],[30.6345063,62.1841036],[30.9261093,62.302304],[31.1529115,62.4677846],[31.2429124,62.5032447],[31.4409144,62.7886143],[31.5705157,62.9051261],[31.4805148,62.9861778],[31.2645126,63.1010011],[31.2249122,63.1955614],[31.1781118,63.2259558],[30.9765098,63.2884331],[30.8217082,63.3762391],[30.4617046,63.4724881],[30.4611434,63.4728004],[29.9792998,63.7409718],[30.202502,63.7933177],[30.3285033,63.8963209],[30.5,63.9923295],[30.5,63.9923295],[30.5517055,64.0212757],[30.5877059,64.0854416],[30.5337053,64.1631162],[30.5589056,64.2205278],[30.5,64.2448081],[30.3213032,64.3184653],[30.1629016,64.3421053],[30.0333003,64.3961398],[30.0693007,64.4721258],[29.9900999,64.5042088],[29.9540995,64.5683747],[30.1809018,64.6426721],[30.1881019,64.662935],[30.1053011,64.7254124],[30.1197012,64.7676268],[29.7812978,64.7963326],[29.698497,64.8385471],[29.6336963,64.9077787],[29.5868959,64.9922076],[29.597696,65.034422],[29.6369541,65.0596199],[29.6660967,65.078325],[29.6369541,65.0596199],[29.757228,65.0596159],[29.7575427,65.0596159],[29.8353154,65.0672438],[29.846761,65.0688525],[29.8572898,65.0713373],[29.8665282,65.0746102],[29.8741481,65.078555],[29.8798784,65.0830319],[29.8848605,65.0879869],[30.482253,65.0879063],[30.482838,65.0879062],[30.4884592,65.1004317],[30.4866148,65.1546706],[30.4697988,65.1868675],[30.474229,65.2182581],[30.4548924,65.2730521],[30.409078,65.3250207],[30.374916,65.3477858],[30.3700512,65.3510277],[30.3888115,65.4859027],[30.3835389,65.5391604],[30.3530111,65.5909384],[30.2982841,65.6392005],[30.2213953,65.6820379],[30.125301,65.7177475],[30.0137681,65.7449032],[29.8912258,65.7624164],[29.7625812,65.769583],[25.3106017,65.7696342],[25.1769481,65.7619697],[25.0500877,65.7431455],[24.9355072,65.7139788],[24.8381186,65.6757321],[24.7620384,65.6300548],[24.7104138,65.5789073],[24.6864358,65.5269322],[25.3305569,65.5269381],[25.3181002,65.5262379],[25.3057995,65.5244604],[25.2946013,65.5217025],[25.284955,65.5180749],[25.2772468,65.5137232],[25.2717852,65.508822],[25.2687877,65.5035679],[25.2685136,65.5],[25.2685713,65.5],[25.3332537,65.5],[25.3332537,65.5],[25.3532535,65.4835836],[25.3568536,65.4109748],[25.2668527,65.3772032],[25.3352534,65.3434317],[25.3064531,65.329923],[25.3208532,65.3164144],[25.2812528,65.2606914],[25.3280533,65.2269198],[25.2812528,65.2201655],[25.2740527,65.1796397],[25.2128521,65.1239166],[25.3568536,65.0968994],[25.4180542,65.034422],[25.4143228,65.0382312],[25.3932347,65.0597593],[25.3240297,65.0597615],[25.1110749,65.0597685],[25.1110749,65.0597685],[24.8816488,65.0597761],[24.8816488,65.0867679],[24.8348483,65.0952108],[24.6548465,65.0800136],[24.5612456,65.0377992],[24.6099942,65.059785],[24.5224341,65.0597879],[24.5145015,65.0562074],[24.506961,65.052051],[24.5014672,65.0473582],[24.4982258,65.0423059],[24.4973578,65.0370844],[24.4985066,65.0332012],[23.9254691,65.0331605],[23.9260562,65.0092848],[23.9529603,64.9562704],[23.9792893,64.9307712],[23.9724707,64.9261598],[23.9283124,64.8769959],[23.9114494,64.8348061],[23.8949639,64.8239709],[23.8429403,64.7820204],[23.8091056,64.7368271],[23.7738555,64.6696127],[23.56633,64.5827021],[23.4783479,64.5362874],[23.4166178,64.4826468],[23.377978,64.4367083],[23.3712364,64.4336517],[23.1339102,64.30032],[23.1046564,64.2950883],[23.0030223,64.2656109],[22.9168812,64.2280154],[22.849563,64.1837853],[22.8036177,64.1346582],[22.7858465,64.0942278],[22.70551,64.0732859],[22.6086366,64.0333631],[22.5987749,64.0283016],[22.5959243,64.0276467],[22.5126367,64.017135],[22.3959337,63.9964358],[22.291503,63.9656836],[22.2037692,63.9261954],[22.1547524,63.8923532],[22.0955149,63.8631192],[22.0339142,63.8164427],[22.008149,63.7827628],[22.0077488,63.7825674],[21.9782995,63.7600736],[21.977973,63.760008],[21.8787901,63.7281179],[21.7962709,63.6880429],[21.7337378,63.641434],[21.7196107,63.623401],[21.7009141,63.6196501],[21.6362697,63.5996596],[21.5764404,63.6138531],[21.5025964,63.6237832],[21.451844,63.5759575],[21.3718115,63.5296967],[21.3033701,63.497819],[21.2123581,63.4629602],[21.1079366,63.436739],[20.99415,63.4201639],[20.8753745,63.4138713],[20.7561628,63.4181027],[20.6457072,63.432112],[20.6075365,63.4201345],[20.5417844,63.4071706],[20.5051976,63.3672598],[20.4826293,63.3158903],[20.4826306,63.2635316],[20.5050806,63.2121562],[20.575395,63.1060602],[20.5793398,63.1018035],[20.548779,63.0580029],[20.5361253,63.0051308],[20.54658,62.95216],[20.5796152,62.9011448],[20.5817301,62.8993115],[20.5741068,62.8931957],[20.5381498,62.8446958],[20.5230088,62.7939692],[20.5262003,62.7673133],[20.5163732,62.7565673],[20.4936557,62.6991589],[20.4808834,62.6163669],[20.4837936,62.5644315],[20.5082169,62.5137141],[20.546734,62.4728934],[20.5518767,62.396439],[20.5664138,62.3442966],[20.6023871,62.2944464],[20.6583401,62.2487663],[20.6775388,62.2384203],[20.7014678,62.2107042],[20.7315035,62.1892333],[20.7205969,62.1695989],[20.6690799,62.0326148],[20.660664,61.9782489],[20.6756761,61.9242005],[20.7133842,61.872669],[20.7721525,61.8257408],[20.8495234,61.7853069],[20.89998,61.7637138],[20.8987811,61.755322],[20.9102763,61.7071301],[20.9397329,61.6606891],[20.9476205,61.6533546],[20.9273998,61.6212833],[20.9254094,61.6118942],[20.8957255,61.5842433],[20.865459,61.5328685],[20.8570643,61.4796635],[20.8707586,61.4267136],[20.8859293,61.404877],[20.8843917,61.3891426],[20.8955797,61.3542222],[20.8890549,61.3498925],[20.8321257,61.3026048],[20.7963409,61.2507766],[20.7830708,61.1965485],[20.7883386,61.1669497],[20.7841907,61.163185],[20.7527356,61.1128664],[20.7440783,61.0701346],[20.7108511,61.0314658],[20.6968068,60.9980538],[20.6695642,60.9645169],[20.6612628,60.9429929],[20.6384724,60.8953259],[20.6356709,60.8406177],[20.65556,60.7867634],[20.6972136,60.7359698],[20.7108758,60.72586],[20.6803667,60.6844532],[20.6708287,60.6538501],[20.6336685,60.6320455],[20.6289571,60.6277406],[20.5429018,60.6140747],[20.4452598,60.5866688],[20.4150352,60.5735079],[20.4121676,60.574751],[20.3177369,60.6015042],[20.215493,60.618289],[20.1724036,60.6346074],[20.0789456,60.6576434],[19.978171,60.6715149],[19.8738049,60.6757086],[19.7697144,60.6700692],[19.6697556,60.6548063],[19.57762,60.6304853],[19.4966903,60.5980053],[19.3922849,60.5470429],[19.3249962,60.5070116],[19.311075,60.4943933],[19.2476066,60.4749988],[19.1682733,60.4381392],[19.1085256,60.3963483]],[[19.9171992,60.2084682],[20,60.1621622],[20.0108001,60.1561223],[19.9171992,60.2084682]],[[19.9279993,60.357063],[20,60.3413029],[20.0360004,60.3334229],[19.9279993,60.357063]],[[19.9639996,60.1949596],[20.0180002,60.1831395],[20,60.1870795],[19.9639996,60.1949596]],[[19.9747997,60.2793884],[20,60.2502323],[20.0288003,60.2169111],[19.9747997,60.2793884]],[[20.104401,59.9957075],[20.1082142,60],[20.1224012,60.0159704],[20.104401,59.9957075]],[[20.1764018,59.9720674],[20.2268023,60.0058389],[20.2180883,60],[20.1764018,59.9720674]],[[20.2808028,59.9771331],[20.3120041,60],[20.3120041,60],[20.2808028,59.9771331]],[[20.4267937,60],[20.4267937,60],[20.4464045,59.9957075],[20.4267937,60]],[[21.9512195,60.149368],[22.0088201,60.1375479],[22,60.1393579],[21.9512195,60.149368]],[[21.9728197,63.2867446],[22,63.3045928],[22.0268203,63.3222047],[21.9728197,63.2867446]],[[21.9836198,60.4921492],[22.0484205,60.4381147],[22,60.4784905],[22,60.4784905],[21.9836198,60.4921492]],[[22,60.1173574],[22,60.1173574],[22.0124201,60.1223507],[22,60.1173574]],[[22.4444244,59.997396],[22.4480245,60.0666277],[22.4445599,60],[22.4444244,59.997396]],[[22.4696247,59.997396],[22.4698468,60],[22.4768248,60.0818249],[22.4696247,59.997396]],[[22.599226,59.9838874],[22.6532265,60.0328562],[22.6169942,60],[22.6169942,60],[22.599226,59.9838874]],[[22.6532265,60.0328562],[22.6820268,59.997396],[22.6799119,60],[22.6532265,60.0328562]],[[22.6820268,59.997396],[22.7288273,60.0041503],[22.7000697,60],[22.6820268,59.997396]],[[23.204032,59.997396],[23.207363,60],[23.207363,60],[23.204032,59.997396]],[[23.300611,60],[23.3336333,60.029479],[23.300611,60],[23.300611,60]],[[23.4279573,60],[23.499235,60.0632505],[23.4279573,60],[23.4279573,60]],[[23.4308343,59.9568702],[23.473937,60],[23.473937,60],[23.4308343,59.9568702]],[[23.798038,59.9568702],[23.9564396,60.0041503],[23.9425348,60],[23.9425348,60],[23.798038,59.9568702]],[[23.99964,60.0379219],[24.0176402,60.0396105],[24,60.0379557],[23.99964,60.0379219]],[[24.4172442,59.9906417],[24.425104,60],[24.425104,60],[24.4172442,59.9906417]],[[25.1110749,65.0597685],[25.3240297,65.0597615],[25.3504774,65.0328156],[25.1207693,65.032825],[25.1200444,65.0318985],[25.1240458,65.0370125],[25.1255622,65.0423602],[25.1245318,65.0477286],[25.1209941,65.0529036],[25.1150888,65.0576788],[25.1110749,65.0597685]],[[25.9580596,60.3553744],[26.00486,60.368883],[26,60.3674802],[25.9580596,60.3553744]],[[26,60.4471486],[26,60.4471486],[26.0300603,60.433049],[26,60.4471486]]]}}
