{"type":"Feature","properties":{"family":"france","name":"French Republic, 1793 – 1794"},"geometry":{"type":"Polygon","coordinates":[[[-5.5384874,48.45141],[-5.5280938,48.3975808],[-5.5016934,48.3462104],[-5.4603964,48.2993709],[-5.4059009,48.2589464],[-5.3404209,48.2265592],[-5.2665955,48.2035069],[-5.2235853,48.193422],[-5.1441982,48.1805785],[-5.0848199,48.1791143],[-5.0791559,48.1736973],[-5.1095534,48.130261],[-5.1284186,48.0779499],[-5.1313177,48.0241755],[-5.1181844,47.9710817],[-5.0895882,47.920779],[-5.0467046,47.8752613],[-4.991263,47.8363282],[-4.9254744,47.8055154],[-4.8519435,47.7840363],[-4.7671934,47.7657105],[-4.7579915,47.7331063],[-4.7298294,47.6853945],[-4.6887944,47.6421198],[-4.6363909,47.6048383],[-4.5745201,47.5748878],[-4.505411,47.553341],[-4.4315416,47.540969],[-4.355553,47.5382144],[-4.1693076,47.5432404],[-4.0821748,47.5520436],[-4.0385905,47.5634019],[-3.9685394,47.5432428],[-3.8867887,47.5323261],[-3.7404643,47.5231738],[-3.7168443,47.5054934],[-3.6537143,47.4737395],[-3.6396316,47.4692226],[-3.6520031,47.4441397],[-3.6617554,47.391605],[-3.6561431,47.3387924],[-3.6354273,47.2877358],[-3.5954089,47.2169489],[-3.5631857,47.1725202],[-3.5196058,47.1328269],[-3.4661488,47.0991959],[-3.4046145,47.0727494],[-3.3370623,47.0543686],[-3.2657442,47.0446653],[-3.193032,47.0439626],[-3.0318402,47.0523534],[-2.9529385,47.0619149],[-2.8784315,47.0820487],[-2.8204407,47.1078895],[-2.7902518,47.0880789],[-2.7250175,47.0595022],[-2.6883578,47.0496368],[-2.6907779,47.027686],[-2.6820725,46.9766541],[-2.6593662,46.9276695],[-2.6538749,46.9207568],[-2.6659693,46.9133532],[-2.7143109,46.8682322],[-2.7479247,46.8172597],[-2.7654011,46.7626399],[-2.7660361,46.7067276],[-2.7622422,46.6797251],[-2.7472452,46.627538],[-2.7176602,46.5783799],[-2.674669,46.5341522],[-2.6199601,46.4965614],[-2.5556612,46.4670547],[-2.4842562,46.4467665],[-2.4084914,46.4364757],[-2.3081853,46.4297499],[-2.2295803,46.4298809],[-2.183304,46.4364362],[-2.1578569,46.3931516],[-2.1209177,46.3449043],[-2.0707325,46.3027539],[-2.0093637,46.2684096],[-1.9465972,46.2458797],[-1.93914,46.198501],[-1.9174231,46.1495939],[-1.8828092,46.1043984],[-1.836565,46.0645298],[-1.7925747,46.0331638],[-1.7818084,45.9851679],[-1.7525181,45.9075935],[-1.7192707,45.8486274],[-1.6672737,45.7966675],[-1.6265916,45.7647137],[-1.6296668,45.7500976],[-1.63351,45.7012022],[-1.624636,45.6526293],[-1.6033692,45.6059766],[-1.5704372,45.5627748],[-1.5269431,45.5244379],[-1.5214635,45.5210853],[-1.5224829,45.5171721],[-1.6391292,44.6539517],[-1.6386077,44.5993511],[-1.6336532,44.5827609],[-1.6361458,44.5710243],[-1.6546615,44.3359098],[-1.8274442,43.6908039],[-1.8711016,43.6480612],[-1.9228997,43.6382618],[-1.9883857,43.6152456],[-2.0463919,43.5834229],[-2.0946954,43.5440214],[-2.1314581,43.4985583],[-2.1552959,43.4487802],[-2.1653289,43.396595],[-2.16121,43.3439973],[-2.1556436,43.3282912],[-2.1556183,43.3282812],[-2.1279365,43.3173492],[-1.9754696,43.3675493],[-1.9682095,43.3693033],[-1.9606091,43.3699363],[-1.9529922,43.3694212],[-1.9456831,43.36778],[-1.9424849,43.3664906],[-1.8327108,43.4179852],[-1.8259327,43.420486],[-1.8185958,43.4219306],[-1.8110079,43.4222584],[-1.8034876,43.4214556],[-1.7963506,43.419556],[-1.7898964,43.4166393],[-1.7845388,43.4136232],[-1.8003763,43.4118154],[-1.8073247,43.4105077],[-1.8137975,43.4082526],[-1.8195526,43.4051346],[-1.8243747,43.4012703],[-1.8280837,43.3968043],[-1.8305411,43.3919037],[-1.8316553,43.3867516],[-1.8316871,43.3863601],[-1.8316871,43.3863601],[-1.8316861,43.3863606],[-1.8316842,43.3863615],[-1.8316761,43.3863653],[-1.8316701,43.3863681],[-1.8126181,43.3953043],[-1.7946179,43.3851728],[-1.798218,43.3412698],[-1.7550176,43.3193183],[-1.7478175,43.2906125],[-1.6722167,43.3041211],[-1.6110161,43.2450209],[-1.5390154,43.2838582],[-1.402214,43.2433324],[-1.4094141,43.1673464],[-1.4886149,43.0812289],[-1.4562146,43.0457688],[-1.3662137,43.0339488],[-1.3482135,43.093049],[-1.2870129,43.1099348],[-1.3122131,43.0694089],[-1.1502115,43.005243],[-1.0278103,42.9866686],[-0.9450095,42.9478313],[-0.7614076,42.9461428],[-0.7398074,42.885354],[-0.6498065,42.8498939],[-0.5706057,42.7722193],[-0.5346053,42.7840393],[-0.5346053,42.8076794],[-0.4230042,42.7907936],[-0.3222032,42.8431395],[-0.2358024,42.7857279],[-0.1602016,42.7958594],[-0.1206012,42.7164962],[-0.0378004,42.6844133],[0.1674017,42.7266277],[0.2394024,42.7097419],[0.2754028,42.6692161],[0.3546035,42.7181848],[0.3906039,42.6844133],[0.6426064,42.6844133],[0.6678067,42.7148077],[0.6318063,42.7452021],[0.6498065,42.8245652],[0.6694175,42.8320389],[0.7074071,42.8465167],[0.9198092,42.7840393],[1.0890109,42.7705307],[1.1502115,42.7063648],[1.3410134,42.7080534],[1.4310143,42.5949187],[1.4670147,42.6421988],[1.5282153,42.6489532],[1.7226172,42.6101159],[1.7118171,42.589853],[1.7658177,42.5628357],[1.7226172,42.5493271],[1.7082171,42.5020469],[1.9,42.4445349],[1.9278193,42.4361924],[1.9362393,42.42],[1.9638196,42.3669608],[2.0106201,42.3466978],[2.0646206,42.3585179],[2.1366214,42.4159295],[2.2770228,42.4294381],[2.5254253,42.3264349],[2.5470255,42.3517636],[2.6622266,42.3382549],[2.6406264,42.3720265],[2.6910269,42.405798],[2.7882279,42.4125523],[2.9322293,42.469964],[3.0294303,42.4648982],[3.0870309,42.4277495],[3.1806318,42.4311267],[3.1830192,42.4042513],[3.1830194,42.4042494],[3.1830195,42.4042487],[3.1898026,42.4050104],[3.1968115,42.4069363],[3.203142,42.4098773],[3.2085286,42.41371],[3.2127453,42.4182737],[3.2156148,42.423377],[3.2170165,42.4288057],[3.2169035,42.4337867],[3.2169053,42.4337786],[3.2169055,42.4337777],[3.216912,42.4337484],[3.2170973,42.4329129],[3.2225751,42.3708593],[3.3274052,42.3489918],[3.333979,42.3470925],[3.3399327,42.344293],[3.3450431,42.3406984],[3.3491191,42.3364433],[3.3520081,42.3316871],[3.3536022,42.326608],[3.3538419,42.3213962],[3.3527187,42.3162468],[3.3502749,42.3113526],[3.296243,42.2286279],[3.2926783,42.2242684],[3.2880701,42.2204818],[3.282583,42.2174035],[3.2764127,42.2151431],[3.2697795,42.2137813],[3.2629199,42.2133667],[3.2560786,42.2139141],[3.1694467,42.2270307],[3.1562045,42.2111638],[3.1584223,42.1627184],[3.1584223,42.1627175],[3.1739962,42.1613953],[3.243281,42.1653417],[3.3103062,42.1789544],[3.3726519,42.2017422],[3.4280611,42.2328826],[3.4745189,42.27125],[3.5103253,42.3154554],[3.5341571,42.3638953],[3.5451187,42.4148084],[3.5427784,42.4663392],[3.5271884,42.5166047],[3.4844696,42.6112988],[3.4535367,42.6617335],[3.4092209,42.7064525],[3.4070883,42.7078708],[3.4082573,42.8997965],[3.437166,42.9647203],[3.4927987,43.0071763],[3.5552302,43.0125614],[3.6230049,43.0231646],[3.686901,43.0428218],[3.7446837,43.070847],[4.0098732,43.2267141],[4.0290599,43.2186874],[4.0976819,43.2017974],[4.1694709,43.1949311],[4.3032525,43.1916453],[4.3071123,43.1875154],[4.3580641,43.1508105],[4.4176889,43.1219234],[4.4837649,43.1019249],[4.5538402,43.0915548],[4.7509662,43.076435],[4.7926267,43.0764635],[4.8153495,43.0730938],[4.8841915,43.0723893],[4.9287679,43.0780523],[4.9980894,43.0678301],[5.0414864,43.0678329],[5.0570192,43.0501816],[5.1050534,43.0132418],[5.1616654,42.9835342],[5.2248452,42.9621072],[5.292359,42.9497159],[5.4975467,42.9265819],[5.5917642,42.8560098],[5.6513286,42.8198027],[5.7198215,42.7934865],[5.7942386,42.7782109],[5.8713267,42.7746422],[5.9477208,42.7829356],[5.9479579,42.7830005],[6.0034298,42.7580816],[6.0683543,42.7400919],[6.1185562,42.7300077],[6.1807957,42.7216233],[6.2440508,42.7211809],[6.3064665,42.7286931],[6.3662112,42.7439394],[6.4020916,42.7557117],[6.4631851,42.7811235],[6.5166123,42.8145915],[6.5604237,42.8549031],[6.5655112,42.8620424],[6.5807413,42.8680225],[6.6383091,42.9032617],[6.6475378,42.9117832],[6.7450414,42.9282194],[6.8190563,42.9468885],[6.8860453,42.9765571],[6.9430008,43.0158983],[6.9873506,43.06315],[7.0170727,43.1161914],[7.0433033,43.1821988],[7.09054,43.1994275],[7.1480784,43.2320324],[7.1957708,43.2722149],[7.2053531,43.284528],[7.2175615,43.2858754],[7.2845855,43.3032714],[7.3458327,43.3296444],[7.3990588,43.3640317],[7.4423031,43.405176],[7.4739603,43.4515705],[7.4783484,43.4631865],[7.5816756,43.4949527],[7.6477507,43.5212163],[7.705208,43.5565798],[7.7700162,43.6053902],[7.8168158,43.6486458],[7.8505632,43.6978707],[7.86983,43.7510306],[7.8732162,43.7981194],[7.8955911,43.8184081],[7.8193864,43.7967574],[7.7089223,43.7653731],[7.7089188,43.7653718],[7.7089147,43.765371],[7.7088478,43.765352],[7.7047536,43.7645024],[7.7040639,43.7643593],[7.7040639,43.7643593],[7.7039591,43.7643376],[7.7035446,43.7642516],[7.7039591,43.7643376],[7.7040639,43.7643593],[7.7040639,43.7643593],[7.7047536,43.7645024],[7.7018842,43.7639035],[7.70186,43.763902],[7.7018465,43.7638992],[7.6966393,43.7635805],[7.6945884,43.7634541],[7.5283685,43.764898],[7.5209537,43.7654948],[7.5180218,43.7661754],[7.5180216,43.7661754],[7.5180213,43.7661755],[7.5276843,43.7734752],[7.5321666,43.7775941],[7.5354594,43.782262],[7.5374382,43.7873026],[7.5379454,43.7917962],[7.5379431,43.7917963],[7.5287814,43.7918758],[7.500675,43.79212],[7.4790748,43.8647288],[7.4934749,43.8866803],[7.5917131,43.9763231],[7.6390664,44.0195332],[7.6914769,44.0673581],[7.6410764,44.143344],[7.6554766,44.175427],[7.3422734,44.1230811],[7.0470705,44.2395929],[6.9822698,44.2412815],[6.8893633,44.3424933],[6.8706687,44.3628591],[6.8778688,44.415205],[6.9174692,44.4354679],[6.8598686,44.4743052],[6.8346683,44.5334054],[6.9462695,44.6262771],[6.9354694,44.6465401],[6.9606696,44.6836888],[7.0542705,44.6853773],[6.99667,44.7934463],[7.0074701,44.8221521],[6.9822698,44.8474808],[6.8454685,44.8593008],[6.7446674,44.9082695],[6.7230672,45.0129613],[6.6510665,45.0349128],[6.6070677,45.1],[6.604266,45.1041445],[6.7374674,45.158179],[6.8454685,45.1294732],[6.9570696,45.2105249],[7.0542705,45.213902],[7.1082711,45.2594936],[7.0938709,45.3236596],[7.1622716,45.4114656],[6.9822698,45.5110916],[6.9534695,45.585389],[6.9642696,45.6411121],[6.8166682,45.6968351],[6.7806678,45.7778868],[6.802268,45.8268556],[6.9498695,45.85725],[7.0218702,45.9247931],[6.9858699,45.9923362],[6.9138691,46.0480592],[6.8490685,46.0531249],[6.8706687,46.1122251],[6.7734677,46.1341766],[6.7734677,46.1865225],[6.8274683,46.2692628],[6.7518675,46.3452488],[6.7878679,46.3959061],[6.7698891,46.42],[6.7626676,46.4296777],[6.5466655,46.4566949],[6.301863,46.3942175],[6.2154622,46.3148544],[6.2366531,46.2905578],[6.2802628,46.240557],[6.1311559,46.1531348],[6.1311559,46.1531348],[6.1074611,46.1392424],[5.9783597,46.1318577],[5.9783597,46.1318577],[5.9783597,46.1318577],[5.9598596,46.1307995],[5.9814598,46.1713253],[5.9598596,46.2118512],[6.0894609,46.2456227],[6.131166,46.356973],[6.1362614,46.3705775],[6.0534605,46.4195462],[6.0642606,46.4718921],[6.1470615,46.5512552],[6.1182612,46.5833382],[6.4278643,46.7606388],[6.4422644,46.9446937],[6.6654667,47.0206797],[6.697867,47.0848456],[6.8489053,47.17832],[6.9570696,47.2452605],[6.8489053,47.17832],[6.85,47.17],[7,47.18],[7.15,47.27],[7.3,47.32],[7.45,47.33],[7.55,47.4],[7.6,47.55],[7.5013466,47.55],[7.5870759,47.5846645],[7.5896657,47.6016713],[7.5906759,47.6083046],[7.5875536,47.6122322],[7.5114751,47.7079307],[7.5366754,47.7315707],[7.5258753,47.7839166],[7.55,47.8240355],[7.5654757,47.8497711],[7.5582756,47.8835427],[7.6194762,47.9713487],[7.5762758,48.054089],[7.5798758,48.1148778],[7.6852708,48.25],[7.6878769,48.2533411],[7.702277,48.3107527],[7.7490775,48.3411471],[7.7382774,48.4070016],[7.7706777,48.4897419],[7.8138781,48.5201363],[7.8102781,48.6146967],[7.9578796,48.721077],[7.9686797,48.7565371],[8.0910809,48.8071945],[8.1653716,48.9117314],[8.1920741,48.9493054],[8.199082,48.9591664],[7.9326793,49.0351524],[7.6338763,49.0385295],[7.5078751,49.0942526],[7.4754748,49.1516642],[7.4106741,49.16855],[7.3494735,49.1584185],[7.2738727,49.1043841],[7.0866709,49.1415328],[7.0434704,49.1077612],[7.0074701,49.1465985],[7.0078154,49.15],[7.0110701,49.1820586],[6.9138691,49.2073873],[6.8346683,49.2090759],[6.820674,49.15],[6.8202682,49.1482871],[6.8020084,49.15],[6.7122671,49.1584185],[6.701467,49.2141416],[6.6798668,49.2073873],[6.6720828,49.22],[6.6402664,49.2715532],[6.6720828,49.22],[6.85,49.22],[6.85,49.42],[6.55,49.42],[6.55,49.385401],[6.5106651,49.4252137],[6.4446099,49.45],[6.402664,49.4657396],[6.3450635,49.4556081],[6.1938619,49.4995111],[6.1074611,49.4826254],[6.0786608,49.452231],[5.9598596,49.4420995],[5.9274593,49.4826254],[5.8410584,49.4995111],[5.7906579,49.5383484],[5.6430564,49.5434142],[5.603456,49.5130198],[5.5458555,49.5231512],[5.4558546,49.4995111],[5.4558546,49.5366598],[5.401854,49.6025144],[5.3334533,49.6261544],[5.297453,49.6126458],[5.301053,49.6633031],[5.2578526,49.692009],[5.1678517,49.6869432],[5.0814508,49.7527977],[4.9698497,49.7967007],[4.8582486,49.7865693],[4.8366484,49.8591781],[4.8618486,49.9132126],[4.7826478,49.9588042],[4.8258483,50.063496],[4.8618486,50.0837589],[4.8657774,50.1040295],[4.8726487,50.1394819],[4.8150482,50.1614334],[4.6818468,50.0837589],[4.6618925,50.0088832],[4.6566466,49.9891986],[4.62,49.9788204],[4.5989499,49.972859],[4.4658447,49.9351641],[4.35,49.9491864],[4.1310413,49.9756899],[4.1310413,50.0179044],[4.2102421,50.0601188],[4.1814418,50.1276619],[4.1274413,50.1276619],[4.1562416,50.2120908],[4.203042,50.2407966],[4.1850419,50.2661252],[4.1238412,50.2576823],[4.098641,50.294831],[4.0050401,50.3437998],[3.897039,50.3252254],[3.7566376,50.3471769],[3.695437,50.2982082],[3.6630366,50.3184711],[3.6450365,50.4451144],[3.6090361,50.4771974],[3.497435,50.4873288],[3.4758348,50.5194118],[3.3606336,50.4890174],[3.2706327,50.5261661],[3.2310323,50.6561866],[3.2454325,50.6713838],[3.1302313,50.7794527],[2.9466295,50.7490583],[2.8854289,50.6967124],[2.7666277,50.7338611],[2.6910269,50.8081585],[2.6190262,50.8166014],[2.5866259,50.8453072],[2.5758258,50.9111617],[2.6082261,50.9618191],[2.5578256,51.0006563],[2.5218252,51.0867738],[2.5578176,51.1012441],[2.5578264,51.1012476],[2.5561826,51.1029479],[2.5506221,51.106784],[2.5439946,51.1098794],[2.5365454,51.1121193],[2.5285506,51.1134208],[2.5203065,51.1137356],[2.5121186,51.113052],[2.5047975,51.1119622],[2.5048031,51.1119644],[2.8571909,51.253667],[2.8571909,51.253667],[2.8572709,51.2536992],[2.8196661,51.2814238],[2.7526715,51.3144669],[2.6765033,51.3385572],[2.5941788,51.3527366],[2.5089718,51.3564408],[2.4242766,51.349522],[1.8198962,51.2595434],[1.7579133,51.2469487],[1.6997148,51.2286103],[1.3602571,51.0996644],[1.2905581,51.0664159],[1.2331355,51.0249382],[1.1903685,50.9769746],[1.164003,50.9245353],[1.1550856,50.8698115],[1.1639274,50.8150823],[1.1705683,50.7947556],[1.1504849,50.7416932],[1.1387917,50.6794771],[1.1500443,50.6172278],[1.1745006,50.5509617],[1.1429786,50.4705994],[1.1305801,50.4130941],[1.1336818,50.3881267],[1.1280355,50.3656077],[1.1225608,50.3066347],[1.105509,50.282386],[1.003195,50.2186778],[0.472794,50.1154307],[0.3859613,50.0910894],[-0.0257276,49.9367045],[-0.0843556,49.909914],[-0.134936,49.8770356],[-0.175979,49.839049],[-0.2062876,49.7970837],[-0.312986,49.6076167],[-0.3144703,49.6038257],[-0.3524209,49.6094186],[-0.815438,49.6523903],[-0.8295698,49.7001267],[-0.8614466,49.7711575],[-0.8896585,49.8174308],[-0.9306076,49.8595667],[-0.9829213,49.8961214],[-1.0448254,49.9258394],[-1.1142044,49.9476982],[-1.1886747,49.9609446],[-1.3370543,49.9779153],[-1.4242345,49.9818485],[-1.5107596,49.9740106],[-1.5928124,49.9547479],[-1.6339553,49.9417894],[-1.7974453,49.9787388],[-1.8767018,49.9911496],[-1.958199,49.9934067],[-2.0388042,49.9854238],[-2.1154212,49.967508],[-2.1851142,49.9403474],[-2.2452248,49.9049835],[-2.2934758,49.8627698],[-2.3280581,49.8153179],[-2.3476962,49.7644343],[-2.3581217,49.7188091],[-2.3618905,49.6638192],[-2.3483452,49.60947],[-2.3181038,49.5580195],[-2.2978417,49.5374221],[-2.2985153,49.5085915],[-2.2820228,49.4536447],[-2.2409066,49.3658376],[-2.2408706,49.3658196],[-2.2408563,49.3658124],[-2.2408563,49.3658124],[-2.2408289,49.3657987],[-2.2407902,49.3657793],[-2.2407902,49.3657793],[-2.0827739,49.2867104],[-2.0826066,49.2867104],[-2.0753188,49.2862814],[-2.0682606,49.2850184],[-2.061654,49.282961],[-2.0004344,49.2593091],[-1.9932079,49.2557628],[-1.9873347,49.2512739],[-1.983096,49.2460578],[-1.9687118,49.2224127],[-1.9663038,49.2166813],[-1.9658722,49.2107449],[-1.9674372,49.2048918],[-1.9854678,49.1643726],[-1.9883768,49.1595883],[-1.9926208,49.155254],[-1.9980449,49.1515275],[-2.0044513,49.1485447],[-2.0116066,49.146414],[-2.0192502,49.1452131],[-2.0226562,49.1451144],[-2.0226777,49.1451138],[-2.0227015,49.1451131],[-2.0227015,49.1451131],[-2.0227137,49.1451128],[-2.0227423,49.1451119],[-2.0153405,49.13122],[-1.9933465,49.10012],[-2.0005116,49.0661658],[-2.0035633,49.0122421],[-1.9924984,48.9681599],[-2.0280544,48.9633819],[-2.1054676,48.9475738],[-2.1306758,48.9385301],[-2.1853221,48.954559],[-2.2589329,48.9661206],[-2.3345315,48.9685746],[-2.4095118,48.9618368],[-2.4812902,48.9461399],[-2.5915732,48.9142264],[-2.6175178,48.939352],[-2.6741926,48.9761611],[-2.6755902,48.9767692],[-2.6938862,48.9942466],[-2.7498453,49.0303624],[-2.7732911,49.0405605],[-2.7920403,49.0564557],[-2.8520147,49.0908121],[-2.9210344,49.1169287],[-2.9964926,49.1338151],[-3.0755274,49.1408303],[-3.1551352,49.1377082],[-3.1587843,49.137088],[-3.2046021,49.1421296],[-3.2878702,49.1401361],[-3.3687786,49.1271773],[-3.4358891,49.1063092],[-3.4949829,49.111943],[-3.5719886,49.1097476],[-3.6469828,49.0981573],[-3.7173029,49.0775845],[-3.7804603,49.0487597],[-3.8342306,49.0127049],[-3.8483383,49.0012612],[-3.8907974,48.9958969],[-3.9414882,49.0017043],[-4.0200388,49.0007136],[-4.0968299,48.9898932],[-4.2993404,48.9474532],[-4.3026088,48.9465255],[-4.3117864,48.9476149],[-4.3942349,48.9463811],[-4.4746017,48.9343052],[-4.6951689,48.8850769],[-4.7654831,48.8642345],[-4.8285328,48.8350672],[-4.8430413,48.8251983],[-4.8798486,48.8155563],[-4.9465881,48.7871418],[-5.0036357,48.7507411],[-5.0089619,48.7466045],[-5.0503022,48.7491274],[-5.127104,48.7441877],[-5.2010835,48.7297857],[-5.284218,48.7077214],[-5.357007,48.6824448],[-5.4205465,48.6480244],[-5.4722515,48.605873],[-5.5100375,48.5577163],[-5.5324035,48.5055204],[-5.5384874,48.45141]],[[-4.5342453,48.0270718],[-4.4803763,48],[-4.4803763,48],[-4.5342453,48.0270718]],[[-2.1294213,46.8940364],[-2,47.0247843],[-2,47.0247843],[-1.9890199,47.0358769],[-2,47.0247843],[-2,47.0247843],[-2.1294213,46.8940364]],[[-1.4778148,43.5793592],[-1.3625713,44],[-1.3625713,44],[-1.4778148,43.5793592]],[[-1.4058141,46.0531249],[-1.3861163,46],[-1.3861163,46],[-1.4058141,46.0531249]],[[-1.1106111,46.0176648],[-1.0964881,46],[-1.0964881,46],[-1.1106111,46.0176648]],[[-0.2178022,49.2799961],[0,49.3310756],[0.0126001,49.3340306],[0,49.3310756],[-0.2178022,49.2799961]],[[1.2222122,49.9790671],[1.2559433,50],[1.2559433,50],[1.2222122,49.9790671]],[[1.9458195,42.4513896],[1.9566196,42.481784],[1.99982,42.4446353],[1.9818198,42.4412582],[1.9458195,42.4513896]],[[3.2154366,42.4390924],[3.2154445,42.4390769],[3.2154473,42.4390712],[3.2154596,42.4390469],[3.2159545,42.4380663],[3.2164717,42.435734],[3.2164845,42.435676],[3.2164873,42.4356634],[3.2164952,42.4356279],[3.2154366,42.4390924]],[[3.9546395,43.540522],[4,43.544068],[4.1058411,43.552342],[4,43.544068],[3.9546395,43.540522]],[[5.9346593,43.1133119],[6,43.1013193],[6.0174602,43.0981147],[6,43.1013193],[5.9346593,43.1133119]],[[7.3674737,43.7228883],[7.3890739,43.7583484],[7.4358744,43.7431512],[7.409178,43.7222816],[7.409178,43.7222816],[7.409177,43.7222808],[7.409177,43.7222808],[7.4091711,43.7222762],[7.4091711,43.7222762],[7.4091677,43.7222736],[7.4091677,43.7222736],[7.4091618,43.7222689],[7.4091618,43.7222689],[7.409161,43.7222683],[7.409161,43.7222683],[7.4091447,43.7222555],[7.4091443,43.7222553],[7.4091442,43.7222552],[7.4067223,43.7203619],[7.4067218,43.7203615],[7.4067216,43.7203614],[7.4067181,43.7203586],[7.4016271,43.7120047],[7.4067181,43.7203586],[7.4067173,43.720358],[7.4067173,43.720358],[7.4067162,43.7203571],[7.4067162,43.7203571],[7.4067161,43.720357],[7.4067161,43.720357],[7.4067021,43.7203461],[7.4067021,43.7203461],[7.4066956,43.720341],[7.4066956,43.720341],[7.403474,43.7178226],[7.3674737,43.7228883]]]}}
