{"type":"Feature","properties":{"family":"france","name":"French Republic, 1797"},"geometry":{"type":"Polygon","coordinates":[[[-5.5384844,48.4514139],[-5.5280855,48.3976009],[-5.5016824,48.3462454],[-5.4603852,48.2994187],[-5.4058917,48.2590041],[-5.3404154,48.2266234],[-5.2665947,48.2035735],[-5.2235849,48.1934884],[-5.1441832,48.1806416],[-5.084826,48.1791767],[-5.0791278,48.1737277],[-5.1095617,48.1302411],[-5.1284204,48.0779442],[-5.1313146,48.0241843],[-5.1181782,47.9711045],[-5.0895807,47.9208147],[-5.0466976,47.8753079],[-4.9912579,47.8363831],[-4.9254723,47.8055755],[-4.8519449,47.7840984],[-4.7672033,47.7657738],[-4.7579837,47.7331232],[-4.7298179,47.6854212],[-4.6887795,47.6421553],[-4.6363732,47.6048813],[-4.5745001,47.5749365],[-4.5053892,47.5533937],[-4.4315187,47.5410238],[-4.3555295,47.5382695],[-4.1692835,47.5432938],[-4.0993121,47.5493048],[-4.0358402,47.5626651],[-3.9685367,47.5432958],[-3.8867747,47.5323772],[-3.7404731,47.523225],[-3.7168585,47.5055483],[-3.6537238,47.4737924],[-3.6396083,47.4692649],[-3.6519986,47.4441515],[-3.6617538,47.3916275],[-3.6561452,47.3388246],[-3.6354337,47.2877764],[-3.5954163,47.2169902],[-3.5631944,47.1725637],[-3.5196135,47.1328717],[-3.4661539,47.0992414],[-3.4046154,47.0727951],[-3.3370579,47.0544141],[-3.2657338,47.0447105],[-3.1930157,47.0440074],[-3.0318232,47.0523968],[-2.9529245,47.0619563],[-2.8784205,47.0820859],[-2.8204337,47.1079208],[-2.7902514,47.0881165],[-2.7250189,47.0595426],[-2.6883538,47.0496759],[-2.6907776,47.027703],[-2.6820752,46.9766795],[-2.6593728,46.9277023],[-2.6538491,46.920749],[-2.6659717,46.9133291],[-2.7143116,46.8682158],[-2.7479245,46.8172521],[-2.7654007,46.7626417],[-2.7660367,46.7067389],[-2.762243,46.6797366],[-2.7472473,46.6275566],[-2.7176636,46.5784048],[-2.6746734,46.5341823],[-2.6199653,46.4965954],[-2.5556668,46.4670914],[-2.4842616,46.4468045],[-2.4084963,46.4365136],[-2.3081902,46.4297869],[-2.2295867,46.4299164],[-2.1833154,46.436469],[-2.1578658,46.3931786],[-2.1209299,46.3449349],[-2.070747,46.3027871],[-2.0093795,46.2684441],[-1.9466023,46.2459105],[-1.9391444,46.1985159],[-1.9174318,46.1496161],[-1.8828231,46.1044267],[-1.8365846,46.0645626],[-1.792581,46.0331865],[-1.7818128,45.9851781],[-1.7525233,45.9076045],[-1.7192819,45.8486481],[-1.6672925,45.7966957],[-1.6265887,45.7647246],[-1.6296698,45.7500813],[-1.6335124,45.7011948],[-1.6246399,45.6526309],[-1.6033764,45.6059869],[-1.5704493,45.5627928],[-1.5269614,45.5244622],[-1.5214583,45.5210953],[-1.5224876,45.5171436],[-1.6391328,44.6539344],[-1.6386136,44.5993391],[-1.6336565,44.5827399],[-1.636151,44.5709938],[-1.6546673,44.3358725],[-1.8274502,43.6907551],[-1.8568691,43.6619521],[-1.8710978,43.6480212],[-1.9228665,43.6382276],[-1.9883588,43.6152113],[-2.0463718,43.5833894],[-2.0946823,43.5439896],[-2.1314518,43.4985292],[-2.1552961,43.4487548],[-2.1653348,43.3965741],[-2.1612209,43.3439816],[-2.1556638,43.3283003],[-2.1556633,43.328299],[-2.1556436,43.3282912],[-2.1556183,43.3282812],[-2.1279365,43.3173492],[-1.9754696,43.3675493],[-1.9682095,43.3693033],[-1.9606091,43.3699363],[-1.9529922,43.3694212],[-1.9456831,43.36778],[-1.9424849,43.3664906],[-1.8327108,43.4179852],[-1.8259327,43.420486],[-1.8185958,43.4219306],[-1.8110079,43.4222584],[-1.8034876,43.4214556],[-1.7963506,43.419556],[-1.7898964,43.4166393],[-1.7845388,43.4136232],[-1.7845386,43.4136231],[-1.7845338,43.4136204],[-1.7845338,43.4136204],[-1.7845333,43.4136201],[-1.800372,43.4118121],[-1.8073214,43.4105042],[-1.8137952,43.408249],[-1.8195513,43.4051308],[-1.8243743,43.4012662],[-1.8280839,43.3968001],[-1.8305417,43.3918993],[-1.831656,43.3867473],[-1.8316875,43.3863599],[-1.8316871,43.3863601],[-1.8316871,43.3863601],[-1.8316861,43.3863606],[-1.8316842,43.3863615],[-1.8316761,43.3863653],[-1.8316701,43.3863681],[-1.8126181,43.3953043],[-1.7946179,43.3851728],[-1.798218,43.3412698],[-1.7550176,43.3193183],[-1.7478175,43.2906125],[-1.6722167,43.3041211],[-1.6110161,43.2450209],[-1.5390154,43.2838582],[-1.402214,43.2433324],[-1.4094141,43.1673464],[-1.4886149,43.0812289],[-1.4562146,43.0457688],[-1.3662137,43.0339488],[-1.3482135,43.093049],[-1.2870129,43.1099348],[-1.3122131,43.0694089],[-1.1502115,43.005243],[-1.0278103,42.9866686],[-0.9450095,42.9478313],[-0.7614076,42.9461428],[-0.7398074,42.885354],[-0.6498065,42.8498939],[-0.5706057,42.7722193],[-0.5346053,42.7840393],[-0.5346053,42.8076794],[-0.4230042,42.7907936],[-0.3222032,42.8431395],[-0.2358024,42.7857279],[-0.1602016,42.7958594],[-0.1206012,42.7164962],[-0.0378004,42.6844133],[0.1674017,42.7266277],[0.2394024,42.7097419],[0.2754028,42.6692161],[0.3546035,42.7181848],[0.3906039,42.6844133],[0.6426064,42.6844133],[0.6678067,42.7148077],[0.6318063,42.7452021],[0.6498065,42.8245652],[0.6694175,42.8320389],[0.7074071,42.8465167],[0.9198092,42.7840393],[1.0890109,42.7705307],[1.1502115,42.7063648],[1.3410134,42.7080534],[1.4310143,42.5949187],[1.4670147,42.6421988],[1.5282153,42.6489532],[1.7226172,42.6101159],[1.7118171,42.589853],[1.7658177,42.5628357],[1.7226172,42.5493271],[1.7082171,42.5020469],[1.9,42.4445349],[1.9278193,42.4361924],[1.9362393,42.42],[1.9638196,42.3669608],[2.0106201,42.3466978],[2.0646206,42.3585179],[2.1366214,42.4159295],[2.2770228,42.4294381],[2.5254253,42.3264349],[2.5470255,42.3517636],[2.6622266,42.3382549],[2.6406264,42.3720265],[2.6910269,42.405798],[2.7882279,42.4125523],[2.9322293,42.469964],[3.0294303,42.4648982],[3.0870309,42.4277495],[3.1806318,42.4311267],[3.1830192,42.4042513],[3.1830194,42.4042494],[3.1830195,42.4042487],[3.1830195,42.4042486],[3.1830195,42.4042485],[3.1830195,42.4042484],[3.1830195,42.4042484],[3.1897963,42.4050094],[3.1968066,42.4069358],[3.2031386,42.4098774],[3.2085267,42.413711],[3.2127446,42.4182756],[3.2156152,42.4233798],[3.2170177,42.4288095],[3.2169053,42.4337786],[3.2169055,42.4337777],[3.216912,42.4337484],[3.2170973,42.4329129],[3.2225751,42.3708593],[3.3274052,42.3489918],[3.333979,42.3470925],[3.3399327,42.344293],[3.3450431,42.3406984],[3.3491191,42.3364433],[3.3520081,42.3316871],[3.3536022,42.326608],[3.3538419,42.3213962],[3.3527187,42.3162468],[3.3502749,42.3113526],[3.296243,42.2286279],[3.2926783,42.2242684],[3.2880701,42.2204818],[3.282583,42.2174035],[3.2764127,42.2151431],[3.2697795,42.2137813],[3.2629199,42.2133667],[3.2560786,42.2139141],[3.1694467,42.2270307],[3.1562045,42.2111638],[3.1584223,42.1627184],[3.1584223,42.1627175],[3.1584231,42.1626999],[3.1584234,42.1626998],[3.1739249,42.1613838],[3.2432192,42.1653319],[3.310256,42.1789482],[3.3726144,42.2017416],[3.4280365,42.2328892],[3.4745065,42.2712649],[3.5103236,42.3154792],[3.5341639,42.3639279],[3.5451314,42.4148492],[3.5427939,42.4663868],[3.5272037,42.5166571],[3.5122954,42.5497032],[3.4844835,42.611352],[3.4535568,42.6617759],[3.4092509,42.7064842],[3.4071024,42.7079131],[3.4082704,42.8998426],[3.4371682,42.9647411],[3.4927589,43.0071644],[3.5551653,43.0125469],[3.6229497,43.0231513],[3.6868569,43.0428116],[3.7446515,43.0708416],[4.0098219,43.2266931],[4.0290132,43.2186643],[4.0976245,43.2017769],[4.1694041,43.1949111],[4.3032129,43.1916233],[4.3070841,43.1874808],[4.3580261,43.1507805],[4.4176403,43.1218971],[4.4837061,43.1019008],[4.5537725,43.0915314],[4.7508985,43.0764099],[4.7925604,43.0764384],[4.8153077,43.0730661],[4.8841475,43.0723647],[4.9286959,43.078026],[4.9980232,43.0678026],[5.0414474,43.0678052],[5.0569812,43.0501491],[5.1050063,43.0132103],[5.1616096,42.9835036],[5.2247816,42.9620771],[5.2922893,42.949686],[5.4975016,42.9265472],[5.5917369,42.8559599],[5.6512925,42.8197578],[5.7197763,42.793446],[5.7941851,42.7781741],[5.8712669,42.7746081],[5.9476577,42.7829032],[5.9478934,42.7829677],[6.0033634,42.7580453],[6.0682869,42.740054],[6.1184886,42.7299695],[6.1807246,42.7215854],[6.2439783,42.7211435],[6.3063949,42.7286565],[6.3661431,42.7439037],[6.4020239,42.7556758],[6.4631343,42.7810943],[6.5165786,42.8145719],[6.5604061,42.8548956],[6.5654858,42.8620231],[6.5807132,42.8680033],[6.6382935,42.9032546],[6.6474902,42.9117472],[6.7449638,42.9281777],[6.8189987,42.9468524],[6.8860081,42.9765319],[6.9429827,43.0158883],[6.9619824,43.0361318],[6.9619942,43.0361284],[8.3520814,42.6370276],[8.3521204,42.6370164],[8.3521257,42.6370149],[8.3521371,42.6370116],[8.3522205,42.6369877],[8.3522693,42.6369736],[8.6748653,42.5443548],[8.6748728,42.5443526],[8.6748653,42.5443548],[8.3522693,42.6369736],[8.3522205,42.6369877],[8.3521371,42.6370116],[8.3521257,42.6370149],[8.3521204,42.6370164],[8.3389959,42.5972696],[8.2944508,42.5713532],[8.2476474,42.5306421],[8.2127307,42.4839046],[8.1910517,42.4329871],[8.1834312,42.3798961],[8.1901323,42.3267185],[8.1970934,42.3095361],[8.1873963,42.2785892],[8.1848668,42.2271657],[8.1955749,42.1763048],[8.1965891,42.1742176],[8.1963461,42.1731638],[8.1990911,42.1177772],[8.2170284,42.0639543],[8.2373226,42.0325889],[8.228233,42.0029678],[8.2264805,41.9492266],[8.2390918,41.8962737],[8.2646484,41.8288053],[8.2899284,41.7803691],[8.2970231,41.7719946],[8.2968403,41.7254982],[8.3111325,41.6723604],[8.3393178,41.622403],[8.380231,41.5776343],[8.4322052,41.5398496],[8.4393104,41.5364376],[8.4411967,41.5149041],[8.4580353,41.4660368],[8.4866851,41.4203501],[8.5261231,41.3794356],[8.5749582,41.3447153],[8.631481,41.3173937],[8.8015384,41.2509021],[8.8135745,41.2367099],[8.8630811,41.1980115],[8.9217092,41.1674122],[8.9871471,41.1461112],[8.9878649,41.1459382],[8.9881218,41.1460751],[8.9953268,41.1483501],[9.1123233,41.1743567],[9.1362195,41.2487169],[9.1383459,41.2533973],[9.1415733,41.2577072],[9.1457934,41.2615017],[9.1508645,41.264653],[9.156616,41.2670551],[9.2178352,41.2873256],[9.224456,41.2889599],[9.2313725,41.2896019],[9.2383237,41.2892273],[9.2450473,41.2878503],[9.2512899,41.2855228],[9.256816,41.2823326],[9.2928176,41.2569964],[9.2977257,41.2527326],[9.301347,41.2477946],[9.3019707,41.2462487],[9.306242,41.2445289],[9.3116727,41.2411725],[9.3161283,41.2370841],[9.3177711,41.2347693],[9.3195139,41.2356571],[9.3258206,41.2376837],[9.332525,41.2387705],[9.3387324,41.2388675],[9.3392723,41.2403523],[9.3427162,41.2453685],[9.3474734,41.2497359],[9.3906742,41.2818282],[9.3958871,41.2850306],[9.4018044,41.287445],[9.4082179,41.2889863],[9.4149017,41.2896003],[9.4216204,41.2892654],[9.4281375,41.2879932],[9.4342235,41.2858287],[9.4396641,41.2828481],[9.4442678,41.2791562],[9.4478729,41.2748831],[9.4503526,41.2701791],[9.4509763,41.2685687],[9.4570419,41.2693035],[9.4643777,41.2690539],[9.4714921,41.2676869],[9.478087,41.2652598],[9.4924901,41.2585031],[9.4984455,41.2550029],[9.5032927,41.2506421],[9.5068167,41.2456144],[9.5088615,41.2401432],[9.5093365,41.2344712],[9.5080613,41.2119606],[9.5080591,41.2119222],[9.5080544,41.2118402],[9.5080529,41.2118124],[9.5080522,41.2118004],[9.525292,41.2286229],[9.5557386,41.2739123],[9.5847825,41.3295396],[9.6038745,41.3800851],[9.6055432,41.3955388],[9.6443754,41.4348811],[9.6809271,41.4807918],[9.7046744,41.5312305],[9.7108734,41.5641604],[9.7288567,41.5931247],[9.7537378,41.6479247],[9.7623907,41.7054642],[9.7633309,41.8685437],[9.8548833,41.9667639],[9.8923711,42.0179395],[9.9141866,42.073933],[9.9192683,42.1321303],[9.893108,42.5745672],[9.8814874,42.6311562],[9.8538547,42.6846874],[9.833189,42.7080983],[9.8445378,42.7496611],[9.8505417,42.8240985],[9.8300828,43.011575],[9.8267309,43.0254523],[9.8266937,43.0254278],[9.8266364,43.0253902],[9.801098,43.0086201],[9.7830978,43.028883],[9.8082981,43.0660317],[9.8159019,43.0656355],[9.8159712,43.0656319],[9.7929798,43.1096212],[9.756095,43.1530785],[9.7085872,43.190679],[9.6521589,43.2210596],[9.588846,43.2431169],[9.520943,43.2560482],[9.4052462,43.2696289],[9.3363077,43.2729139],[9.2677618,43.2667823],[9.2020253,43.2514496],[9.1414125,43.2274559],[9.0880509,43.195646],[9.0438046,43.1571383],[9.0102086,43.1132849],[8.9884159,43.0656224],[8.9791599,43.015817],[8.9816183,42.9812664],[8.9642961,42.9770355],[8.8977076,42.9482548],[8.840907,42.9098867],[8.8159666,42.8890427],[8.7048594,42.8663973],[8.6361855,42.8466975],[8.6225848,42.8402381],[8.5962968,42.8360615],[8.5283787,42.8140126],[8.4679835,42.7823504],[8.4175947,42.7423838],[8.3863775,42.7044078],[8.3863853,42.7044056],[8.3864026,42.7044006],[8.3864602,42.704384],[8.3864894,42.7043757],[8.7383672,42.603333],[8.3864894,42.7043757],[8.3864602,42.704384],[8.3864026,42.7044006],[8.3863853,42.7044056],[8.3863775,42.7044078],[8.386363,42.7044119],[7.0081213,43.1001777],[7.0080964,43.1001848],[7.0170815,43.1162194],[7.0432926,43.1821775],[7.0904952,43.1993949],[7.1480504,43.2320112],[7.195758,43.272208],[7.2053138,43.2844871],[7.2174986,43.285832],[7.2845376,43.303234],[7.3458003,43.329617],[7.3990411,43.3640172],[7.4422983,43.4051769],[7.4623903,43.4346338],[7.4878984,43.4409631],[7.5534163,43.4691043],[7.6097025,43.5063289],[7.6245871,43.5212374],[7.6479025,43.5445903],[7.7114321,43.5695317],[7.769558,43.6050415],[7.8165573,43.6483532],[7.8504573,43.6976729],[7.8698171,43.7509532],[7.8732232,43.7981231],[7.8955953,43.8184093],[7.8955936,43.8184088],[7.8955911,43.8184081],[7.8193864,43.7967574],[7.7089223,43.7653731],[7.7089188,43.7653718],[7.7089147,43.765371],[7.7088478,43.765352],[7.7047536,43.7645024],[7.7040639,43.7643593],[7.7040639,43.7643593],[7.7039591,43.7643376],[7.7035446,43.7642516],[7.7039591,43.7643376],[7.7040639,43.7643593],[7.7040639,43.7643593],[7.7047536,43.7645024],[7.7018842,43.7639035],[7.70186,43.763902],[7.7018465,43.7638992],[7.6966393,43.7635805],[7.6945884,43.7634541],[7.5283685,43.764898],[7.5209537,43.7654948],[7.5180218,43.7661754],[7.5180224,43.7661759],[7.5180218,43.7661754],[7.4628795,43.7245194],[7.5180218,43.7661754],[7.5180224,43.7661759],[7.5180224,43.7661759],[7.5276811,43.7734723],[7.5321652,43.7775928],[7.5354594,43.7822626],[7.5374391,43.7873053],[7.5379461,43.7917962],[7.5379454,43.7917962],[7.5379431,43.7917963],[7.5287814,43.7918758],[7.500675,43.79212],[7.4790748,43.8647288],[7.4934749,43.8866803],[7.5917131,43.9763231],[7.6390664,44.0195332],[7.6914769,44.0673581],[7.6410764,44.143344],[7.6554766,44.175427],[7.3422734,44.1230811],[7.0470705,44.2395929],[6.9822698,44.2412815],[6.8893633,44.3424933],[6.8706687,44.3628591],[6.8778688,44.415205],[6.9174692,44.4354679],[6.8598686,44.4743052],[6.8346683,44.5334054],[6.9462695,44.6262771],[6.9354694,44.6465401],[6.9606696,44.6836888],[7.0542705,44.6853773],[6.99667,44.7934463],[7.0074701,44.8221521],[6.9822698,44.8474808],[6.8454685,44.8593008],[6.7446674,44.9082695],[6.7230672,45.0129613],[6.6510665,45.0349128],[6.6070677,45.1],[6.604266,45.1041445],[6.7374674,45.158179],[6.8454685,45.1294732],[6.9570696,45.2105249],[7.0542705,45.213902],[7.1082711,45.2594936],[7.0938709,45.3236596],[7.1622716,45.4114656],[6.9822698,45.5110916],[6.9534695,45.585389],[6.9642696,45.6411121],[6.8166682,45.6968351],[6.7806678,45.7778868],[6.802268,45.8268556],[6.9498695,45.85725],[7.0218702,45.9247931],[6.9858699,45.9923362],[6.9138691,46.0480592],[6.8490685,46.0531249],[6.8706687,46.1122251],[6.7734677,46.1341766],[6.7734677,46.1865225],[6.8274683,46.2692628],[6.7518675,46.3452488],[6.7878679,46.3959061],[6.7698891,46.42],[6.7626676,46.4296777],[6.5466655,46.4566949],[6.301863,46.3942175],[6.2154622,46.3148544],[6.2366531,46.2905578],[6.2802628,46.240557],[6.1311559,46.1531348],[6.1311559,46.1531348],[6.1074611,46.1392424],[5.9783597,46.1318577],[5.9783597,46.1318577],[5.9783597,46.1318577],[5.9598596,46.1307995],[5.9814598,46.1713253],[5.9598596,46.2118512],[6.0894609,46.2456227],[6.131166,46.356973],[6.1362614,46.3705775],[6.0534605,46.4195462],[6.0642606,46.4718921],[6.1470615,46.5512552],[6.1182612,46.5833382],[6.4278643,46.7606388],[6.4422644,46.9446937],[6.6654667,47.0206797],[6.697867,47.0848456],[6.8489053,47.17832],[6.9570696,47.2452605],[6.8489053,47.17832],[6.85,47.17],[7,47.18],[7.15,47.27],[7.3,47.32],[7.45,47.33],[7.55,47.4],[7.6,47.55],[7.5013466,47.55],[7.5870759,47.5846645],[7.5896657,47.6016713],[7.5906759,47.6083046],[7.5875536,47.6122322],[7.5114751,47.7079307],[7.5366754,47.7315707],[7.5258753,47.7839166],[7.55,47.8240355],[7.5654757,47.8497711],[7.5582756,47.8835427],[7.6194762,47.9713487],[7.5762758,48.054089],[7.5798758,48.1148778],[7.6852708,48.25],[7.6878769,48.2533411],[7.702277,48.3107527],[7.7490775,48.3411471],[7.7382774,48.4070016],[7.7706777,48.4897419],[7.8138781,48.5201363],[7.8102781,48.6146967],[7.9578796,48.721077],[7.9686797,48.7565371],[8.0910809,48.8071945],[8.1653716,48.9117314],[8.1920741,48.9493054],[8.199082,48.9591664],[8.1920741,48.9493054],[8.23,48.95],[8.3,49.05],[8.37,49.17],[8.4,49.25],[8.45,49.32],[8.46,49.4],[8.46,49.49],[8.42,49.56],[8.37,49.63],[8.42,49.7],[8.47,49.76],[8.4,49.84],[8.35,49.9],[8.33,49.97],[8.28,50.01],[8.18,50.03],[8.05,50],[7.9,49.97],[7.8,50.03],[7.73,50.12],[7.65,50.2],[7.6,50.27],[7.6,50.35],[7.6,50.36],[7.5,50.42],[7.4,50.45],[7.3,50.53],[7.22,50.6],[7.15,50.68],[7.1,50.74],[7.03,50.83],[6.97,50.93],[6.98,51.02],[6.9,51.1],[6.78,51.2],[6.73,51.3],[6.7,51.38],[6.7065574,51.3914754],[6.7065574,51.3914754],[6.74,51.45],[6.7,51.52],[6.62,51.6],[6.6,51.66],[6.48,51.73],[6.35,51.8],[6.22,51.85],[6.1709091,51.8647273],[6.12,51.88],[6.0973636,51.8825557],[6.1279095,51.8618606],[6.1578616,51.8415678],[6.0822608,51.8533879],[5.958968,51.823096],[5.9310593,51.8162392],[5.9634596,51.7757133],[5.9382594,51.7318103],[5.9930692,51.7207925],[6.0138601,51.7166131],[6.0290824,51.6709176],[6.0318603,51.6625786],[6.0394944,51.6605056],[6.100261,51.6440043],[6.090202,51.609798],[6.0858609,51.5950355],[6.1938619,51.5089181],[6.204662,51.4582608],[6.2038735,51.45],[6.1938619,51.3451261],[6.2038735,51.45],[5.95,51.45],[5.8,51.33],[5.602201,51.2014307],[5.8302583,51.1560054],[5.602201,51.2014307],[5.5674557,51.2083513],[5.5092544,51.2681491],[5.4918549,51.2860259],[5.4604744,51.2779051],[5.3874539,51.2590087],[5.2146521,51.2590087],[5.2146521,51.2623489],[5.2146521,51.2944688],[5.1246512,51.3130431],[5.0670507,51.3738319],[5.0814508,51.4379978],[5.0274503,51.4768351],[4.9086491,51.3924063],[4.7610476,51.4126692],[4.8222482,51.4143578],[4.8222482,51.4751465],[4.7790478,51.4954095],[4.6314463,51.4177349],[4.5414454,51.4194235],[4.5198452,51.4278664],[4.5342453,51.4683922],[4.4838448,51.4751465],[4.3758438,51.4430636],[4.4118441,51.3569461],[4.2606426,51.3687662],[4.2354424,51.4194235],[4.1094411,51.4076035],[4,51.4430475],[3.9582396,51.4565722],[3.900639,51.4042263],[3.8286383,51.3907177],[3.6882369,51.4548836],[3.5370354,51.4599494],[3.4470345,51.5460668],[3.5586356,51.5950355],[3.8502385,51.6102327],[3.904239,51.5697069],[3.8718387,51.5494439],[4,51.5329128],[4,51.5329128],[4.0158402,51.5308696],[4.1058411,51.4464407],[4.2822428,51.4481293],[4.296643,51.4700808],[4.2678427,51.5089181],[4.0914409,51.5342468],[4,51.5830525],[3.9870399,51.5899698],[4,51.5932856],[4.0662407,51.6102327],[4.2066421,51.5899698],[4.1301534,51.6378053],[4.1300335,51.6375061],[4.1268251,51.632069],[4.1218223,51.6271818],[4.115256,51.6230694],[4.1074286,51.619921],[4.0987003,51.6178815],[3.9727668,51.5976304],[3.96475,51.5968234],[3.9566317,51.596957],[3.9486951,51.5980267],[3.9412173,51.599995],[3.9344596,51.6027932],[3.8364952,51.6520268],[3.8364952,51.6520268],[3.8364549,51.652047],[3.8184252,51.6488802],[3.7980134,51.6426437],[3.7327619,51.6588358],[3.732741,51.6588323],[3.732741,51.6588323],[3.7103429,51.6551023],[3.7023409,51.6542528],[3.694224,51.6543402],[3.6862746,51.6553614],[3.6787692,51.6572811],[3.671969,51.6600323],[3.6661109,51.6635193],[3.6613989,51.6676208],[3.6579974,51.672194],[3.6568836,51.6749535],[3.6568812,51.6749593],[3.628563,51.6802436],[3.5535713,51.6857144],[3.4781821,51.6829977],[3.4047105,51.6721769],[2.9886769,51.5856023],[2.8942615,51.5574042],[2.3421812,51.3352599],[1.608677,51.2020696],[1.5316845,51.182543],[1.4621932,51.1540536],[1.3143581,51.0794322],[1.2582302,51.0452393],[1.2129777,51.0051867],[1.1800884,50.9606167],[1.1606257,50.9130194],[1.1551978,50.8639816],[1.1639417,50.8151329],[1.170582,50.7948077],[1.1504973,50.7417425],[1.1388046,50.6795266],[1.1500584,50.6172749],[1.1745137,50.5510107],[1.1429902,50.4706454],[1.1305918,50.4131371],[1.1336938,50.3881764],[1.1280472,50.3656545],[1.1225719,50.3066759],[1.105506,50.2824068],[1.0031563,50.2186753],[0.4727357,50.1154203],[0.3859132,50.0910812],[-0.0257697,49.9366948],[-0.0843843,49.9099103],[-0.1349523,49.8770397],[-0.1759849,49.8390621],[-0.2062855,49.7971064],[-0.3129819,49.6076416],[-0.3144859,49.6038],[-0.3524789,49.6093988],[-0.8154498,49.6523622],[-0.8295763,49.7000776],[-0.861454,49.771109],[-0.8896701,49.8173868],[-0.9306265,49.8595273],[-0.9829499,49.8960864],[-1.0448652,49.9258081],[-1.1142559,49.9476695],[-1.1887373,49.9609171],[-1.3371174,49.9778866],[-1.4243008,49.9818196],[-1.5108259,49.9739818],[-1.5928753,49.9547195],[-1.6340208,49.9417597],[-1.797496,49.978704],[-1.8767496,49.9911147],[-1.9582415,49.993374],[-2.0388399,49.9853956],[-2.1154489,49.9674864],[-2.1851335,49.9403344],[-2.245236,49.9049807],[-2.2934799,49.8627781],[-2.3280566,49.8153376],[-2.3476909,49.7644651],[-2.3581163,49.7188406],[-2.3618834,49.6638574],[-2.3483366,49.6095134],[-2.3180936,49.5580663],[-2.2978356,49.5374744],[-2.2985089,49.5086326],[-2.2820187,49.4536966],[-2.2408706,49.3658196],[-2.2408563,49.3658124],[-2.2408563,49.3658124],[-2.2408289,49.3657987],[-2.2407902,49.3657793],[-2.2407902,49.3657793],[-2.0827739,49.2867104],[-2.0826066,49.2867104],[-2.0753188,49.2862814],[-2.0682606,49.2850184],[-2.061654,49.282961],[-2.0004344,49.2593091],[-1.9932079,49.2557628],[-1.9873347,49.2512739],[-1.983096,49.2460578],[-1.9687118,49.2224127],[-1.9663038,49.2166813],[-1.9658722,49.2107449],[-1.9674372,49.2048918],[-1.9854678,49.1643726],[-1.9883768,49.1595883],[-1.9926208,49.155254],[-1.9980449,49.1515275],[-2.0044513,49.1485447],[-2.0116066,49.146414],[-2.0192502,49.1452131],[-2.0226562,49.1451144],[-2.0226777,49.1451138],[-2.0227015,49.1451131],[-2.0227015,49.1451131],[-2.0227137,49.1451128],[-2.0153391,49.1312712],[-1.9933383,49.1001616],[-2.0005069,49.0661915],[-2.0035575,49.0122713],[-1.9924765,48.9681359],[-2.0281089,48.9633473],[-2.1055159,48.9475402],[-2.1307217,48.9384974],[-2.1853482,48.9545201],[-2.2589686,48.9660832],[-2.3345758,48.9685377],[-2.4095629,48.9617995],[-2.4813454,48.9461013],[-2.5915953,48.9141963],[-2.6175386,48.9393153],[-2.6742175,48.9761209],[-2.6755971,48.976721],[-2.6939264,48.9942239],[-2.7498937,49.0303337],[-2.7732989,49.0405113],[-2.7920693,49.0564205],[-2.8520509,49.0907738],[-2.9210772,49.116888],[-2.9965407,49.1337725],[-3.0755791,49.1407866],[-3.1551885,49.1376643],[-3.1588369,49.1370442],[-3.2046523,49.1420847],[-3.2879257,49.1400907],[-3.3688368,49.1271314],[-3.4359475,49.1062629],[-3.4950138,49.111895],[-3.5720239,49.1097015],[-3.6470208,49.0981134],[-3.7173415,49.0775431],[-3.7804971,49.0487213],[-3.8342631,49.0126701],[-3.8483922,49.0012088],[-3.8908478,48.995847],[-3.941541,49.0016532],[-4.0200986,49.0006611],[-4.0968939,48.9898393],[-4.2994023,48.9473978],[-4.3026629,48.9464724],[-4.3118262,48.94756],[-4.3942887,48.9463256],[-4.4746663,48.9342477],[-4.6952312,48.8850178],[-4.7655317,48.8641799],[-4.8285676,48.8350212],[-4.8430956,48.8251397],[-4.8798946,48.8155009],[-4.946632,48.787089],[-5.0036746,48.7506919],[-5.0090147,48.7465444],[-5.0503493,48.7490662],[-5.1271608,48.7441252],[-5.2011471,48.7297213],[-5.2842806,48.7076564],[-5.3570581,48.6823839],[-5.4205852,48.6479715],[-5.4722777,48.6058313],[-5.5100521,48.5576883],[-5.5324082,48.505508],[-5.5384844,48.4514139]],[[-4.5342453,48.0270718],[-4.4803763,48],[-4.4803763,48],[-4.5342453,48.0270718]],[[-2.1294213,46.8940364],[-2,47.0247843],[-2,47.0247843],[-1.9890199,47.0358769],[-2,47.0247843],[-2,47.0247843],[-2.1294213,46.8940364]],[[-1.4778148,43.5793592],[-1.3625713,44],[-1.3625713,44],[-1.4778148,43.5793592]],[[-1.4058141,46.0531249],[-1.3861163,46],[-1.3861163,46],[-1.4058141,46.0531249]],[[-1.1106111,46.0176648],[-1.0964881,46],[-1.0964881,46],[-1.1106111,46.0176648]],[[-0.2178022,49.2799961],[0,49.3310756],[0.0126001,49.3340306],[0,49.3310756],[-0.2178022,49.2799961]],[[1.2222122,49.9790671],[1.2559433,50],[1.2559433,50],[1.2222122,49.9790671]],[[1.9458195,42.4513896],[1.9566196,42.481784],[1.99982,42.4446353],[1.9818198,42.4412582],[1.9458195,42.4513896]],[[3.2152451,42.4397293],[3.2154445,42.4390769],[3.2154473,42.4390712],[3.2154596,42.4390469],[3.2159545,42.4380663],[3.2164717,42.435734],[3.2164845,42.435676],[3.2164873,42.4356634],[3.2168927,42.4343367],[3.2164873,42.4356634],[3.2154445,42.4390769],[3.2152451,42.4397293]],[[3.9336089,51.4079648],[3.9336142,51.4079743],[3.9336173,51.4079799],[3.9337659,51.4082479],[3.9441753,51.4223014],[3.948244,51.426666],[3.9535463,51.4304814],[3.9598966,51.4336139],[3.9670725,51.4359535],[3.9748224,51.4374183],[3.9828745,51.437957],[3.9909464,51.4375505],[3.9987551,51.4362132],[4.0060267,51.433992],[4.07929,51.4059531],[4.0987733,51.3984966],[4.129185,51.3868607],[4.0987733,51.3984966],[4.0679281,51.4102983],[4.0614092,51.4123386],[4.0544324,51.4136645],[3.9820461,51.4233163],[3.9737963,51.4239041],[3.9655178,51.4234955],[3.9575168,51.4221056],[3.950089,51.4197858],[3.9435092,51.4166219],[3.9380203,51.4127308],[3.9338249,51.4082563],[3.9336089,51.4079648]],[[3.9546395,43.540522],[4,43.544068],[4.1058411,43.552342],[4,43.544068],[3.9546395,43.540522]],[[3.9730208,51.3969306],[3.9834398,51.4109806],[4,51.404644],[4.0453682,51.3872842],[4.1202412,51.3586347],[4.0453682,51.3872842],[3.9730208,51.3969306]],[[5.9346593,43.1133119],[6,43.1013193],[6.0174602,43.0981147],[6,43.1013193],[5.9346593,43.1133119]],[[7.3674737,43.7228883],[7.3890739,43.7583484],[7.4358744,43.7431512],[7.409178,43.7222816],[7.409178,43.7222816],[7.409177,43.7222808],[7.409177,43.7222808],[7.4091711,43.7222762],[7.4091711,43.7222762],[7.4091677,43.7222736],[7.4091677,43.7222736],[7.4091618,43.7222689],[7.4091618,43.7222689],[7.409161,43.7222683],[7.409161,43.7222683],[7.4091447,43.7222555],[7.4091443,43.7222553],[7.4091442,43.7222552],[7.4067223,43.7203619],[7.4067218,43.7203615],[7.4067216,43.7203614],[7.4067181,43.7203586],[7.4067181,43.7203586],[7.4067173,43.720358],[7.401627,43.7120052],[7.4067173,43.720358],[7.4067162,43.7203571],[7.4067162,43.7203571],[7.4067161,43.720357],[7.4067161,43.720357],[7.4067021,43.7203461],[7.4067021,43.7203461],[7.4066956,43.720341],[7.4066956,43.720341],[7.403474,43.7178226],[7.3674737,43.7228883]],[[8.6562866,41.978588],[8.6606342,42],[8.6634866,42.0140481],[8.6606342,42],[8.6562866,41.978588]]]}}
