{"type":"Feature","properties":{"family":"france","name":"French Empire, 1813 – 1814"},"geometry":{"type":"Polygon","coordinates":[[[-5.5385234,48.4513995],[-5.5281451,48.3976411],[-5.5017687,48.3463377],[-5.4605027,48.2995568],[-5.4060427,48.2591789],[-5.3405993,48.2268235],[-5.2668083,48.2037858],[-5.2237999,48.1937003],[-5.1443403,48.1808437],[-5.0850047,48.1793793],[-5.0790531,48.1736911],[-5.1095565,48.130155],[-5.1284311,48.0779034],[-5.1313463,48.0241911],[-5.1182353,47.9711588],[-5.0896666,47.9209133],[-5.0468141,47.8754452],[-4.9914047,47.8365511],[-4.9256471,47.8057646],[-4.8521432,47.7842975],[-4.7672867,47.7659476],[-4.7579957,47.7330825],[-4.7298345,47.6854319],[-4.688807,47.6422146],[-4.6364165,47.6049838],[-4.5745624,47.5750746],[-4.5054717,47.553558],[-4.4316204,47.5412035],[-4.3556473,47.5384531],[-4.1694039,47.543473],[-4.0993879,47.5494849],[-4.0359736,47.5628285],[-3.9686839,47.543468],[-3.8869124,47.5325501],[-3.7406374,47.5233974],[-3.7169744,47.5056863],[-3.6538325,47.4739367],[-3.6395136,47.4693464],[-3.651983,47.4441079],[-3.6617584,47.3916112],[-3.656168,47.3388365],[-3.635472,47.2878163],[-3.5954556,47.2170331],[-3.5632502,47.172635],[-3.5196847,47.1329687],[-3.4662385,47.0993603],[-3.4047107,47.0729315],[-3.3371608,47.0545629],[-3.2658406,47.0448663],[-3.1931223,47.0441646],[-3.0319315,47.0525499],[-2.9530352,47.0621026],[-2.8785278,47.0822175],[-2.8205297,47.1080349],[-2.7903625,47.088243],[-2.7251502,47.0596823],[-2.6883341,47.0497759],[-2.6907789,47.0277217],[-2.6821022,46.9767262],[-2.659426,46.927775],[-2.6537625,46.9206442],[-2.6659272,46.9132019],[-2.714281,46.8680988],[-2.7479048,46.817149],[-2.7653885,46.7625562],[-2.7660279,46.7066746],[-2.7622338,46.6796735],[-2.7472471,46.6275361],[-2.71768,46.5784261],[-2.6747127,46.5342422],[-2.6200319,46.496688],[-2.5557626,46.4672089],[-2.4843863,46.4469376],[-2.4086468,46.436652],[-2.3083429,46.4299233],[-2.229745,46.4300481],[-2.1833983,46.4366046],[-2.1578835,46.3932008],[-2.1209616,46.3449789],[-2.0707898,46.3028517],[-2.00943,46.2685277],[-1.9465976,46.2459879],[-1.9391467,46.1985303],[-1.9174592,46.1496571],[-1.882877,46.1044921],[-1.8366653,46.0646489],[-1.7925757,46.0332111],[-1.7817959,45.9851389],[-1.7525067,45.9075685],[-1.7192955,45.8486666],[-1.6673514,45.7967616],[-1.6265339,45.7647018],[-1.6296377,45.7499485],[-1.6334774,45.7010995],[-1.6246129,45.6525762],[-1.6033679,45.6059731],[-1.5704685,45.5628177],[-1.5270157,45.5245213],[-1.4959861,45.5055295],[-1.6381491,44.6599325],[-1.6397497,44.6085876],[-1.6335629,44.5827158],[-1.6360879,44.570824],[-1.6545981,44.3356861],[-1.8302181,43.6797633],[-1.8448212,43.6628539],[-1.8448737,43.662793],[-1.8471301,43.6601803],[-1.9326856,43.6352897],[-1.9950233,43.6119474],[-2.0501713,43.5805384],[-2.0961666,43.5421888],[-2.1313834,43.4982713],[-2.1545903,43.450354],[-2.1649909,43.4001436],[-2.1683163,43.3562339],[-2.1668105,43.3327043],[-2.1279209,43.3173459],[-1.9754579,43.3675442],[-1.9681966,43.3692987],[-1.9605954,43.3699322],[-1.9529783,43.3694177],[-1.9456696,43.3677771],[-1.9424699,43.3664872],[-1.8327025,43.4179783],[-1.8259227,43.4204799],[-1.8185844,43.4219254],[-1.8109955,43.422254],[-1.8034748,43.4214521],[-1.796338,43.4195533],[-1.7898847,43.4166373],[-1.7845039,43.413608],[-1.7845106,43.4136073],[-1.800346,43.4117996],[-1.8072983,43.4104912],[-1.8137754,43.4082348],[-1.8195347,43.4051152],[-1.8243606,43.4012491],[-1.8280726,43.3967814],[-1.8305319,43.3918793],[-1.8316467,43.3867265],[-1.8316761,43.3863653],[-1.8316701,43.3863681],[-1.8126181,43.3953043],[-1.7946179,43.3851728],[-1.798218,43.3412698],[-1.7550176,43.3193183],[-1.7478175,43.2906125],[-1.6722167,43.3041211],[-1.6110161,43.2450209],[-1.5390154,43.2838582],[-1.402214,43.2433324],[-1.4094141,43.1673464],[-1.4886149,43.0812289],[-1.4562146,43.0457688],[-1.3662137,43.0339488],[-1.3482135,43.093049],[-1.2870129,43.1099348],[-1.3122131,43.0694089],[-1.1502115,43.005243],[-1.0278103,42.9866686],[-0.9450095,42.9478313],[-0.7614076,42.9461428],[-0.7398074,42.885354],[-0.6498065,42.8498939],[-0.5706057,42.7722193],[-0.5346053,42.7840393],[-0.5346053,42.8076794],[-0.4230042,42.7907936],[-0.3222032,42.8431395],[-0.2358024,42.7857279],[-0.1602016,42.7958594],[-0.1206012,42.7164962],[-0.0378004,42.6844133],[0.1674017,42.7266277],[0.2394024,42.7097419],[0.2754028,42.6692161],[0.3546035,42.7181848],[0.3906039,42.6844133],[0.6426064,42.6844133],[0.6678067,42.7148077],[0.6318063,42.7452021],[0.6498065,42.8245652],[0.6694175,42.8320389],[0.7,42.725],[0.75,42.55],[0.7,42.2],[0.65,42.075],[0.6,41.95],[0.51,41.775],[0.42,41.6],[0.35,41.3],[0.25,41.05],[0.3,40.75],[0.41,40.635],[0.5167317,40.5234168],[0.5634056,40.5905775],[0.5167317,40.5234168],[0.5002186,40.4996556],[0.5050755,40.4979343],[0.5120463,40.496677],[0.5192089,40.4965152],[0.5262701,40.4974557],[0.5329408,40.4994599],[0.5389479,40.5024457],[0.5440453,40.5062909],[0.5480239,40.510838],[0.5763632,40.5516056],[0.5764222,40.5515385],[0.3838059,40.2745585],[0.3837588,40.2744908],[0.383762,40.2744897],[0.4005648,40.268539],[0.4700307,40.2560112],[0.5413886,40.2543972],[0.6117495,40.263763],[0.6782629,40.2837296],[0.7049495,40.2969809],[0.7167478,40.2971531],[0.7652996,40.3046549],[0.7653477,40.3046623],[0.7792541,40.306811],[0.8385155,40.32487],[0.8926164,40.3507479],[0.9398021,40.3836095],[1.1343299,40.545236],[1.1748702,40.5858906],[1.2046871,40.6316076],[1.2226959,40.6807614],[1.2282269,40.7316004],[1.2210529,40.7823082],[1.2108327,40.8076769],[2.1581951,41.0148995],[2.2193405,41.0326578],[2.2752168,41.058528],[2.3239557,41.0916489],[2.5156574,41.2475322],[3.0958014,41.4714919],[3.159452,41.5025157],[3.3788062,41.6354489],[3.4317435,41.6747937],[3.4727937,41.7214289],[3.5560528,41.8410716],[3.5828719,41.8911735],[3.5958191,41.9442484],[3.5943421,41.9981794],[3.5784624,42.0508099],[3.5619294,42.0877548],[3.590525,42.1225357],[3.6448647,42.2051129],[3.6695508,42.25406],[3.6810725,42.3056134],[3.678965,42.3578434],[3.6632731,42.40879],[3.6345539,42.4565363],[3.5938616,42.4992815],[3.5427107,42.5354096],[3.5031085,42.554088],[3.4954579,42.5812344],[3.4752785,42.629505],[3.4431961,42.6741482],[3.4137678,42.7012244],[3.4093837,42.9026745],[3.4370509,42.9648006],[3.4925592,43.0071578],[3.5549501,43.0125371],[3.6227373,43.0231408],[3.6866541,43.0428036],[3.744464,43.0708391],[4.0096624,43.2266929],[4.0289499,43.2186233],[4.0975089,43.2017478],[4.1692383,43.1948861],[4.3031887,43.1915923],[4.3071043,43.1874008],[4.358008,43.1507171],[4.4175789,43.1218473],[4.4835997,43.1018603],[4.5536228,43.0914955],[4.750744,43.0763694],[4.7924127,43.0763978],[4.8152144,43.0730191],[4.8840184,43.0723246],[4.9285256,43.0779849],[4.9978711,43.0677557],[5.0414401,43.0677573],[5.0569818,43.0500796],[5.1049748,43.0131441],[5.1615447,42.9834407],[5.224684,42.9620174],[5.2921617,42.9496289],[5.4974849,42.9264734],[5.5917899,42.8558298],[5.6513012,42.8196515],[5.7197323,42.7933592],[5.7940854,42.7781003],[5.8711141,42.77454],[5.9474597,42.7828334],[5.9477738,42.7829195],[6.0032904,42.7579627],[6.0681971,42.7399706],[6.1183971,42.7298851],[6.1805891,42.7215063],[6.2438024,42.7210654],[6.3061849,42.7285751],[6.3659078,42.7438154],[6.4017892,42.7555866],[6.4629293,42.7810171],[6.5164052,42.8145161],[6.5602633,42.8548689],[6.5653157,42.8619575],[6.5805764,42.8679543],[6.6381623,42.9032242],[6.6472915,42.9116567],[6.74475,42.9280817],[6.8188048,42.9467625],[6.8858392,42.9764589],[6.9428407,43.015842],[6.9619026,43.0361547],[6.9619575,43.0361389],[6.961975,43.0361339],[6.9619824,43.0361318],[6.9619942,43.0361284],[8.3520814,42.6370276],[8.3521204,42.6370164],[8.3521257,42.6370149],[8.3521371,42.6370116],[8.3522693,42.6369736],[8.6748653,42.5443548],[8.3522693,42.6369736],[8.3522205,42.6369877],[8.3391335,42.5973484],[8.294658,42.5714693],[8.2478165,42.5307198],[8.212866,42.4839356],[8.19116,42.4329667],[8.1835207,42.3798233],[8.190212,42.3265963],[8.1971715,42.3094033],[8.1874895,42.2784913],[8.1849589,42.2270157],[8.1956749,42.1761088],[8.1966652,42.1740707],[8.1964465,42.1731234],[8.1991707,42.1176899],[8.2170937,42.063825],[8.237398,42.0324155],[8.2283331,42.002872],[8.2265775,41.9490637],[8.2392022,41.8960513],[8.2647578,41.8285856],[8.2900231,41.7801639],[8.2971368,41.7717631],[8.2969211,41.7254771],[8.3111751,41.6723028],[8.3393251,41.6223123],[8.380207,41.5775158],[8.4321545,41.5397103],[8.4394166,41.5362203],[8.4412961,41.5147364],[8.4581251,41.4658536],[8.4867599,41.4201573],[8.5261783,41.379239],[8.5749902,41.3445206],[8.6314876,41.3172062],[8.8016178,41.2506824],[8.8135719,41.2365678],[8.8630499,41.1978517],[8.9216527,41.1672425],[8.9870694,41.1459404],[8.9876198,41.1458077],[8.987636,41.1458163],[8.9876786,41.145839],[8.9877987,41.145903],[8.9878649,41.1459382],[8.9881218,41.1460751],[8.9953268,41.1483501],[9.1123233,41.1743567],[9.1362195,41.2487169],[9.1383459,41.2533973],[9.1415733,41.2577072],[9.1457934,41.2615017],[9.1508645,41.264653],[9.156616,41.2670551],[9.2178352,41.2873256],[9.224456,41.2889599],[9.2313725,41.2896019],[9.2383237,41.2892273],[9.2450473,41.2878503],[9.2512899,41.2855228],[9.256816,41.2823326],[9.2928176,41.2569964],[9.2977257,41.2527326],[9.301347,41.2477946],[9.3019707,41.2462487],[9.306242,41.2445289],[9.3116727,41.2411725],[9.3161283,41.2370841],[9.3177711,41.2347693],[9.3195139,41.2356571],[9.3258206,41.2376837],[9.332525,41.2387705],[9.3387324,41.2388675],[9.3392723,41.2403523],[9.3427162,41.2453685],[9.3474734,41.2497359],[9.3906742,41.2818282],[9.3958871,41.2850306],[9.4018044,41.287445],[9.4082179,41.2889863],[9.4149017,41.2896003],[9.4216204,41.2892654],[9.4281375,41.2879932],[9.4342235,41.2858287],[9.4396641,41.2828481],[9.4442678,41.2791562],[9.4478729,41.2748831],[9.4503526,41.2701791],[9.4509763,41.2685687],[9.4570419,41.2693035],[9.4643777,41.2690539],[9.4714921,41.2676869],[9.478087,41.2652598],[9.4924901,41.2585031],[9.4984455,41.2550029],[9.5032927,41.2506421],[9.5068167,41.2456144],[9.5088615,41.2401432],[9.5093365,41.2344712],[9.5080613,41.2119606],[9.5080591,41.2119222],[9.5251271,41.2285856],[9.5555887,41.2739051],[9.5846354,41.3295336],[9.6037468,41.3801045],[9.6054196,41.3955251],[9.6441589,41.4347716],[9.680744,41.4807152],[9.7045284,41.5311914],[9.71076,41.5641898],[9.7287003,41.5930834],[9.7536233,41.6479708],[9.7622935,41.705601],[9.7632382,41.8685442],[9.8546891,41.9666505],[9.8922324,42.0179005],[9.9140842,42.0739784],[9.9191792,42.132262],[9.9072435,42.3345329],[9.9263577,42.3277891],[9.9973499,42.3146669],[10.0439511,42.3096273],[10.1187366,42.3072445],[10.1925857,42.3161671],[10.2624209,42.3360228],[10.3253263,42.3659837],[10.378665,42.4047991],[10.4094637,42.4389624],[10.4155286,42.4385041],[10.4858416,42.4432524],[10.5158122,42.4497207],[10.5147413,42.4478217],[10.5007293,42.398468],[10.4994331,42.3480305],[10.510867,42.2982772],[10.5346007,42.2509476],[10.5697788,42.2076923],[10.6151539,42.1700163],[10.6691322,42.1392278],[10.7445738,42.1039069],[10.8059711,42.0808085],[10.8720716,42.0666699],[10.9405304,42.0619913],[11.0089228,42.0669376],[11.0748269,42.0813333],[11.1359055,42.1046679],[11.1690546,42.12395],[11.28985,42.1315653],[11.3820453,42.0894943],[11.5057181,41.9117211],[11.5464383,41.8653355],[11.5989389,41.826076],[11.6610039,41.7955836],[11.7300294,41.7751302],[11.8283363,41.7543179],[11.856591,41.7329313],[11.8987093,41.6455022],[11.9323272,41.5936902],[11.9798001,41.5483452],[12.0389523,41.5115172],[12.1979584,41.4320179],[12.3493105,41.2838161],[12.4061382,41.2394768],[12.4747342,41.2059073],[12.5515461,41.1848364],[12.6730346,41.1627839],[12.746659,41.079259],[12.7903161,41.0387239],[12.8434204,41.0052397],[12.903987,40.9800483],[12.9697636,40.9640822],[13.0383117,40.9579313],[13.1070946,40.9618222],[13.1735679,40.9756103],[13.4066898,41.0425016],[13.4695157,41.0659921],[13.525033,41.0982918],[13.5711029,41.1381632],[13.6539623,41.2255298],[13.6539401,41.2255298],[13.60582,41.2255288],[13.6049881,41.2251388],[13.6084463,41.2159314],[13.6096856,41.2107211],[13.6095483,41.2054291],[13.6080402,41.2002593],[13.6052196,41.1954106],[13.6011954,41.1910697],[13.5961225,41.1874034],[13.5901962,41.1845529],[13.5836447,41.1826278],[13.5767198,41.181702],[13.5479312,41.1800142],[13.5418447,41.1800466],[13.5358531,41.1808531],[13.5301287,41.1824105],[13.2846905,41.2671657],[13.2846905,41.2671657],[13.2846905,41.2671657],[13.2846905,41.2671657],[13.2846646,41.2671747],[13.284662,41.2671755],[13.2915206,41.2691441],[13.2975552,41.2713772],[13.3029229,41.2744214],[13.3074341,41.2781692],[13.3109291,41.2824881],[13.3137255,41.2868068],[13.3137221,41.286808],[13.2859329,41.2964028],[13.2786779,41.2943204],[13.0447304,41.2271711],[13.2786779,41.2943204],[13.36,41.42],[13.52,41.55],[13.55,41.7],[13.42,41.82],[13.3,41.95],[13.18,42.05],[13.05,42.15],[12.95,42.3],[13.05,42.48],[13.2,42.62],[13.38,42.75],[13.2,42.75],[13.05,42.85],[12.9,43.05],[12.75,43.3],[12.55,43.5],[12.3,43.62],[12.18,43.68],[12.05,43.82],[11.85,43.97],[11.65,44.1],[11.45,44.15],[11.2,44.18],[11,44.15],[10.9,44.18],[10.67,44.14],[10.55,44.15],[10.5095238,44.117619],[10.58,44.1],[10.65,43.95],[10.65,43.82],[10.55,43.75],[10.4,43.76],[10.28,43.8],[10.2583867,43.806484],[10.25349,43.8331521],[10.2534889,43.833158],[10.2525939,43.8331209],[10.2456039,43.831828],[10.2390913,43.8295894],[10.2332993,43.8264886],[10.2284441,43.8226415],[10.2247066,43.8181916],[10.2222263,43.8133051],[10.2210952,43.8081644],[10.2213553,43.8029612],[10.2656856,43.56236],[10.2214002,43.8027178],[10.2213839,43.8027672],[10.2213282,43.8029362],[10.2146013,43.8394501],[10.1785466,43.9070217],[10.0826219,43.9954185],[10.0028641,44.0248859],[10.0024154,44.0250907],[10.0028769,44.0249201],[10.0100094,44.0229141],[10.0175577,44.0219902],[10.0252076,44.0221868],[10.0326407,44.0234957],[10.0395478,44.0258624],[10.0456411,44.0291883],[10.0506669,44.0333352],[10.0532271,44.0366099],[10.0532258,44.0366104],[10.0532221,44.0366117],[10.0532216,44.0366119],[10.02,44.048889],[10.02,44.048889],[10,44.05628],[10,44.05628],[10.02,44.048889],[10.02,44.1],[9.85,44.25],[9.7,44.4],[9.85,44.45],[10.05,44.38],[10.1428571,44.3892857],[10.25,44.4],[10.4,44.55],[10.5,44.95],[10.42,44.98],[10.2,45],[10.02,45.12],[9.85,45.1],[9.69,45.06],[9.45,45.1],[9.35,45.1],[9.27,45.13],[9.03,45.12],[8.79,45.11],[8.55,45.1],[8.5,45.18],[8.45,45.27],[8.42,45.38],[8.4,45.5],[8.37,45.6],[8.3,45.68],[8.27,45.77],[8.2,45.82],[8.08,45.86],[7.95,45.88],[7.86,45.93],[7.86,45.9439734],[7.86,45.9439734],[7.896679,45.9822047],[7.9866799,45.9990905],[8.0262803,46.0919622],[8.1090811,46.1274223],[8.1306813,46.196654],[8.0766808,46.2625085],[8.2818828,46.3705775],[8.3178832,46.4330548],[8.400684,46.4516292],[8.4294843,46.448252],[8.4461398,46.415441],[8.43,46.48],[8.42,46.58],[8.33,46.57],[8.13,46.55],[7.95,46.49],[7.69,46.43],[7.53,46.41],[7.36,46.37],[7.2,46.33],[7.1,46.27],[7.02,46.22],[6.95,46.3],[6.86,46.42],[6.7698891,46.42],[6.7878679,46.3959061],[6.7698891,46.42],[6.7626676,46.4296777],[6.5466655,46.4566949],[6.301863,46.3942175],[6.2154622,46.3148544],[6.2366531,46.2905578],[6.18,46.3],[6.131166,46.356973],[6.1362614,46.3705775],[6.0534605,46.4195462],[6.0642606,46.4718921],[6.1470615,46.5512552],[6.1182612,46.5833382],[6.4278643,46.7606388],[6.4422644,46.9446937],[6.6654667,47.0206797],[6.697867,47.0848456],[6.8489053,47.17832],[6.9570696,47.2452605],[6.8489053,47.17832],[6.85,47.17],[6.93,47.12],[7.05,47.06],[7.2,47.1],[7.3,47.15],[7.45,47.25],[7.55,47.38],[7.6,47.55],[7.5013466,47.55],[7.5870759,47.5846645],[7.5896657,47.6016713],[7.5906759,47.6083046],[7.5875536,47.6122322],[7.5114751,47.7079307],[7.5366754,47.7315707],[7.5258753,47.7839166],[7.55,47.8240355],[7.5654757,47.8497711],[7.5582756,47.8835427],[7.6194762,47.9713487],[7.5762758,48.054089],[7.5798758,48.1148778],[7.6852708,48.25],[7.6878769,48.2533411],[7.702277,48.3107527],[7.7490775,48.3411471],[7.7382774,48.4070016],[7.7706777,48.4897419],[7.8138781,48.5201363],[7.8102781,48.6146967],[7.9578796,48.721077],[7.9686797,48.7565371],[8.0910809,48.8071945],[8.1653716,48.9117314],[8.1920741,48.9493054],[8.199082,48.9591664],[8.1920741,48.9493054],[8.23,48.95],[8.3,49.05],[8.37,49.17],[8.4,49.25],[8.45,49.32],[8.46,49.4],[8.46,49.49],[8.42,49.56],[8.37,49.63],[8.42,49.7],[8.47,49.76],[8.4,49.84],[8.35,49.9],[8.33,49.97],[8.28,50.01],[8.18,50.03],[8.05,50],[7.9,49.97],[7.8,50.03],[7.73,50.12],[7.65,50.2],[7.6,50.27],[7.6,50.35],[7.6,50.36],[7.5,50.42],[7.4,50.45],[7.3,50.53],[7.22,50.6],[7.15,50.68],[7.1,50.74],[7.03,50.83],[6.97,50.93],[6.98,51.02],[6.9,51.1],[6.78,51.2],[6.73,51.3],[6.7,51.38],[6.7065574,51.3914754],[6.7065574,51.3914754],[6.74,51.45],[6.7,51.52],[6.62,51.6],[6.6,51.66],[6.9,51.72],[7.05,51.75],[7.2,51.78],[7.45,51.82],[7.75,51.85],[7.875,51.9],[8,51.95],[8.1847826,52.046087],[8.25,52.08],[8.45,52.15],[8.7,52.27],[8.92,52.29],[9.06,52.37],[9.2,52.45],[9.5,52.62],[9.8,52.85],[10.1,53.05],[10.4,53.2],[10.56,53.37],[10.65,53.6],[10.7493631,53.8484076],[10.75,53.85],[10.80875,53.9283333],[10.7,53.88],[10.62,53.82],[10.5,53.72],[10.35,53.6],[10.2,53.52],[10.1,53.63],[9.95,53.62],[9.8,53.56],[9.7,53.6066667],[9.65,53.63],[9.5378425,53.6823402],[9.5469826,53.6437564],[9.5469882,53.6437328],[9.5469882,53.6437328],[9.5490955,53.6348369],[9.5469882,53.6437328],[9.5469882,53.6437328],[9.5469826,53.6437564],[9.5378425,53.6823402],[9.5378425,53.6823402],[9.5315274,53.7089987],[9.523346,53.7078751],[9.5151484,53.7056729],[9.510274,53.7035959],[9.4790041,53.731497],[9.4374944,53.7479716],[9.4232674,53.77522],[9.3103774,53.8332985],[9.3172055,53.8271946],[9.3267975,53.8186198],[9.3333548,53.812758],[9.3522937,53.7958277],[9.3547552,53.7936272],[9.3614641,53.7876299],[9.3687195,53.7811439],[9.4046156,53.7490548],[9.4046156,53.7490548],[9.4410405,53.716493],[9.4458568,53.7121875],[9.4458568,53.7121875],[9.4458876,53.71216],[9.5814958,53.5909339],[9.4458876,53.71216],[9.4458568,53.7121875],[9.4458568,53.7121875],[9.4410405,53.716493],[9.4046156,53.7490548],[9.325,53.79],[9.1932207,53.8577722],[9.243115,53.8618422],[9.2495851,53.86237],[9.1932207,53.8577722],[9.1932207,53.8577722],[9.1932207,53.8577722],[9.2532832,53.8626717],[9.2231822,53.8781577],[9.2152575,53.8814168],[9.2063437,53.8836158],[9.1968407,53.884656],[9.1871751,53.8844906],[8.9999672,53.8692317],[8.9999591,53.8692319],[8.9823143,53.8696036],[8.9737727,53.8702556],[8.965589,53.8718395],[8.9580527,53.8742992],[8.9514306,53.8775477],[8.9005761,53.9076643],[8.9004204,53.9077762],[8.8830887,53.9180399],[8.8782355,53.9214254],[8.8743874,53.925234],[8.7915103,54.0248304],[8.7884294,54.029629],[8.7869479,54.0346842],[8.78712,54.0398133],[8.7889401,54.0448308],[8.7923429,54.0495553],[8.7972058,54.0538156],[8.8033532,54.0574578],[8.8105629,54.0603498],[8.8185739,54.0623869],[8.8270963,54.0634954],[8.8358212,54.0636351],[8.9607328,54.0585627],[8.971822,54.0933467],[8.9564945,54.1107068],[8.9416704,54.1095072],[8.9376981,54.1106946],[8.8757049,54.0988708],[8.8667545,54.0977236],[8.8575951,54.0976414],[8.8485902,54.0986273],[8.8400972,54.1006423],[8.8324532,54.1036063],[8.8259619,54.1074017],[8.8208815,54.1118779],[8.7852339,54.1512461],[8.7852319,54.1512483],[8.7810967,54.1522082],[8.6972892,54.1616326],[8.6119134,54.1617422],[8.5279696,54.1525329],[8.4484048,54.1343274],[8.3760046,54.1077641],[8.2966289,54.0721333],[8.2308419,54.0359892],[8.1990725,54.009944],[8.1518347,54.0268304],[8.0673392,54.0448698],[7.9876888,54.0567631],[7.9047323,54.0644234],[7.8207618,54.063],[7.7386466,54.0525411],[7.737252,54.0521971],[7.6778616,54.0513883],[7.5947622,54.0457207],[7.5148181,54.0312161],[7.5143923,54.031085],[7.4304816,54.0260563],[7.387024,54.0209621],[7.3035575,54.0061572],[7.2264187,53.9822693],[7.1584323,53.9501764],[7.135564,53.9343151],[7.1029096,53.926746],[7.0328307,53.9010749],[6.9415711,53.8603719],[6.8603367,53.8717506],[6.7719709,53.8737138],[6.6306946,53.8686219],[6.5437898,53.8603894],[6.4612152,53.8424029],[6.3860857,53.8153419],[6.321221,53.7802272],[6.3130391,53.773673],[6.2527089,53.7768921],[6.1685466,53.7767124],[6.0858895,53.7673139],[6.0076083,53.7490229],[5.9480798,53.7311436],[5.6932505,53.7372493],[5.6132639,53.734881],[5.5352381,53.724191],[5.5165602,53.7194579],[5.4781319,53.7162454],[5.3189199,53.6930136],[5.1488512,53.6697441],[5.0550021,53.650157],[4.9706856,53.6188547],[4.8877303,53.5798345],[4.825542,53.5442707],[4.820124,53.5396981],[4.7914715,53.5333022],[4.7199346,53.5075164],[4.6576633,53.4743044],[4.5497305,53.4047906],[4.4985819,53.3648278],[4.4608193,53.3198727],[4.4377238,53.2715008],[4.4366494,53.2644901],[4.3431393,53.1863993],[4.3002492,53.1421124],[4.2721397,53.0937469],[4.259781,53.043057],[4.2635655,52.9918751],[4.2755729,52.9615732],[4.0953264,52.4443667],[3.8721676,52.2420107],[3.8379127,52.2351037],[3.7611801,52.2081666],[3.694885,52.1723216],[3.6417138,52.1290357],[3.6037976,52.0800759],[3.582629,52.027435],[3.5822889,52.0223511],[3.5505607,52.0060723],[3.4991877,51.9669093],[3.4737127,51.9599966],[3.4019411,51.9285961],[3.3419188,51.8889291],[3.2960725,51.842621],[3.2706705,51.7991673],[3.1957155,51.7661796],[3.1327911,51.7323462],[3.0815153,51.6916773],[3.0437535,51.6456783],[3.0208577,51.596047],[3.0203314,51.5923092],[2.9883634,51.5855944],[2.893977,51.5574018],[2.3419011,51.3352373],[1.6083964,51.2020244],[1.5314169,51.182499],[1.4619463,51.154016],[1.3141178,51.0793913],[1.2580292,51.0452202],[1.2128122,51.0051961],[1.1799516,50.9606591],[1.1605088,50.9130967],[1.1550902,50.8640929],[1.1638325,50.8152745],[1.1704833,50.7949196],[1.1503851,50.7418143],[1.1387021,50.6796322],[1.1499552,50.617409],[1.1744235,50.5511153],[1.1428861,50.4707078],[1.1304962,50.4132159],[1.1336009,50.3882731],[1.1279532,50.365743],[1.1224766,50.3067275],[1.1053615,50.2823861],[1.00296,50.218617],[0.4725415,50.1153458],[0.3857134,50.0910023],[-0.0259571,49.9366048],[-0.1023728,49.8995073],[-0.1635774,49.8521666],[-0.2063896,49.7970812],[-0.3130739,49.6076196],[-0.3145996,49.6037215],[-0.3525037,49.6093068],[-0.8153606,49.6522507],[-0.8294859,49.699966],[-0.8613638,49.7710005],[-0.8895815,49.8172735],[-0.9305475,49.8594116],[-0.9828875,49.8959699],[-1.0448251,49.925692],[-1.1142421,49.9475546],[-1.1887517,49.9608041],[-1.3371359,49.9777708],[-1.4243811,49.9817049],[-1.5109631,49.973861],[-1.5930583,49.9545865],[-1.6340998,49.9416581],[-1.7974505,49.9785695],[-1.8767284,49.9909838],[-1.9582457,49.9932489],[-2.0388683,49.9852785],[-2.1154991,49.9673797],[-2.1852016,49.9402401],[-2.245317,49.9049011],[-2.2935683,49.8627152],[-2.3281464,49.8152933],[-2.3477763,49.7644408],[-2.3581995,49.7188176],[-2.3619593,49.6638808],[-2.3484148,49.6095818],[-2.3181834,49.5581749],[-2.2979083,49.5375713],[-2.2985817,49.5086713],[-2.282105,49.4537913],[-2.2409234,49.365846],[-2.2409066,49.3658376],[-2.2408706,49.3658196],[-2.2408563,49.3658124],[-2.2408563,49.3658124],[-2.2408289,49.3657987],[-2.2407902,49.3657793],[-2.2407902,49.3657793],[-2.0827739,49.2867104],[-2.0826066,49.2867104],[-2.0753188,49.2862814],[-2.0682606,49.2850184],[-2.061654,49.282961],[-2.0004344,49.2593091],[-1.9932079,49.2557628],[-1.9873347,49.2512739],[-1.983096,49.2460578],[-1.9687118,49.2224127],[-1.9663038,49.2166813],[-1.9658722,49.2107449],[-1.9674372,49.2048918],[-1.9854678,49.1643726],[-1.9883768,49.1595883],[-1.9926208,49.155254],[-1.9980449,49.1515275],[-2.0044513,49.1485447],[-2.0116066,49.146414],[-2.0192502,49.1452131],[-2.0226562,49.1451144],[-2.0226777,49.1451138],[-2.0227015,49.1451131],[-2.0227015,49.1451131],[-2.0227137,49.1451128],[-2.0227423,49.1451119],[-2.0227433,49.1451119],[-2.0154246,49.131375],[-1.9933834,49.1002121],[-2.0005684,49.0661609],[-2.0036121,49.0122654],[-1.992489,48.9680105],[-2.0281719,48.9632141],[-2.105609,48.9473996],[-2.1307282,48.9383876],[-2.1853046,48.954389],[-2.2589633,48.9659505],[-2.3346102,48.9684003],[-2.4096348,48.9616547],[-2.4814492,48.9459469],[-2.5915139,48.914092],[-2.6174771,48.9392156],[-2.6741425,48.9759931],[-2.6754821,48.9765757],[-2.6939688,48.9942042],[-2.749962,49.0302808],[-2.7731845,49.0403641],[-2.7920951,49.0563729],[-2.8521027,49.090698],[-2.9211546,49.116785],[-2.9966415,49.1336444],[-3.0756998,49.1406363],[-3.1553239,49.1374956],[-3.1588473,49.1368963],[-3.2047299,49.1419325],[-3.288027,49.139923],[-3.3689562,49.1269517],[-3.4359745,49.1061079],[-3.4949593,49.1117308],[-3.5720198,49.1095361],[-3.6470646,49.0979426],[-3.7174263,49.0773637],[-3.7806121,49.0485313],[-3.8343944,49.0124691],[-3.848512,49.0010161],[-3.8907954,48.9956801],[-3.9415662,49.0014837],[-4.0201424,49.00048],[-4.0969537,48.9896509],[-4.2994604,48.9472037],[-4.3026506,48.9462982],[-4.3117454,48.9473774],[-4.3942781,48.9461392],[-4.4747226,48.9340489],[-4.6952853,48.8848127],[-4.7655714,48.8639818],[-4.8285952,48.8348417],[-4.8431966,48.8249167],[-4.8799517,48.8152905],[-4.9467301,48.7868637],[-5.0037975,48.7504506],[-5.0090679,48.7463568],[-5.0503453,48.748867],[-5.1271865,48.743914],[-5.2011993,48.7295002],[-5.2843315,48.7074329],[-5.3570959,48.6821683],[-5.4206121,48.647777],[-5.4722979,48.6056698],[-5.5100715,48.5575698],[-5.5324337,48.5054394],[-5.5385234,48.4513995]],[[-4.5342453,48.0270718],[-4.4803763,48],[-4.4803763,48],[-4.5342453,48.0270718]],[[-2.1294213,46.8940364],[-2,47.0247843],[-2,47.0247843],[-1.9890199,47.0358769],[-2,47.0247843],[-2,47.0247843],[-2.1294213,46.8940364]],[[-1.4778148,43.5793592],[-1.3625713,44],[-1.3625713,44],[-1.4778148,43.5793592]],[[-1.4058141,46.0531249],[-1.3861163,46],[-1.3861163,46],[-1.4058141,46.0531249]],[[-1.1106111,46.0176648],[-1.0964881,46],[-1.0964881,46],[-1.1106111,46.0176648]],[[-0.2178022,49.2799961],[0,49.3310756],[0.0126001,49.3340306],[0,49.3310756],[-0.2178022,49.2799961]],[[1.2222122,49.9790671],[1.2559433,50],[1.2559433,50],[1.2222122,49.9790671]],[[1.4058141,42.4868497],[1.4490145,42.5037355],[1.4058141,42.5290642],[1.4310143,42.5949187],[1.4670147,42.6421988],[1.5282153,42.6489532],[1.7226172,42.6101159],[1.7118171,42.589853],[1.7658177,42.5628357],[1.7226172,42.5493271],[1.7082171,42.5020469],[1.5174152,42.4294381],[1.4490145,42.4345038],[1.4058141,42.4868497]],[[1.9,42.42],[1.9,42.4445349],[1.9278193,42.4361924],[1.9362393,42.42],[1.9,42.42]],[[1.9458195,42.4513896],[1.9566196,42.481784],[1.99982,42.4446353],[1.9818198,42.4412582],[1.9458195,42.4513896]],[[3.2141584,42],[3.2141584,42],[3.2346323,41.9650794],[3.2141584,42]],[[3.8718387,51.5494439],[4,51.5329128],[4,51.5329128],[3.8718387,51.5494439]],[[3.9402394,51.7419418],[4,51.7076824],[4,51.7076824],[4.0374404,51.6862187],[4,51.7076824],[4,51.7076824],[3.9402394,51.7419418]],[[3.9546395,43.540522],[4,43.544068],[4.1058411,43.552342],[4,43.544068],[3.9546395,43.540522]],[[3.9582396,51.4565722],[4,51.4430475],[4.1094411,51.4076035],[4,51.4430475],[3.9582396,51.4565722]],[[3.9834398,51.4109806],[4,51.404644],[4.0453682,51.3872842],[4.1202412,51.3586347],[4.0453682,51.3872842],[4,51.404644],[3.9834398,51.4109806]],[[3.9870399,51.5899698],[4,51.5830525],[4.0914409,51.5342468],[4,51.5830525],[3.9870399,51.5899698]],[[3.9870399,51.5899698],[4,51.5932856],[4.0662407,51.6102327],[4,51.5932856],[3.9870399,51.5899698]],[[4,51.6298781],[4,51.6298781],[4.0878409,51.6440043],[4,51.6298781]],[[5.9346593,43.1133119],[6,43.1013193],[6.0174602,43.0981147],[6,43.1013193],[5.9346593,43.1133119]],[[6.717439,43.1836479],[7.0079641,43.1002228],[7.0080018,43.100212],[7.0169866,43.1162461],[7.0431583,43.1820986],[7.0903254,43.1993064],[7.1478982,43.2319391],[7.195626,43.2721583],[7.2051397,43.2843833],[7.2173445,43.2857305],[7.2843925,43.3031417],[7.3456678,43.3295408],[7.3989233,43.3639636],[7.4421956,43.4051509],[7.4622272,43.4345256],[7.4877193,43.440851],[7.5532504,43.4690015],[7.609555,43.5062422],[7.6246237,43.5213429],[7.6904861,43.5207354],[7.7627413,43.5251537],[7.8324558,43.5396172],[8.2054882,43.6455477],[8.260447,43.6649103],[8.3103238,43.690496],[8.4074154,43.7493848],[8.4524563,43.7817291],[8.4892926,43.8191136],[8.5168495,43.8604641],[8.561764,43.9455848],[8.6022072,43.9631398],[8.668153,43.9994446],[8.7214354,44.0452912],[8.7594274,44.0984466],[8.7716138,44.1214419],[8.824832,44.1445537],[8.923451,44.1279827],[8.9600331,44.1045727],[9.0205709,44.0729424],[9.0885708,44.0505177],[9.1613575,44.0381778],[9.2038298,44.0371766],[9.6133285,43.82417],[9.6742029,43.7982071],[9.7407053,43.7809355],[9.8104823,43.7729648],[9.88107,43.7745755],[9.8880075,43.7756987],[9.8882768,43.7706912],[9.9477377,43.4576124],[9.9669246,43.4015397],[10.0020586,43.3496956],[10.1512739,43.1778392],[10.1408645,43.0596734],[10.0525645,43.0514411],[9.9849392,43.0402795],[9.9214295,43.0200193],[9.8643037,42.9913855],[9.8346228,42.9694671],[9.8300054,43.0117113],[9.8266937,43.0254278],[9.8266364,43.0253902],[9.801098,43.0086201],[9.7830978,43.028883],[9.8082981,43.0660317],[9.8159019,43.0656355],[9.8159712,43.0656319],[9.8159757,43.0656316],[9.7929123,43.1097855],[9.7560439,43.1532503],[9.7085589,43.1908547],[9.6521585,43.2212359],[9.5888768,43.2432909],[9.5210064,43.2562178],[9.4053063,43.2697958],[9.3363687,43.2730736],[9.2678222,43.2669256],[9.2020846,43.2515681],[9.141471,43.2275424],[9.0881097,43.195695],[9.043865,43.1571461],[9.0102722,43.1132497],[8.9884843,43.0655444],[8.9792347,43.0156986],[8.9816799,42.9813833],[8.9644472,42.9771699],[8.897886,42.9483842],[8.841097,42.9100137],[8.8161915,42.8891973],[8.7050816,42.866548],[8.6363845,42.8468351],[8.6228027,42.8403819],[8.5963743,42.8361741],[8.5284673,42.8140986],[8.4680801,42.7824068],[8.4176956,42.7424085],[8.3864602,42.704384],[8.3864026,42.7044006],[8.3863853,42.7044056],[8.3863775,42.7044078],[8.386363,42.7044119],[7.0081213,43.1001777],[7.0080964,43.1001848],[7.0080886,43.1001871],[7.0080719,43.1001918],[7.0079641,43.1002228],[6.717439,43.1836479]],[[7.3674737,43.7228883],[7.3890739,43.7583484],[7.4358744,43.7431512],[7.409178,43.7222816],[7.409178,43.7222816],[7.409177,43.7222808],[7.409177,43.7222808],[7.4091711,43.7222762],[7.4091711,43.7222762],[7.4091677,43.7222736],[7.4091677,43.7222736],[7.4091618,43.7222689],[7.4091618,43.7222689],[7.409161,43.7222683],[7.409161,43.7222683],[7.4091447,43.7222555],[7.4091443,43.7222553],[7.4091442,43.7222552],[7.4067223,43.7203619],[7.4067218,43.7203615],[7.4067216,43.7203614],[7.4067181,43.7203586],[7.4067181,43.7203586],[7.4067173,43.720358],[7.4067173,43.720358],[7.4067162,43.7203571],[7.4067162,43.7203571],[7.4067161,43.720357],[7.4067161,43.720357],[7.4067021,43.7203461],[7.4067021,43.7203461],[7.4066956,43.720341],[7.4066956,43.720341],[7.403474,43.7178226],[7.3674737,43.7228883]],[[8.5948053,53.9010873],[8.594856,53.9011149],[8.5955225,53.9014779],[8.6249871,53.9146738],[8.6322279,53.917327],[8.6401793,53.9191429],[8.6485651,53.9200585],[8.657094,53.920042],[8.6631688,53.9193544],[8.6571183,53.9200344],[8.6486288,53.9200449],[8.6402795,53.9191285],[8.632359,53.9173169],[8.6251407,53.9146727],[8.5948053,53.9010873]],[[8.6232282,53.88],[8.6526865,53.8931892],[8.6967654,53.88],[8.6967654,53.88],[8.6232282,53.88]],[[8.6562866,41.978588],[8.6606342,42],[8.6634866,42.0140481],[8.6606342,42],[8.6562866,41.978588]],[[11.9179192,42.0376882],[12,42.0019386],[12,42.0019386],[11.9179192,42.0376882]]]}}
