{"type":"Feature","properties":{"family":"france","name":"French Empire, 1808 – 1809"},"geometry":{"type":"Polygon","coordinates":[[[-5.5384895,48.451417],[-5.5280865,48.3976395],[-5.5016845,48.3463172],[-5.4603929,48.2995192],[-5.4059087,48.259127],[-5.3404442,48.2267612],[-5.2666364,48.2037177],[-5.2236272,48.193632],[-5.1441909,48.1807781],[-5.0848718,48.1793125],[-5.0790717,48.1737679],[-5.1095758,48.1301935],[-5.1284274,48.0779273],[-5.1313181,48.0241992],[-5.1181817,47.9711506],[-5.0895876,47.9208893],[-5.0467109,47.8754069],[-4.9912796,47.8365009],[-4.9255035,47.8057056],[-4.8519859,47.7842335],[-4.7672369,47.7659063],[-4.7579755,47.7331414],[-4.7298042,47.6854647],[-4.6887622,47.642222],[-4.636354,47.604968],[-4.5744803,47.5750392],[-4.5053701,47.5535078],[-4.4315008,47.5411444],[-4.3555134,47.5383913],[-4.1692671,47.5434125],[-4.0992823,47.5494224],[-4.0358373,47.5627732],[-3.9685604,47.5434129],[-3.886778,47.5324914],[-3.7405196,47.5233398],[-3.7169044,47.5056629],[-3.6537602,47.4739047],[-3.6395549,47.4693489],[-3.6519902,47.4441637],[-3.6617543,47.391662],[-3.6561552,47.3388802],[-3.6354534,47.2878507],[-3.5954377,47.217066],[-3.5632202,47.1726481],[-3.5196403,47.1329629],[-3.466178,47.0993377],[-3.404634,47.0728949],[-3.3370685,47.054516],[-3.2657348,47.0448133],[-3.1930063,47.04411],[-3.0318131,47.0524967],[-2.9529195,47.0620518],[-2.8784198,47.0821718],[-2.8204389,47.1079932],[-2.7902715,47.0882027],[-2.7250455,47.0596361],[-2.6883453,47.0497605],[-2.6907792,47.0277363],[-2.6820864,46.9767322],[-2.6593952,46.927772],[-2.6537914,46.9207177],[-2.6659694,46.9132662],[-2.7143089,46.8681683],[-2.7479221,46.8172224],[-2.7653996,46.7626312],[-2.7660377,46.7067483],[-2.7622442,46.6797467],[-2.747252,46.6275859],[-2.7176728,46.5784518],[-2.6746877,46.5342447],[-2.6199848,46.4966702],[-2.5556911,46.4671751],[-2.48429,46.4468931],[-2.4085275,46.4366031],[-2.3082219,46.4298748],[-2.2296219,46.430001],[-2.183349,46.4365493],[-2.1578848,46.3932314],[-2.1209566,46.3449977],[-2.0707792,46.3028577],[-2.0094146,46.2685202],[-1.9466113,46.2459799],[-1.9391527,46.1985465],[-1.9174516,46.1496644],[-1.8828562,46.1044901],[-1.8366321,46.0646376],[-1.7925915,46.0332344],[-1.7818181,45.9851941],[-1.7525299,45.9076223],[-1.7193034,45.848692],[-1.6673345,45.7967606],[-1.6265744,45.7647449],[-1.6296696,45.7500345],[-1.6335105,45.7011701],[-1.6246415,45.6526291],[-1.6033864,45.6060071],[-1.5704719,45.5628329],[-1.527,45.524519],[-1.4960357,45.5055662],[-1.6382085,44.6600199],[-1.6398077,44.6086667],[-1.6336237,44.5828088],[-1.6361478,44.5709225],[-1.6546637,44.3357872],[-1.830304,43.6798575],[-1.8450107,43.6628289],[-1.8472502,43.6602358],[-1.9328394,43.6353368],[-1.995161,43.6120022],[-2.0502929,43.5806041],[-2.0962739,43.5422676],[-2.1314797,43.4983637],[-2.1546798,43.4504591],[-2.1650785,43.4002591],[-2.168405,43.356349],[-2.1668933,43.3327353],[-2.1667558,43.3326809],[-2.1279321,43.3173487],[-1.975466,43.3675484],[-1.9682056,43.3693026],[-1.9606052,43.3699356],[-1.9529883,43.3694207],[-1.9456794,43.3677797],[-1.9424805,43.3664901],[-1.8327081,43.4179838],[-1.8259296,43.4204848],[-1.8185924,43.4219296],[-1.8110044,43.4222577],[-1.8034841,43.4214552],[-1.7963473,43.4195558],[-1.7898934,43.4166393],[-1.7845173,43.4136128],[-1.800362,43.4118041],[-1.8073132,43.410496],[-1.813789,43.4082404],[-1.8195469,43.4051217],[-1.8243714,43.4012568],[-1.8280823,43.3967904],[-1.8305409,43.3918895],[-1.8316554,43.3867376],[-1.8316861,43.3863606],[-1.8316842,43.3863615],[-1.8316761,43.3863653],[-1.8316701,43.3863681],[-1.8126181,43.3953043],[-1.7946179,43.3851728],[-1.798218,43.3412698],[-1.7550176,43.3193183],[-1.7478175,43.2906125],[-1.6722167,43.3041211],[-1.6110161,43.2450209],[-1.5390154,43.2838582],[-1.402214,43.2433324],[-1.4094141,43.1673464],[-1.4886149,43.0812289],[-1.4562146,43.0457688],[-1.3662137,43.0339488],[-1.3482135,43.093049],[-1.2870129,43.1099348],[-1.3122131,43.0694089],[-1.1502115,43.005243],[-1.0278103,42.9866686],[-0.9450095,42.9478313],[-0.7614076,42.9461428],[-0.7398074,42.885354],[-0.6498065,42.8498939],[-0.5706057,42.7722193],[-0.5346053,42.7840393],[-0.5346053,42.8076794],[-0.4230042,42.7907936],[-0.3222032,42.8431395],[-0.2358024,42.7857279],[-0.1602016,42.7958594],[-0.1206012,42.7164962],[-0.0378004,42.6844133],[0.1674017,42.7266277],[0.2394024,42.7097419],[0.2754028,42.6692161],[0.3546035,42.7181848],[0.3906039,42.6844133],[0.6426064,42.6844133],[0.6678067,42.7148077],[0.6318063,42.7452021],[0.6498065,42.8245652],[0.6694175,42.8320389],[0.7074071,42.8465167],[0.9198092,42.7840393],[1.0890109,42.7705307],[1.1502115,42.7063648],[1.3410134,42.7080534],[1.4310143,42.5949187],[1.4670147,42.6421988],[1.5282153,42.6489532],[1.7226172,42.6101159],[1.7118171,42.589853],[1.7658177,42.5628357],[1.7226172,42.5493271],[1.7082171,42.5020469],[1.9,42.4445349],[1.9278193,42.4361924],[1.9362393,42.42],[1.9638196,42.3669608],[2.0106201,42.3466978],[2.0646206,42.3585179],[2.1366214,42.4159295],[2.2770228,42.4294381],[2.5254253,42.3264349],[2.5470255,42.3517636],[2.6622266,42.3382549],[2.6406264,42.3720265],[2.6910269,42.405798],[2.7882279,42.4125523],[2.9322293,42.469964],[3.0294303,42.4648982],[3.0870309,42.4277495],[3.1806318,42.4311267],[3.1830192,42.4042513],[3.1830194,42.4042494],[3.189784,42.4050091],[3.1967965,42.4069362],[3.2031308,42.4098789],[3.2085212,42.4137137],[3.2127413,42.4182798],[3.2156136,42.4233855],[3.2170174,42.4288166],[3.2169058,42.433779],[3.2170976,42.4329143],[3.2225758,42.370855],[3.3274095,42.3489867],[3.3339824,42.3470877],[3.3399351,42.344289],[3.3450448,42.3406955],[3.3491201,42.3364416],[3.3520086,42.3316869],[3.3536024,42.3266094],[3.3538422,42.3213991],[3.3527193,42.316251],[3.350276,42.311358],[3.2962442,42.2286334],[3.2926793,42.2242737],[3.2880707,42.2204871],[3.2825828,42.2174086],[3.2764117,42.2151481],[3.2697775,42.2137862],[3.2629169,42.2133716],[3.2560748,42.2139191],[3.1694469,42.227035],[3.1562045,42.2111679],[3.1584242,42.1626832],[3.1584242,42.1626831],[3.173793,42.1613783],[3.2431001,42.1653291],[3.3101536,42.1789513],[3.3725312,42.2017535],[3.4279735,42.2329123],[3.4744632,42.271301],[3.5102979,42.3155291],[3.5341527,42.3639913],[3.5451304,42.4149248],[3.5427985,42.4664719],[3.5272089,42.5167483],[3.5123566,42.5496695],[3.4844867,42.6114452],[3.4535732,42.6618462],[3.4092887,42.7065323],[3.4071057,42.7079841],[3.4082728,42.8999291],[3.4371535,42.9647871],[3.4926766,43.0071572],[3.5550446,43.0125354],[3.6228434,43.0231413],[3.686768,43.0428062],[3.7445816,43.0708436],[4.0097288,43.2266726],[4.0289392,43.2186357],[4.0975283,43.2017536],[4.1692883,43.194889],[4.3031538,43.1915976],[4.3070496,43.1874281],[4.3579722,43.1507374],[4.4175652,43.1218616],[4.48361,43.1018702],[4.5536575,43.0915026],[4.7507825,43.0763778],[4.7924478,43.0764063],[4.8152367,43.0730293],[4.8840689,43.0723331],[4.928572,43.0779917],[4.9979115,43.0677659],[5.0413924,43.067768],[5.0569317,43.0500991],[5.1049392,43.0131633],[5.1615249,42.9834591],[5.2246808,42.9620345],[5.2921751,42.9496441],[5.4974367,42.9264963],[5.5917067,42.8558797],[5.6512437,42.8196877],[5.7197074,42.7933848],[5.7940972,42.7781197],[5.871163,42.7745581],[5.9475431,42.7828551],[5.9477874,42.7829221],[6.0032623,42.7579898],[6.0681814,42.7399965],[6.1183824,42.7299111],[6.1806074,42.7215283],[6.2438536,42.7210871],[6.3062669,42.7286005],[6.3660164,42.7438479],[6.4018979,42.7556196],[6.4630347,42.7810482],[6.516506,42.8145413],[6.5603591,42.8548846],[6.5654256,42.861992],[6.5806535,42.8679743],[6.6382515,42.9032442],[6.6473966,42.9116902],[6.7448279,42.9281121],[6.818892,42.946795],[6.8859322,42.976491],[6.9429359,43.015871],[6.9619575,43.0361389],[6.9619026,43.0361547],[6.9618758,43.0361624],[6.6825799,43.1163496],[6.9618758,43.0361624],[6.9619026,43.0361547],[6.961975,43.0361339],[6.9619824,43.0361318],[6.9619942,43.0361284],[8.3520814,42.6370276],[8.3521204,42.6370164],[8.3521257,42.6370149],[8.3521371,42.6370116],[8.3390227,42.5972929],[8.2945473,42.5714167],[8.247712,42.5306806],[8.2127661,42.4839141],[8.1910622,42.4329654],[8.1834223,42.3798433],[8.1901103,42.3266366],[8.1970787,42.3094227],[8.1873927,42.2785194],[8.1848556,42.2270617],[8.1955642,42.1761707],[8.1965678,42.1741052],[8.1963437,42.1731347],[8.1990671,42.1177204],[8.2169883,42.0638727],[8.237303,42.032453],[8.2282278,42.002887],[8.2264694,41.9491039],[8.2390869,41.8961146],[8.2646421,41.8286476],[8.2899121,41.7802227],[8.2970232,41.7718271],[8.2968147,41.7254732],[8.3110777,41.6723153],[8.3392369,41.6223397],[8.3801282,41.5775555],[8.4320854,41.5397589],[8.4392983,41.5362936],[8.4411819,41.5147714],[8.4580117,41.4659022],[8.4866482,41.4202168],[8.5260694,41.379306],[8.5748856,41.3445911],[8.6313887,41.3172759],[8.8014924,41.2507629],[8.8134851,41.2366105],[8.8629718,41.197905],[8.9215835,41.1673017],[8.9870094,41.1460002],[8.9876786,41.145839],[8.9877987,41.145903],[8.9878649,41.1459382],[8.9881218,41.1460751],[8.9953268,41.1483501],[9.1123233,41.1743567],[9.1362195,41.2487169],[9.1383459,41.2533973],[9.1415733,41.2577072],[9.1457934,41.2615017],[9.1508645,41.264653],[9.156616,41.2670551],[9.2178352,41.2873256],[9.224456,41.2889599],[9.2313725,41.2896019],[9.2383237,41.2892273],[9.2450473,41.2878503],[9.2512899,41.2855228],[9.256816,41.2823326],[9.2928176,41.2569964],[9.2977257,41.2527326],[9.301347,41.2477946],[9.3019707,41.2462487],[9.306242,41.2445289],[9.3116727,41.2411725],[9.3161283,41.2370841],[9.3177711,41.2347693],[9.3195139,41.2356571],[9.3258206,41.2376837],[9.332525,41.2387705],[9.3387324,41.2388675],[9.3392723,41.2403523],[9.3427162,41.2453685],[9.3474734,41.2497359],[9.3906742,41.2818282],[9.3958871,41.2850306],[9.4018044,41.287445],[9.4082179,41.2889863],[9.4149017,41.2896003],[9.4216204,41.2892654],[9.4281375,41.2879932],[9.4342235,41.2858287],[9.4396641,41.2828481],[9.4442678,41.2791562],[9.4478729,41.2748831],[9.4503526,41.2701791],[9.4509763,41.2685687],[9.4570419,41.2693035],[9.4643777,41.2690539],[9.4714921,41.2676869],[9.478087,41.2652598],[9.4924901,41.2585031],[9.4984455,41.2550029],[9.5032927,41.2506421],[9.5068167,41.2456144],[9.5088615,41.2401432],[9.5093365,41.2344712],[9.5080613,41.2119606],[9.5080591,41.2119222],[9.5080544,41.2118402],[9.52526,41.2286337],[9.5557252,41.2739546],[9.5847704,41.329583],[9.6038748,41.3801478],[9.6055448,41.3955745],[9.6443109,41.4348498],[9.6808854,41.4807828],[9.7046575,41.5312442],[9.71088,41.5642269],[9.7288345,41.5931445],[9.7537416,41.6479992],[9.7624047,41.7055927],[9.7633457,41.868588],[9.8548269,41.9667306],[9.8923524,42.0179567],[9.914192,42.0740045],[9.919282,42.1322548],[9.9073383,42.3345393],[9.926312,42.3278479],[9.9973125,42.3147279],[10.0439147,42.3096887],[10.1187178,42.3073033],[10.1925851,42.3162203],[10.2624386,42.3360676],[10.3253615,42.3660173],[10.3787168,42.4048195],[10.4095638,42.4390131],[10.4154517,42.4385676],[10.4857871,42.4433057],[10.5157624,42.4497676],[10.5146391,42.4477763],[10.5006303,42.3984468],[10.4993343,42.3480347],[10.5107654,42.2983062],[10.5344938,42.2509991],[10.5696648,42.2077624],[10.6150317,42.1700998],[10.669002,42.1393183],[10.7444455,42.103997],[10.8058538,42.0808939],[10.8719696,42.066748],[10.9404474,42.0620598],[11.0088616,42.0669945],[11.0747892,42.0813768],[11.1275286,42.1015079],[11.1377592,42.0997618],[11.2089426,42.0981565],[11.2791588,42.1068387],[11.3181916,42.1177701],[11.3265854,42.1201209],[11.3501176,42.1149519],[11.4229819,42.1047552],[11.497077,42.105683],[11.5693582,42.1176964],[11.636853,42.1403009],[11.6929211,42.1704889],[11.630911,42.2601651],[11.4338382,42.3502055],[11.4331203,42.350612],[11.4338429,42.3502818],[11.440038,42.3480148],[11.4466973,42.3466499],[11.4535822,42.3462359],[11.4604461,42.3467877],[11.4670431,42.3482854],[11.4731369,42.3506755],[11.478509,42.3538723],[11.4829669,42.3577612],[11.4840982,42.3589584],[11.4529963,42.3731726],[11.62,42.55],[11.8,42.72],[11.78,42.88],[11.93,43],[12,43.12],[11.97,43.25],[12.1,43.38],[12.15,43.55],[12.18,43.68],[12.05,43.82],[11.85,43.97],[11.65,44.1],[11.45,44.15],[11.2,44.18],[11,44.15],[10.9,44.18],[10.67,44.14],[10.55,44.15],[10.5095238,44.117619],[10.58,44.1],[10.65,43.95],[10.65,43.82],[10.55,43.75],[10.4,43.76],[10.28,43.8],[10.2583867,43.806484],[10.25349,43.8331521],[10.2525997,43.8331153],[10.2456076,43.8318231],[10.2390928,43.8295853],[10.2332987,43.8264853],[10.2284414,43.822639],[10.2247022,43.8181899],[10.2222205,43.8133043],[10.2210884,43.8081643],[10.221348,43.802962],[10.2213839,43.8027672],[10.2213282,43.8029362],[10.2146013,43.8394501],[10.1785466,43.9070217],[10.0826219,43.9954185],[10.0028641,44.0248859],[10.0024154,44.0250907],[10.0023905,44.025102],[10.0023791,44.0251072],[10.0028666,44.0249271],[10.0100005,44.0229207],[10.0175507,44.0219963],[10.0252028,44.0221924],[10.0326383,44.0235008],[10.0395477,44.025867],[10.0456432,44.0291926],[10.0506708,44.033339],[10.0532288,44.0366093],[10.0532282,44.0366095],[10.0532282,44.0366095],[10.0532271,44.0366099],[10.0532258,44.0366104],[10.0532221,44.0366117],[10.0532216,44.0366119],[10.02,44.048889],[10.02,44.048889],[10,44.05628],[10,44.05628],[10.02,44.048889],[10.02,44.1],[9.85,44.25],[9.7,44.4],[9.85,44.45],[10.05,44.38],[10.1428571,44.3892857],[10.25,44.4],[10.4,44.55],[10.5,44.95],[10.42,44.98],[10.2,45],[10.02,45.12],[9.85,45.1],[9.69,45.06],[9.45,45.1],[9.35,45.1],[9.27,45.13],[9.03,45.12],[8.79,45.11],[8.55,45.1],[8.5,45.18],[8.45,45.27],[8.42,45.38],[8.4,45.5],[8.37,45.6],[8.3,45.68],[8.27,45.77],[8.2,45.82],[8.08,45.86],[7.95,45.88],[7.86,45.93],[7.86,45.9439734],[7.86,45.9439734],[7.8318783,45.9146616],[7.695077,45.9281702],[7.6446764,45.9670075],[7.5402754,45.9838933],[7.3926739,45.9163502],[7.1550716,45.8758243],[7.0902709,45.8808901],[7.0218702,45.9247931],[6.9858699,45.9923362],[6.9138691,46.0480592],[6.8490685,46.0531249],[6.8706687,46.1122251],[6.7734677,46.1341766],[6.7734677,46.1865225],[6.8274683,46.2692628],[6.7518675,46.3452488],[6.7878679,46.3959061],[6.7698891,46.42],[6.7626676,46.4296777],[6.5466655,46.4566949],[6.301863,46.3942175],[6.2154622,46.3148544],[6.2366531,46.2905578],[6.18,46.3],[6.131166,46.356973],[6.1362614,46.3705775],[6.0534605,46.4195462],[6.0642606,46.4718921],[6.1470615,46.5512552],[6.1182612,46.5833382],[6.4278643,46.7606388],[6.4422644,46.9446937],[6.6654667,47.0206797],[6.697867,47.0848456],[6.8489053,47.17832],[6.9570696,47.2452605],[6.8489053,47.17832],[6.85,47.17],[6.93,47.12],[7.05,47.06],[7.2,47.1],[7.3,47.15],[7.45,47.25],[7.55,47.38],[7.6,47.55],[7.5013466,47.55],[7.5870759,47.5846645],[7.5896657,47.6016713],[7.5906759,47.6083046],[7.5875536,47.6122322],[7.5114751,47.7079307],[7.5366754,47.7315707],[7.5258753,47.7839166],[7.55,47.8240355],[7.5654757,47.8497711],[7.5582756,47.8835427],[7.6194762,47.9713487],[7.5762758,48.054089],[7.5798758,48.1148778],[7.6852708,48.25],[7.6878769,48.2533411],[7.702277,48.3107527],[7.7490775,48.3411471],[7.7382774,48.4070016],[7.7706777,48.4897419],[7.8138781,48.5201363],[7.8102781,48.6146967],[7.9578796,48.721077],[7.9686797,48.7565371],[8.0910809,48.8071945],[8.1653716,48.9117314],[8.1920741,48.9493054],[8.199082,48.9591664],[8.1920741,48.9493054],[8.23,48.95],[8.3,49.05],[8.37,49.17],[8.4,49.25],[8.45,49.32],[8.46,49.4],[8.46,49.49],[8.42,49.56],[8.37,49.63],[8.42,49.7],[8.47,49.76],[8.4,49.84],[8.35,49.9],[8.33,49.97],[8.28,50.01],[8.18,50.03],[8.05,50],[7.9,49.97],[7.8,50.03],[7.73,50.12],[7.65,50.2],[7.6,50.27],[7.6,50.35],[7.6,50.36],[7.5,50.42],[7.4,50.45],[7.3,50.53],[7.22,50.6],[7.15,50.68],[7.1,50.74],[7.03,50.83],[6.97,50.93],[6.98,51.02],[6.9,51.1],[6.78,51.2],[6.73,51.3],[6.7,51.38],[6.7065574,51.3914754],[6.7065574,51.3914754],[6.74,51.45],[6.7,51.52],[6.62,51.6],[6.6,51.66],[6.48,51.73],[6.35,51.8],[6.22,51.85],[6.1709091,51.8647273],[6.12,51.88],[6.0973636,51.8825557],[6.1279095,51.8618606],[6.1578616,51.8415678],[6.0822608,51.8533879],[5.958968,51.823096],[5.9310593,51.8162392],[5.9634596,51.7757133],[5.9382594,51.7318103],[5.9930692,51.7207925],[6.0138601,51.7166131],[6.0290824,51.6709176],[6.0318603,51.6625786],[6.0394944,51.6605056],[6.100261,51.6440043],[6.090202,51.609798],[6.0858609,51.5950355],[6.1938619,51.5089181],[6.204662,51.4582608],[6.2038735,51.45],[6.1938619,51.3451261],[6.2038735,51.45],[5.95,51.45],[5.8,51.33],[5.602201,51.2014307],[5.8302583,51.1560054],[5.602201,51.2014307],[5.5674557,51.2083513],[5.5092544,51.2681491],[5.4918549,51.2860259],[5.4604744,51.2779051],[5.3874539,51.2590087],[5.2146521,51.2590087],[5.2146521,51.2623489],[5.2146521,51.2944688],[5.1246512,51.3130431],[5.0670507,51.3738319],[5.0814508,51.4379978],[5.0274503,51.4768351],[4.9086491,51.3924063],[4.7610476,51.4126692],[4.8222482,51.4143578],[4.8222482,51.4751465],[4.7790478,51.4954095],[4.6314463,51.4177349],[4.5414454,51.4194235],[4.5198452,51.4278664],[4.5342453,51.4683922],[4.4838448,51.4751465],[4.3758438,51.4430636],[4.4118441,51.3569461],[4.2606426,51.3687662],[4.2354424,51.4194235],[4.1094411,51.4076035],[4,51.4430475],[3.9582396,51.4565722],[3.900639,51.4042263],[3.8286383,51.3907177],[3.6882369,51.4548836],[3.5370354,51.4599494],[3.4470345,51.5460668],[3.5586356,51.5950355],[3.8502385,51.6102327],[3.904239,51.5697069],[3.8718387,51.5494439],[4,51.5329128],[4,51.5329128],[4.0158402,51.5308696],[4.1058411,51.4464407],[4.2822428,51.4481293],[4.296643,51.4700808],[4.2678427,51.5089181],[4.0914409,51.5342468],[4,51.5830525],[3.9870399,51.5899698],[4,51.5932856],[4.0662407,51.6102327],[4.2066421,51.5899698],[4.1301534,51.6378053],[4.1301526,51.6378057],[4.130033,51.6375072],[4.1268245,51.63207],[4.1218216,51.6271827],[4.115255,51.6230702],[4.1074274,51.6199217],[4.0986989,51.6178821],[3.9727654,51.5976312],[3.9647486,51.5968241],[3.9566303,51.5969578],[3.9486939,51.5980273],[3.9412163,51.5999956],[3.9344587,51.6027937],[3.8364267,51.6520614],[3.8363812,51.6520843],[3.8182845,51.6489058],[3.7978337,51.6426571],[3.7326808,51.6588234],[3.7103415,51.6551032],[3.7023397,51.6542537],[3.694223,51.654341],[3.6862738,51.6553621],[3.6787687,51.6572816],[3.6719687,51.6600326],[3.6661108,51.6635194],[3.6613991,51.6676206],[3.6579978,51.6721935],[3.6568914,51.6749344],[3.6283829,51.6802541],[3.5533889,51.6857256],[3.4780032,51.6830097],[3.4045409,51.6721897],[2.9885141,51.5856092],[2.8941369,51.5574205],[2.3420398,51.3352575],[1.6085137,51.2020508],[1.53155,51.1825311],[1.4620894,51.1540532],[1.3142589,51.079431],[1.2581597,51.0452539],[1.2129327,51.0052198],[1.1800639,50.9606698],[1.1606155,50.9130923],[1.1551947,50.8640727],[1.1639383,50.8152391],[1.1705813,50.7949059],[1.1504904,50.741824],[1.1388012,50.67962],[1.1500556,50.6173752],[1.1745139,50.5511033],[1.1429835,50.4707204],[1.130588,50.4132145],[1.133691,50.3882676],[1.1280437,50.3657399],[1.1225669,50.3067423],[1.105467,50.2824239],[1.0030532,50.2186499],[0.472606,50.1153809],[0.385796,50.0910438],[-0.0258762,49.936653],[-0.1022869,49.8995589],[-0.1634909,49.8522183],[-0.2063065,49.7971298],[-0.3129977,49.6076686],[-0.3145359,49.6037391],[-0.3525681,49.6093432],[-0.8154457,49.6522906],[-0.8295651,49.6999783],[-0.8614441,49.7710114],[-0.8896663,49.8172937],[-0.9306351,49.85944],[-0.982976,49.8960048],[-1.0449125,49.9257317],[-1.114326,49.9475969],[-1.1888299,49.9608468],[-1.3372112,49.9778139],[-1.4244143,49.9817471],[-1.5109535,49.9739081],[-1.5930094,49.9546436],[-1.6341337,49.9416895],[-1.7975569,49.9786189],[-1.8768118,49.9910304],[-1.958302,49.9932945],[-2.0388961,49.9853248],[-2.1154988,49.9674281],[-2.1851756,49.9402918],[-2.2452697,49.9049565],[-2.2935052,49.8627743],[-2.3280742,49.8153551],[-2.3477022,49.7645039],[-2.3581269,49.7188804],[-2.3618901,49.6639187],[-2.3483415,49.6095934],[-2.3180992,49.5581612],[-2.2978429,49.5375746],[-2.2985159,49.5087025],[-2.2820327,49.4537961],[-2.2408289,49.3657987],[-2.2407902,49.3657793],[-2.2407902,49.3657793],[-2.0827739,49.2867104],[-2.0826066,49.2867104],[-2.0753188,49.2862814],[-2.0682606,49.2850184],[-2.061654,49.282961],[-2.0004344,49.2593091],[-1.9932079,49.2557628],[-1.9873347,49.2512739],[-1.983096,49.2460578],[-1.9687118,49.2224127],[-1.9663038,49.2166813],[-1.9658722,49.2107449],[-1.9674372,49.2048918],[-1.9854678,49.1643726],[-1.9883768,49.1595883],[-1.9926208,49.155254],[-1.9980449,49.1515275],[-2.0044513,49.1485447],[-2.0116066,49.146414],[-2.0192502,49.1452131],[-2.0226562,49.1451144],[-2.0226777,49.1451138],[-2.0153567,49.1313723],[-1.9933364,49.100236],[-2.0005144,49.0662223],[-2.0035614,49.0123134],[-1.992446,48.9680696],[-2.0282061,48.9632633],[-2.1056108,48.9474562],[-2.1307927,48.9384219],[-2.185377,48.9544303],[-2.2590208,48.9659954],[-2.3346504,48.9684498],[-2.4096567,48.9617094],[-2.4814532,48.9460073],[-2.5916101,48.914127],[-2.6175556,48.9392369],[-2.6742378,48.9760309],[-2.6755808,48.976615],[-2.693996,48.9941847],[-2.7499815,49.030278],[-2.7732843,49.0404033],[-2.7921179,49.0563561],[-2.8521161,49.0906985],[-2.921158,49.116803],[-2.9966348,49.1336793],[-3.0756833,49.140687],[-3.1552985,49.1375604],[-3.1589182,49.1369451],[-3.2047444,49.1419831],[-3.2880316,49.139985],[-3.3689508,49.1270226],[-3.4360417,49.1061591],[-3.4950476,49.1117864],[-3.5720757,49.1095958],[-3.6470875,49.0980101],[-3.7174184,49.077442],[-3.7805782,49.0486225],[-3.8343414,49.012574],[-3.8485006,49.0010879],[-3.8909131,48.9957359],[-3.9416261,49.0015398],[-4.0201985,49.0005431],[-4.0970041,48.9897177],[-4.2995093,48.9472731],[-4.3027425,48.9463554],[-4.3118691,48.9474385],[-4.3943681,48.9462027],[-4.4747767,48.934119],[-4.6953379,48.8848858],[-4.7656147,48.8640563],[-4.8286273,48.8349144],[-4.8432002,48.8250051],[-4.879977,48.8153739],[-4.9467202,48.7869628],[-5.0037606,48.7505679],[-5.009107,48.7464152],[-5.05042,48.748933],[-5.1272529,48.7439875],[-5.2012554,48.7295787],[-5.2843873,48.7075126],[-5.3571449,48.682248],[-5.4206511,48.6478519],[-5.4723236,48.6057354],[-5.5100804,48.5576221],[-5.5324225,48.5054754],[-5.5384895,48.451417]],[[-4.5342453,48.0270718],[-4.4803763,48],[-4.4803763,48],[-4.5342453,48.0270718]],[[-2.1294213,46.8940364],[-2,47.0247843],[-2,47.0247843],[-1.9890199,47.0358769],[-2,47.0247843],[-2,47.0247843],[-2.1294213,46.8940364]],[[-1.4778148,43.5793592],[-1.3625713,44],[-1.3625713,44],[-1.4778148,43.5793592]],[[-1.4058141,46.0531249],[-1.3861163,46],[-1.3861163,46],[-1.4058141,46.0531249]],[[-1.1106111,46.0176648],[-1.0964881,46],[-1.0964881,46],[-1.1106111,46.0176648]],[[-0.2178022,49.2799961],[0,49.3310756],[0.0126001,49.3340306],[0,49.3310756],[-0.2178022,49.2799961]],[[1.2222122,49.9790671],[1.2559433,50],[1.2559433,50],[1.2222122,49.9790671]],[[1.9458195,42.4513896],[1.9566196,42.481784],[1.99982,42.4446353],[1.9818198,42.4412582],[1.9458195,42.4513896]],[[3.2152457,42.4397383],[3.2154518,42.4390633],[3.2159549,42.4380666],[3.2164814,42.4356927],[3.2160426,42.4371292],[3.2152457,42.4397383]],[[3.9336389,51.4080163],[3.9337665,51.4082466],[3.9441759,51.4223001],[3.9482447,51.4266648],[3.953547,51.4304802],[3.9598974,51.4336128],[3.9670734,51.4359526],[3.9748233,51.4374175],[3.9828755,51.4379562],[3.9909474,51.4375499],[3.9987561,51.4362126],[4.0060276,51.4339915],[4.1291702,51.3868631],[4.1291679,51.3868629],[4.0679148,51.4102989],[4.0613932,51.41234],[4.054414,51.4136664],[3.9820277,51.4233181],[3.9737799,51.4239059],[3.965504,51.4234979],[3.9575059,51.422109],[3.9500813,51.4197905],[3.9435043,51.4166283],[3.9380178,51.412739],[3.9338242,51.4082665],[3.9336389,51.4080163]],[[3.9546395,43.540522],[4,43.544068],[4.1058411,43.552342],[4,43.544068],[3.9546395,43.540522]],[[3.9730208,51.3969306],[3.9834398,51.4109806],[4,51.404644],[4.0453682,51.3872842],[4.1202412,51.3586347],[4.0453682,51.3872842],[3.9730208,51.3969306]],[[5.9346593,43.1133119],[6,43.1013193],[6.0174602,43.0981147],[6,43.1013193],[5.9346593,43.1133119]],[[7.0080719,43.1001918],[7.0170773,43.1162625],[7.0432574,43.1821408],[7.0904095,43.1993416],[7.1479894,43.2319751],[7.1957201,43.2721938],[7.2052352,43.2844204],[7.2173915,43.2857623],[7.2844516,43.3031735],[7.3457364,43.3295715],[7.3989988,43.3639919],[7.442275,43.4051755],[7.4623241,43.4345719],[7.4877931,43.4408917],[7.5533356,43.4690456],[7.6096467,43.5062888],[7.6247028,43.5213769],[7.6904947,43.5207709],[7.7627814,43.5251919],[7.8325246,43.5396617],[8.2055583,43.645598],[8.2605307,43.6649664],[8.3104174,43.6905579],[8.4075078,43.7494483],[8.4525456,43.7817911],[8.4893776,43.8191712],[8.5169291,43.860515],[8.5618472,43.9456477],[8.6022836,43.9632006],[8.6682323,43.9995072],[8.7215139,44.045352],[8.7595017,44.0985019],[8.7716928,44.1215075],[8.8248434,44.1445909],[8.9233647,44.1280373],[8.9599365,44.1046342],[9.0204861,44.0729996],[9.0885034,44.0505714],[9.1613118,44.0382292],[9.2037422,44.0372288],[9.6132326,43.8242341],[9.6741195,43.7982688],[9.7406387,43.780995],[9.8104357,43.7730224],[9.8810452,43.7746317],[9.8879322,43.7757463],[9.8882029,43.7707019],[9.9476594,43.4576176],[9.966834,43.4015819],[10.001946,43.3497691],[10.1511943,43.1778708],[10.1407735,43.0596046],[10.0525475,43.0513806],[9.9849151,43.040222],[9.9213978,43.0199692],[9.8642635,42.9913467],[9.8347021,42.9695296],[9.8300924,43.0117005],[9.8267659,43.0254752],[9.8267433,43.0254604],[9.8267309,43.0254523],[9.8266937,43.0254278],[9.8266364,43.0253902],[9.801098,43.0086201],[9.7830978,43.028883],[9.8082981,43.0660317],[9.8159019,43.0656355],[9.8159712,43.0656319],[9.8159757,43.0656316],[9.8159998,43.0656304],[9.8160525,43.0656276],[9.7929971,43.1097526],[9.7561244,43.1532084],[9.7086332,43.1908055],[9.6522245,43.2211819],[9.5889327,43.2432347],[9.5210503,43.2561621],[9.4053527,43.2697407],[9.3364,43.2730222],[9.2678372,43.2668796],[9.2020825,43.2515292],[9.1414517,43.227512],[9.0880735,43.1956738],[9.0438133,43.1571347],[9.0102068,43.1132482],[8.9884078,43.0655526],[8.97915,43.015716],[8.9815978,42.9813251],[8.964384,42.9771177],[8.897791,42.9483243],[8.8409798,42.9099429],[8.8160852,42.8891363],[8.7050158,42.866497],[8.6363056,42.8467838],[8.6227207,42.8403306],[8.5963584,42.8361368],[8.5284258,42.8140658],[8.4680162,42.7823775],[8.4176139,42.7423821],[8.3864026,42.7044006],[8.3864602,42.704384],[8.3864894,42.7043757],[8.7383672,42.603333],[8.3864894,42.7043757],[8.3864602,42.704384],[8.3863853,42.7044056],[8.3863775,42.7044078],[8.386363,42.7044119],[7.0081213,43.1001777],[7.0080964,43.1001848],[7.0080886,43.1001871],[7.0080719,43.1001918]],[[7.3674737,43.7228883],[7.3890739,43.7583484],[7.4358744,43.7431512],[7.409178,43.7222816],[7.409178,43.7222816],[7.409177,43.7222808],[7.409177,43.7222808],[7.4091711,43.7222762],[7.4091711,43.7222762],[7.4091677,43.7222736],[7.4091677,43.7222736],[7.4091618,43.7222689],[7.4091618,43.7222689],[7.409161,43.7222683],[7.409161,43.7222683],[7.4091447,43.7222555],[7.4091443,43.7222553],[7.4091442,43.7222552],[7.4067223,43.7203619],[7.4067218,43.7203615],[7.4067216,43.7203614],[7.4067181,43.7203586],[7.4067181,43.7203586],[7.4067173,43.720358],[7.4067173,43.720358],[7.4067162,43.7203571],[7.4067162,43.7203571],[7.4067161,43.720357],[7.4067161,43.720357],[7.4067021,43.7203461],[7.4067021,43.7203461],[7.4066956,43.720341],[7.4066956,43.720341],[7.403474,43.7178226],[7.3674737,43.7228883]],[[8.6562866,41.978588],[8.6606342,42],[8.6634866,42.0140481],[8.6606342,42],[8.6562866,41.978588]]]}}
