{"type":"Feature","properties":{"family":"france","name":"Kingdom of France, 1815"},"geometry":{"type":"Polygon","coordinates":[[[-5.5384537,48.4514248],[-5.5280414,48.3976116],[-5.501626,48.3462556],[-5.4603181,48.299428],[-5.405816,48.2590123],[-5.3403335,48.2266304],[-5.2665095,48.2035796],[-5.2234993,48.1934942],[-5.1441046,48.1806475],[-5.0847597,48.1791816],[-5.0791094,48.1737782],[-5.1095623,48.1302484],[-5.1284072,48.0779527],[-5.1312881,48.0241936],[-5.1181392,47.9711141],[-5.0895306,47.9208242],[-5.046638,47.8753168],[-4.9911907,47.8363912],[-4.9253998,47.8055826],[-4.8518698,47.7841044],[-4.7671751,47.7657893],[-4.7579603,47.7331605],[-4.7297891,47.6854523],[-4.688744,47.6421799],[-4.6363298,47.6048995],[-4.5744486,47.574949],[-4.5053299,47.5534018],[-4.4314526,47.541029],[-4.3554586,47.5382735],[-4.1692106,47.5432978],[-4.0820933,47.5520975],[-4.0385038,47.5634553],[-3.9684773,47.5433017],[-3.8867079,47.5323809],[-3.7404193,47.5232289],[-3.7168264,47.5055676],[-3.6536906,47.4738077],[-3.6396035,47.4692885],[-3.6519897,47.4441805],[-3.6617413,47.3916603],[-3.6561309,47.3388599],[-3.6354194,47.2878125],[-3.595403,47.2170257],[-3.5631772,47.1725927],[-3.5195909,47.132894],[-3.4661244,47.0992573],[-3.4045784,47.0728055],[-3.3370134,47.0544203],[-3.2656825,47.0447141],[-3.1929589,47.04401],[-3.0317646,47.0523995],[-2.95287,47.061959],[-2.8783725,47.0820887],[-2.8203907,47.1079247],[-2.7902077,47.0881213],[-2.7249719,47.0595467],[-2.6883476,47.0496907],[-2.6907691,47.0277177],[-2.6820617,46.9766955],[-2.6593556,46.9277187],[-2.6538395,46.9207753],[-2.6659844,46.9133419],[-2.7143167,46.8682354],[-2.7479243,46.8172785],[-2.7653979,46.7626741],[-2.7660339,46.7067761],[-2.7622407,46.6797738],[-2.7472438,46.6275882],[-2.7176563,46.57843],[-2.6746601,46.5342009],[-2.6199442,46.496608],[-2.5556367,46.467099],[-2.4842224,46.4468084],[-2.4084484,46.4365157],[-2.3081412,46.4297888],[-2.2295388,46.4299183],[-2.183297,46.4364668],[-2.1578652,46.3932057],[-2.1209289,46.3449596],[-2.0707456,46.3028083],[-2.0093775,46.268461],[-1.9466058,46.245925],[-1.9391446,46.1985315],[-1.9174292,46.1496323],[-1.8828184,46.1044426],[-1.8365784,46.0645773],[-1.7925869,46.0332094],[-1.7818205,45.9852072],[-1.7525322,45.9076332],[-1.7192884,45.8486714],[-1.6672941,45.796713],[-1.6266006,45.7647492],[-1.6296816,45.7501075],[-1.6335246,45.7012203],[-1.6246514,45.6526549],[-1.6033862,45.6060086],[-1.5704564,45.5628115],[-1.5269648,45.5244776],[-1.5214741,45.5211182],[-1.522503,45.5171682],[-1.6391609,44.6539611],[-1.6386422,44.5993654],[-1.6336854,44.582768],[-1.6361805,44.5710199],[-1.6547004,44.3358957],[-1.8274958,43.6907656],[-1.8569199,43.6619578],[-1.8711583,43.6480176],[-1.9229173,43.6382266],[-1.9884087,43.6152134],[-2.0464205,43.5833961],[-2.0947297,43.5440019],[-2.1314983,43.4985478],[-2.1553423,43.4487796],[-2.1653814,43.3966045],[-2.1612686,43.3440165],[-2.1557046,43.3283153],[-2.1556633,43.328299],[-2.1556436,43.3282912],[-2.1556183,43.3282812],[-2.1279365,43.3173492],[-1.9754696,43.3675493],[-1.9682095,43.3693033],[-1.9606091,43.3699363],[-1.9529922,43.3694212],[-1.9456831,43.36778],[-1.9424849,43.3664906],[-1.8327108,43.4179852],[-1.8259327,43.420486],[-1.8185958,43.4219306],[-1.8110079,43.4222584],[-1.8034876,43.4214556],[-1.7963506,43.419556],[-1.7898964,43.4166393],[-1.7845388,43.4136232],[-1.7845386,43.4136231],[-1.7845338,43.4136204],[-1.8003771,43.4118119],[-1.8073266,43.4105041],[-1.8138004,43.4082491],[-1.8195564,43.4051313],[-1.8243792,43.4012672],[-1.8280887,43.3968016],[-1.8305464,43.3919014],[-1.8316607,43.3867499],[-1.8316926,43.3863575],[-1.8316875,43.3863599],[-1.8316875,43.3863599],[-1.8316871,43.3863601],[-1.8316871,43.3863601],[-1.8316861,43.3863606],[-1.8316842,43.3863615],[-1.8316761,43.3863653],[-1.8316701,43.3863681],[-1.8126181,43.3953043],[-1.7946179,43.3851728],[-1.798218,43.3412698],[-1.7550176,43.3193183],[-1.7478175,43.2906125],[-1.6722167,43.3041211],[-1.6110161,43.2450209],[-1.5390154,43.2838582],[-1.402214,43.2433324],[-1.4094141,43.1673464],[-1.4886149,43.0812289],[-1.4562146,43.0457688],[-1.3662137,43.0339488],[-1.3482135,43.093049],[-1.2870129,43.1099348],[-1.3122131,43.0694089],[-1.1502115,43.005243],[-1.0278103,42.9866686],[-0.9450095,42.9478313],[-0.7614076,42.9461428],[-0.7398074,42.885354],[-0.6498065,42.8498939],[-0.5706057,42.7722193],[-0.5346053,42.7840393],[-0.5346053,42.8076794],[-0.4230042,42.7907936],[-0.3222032,42.8431395],[-0.2358024,42.7857279],[-0.1602016,42.7958594],[-0.1206012,42.7164962],[-0.0378004,42.6844133],[0.1674017,42.7266277],[0.2394024,42.7097419],[0.2754028,42.6692161],[0.3546035,42.7181848],[0.3906039,42.6844133],[0.6426064,42.6844133],[0.6678067,42.7148077],[0.6318063,42.7452021],[0.6498065,42.8245652],[0.6694175,42.8320389],[0.7074071,42.8465167],[0.9198092,42.7840393],[1.0890109,42.7705307],[1.1502115,42.7063648],[1.3410134,42.7080534],[1.4310143,42.5949187],[1.4670147,42.6421988],[1.5282153,42.6489532],[1.7226172,42.6101159],[1.7118171,42.589853],[1.7658177,42.5628357],[1.7226172,42.5493271],[1.7082171,42.5020469],[1.9,42.4445349],[1.9278193,42.4361924],[1.9362393,42.42],[1.9638196,42.3669608],[2.0106201,42.3466978],[2.0646206,42.3585179],[2.1366214,42.4159295],[2.2770228,42.4294381],[2.5254253,42.3264349],[2.5470255,42.3517636],[2.6622266,42.3382549],[2.6406264,42.3720265],[2.6910269,42.405798],[2.7882279,42.4125523],[2.9322293,42.469964],[3.0294303,42.4648982],[3.0870309,42.4277495],[3.1806318,42.4311267],[3.1830192,42.4042513],[3.1830194,42.4042494],[3.1830195,42.4042487],[3.1830195,42.4042486],[3.1830195,42.4042485],[3.1830195,42.4042484],[3.1897972,42.4050095],[3.1968085,42.4069358],[3.2031415,42.4098774],[3.2085305,42.4137109],[3.2127493,42.4182754],[3.2156205,42.4233795],[3.2170234,42.428809],[3.216912,42.4337484],[3.2170973,42.4329129],[3.2225751,42.3708593],[3.3274052,42.3489918],[3.333979,42.3470925],[3.3399327,42.344293],[3.3450431,42.3406984],[3.3491191,42.3364433],[3.3520081,42.3316871],[3.3536022,42.326608],[3.3538419,42.3213962],[3.3527187,42.3162468],[3.3502749,42.3113526],[3.296243,42.2286279],[3.2926783,42.2242684],[3.2880701,42.2204818],[3.282583,42.2174035],[3.2764127,42.2151431],[3.2697795,42.2137813],[3.2629199,42.2133667],[3.2560786,42.2139141],[3.1694467,42.2270307],[3.1562045,42.2111638],[3.1584223,42.1627184],[3.1584223,42.1627175],[3.1584231,42.1626999],[3.1584232,42.1626985],[3.1739058,42.161384],[3.2432123,42.1653309],[3.3102614,42.1789463],[3.3726318,42.201739],[3.4280651,42.232886],[3.4745452,42.2712613],[3.5103707,42.3154754],[3.5342175,42.363924],[3.5451895,42.4148452],[3.5428544,42.4663828],[3.5272644,42.5166531],[3.5123553,42.5496999],[3.4845431,42.6113474],[3.4536157,42.66177],[3.4093077,42.7064776],[3.4071576,42.7079074],[3.408323,42.8998563],[3.437222,42.9647597],[3.4927921,43.0071678],[3.5551666,43.0125478],[3.6229654,43.0231546],[3.6868859,43.0428187],[3.7446916,43.0708537],[4.0098173,43.2266793],[4.0289712,43.2186667],[4.0975899,43.2017782],[4.1693784,43.1949115],[4.3031624,43.1916239],[4.3070365,43.1874786],[4.35798,43.1507802],[4.4175968,43.121898],[4.4836664,43.1019021],[4.5537378,43.0915325],[4.7508659,43.0764107],[4.7925275,43.0764394],[4.8152886,43.0730658],[4.8841428,43.0723663],[4.9286636,43.0780251],[4.997996,43.067803],[5.0413901,43.0678059],[5.0569302,43.0501441],[5.1049548,43.0132088],[5.1615582,42.9835046],[5.2247313,42.9620794],[5.2922414,42.949688],[5.497438,42.9265504],[5.5916695,42.8559654],[5.6512327,42.8197599],[5.7197282,42.7934462],[5.7941518,42.7781741],[5.8712504,42.7746098],[5.9476586,42.7829085],[5.9478506,42.7829611],[6.0032972,42.7580499],[6.0682247,42.7400578],[6.1184269,42.7299731],[6.1806799,42.721587],[6.2439524,42.7211455],[6.3063883,42.7286612],[6.366155,42.7439135],[6.4020361,42.7556859],[6.4631545,42.7811068],[6.5166063,42.814586],[6.5604409,42.8549102],[6.5655271,42.8620451],[6.5807325,42.8680165],[6.6383286,42.9032757],[6.6475143,42.9117577],[6.7449502,42.9281824],[6.8190041,42.9468621],[6.8860308,42.9765483],[6.9430196,43.0159126],[6.9619942,43.0361284],[6.9619824,43.0361318],[6.961975,43.0361339],[6.9619575,43.0361389],[6.9619026,43.0361547],[6.9618758,43.0361624],[6.6825799,43.1163496],[6.9618758,43.0361624],[6.9619026,43.0361547],[6.9619575,43.0361389],[6.961975,43.0361339],[6.9619824,43.0361318],[6.9619942,43.0361284],[8.3520814,42.6370276],[8.338939,42.5972283],[8.2944235,42.5713312],[8.2476124,42.5306208],[8.2126873,42.4838859],[8.1909994,42.4329721],[8.1833697,42.3798857],[8.1900618,42.3267131],[8.1970343,42.3094973],[8.1873387,42.2785756],[8.1848009,42.2271526],[8.195503,42.1762927],[8.1965236,42.1741921],[8.1962848,42.1731573],[8.1990191,42.1177755],[8.2169465,42.0639571],[8.2372605,42.0325553],[8.2281688,42.0029391],[8.2264115,41.9492008],[8.2390196,41.8962516],[8.2645755,41.8287827],[8.2898533,41.780352],[8.2969555,41.7719696],[8.2967664,41.7254842],[8.3110515,41.6723525],[8.3392305,41.6224008],[8.3801388,41.5776368],[8.43211,41.5398556],[8.4392335,41.536435],[8.4411222,41.5148715],[8.4579567,41.4660162],[8.4866003,41.420341],[8.5260308,41.3794362],[8.5748579,41.3447231],[8.6313732,41.3174054],[8.7177478,41.2836329],[8.7177487,41.2836326],[8.7177511,41.2836316],[8.801436,41.2509108],[8.8134839,41.2367057],[8.8629855,41.1980143],[8.9216098,41.1674194],[8.9870459,41.14612],[8.9878438,41.1459277],[8.9878438,41.1459277],[8.9881196,41.1460746],[8.9953223,41.1483491],[9.1123237,41.1743572],[9.1362206,41.2487206],[9.1383464,41.2533999],[9.1415729,41.2577086],[9.1457918,41.261502],[9.1508614,41.2646524],[9.1566114,41.267054],[9.217831,41.2873247],[9.2244517,41.2889588],[9.2313683,41.2896005],[9.2383197,41.2892257],[9.2450437,41.2878483],[9.2512867,41.2855204],[9.2568133,41.2823299],[9.2928148,41.2569934],[9.2977237,41.2527288],[9.3013456,41.2477901],[9.3019686,41.2462458],[9.3062414,41.2445248],[9.3116719,41.2411678],[9.3161273,41.237079],[9.317767,41.2347684],[9.319512,41.2356571],[9.3258176,41.237683],[9.3325211,41.2387692],[9.3387311,41.2388658],[9.339272,41.2403539],[9.3427149,41.2453694],[9.347471,41.2497362],[9.3906719,41.2818287],[9.3958846,41.2850308],[9.4018018,41.2874447],[9.4082152,41.2889854],[9.4148992,41.2895987],[9.4216181,41.289263],[9.4281355,41.2879902],[9.4342218,41.2858249],[9.4396626,41.2828436],[9.4442666,41.2791511],[9.4478719,41.2748776],[9.4503516,41.2701733],[9.4509735,41.2685677],[9.4570384,41.2693019],[9.4643735,41.2690517],[9.4714874,41.2676844],[9.4780821,41.2652571],[9.4924853,41.2585004],[9.4984419,41.2549994],[9.5032901,41.2506378],[9.5068149,41.2456094],[9.5088601,41.2401375],[9.5093353,41.234465],[9.5080499,41.2117801],[9.5080499,41.2117801],[9.525362,41.2286719],[9.5558179,41.273974],[9.5848613,41.3296017],[9.6039527,41.3801485],[9.6056202,41.3955978],[9.6444462,41.4349348],[9.6659524,41.461947],[9.6659544,41.4619497],[9.6659589,41.4619552],[9.6809982,41.480845],[9.7019449,41.5253307],[9.7019469,41.525335],[9.7008979,42.8936407],[9.5538732,43.1872198],[9.5155549,43.2566849],[9.4053311,43.2696231],[9.3363774,43.2729092],[9.2678139,43.2667771],[9.2020585,43.2514426],[9.1928217,43.2477869],[9.1414265,43.2274457],[9.0880464,43.1956315],[9.0437833,43.1571188],[9.0101732,43.11326],[8.9883698,43.0655921],[8.979107,43.0157819],[8.9815633,42.9812373],[8.964296,42.9770195],[8.8976836,42.9482282],[8.8408634,42.9098473],[8.8159495,42.8890257],[8.7048868,42.8663899],[8.6361891,42.8466845],[8.6225927,42.8402277],[8.5963203,42.8360538],[8.5283787,42.8139991],[8.467962,42.7823291],[8.4175553,42.7423531],[8.386363,42.7044119],[8.3863775,42.7044078],[8.3863853,42.7044056],[8.3864026,42.7044006],[8.3864602,42.704384],[8.3864894,42.7043757],[8.7383672,42.603333],[8.3864894,42.7043757],[8.3864602,42.704384],[8.3864026,42.7044006],[8.3863853,42.7044056],[8.3863775,42.7044078],[8.386363,42.7044119],[7.0081213,43.1001777],[7.0171332,43.1162599],[7.0433376,43.1822034],[7.090508,43.1994088],[7.148079,43.2320331],[7.1957987,43.272239],[7.205338,43.2844968],[7.2174756,43.2858365],[7.2845321,43.3032425],[7.3458111,43.329631],[7.399066,43.364038],[7.4423342,43.405205],[7.4740085,43.4516237],[7.4748132,43.4537536],[7.4748136,43.4537545],[7.480161,43.4679085],[7.4866272,43.4725412],[7.5273832,43.5161078],[7.5557258,43.5645895],[7.5624097,43.5878385],[7.5705479,43.616146],[7.5711438,43.6608458],[7.5712501,43.6688155],[7.5595147,43.7646284],[7.5595136,43.7646368],[7.5164723,43.7650137],[7.462873,43.724515],[7.4570522,43.7209315],[7.4503439,43.71828],[7.4430292,43.7166716],[7.4354147,43.7161738],[7.4278195,43.7168073],[7.4205618,43.7185457],[7.4091443,43.7222553],[7.4091447,43.7222555],[7.409161,43.7222683],[7.409161,43.7222683],[7.4091618,43.7222689],[7.4091618,43.7222689],[7.4091677,43.7222736],[7.4091677,43.7222736],[7.4091711,43.7222762],[7.4091711,43.7222762],[7.409177,43.7222808],[7.409177,43.7222808],[7.409178,43.7222816],[7.409178,43.7222816],[7.4358744,43.7431512],[7.409178,43.7222816],[7.409178,43.7222816],[7.409177,43.7222808],[7.409177,43.7222808],[7.4091711,43.7222762],[7.4091711,43.7222762],[7.4091677,43.7222736],[7.4091677,43.7222736],[7.4091618,43.7222689],[7.4091618,43.7222689],[7.409161,43.7222683],[7.409161,43.7222683],[7.4091447,43.7222555],[7.4091443,43.7222553],[7.4091442,43.7222552],[7.4067223,43.7203619],[7.4067218,43.7203615],[7.4067216,43.7203614],[7.4067181,43.7203586],[7.4067181,43.7203586],[7.4067173,43.720358],[7.4067173,43.720358],[7.4067162,43.7203571],[7.4067162,43.7203571],[7.4067161,43.720357],[7.4067161,43.720357],[7.4067021,43.7203461],[7.4067021,43.7203461],[7.4066956,43.720341],[7.4066956,43.720341],[7.403474,43.7178226],[7.4066956,43.720341],[7.4066956,43.720341],[7.4067021,43.7203461],[7.4067021,43.7203461],[7.4067161,43.720357],[7.4067161,43.720357],[7.4067162,43.7203571],[7.4067162,43.7203571],[7.4067173,43.720358],[7.4067173,43.720358],[7.4067181,43.7203586],[7.4067181,43.7203586],[7.4067216,43.7203614],[7.4067218,43.7203615],[7.4016368,43.7120177],[7.3980348,43.7073984],[7.3620248,43.6702591],[7.357516,43.6664236],[7.3521011,43.6632607],[7.3459686,43.6608804],[7.3393319,43.6593656],[7.3324218,43.6587689],[7.262174,43.6574569],[7.236832,43.6289391],[7.2325951,43.6250176],[7.2274355,43.6217263],[7.2215288,43.619177],[7.215076,43.6174565],[7.2082967,43.6166233],[7.2014212,43.6167058],[7.1946835,43.6177011],[7.1892136,43.6188983],[7.1889267,43.6189843],[7.1889248,43.6189847],[7.1889248,43.6189847],[7.1811673,43.6206842],[7.1889248,43.6189847],[7.1889248,43.6189847],[7.1889267,43.6189843],[7.1889315,43.6189832],[7.1892313,43.6189175],[7.196371,43.6178903],[7.203649,43.6178867],[7.2107878,43.618907],[7.2175155,43.6209122],[7.2235754,43.6238259],[7.2287364,43.627537],[7.2328016,43.6319039],[7.2356156,43.6367603],[7.2370708,43.6419207],[7.2371113,43.6471882],[7.2335322,43.6751126],[7.2054721,43.6435252],[7.2,43.6447229],[7.2,43.66],[7.18,43.8],[7.1,43.86],[6.95,43.9],[6.84,43.96],[6.75,44.05],[6.72,44.2],[6.78,44.28],[6.8893633,44.3424933],[6.9822698,44.2412815],[6.8893633,44.3424933],[6.8706687,44.3628591],[6.8778688,44.415205],[6.9174692,44.4354679],[6.8598686,44.4743052],[6.8346683,44.5334054],[6.9462695,44.6262771],[6.9354694,44.6465401],[6.9606696,44.6836888],[7.0542705,44.6853773],[6.99667,44.7934463],[7.0074701,44.8221521],[6.9822698,44.8474808],[6.8454685,44.8593008],[6.7446674,44.9082695],[6.7230672,45.0129613],[6.6510665,45.0349128],[6.6070677,45.1],[6.58,45.1],[6.42,45.06],[6.35,45.1],[6.2,45.17],[6.15,45.28],[6.1091667,45.35],[6.08,45.4],[5.98,45.47],[5.88,45.42],[5.75,45.44],[5.7,45.52],[5.64,45.62],[5.73,45.72],[5.79,45.85],[5.83,45.95],[5.95,46.05],[5.97,46.13],[5.9783597,46.1318577],[5.9598596,46.1307995],[5.9814598,46.1713253],[5.9598596,46.2118512],[6.0894609,46.2456227],[6.131166,46.356973],[6.1362614,46.3705775],[6.0534605,46.4195462],[6.0642606,46.4718921],[6.1470615,46.5512552],[6.1182612,46.5833382],[6.4278643,46.7606388],[6.4422644,46.9446937],[6.6654667,47.0206797],[6.697867,47.0848456],[6.8489053,47.17832],[6.9570696,47.2452605],[6.9570696,47.2908521],[7.0362704,47.3296894],[7.00387,47.3685266],[6.8670687,47.3533294],[6.9246692,47.4242497],[6.9894699,47.4529555],[6.9750698,47.4884156],[7.1802718,47.4884156],[7.1694717,47.442824],[7.2378724,47.4174954],[7.3890739,47.4326926],[7.4250743,47.4563326],[7.4142741,47.4901042],[7.4682747,47.4816613],[7.4862749,47.4934813],[7.4754748,47.5154329],[7.504275,47.5221872],[7.4826748,47.5424501],[7.5013466,47.55],[7.5870759,47.5846645],[7.5896657,47.6016713],[7.5906759,47.6083046],[7.5875536,47.6122322],[7.5114751,47.7079307],[7.5366754,47.7315707],[7.5258753,47.7839166],[7.55,47.8240355],[7.5654757,47.8497711],[7.5582756,47.8835427],[7.6194762,47.9713487],[7.5762758,48.054089],[7.5798758,48.1148778],[7.6852708,48.25],[7.6878769,48.2533411],[7.702277,48.3107527],[7.7490775,48.3411471],[7.7382774,48.4070016],[7.7706777,48.4897419],[7.8138781,48.5201363],[7.8102781,48.6146967],[7.9578796,48.721077],[7.9686797,48.7565371],[8.0910809,48.8071945],[8.1653716,48.9117314],[8.1920741,48.9493054],[8.199082,48.9591664],[7.9326793,49.0351524],[7.6338763,49.0385295],[7.5078751,49.0942526],[7.4754748,49.1516642],[7.4106741,49.16855],[7.3494735,49.1584185],[7.2738727,49.1043841],[7.0866709,49.1415328],[7.0434704,49.1077612],[7.0074701,49.1465985],[7.0078154,49.15],[7.0110701,49.1820586],[6.9138691,49.2073873],[6.8346683,49.2090759],[6.820674,49.15],[6.8202682,49.1482871],[6.8020084,49.15],[6.7122671,49.1584185],[6.701467,49.2141416],[6.6798668,49.2073873],[6.6720828,49.22],[6.6402664,49.2715532],[6.5574656,49.3255877],[6.5538655,49.3475392],[6.5790658,49.3559821],[6.55,49.385401],[6.5106651,49.4252137],[6.4446099,49.45],[6.402664,49.4657396],[6.3450635,49.4556081],[6.1938619,49.4995111],[6.1074611,49.4826254],[6.0786608,49.452231],[5.9598596,49.4420995],[5.9274593,49.4826254],[5.8410584,49.4995111],[5.7906579,49.5383484],[5.6430564,49.5434142],[5.603456,49.5130198],[5.5458555,49.5231512],[5.4558546,49.4995111],[5.4558546,49.5366598],[5.401854,49.6025144],[5.3334533,49.6261544],[5.297453,49.6126458],[5.301053,49.6633031],[5.2578526,49.692009],[5.1678517,49.6869432],[5.0814508,49.7527977],[4.9698497,49.7967007],[4.8582486,49.7865693],[4.8366484,49.8591781],[4.8618486,49.9132126],[4.7826478,49.9588042],[4.8258483,50.063496],[4.8618486,50.0837589],[4.8657774,50.1040295],[4.8726487,50.1394819],[4.8150482,50.1614334],[4.6818468,50.0837589],[4.6618925,50.0088832],[4.6566466,49.9891986],[4.62,49.9788204],[4.5989499,49.972859],[4.4658447,49.9351641],[4.35,49.9491864],[4.1310413,49.9756899],[4.1310413,50.0179044],[4.2102421,50.0601188],[4.1814418,50.1276619],[4.1274413,50.1276619],[4.1562416,50.2120908],[4.203042,50.2407966],[4.1850419,50.2661252],[4.1238412,50.2576823],[4.098641,50.294831],[4.0050401,50.3437998],[3.897039,50.3252254],[3.7566376,50.3471769],[3.695437,50.2982082],[3.6630366,50.3184711],[3.6450365,50.4451144],[3.6090361,50.4771974],[3.497435,50.4873288],[3.4758348,50.5194118],[3.3606336,50.4890174],[3.2706327,50.5261661],[3.2310323,50.6561866],[3.2454325,50.6713838],[3.1302313,50.7794527],[2.9466295,50.7490583],[2.8854289,50.6967124],[2.7666277,50.7338611],[2.6910269,50.8081585],[2.6190262,50.8166014],[2.5866259,50.8453072],[2.5758258,50.9111617],[2.6082261,50.9618191],[2.5578256,51.0006563],[2.5218252,51.0867738],[2.5578176,51.1012441],[2.5561723,51.1029461],[2.5506122,51.1067828],[2.5439853,51.1098788],[2.536537,51.1121192],[2.5285433,51.1134211],[2.5203006,51.1137362],[2.5121143,51.1130528],[2.5048136,51.111966],[2.8571926,51.2536657],[2.8571909,51.253667],[2.8571909,51.253667],[2.8195517,51.2814199],[2.752563,51.3144661],[2.6764048,51.338559],[2.5940943,51.3527407],[2.5089047,51.3564467],[2.42423,51.3495294],[2.3508475,51.338604],[2.3507472,51.338589],[1.8447275,51.2632509],[1.8198605,51.2595485],[1.7579053,51.2469597],[1.6997335,51.2286291],[1.3602825,51.0996847],[1.2906026,51.0664444],[1.2331969,51.0249741],[1.1904434,50.9770166],[1.1640877,50.9245819],[1.1551757,50.8698607],[1.1640188,50.8151319],[1.1706554,50.7948166],[1.1505733,50.741761],[1.1388776,50.6795354],[1.1407523,50.6691638],[1.150132,50.6172733],[1.1745823,50.551019],[1.1430611,50.4706637],[1.13066,50.4131491],[1.1337611,50.3881876],[1.1281145,50.3656656],[1.1226386,50.306693],[1.1055741,50.2824265],[1.0032024,50.2186823],[0.4727583,50.115425],[0.3859486,50.0910899],[-0.0257319,49.9367064],[-0.0843387,49.9099261],[-0.1349007,49.8770593],[-0.1759293,49.8390851],[-0.2062281,49.7971323],[-0.3129273,49.607669],[-0.314447,49.6037875],[-0.3525301,49.6093994],[-0.815509,49.6523621],[-0.8296334,49.7000648],[-0.8615123,49.7710959],[-0.8897309,49.8173775],[-0.9306895,49.8595216],[-0.9830145,49.8960836],[-1.0449303,49.9258073],[-1.1143203,49.9476697],[-1.1887993,49.9609172],[-1.3371779,49.9778861],[-1.4243387,49.9818184],[-1.5108398,49.9739831],[-1.5928658,49.9547265],[-1.6340585,49.9417518],[-1.7975706,49.9787044],[-1.8768087,49.9911132],[-1.9582824,49.9933726],[-2.0388612,49.9853964],[-2.1154506,49.9674914],[-2.185117,49.9403452],[-2.2452038,49.9049984],[-2.2934357,49.8628033],[-2.3280046,49.8153703],[-2.347636,49.7645046],[-2.3495167,49.7562749],[-2.3580622,49.7188803],[-2.3618304,49.6638901],[-2.3482819,49.6095378],[-2.3180348,49.558082],[-2.2977851,49.537498],[-2.2984583,49.5086632],[-2.2819668,49.4537206],[-2.2407902,49.3657793],[-2.0827739,49.2867104],[-2.0826066,49.2867104],[-2.0753188,49.2862814],[-2.0682606,49.2850184],[-2.061654,49.282961],[-2.0004344,49.2593091],[-1.9932079,49.2557628],[-1.9873347,49.2512739],[-1.983096,49.2460578],[-1.9687118,49.2224127],[-1.9663038,49.2166813],[-1.9658722,49.2107449],[-1.9674372,49.2048918],[-1.9854678,49.1643726],[-1.9883768,49.1595883],[-1.9926208,49.155254],[-1.9980449,49.1515275],[-2.0044513,49.1485447],[-2.0116066,49.146414],[-2.0192502,49.1452131],[-2.0226562,49.1451144],[-2.0152916,49.1312915],[-1.9932968,49.1001885],[-2.0004642,49.0662272],[-2.003516,49.0123043],[-1.9924308,48.9681458],[-2.0281399,48.963347],[-2.1055274,48.9475442],[-2.1307664,48.9384895],[-2.185396,48.954515],[-2.2590104,48.9660797],[-2.33461,48.9685362],[-2.4095884,48.9618004],[-2.4456563,48.953913],[-2.4813616,48.9461048],[-2.5916529,48.914188],[-2.6175948,48.939305],[-2.674281,48.9761152],[-2.6756563,48.9767135],[-2.6939669,48.9942002],[-2.749932,49.0303139],[-2.773359,49.040503],[-2.7921032,49.0563927],[-2.8520811,49.0907513],[-2.9211028,49.1168713],[-2.9965608,49.1337621],[-3.0755931,49.1407827],[-3.1551957,49.1376667],[-3.1588897,49.1370391],[-3.2046805,49.1420802],[-3.2879482,49.1400912],[-3.3688524,49.1271363],[-3.4359994,49.1062576],[-3.495068,49.1118913],[-3.5720619,49.1097006],[-3.6470417,49.0981174],[-3.7173458,49.0775539],[-3.7804862,49.0487404],[-3.8342396,49.0126984],[-3.8484004,49.0012116],[-3.8909233,48.9958424],[-3.9415926,49.0016484],[-4.0201484,49.0006589],[-4.0969399,48.9898385],[-4.2994463,48.9473978],[-4.3027269,48.9464666],[-4.3119022,48.9475557],[-4.3943521,48.9463223],[-4.4747148,48.9342468],[-4.6952775,48.8850178],[-4.7655653,48.8641834],[-4.8285878,48.8350286],[-4.8431125,48.825148],[-4.8799199,48.8155078],[-4.9466376,48.7871054],[-5.0036634,48.7507197],[-5.0090502,48.746536],[-5.0504056,48.7490612],[-5.1272149,48.7441232],[-5.2011967,48.7297214],[-5.2843294,48.7076569],[-5.3570961,48.6823871],[-5.4206108,48.6479772],[-5.4722898,48.6058391],[-5.51005,48.5576978],[-5.5323917,48.5055185],[-5.5384537,48.4514248]],[[-4.5342453,48.0270718],[-4.4803763,48],[-4.4803763,48],[-4.5342453,48.0270718]],[[-2.1294213,46.8940364],[-2,47.0247843],[-2,47.0247843],[-1.9890199,47.0358769],[-2,47.0247843],[-2,47.0247843],[-2.1294213,46.8940364]],[[-1.4778148,43.5793592],[-1.3625713,44],[-1.3625713,44],[-1.4778148,43.5793592]],[[-1.4058141,46.0531249],[-1.3861163,46],[-1.3861163,46],[-1.4058141,46.0531249]],[[-1.1106111,46.0176648],[-1.0964881,46],[-1.0964881,46],[-1.1106111,46.0176648]],[[-0.2178022,49.2799961],[0,49.3310756],[0.0126001,49.3340306],[0,49.3310756],[-0.2178022,49.2799961]],[[1.2222122,49.9790671],[1.2559433,50],[1.2559433,50],[1.2222122,49.9790671]],[[1.9458195,42.4513896],[1.9566196,42.481784],[1.99982,42.4446353],[1.9818198,42.4412582],[1.9458195,42.4513896]],[[3.2154596,42.4390469],[3.2159545,42.4380663],[3.2164717,42.435734],[3.2156974,42.4382686],[3.2154596,42.4390469]],[[3.9546395,43.540522],[4,43.544068],[4.1058411,43.552342],[4,43.544068],[3.9546395,43.540522]],[[5.9346593,43.1133119],[6,43.1013193],[6.0174602,43.0981147],[6,43.1013193],[5.9346593,43.1133119]],[[8.6562866,41.978588],[8.6606342,42],[8.6634866,42.0140481],[8.6606342,42],[8.6562866,41.978588]]]}}
