{"type":"Feature","properties":{"family":"france","name":"French Republic, 1795 – 1796"},"geometry":{"type":"Polygon","coordinates":[[[-5.5385003,48.4514048],[-5.5281128,48.3975756],[-5.501718,48.3462056],[-5.460426,48.2993666],[-5.4059346,48.2589426],[-5.3404576,48.226556],[-5.2666339,48.2035042],[-5.223624,48.1934195],[-5.144234,48.180576],[-5.0848493,48.1791122],[-5.079163,48.173674],[-5.1095518,48.1302574],[-5.1284231,48.0779457],[-5.1313282,48.0241709],[-5.1182006,47.9710769],[-5.0896094,47.9207744],[-5.0467303,47.8752571],[-4.9912923,47.8363244],[-4.9255063,47.8055121],[-4.8519768,47.7840336],[-4.7672045,47.7657033],[-4.7580005,47.7330894],[-4.729841,47.6853804],[-4.6888092,47.6421087],[-4.6364094,47.6048301],[-4.5745426,47.5748822],[-4.5054374,47.5533375],[-4.4315713,47.5409668],[-4.3555852,47.5382128],[-4.1693409,47.5432388],[-4.0993659,47.5492514],[-4.0358891,47.5626148],[-3.9685652,47.5432402],[-3.8868183,47.5323246],[-3.7404871,47.5231722],[-3.7168571,47.5054846],[-3.6537279,47.4737327],[-3.639632,47.4692119],[-3.6520054,47.4441262],[-3.661759,47.3915898],[-3.6561473,47.3387762],[-3.6354314,47.2877193],[-3.5954126,47.2169326],[-3.5631912,47.172507],[-3.5196139,47.1328168],[-3.4661602,47.0991887],[-3.4046296,47.0727448],[-3.3370812,47.0543659],[-3.2657666,47.0446639],[-3.1930574,47.0439616],[-3.0318665,47.0523523],[-2.9529634,47.0619137],[-2.8784539,47.0820475],[-2.8204591,47.1078887],[-2.790269,47.0880766],[-2.7250363,47.0595003],[-2.6883583,47.04963],[-2.6907794,47.0276788],[-2.6820758,46.9766464],[-2.659371,46.9276616],[-2.653877,46.9207454],[-2.6659622,46.9133473],[-2.7143066,46.8682234],[-2.7479225,46.8172479],[-2.7653997,46.7626255],[-2.7660346,46.7067112],[-2.7622405,46.6797087],[-2.747244,46.6275241],[-2.7176607,46.5783688],[-2.6746723,46.534144],[-2.6199672,46.4965558],[-2.5556725,46.4670514],[-2.484272,46.4467648],[-2.4085115,46.4364748],[-2.3082059,46.4297491],[-2.229601,46.4298803],[-2.1833094,46.4364377],[-2.157854,46.3931395],[-2.1209151,46.3448934],[-2.0707304,46.3027446],[-2.0093623,46.2684023],[-1.9465924,46.245873],[-1.9391364,46.1984936],[-1.9174205,46.1495862],[-1.8828074,46.1043908],[-1.8365638,46.0645227],[-1.7925685,46.0331535],[-1.7818014,45.9851551],[-1.7525105,45.9075809],[-1.7192639,45.8486168],[-1.6672687,45.7966592],[-1.6265828,45.7647028],[-1.6296579,45.7500871],[-1.6335009,45.7011916],[-1.6246271,45.652619],[-1.6033609,45.605967],[-1.5704298,45.5627661],[-1.5269371,45.5244305],[-1.5214528,45.5210751],[-1.5224721,45.5171623],[-1.6391119,44.6539408],[-1.6385902,44.5993405],[-1.6336356,44.5827491],[-1.6361278,44.5710136],[-1.6546417,44.3359006],[-1.8274181,43.690801],[-1.8710698,43.6480635],[-1.9228755,43.6382622],[-1.9883609,43.6152447],[-2.0463669,43.5834198],[-2.0946702,43.5440157],[-2.1314326,43.4985496],[-2.1552699,43.4487687],[-2.1653022,43.3965808],[-2.1611826,43.343981],[-2.1556183,43.3282812],[-2.1279365,43.3173492],[-1.9754696,43.3675493],[-1.9682095,43.3693033],[-1.9606091,43.3699363],[-1.9529922,43.3694212],[-1.9456831,43.36778],[-1.9424849,43.3664906],[-1.8327108,43.4179852],[-1.8259327,43.420486],[-1.8185958,43.4219306],[-1.8110079,43.4222584],[-1.8034876,43.4214556],[-1.7963506,43.419556],[-1.7898964,43.4166393],[-1.7845388,43.4136232],[-1.7845386,43.4136231],[-1.8003739,43.4118154],[-1.8073221,43.4105077],[-1.8137949,43.4082526],[-1.8195499,43.4051344],[-1.824372,43.4012699],[-1.828081,43.3968037],[-1.8305384,43.3919028],[-1.8316526,43.3867505],[-1.8316842,43.3863615],[-1.8316761,43.3863653],[-1.8316701,43.3863681],[-1.8126181,43.3953043],[-1.7946179,43.3851728],[-1.798218,43.3412698],[-1.7550176,43.3193183],[-1.7478175,43.2906125],[-1.6722167,43.3041211],[-1.6110161,43.2450209],[-1.5390154,43.2838582],[-1.402214,43.2433324],[-1.4094141,43.1673464],[-1.4886149,43.0812289],[-1.4562146,43.0457688],[-1.3662137,43.0339488],[-1.3482135,43.093049],[-1.2870129,43.1099348],[-1.3122131,43.0694089],[-1.1502115,43.005243],[-1.0278103,42.9866686],[-0.9450095,42.9478313],[-0.7614076,42.9461428],[-0.7398074,42.885354],[-0.6498065,42.8498939],[-0.5706057,42.7722193],[-0.5346053,42.7840393],[-0.5346053,42.8076794],[-0.4230042,42.7907936],[-0.3222032,42.8431395],[-0.2358024,42.7857279],[-0.1602016,42.7958594],[-0.1206012,42.7164962],[-0.0378004,42.6844133],[0.1674017,42.7266277],[0.2394024,42.7097419],[0.2754028,42.6692161],[0.3546035,42.7181848],[0.3906039,42.6844133],[0.6426064,42.6844133],[0.6678067,42.7148077],[0.6318063,42.7452021],[0.6498065,42.8245652],[0.6694175,42.8320389],[0.7074071,42.8465167],[0.9198092,42.7840393],[1.0890109,42.7705307],[1.1502115,42.7063648],[1.3410134,42.7080534],[1.4310143,42.5949187],[1.4670147,42.6421988],[1.5282153,42.6489532],[1.7226172,42.6101159],[1.7118171,42.589853],[1.7658177,42.5628357],[1.7226172,42.5493271],[1.7082171,42.5020469],[1.9,42.4445349],[1.9278193,42.4361924],[1.9362393,42.42],[1.9638196,42.3669608],[2.0106201,42.3466978],[2.0646206,42.3585179],[2.1366214,42.4159295],[2.2770228,42.4294381],[2.5254253,42.3264349],[2.5470255,42.3517636],[2.6622266,42.3382549],[2.6406264,42.3720265],[2.6910269,42.405798],[2.7882279,42.4125523],[2.9322293,42.469964],[3.0294303,42.4648982],[3.0870309,42.4277495],[3.1806318,42.4311267],[3.1830192,42.4042513],[3.1830194,42.4042494],[3.1830195,42.4042487],[3.1830195,42.4042486],[3.1898024,42.4050103],[3.1968106,42.4069363],[3.2031405,42.4098773],[3.2085266,42.41371],[3.2127428,42.4182737],[3.2156119,42.423377],[3.2170133,42.4288058],[3.2168997,42.4338038],[3.2169035,42.4337867],[3.2169053,42.4337786],[3.2169055,42.4337777],[3.216912,42.4337484],[3.2170973,42.4329129],[3.2225751,42.3708593],[3.3274052,42.3489918],[3.333979,42.3470925],[3.3399327,42.344293],[3.3450431,42.3406984],[3.3491191,42.3364433],[3.3520081,42.3316871],[3.3536022,42.326608],[3.3538419,42.3213962],[3.3527187,42.3162468],[3.3502749,42.3113526],[3.296243,42.2286279],[3.2926783,42.2242684],[3.2880701,42.2204818],[3.282583,42.2174035],[3.2764127,42.2151431],[3.2697795,42.2137813],[3.2629199,42.2133667],[3.2560786,42.2139141],[3.1694467,42.2270307],[3.1562045,42.2111638],[3.1584223,42.1627184],[3.1740095,42.1613951],[3.2432872,42.1653421],[3.3103051,42.1789552],[3.3726437,42.2017433],[3.4280462,42.2328838],[3.4744981,42.2712512],[3.5102994,42.3154566],[3.5341272,42.3638963],[3.5450861,42.4148094],[3.5427443,42.4663401],[3.5271541,42.5166055],[3.4844358,42.6112999],[3.453503,42.6617358],[3.4091879,42.7064556],[3.4070571,42.7078728],[3.4082273,42.8997869],[3.4371356,42.9647084],[3.4927814,43.0071742],[3.555232,43.0125608],[3.6229978,43.0231626],[3.6868857,43.0428174],[3.7446615,43.0708395],[4.0098777,43.2267219],[4.0290854,43.2186861],[4.0977034,43.2017966],[4.1694875,43.1949307],[4.3032827,43.1916448],[4.3071401,43.1875172],[4.3580914,43.150811],[4.4177149,43.121923],[4.483789,43.101924],[4.5538617,43.0915541],[4.7509867,43.0764344],[4.7926472,43.0764628],[4.8153612,43.0730939],[4.8841951,43.0723882],[4.9287882,43.0780526],[4.9981061,43.0678297],[5.0415201,43.0678323],[5.0570488,43.0501849],[5.1050834,43.0132428],[5.1616955,42.9835336],[5.2248748,42.9621058],[5.2923875,42.9497146],[5.4975839,42.9265799],[5.5918032,42.8560067],[5.6513634,42.8198015],[5.7198496,42.7934864],[5.7942582,42.7782107],[5.8713368,42.774641],[5.9477209,42.7829323],[5.9479831,42.7830041],[6.0034682,42.7580789],[6.0683905,42.7400895],[6.1185922,42.7300055],[6.1808218,42.7216222],[6.2440663,42.7211796],[6.3064709,42.7286902],[6.3662048,42.7439336],[6.4020851,42.7557058],[6.463174,42.7811162],[6.5165969,42.8145833],[6.5604042,42.8548946],[6.5654878,42.8620294],[6.5807305,42.8680147],[6.6382891,42.9032493],[6.6475242,42.9117769],[6.7450497,42.9282165],[6.8190535,42.9468828],[6.8860324,42.9765476],[6.9429797,43.0158842],[6.9873237,43.0631312],[7.017043,43.116168],[7.0432773,43.1821836],[7.0905327,43.1994193],[7.1480619,43.2320196],[7.1957472,43.2721969],[7.205339,43.2845223],[7.2175747,43.2858727],[7.2845886,43.3032664],[7.3458264,43.3296362],[7.3990443,43.3640197],[7.4422822,43.4051598],[7.4739352,43.4515502],[7.4783259,43.4631732],[7.5816774,43.4949464],[7.6477414,43.5212053],[7.7051894,43.5565629],[7.7699976,43.6053729],[7.8167944,43.648626],[7.8505398,43.6978494],[7.8698055,43.7510086],[7.8731915,43.7980956],[7.8955936,43.8184088],[7.8955911,43.8184081],[7.8193864,43.7967574],[7.7089223,43.7653731],[7.7089188,43.7653718],[7.7089147,43.765371],[7.7088478,43.765352],[7.7047536,43.7645024],[7.7040639,43.7643593],[7.7040639,43.7643593],[7.7039591,43.7643376],[7.7035446,43.7642516],[7.7039591,43.7643376],[7.7040639,43.7643593],[7.7040639,43.7643593],[7.7047536,43.7645024],[7.7018842,43.7639035],[7.70186,43.763902],[7.7018465,43.7638992],[7.6966393,43.7635805],[7.6945884,43.7634541],[7.5283685,43.764898],[7.5209537,43.7654948],[7.5180218,43.7661754],[7.5180216,43.7661754],[7.5276826,43.7734736],[7.5321646,43.7775923],[7.5354573,43.7822601],[7.5374358,43.7873008],[7.5379431,43.7917963],[7.5287814,43.7918758],[7.500675,43.79212],[7.4790748,43.8647288],[7.4934749,43.8866803],[7.5917131,43.9763231],[7.6390664,44.0195332],[7.6914769,44.0673581],[7.6410764,44.143344],[7.6554766,44.175427],[7.3422734,44.1230811],[7.0470705,44.2395929],[6.9822698,44.2412815],[6.8893633,44.3424933],[6.8706687,44.3628591],[6.8778688,44.415205],[6.9174692,44.4354679],[6.8598686,44.4743052],[6.8346683,44.5334054],[6.9462695,44.6262771],[6.9354694,44.6465401],[6.9606696,44.6836888],[7.0542705,44.6853773],[6.99667,44.7934463],[7.0074701,44.8221521],[6.9822698,44.8474808],[6.8454685,44.8593008],[6.7446674,44.9082695],[6.7230672,45.0129613],[6.6510665,45.0349128],[6.6070677,45.1],[6.604266,45.1041445],[6.7374674,45.158179],[6.8454685,45.1294732],[6.9570696,45.2105249],[7.0542705,45.213902],[7.1082711,45.2594936],[7.0938709,45.3236596],[7.1622716,45.4114656],[6.9822698,45.5110916],[6.9534695,45.585389],[6.9642696,45.6411121],[6.8166682,45.6968351],[6.7806678,45.7778868],[6.802268,45.8268556],[6.9498695,45.85725],[7.0218702,45.9247931],[6.9858699,45.9923362],[6.9138691,46.0480592],[6.8490685,46.0531249],[6.8706687,46.1122251],[6.7734677,46.1341766],[6.7734677,46.1865225],[6.8274683,46.2692628],[6.7518675,46.3452488],[6.7878679,46.3959061],[6.7698891,46.42],[6.7626676,46.4296777],[6.5466655,46.4566949],[6.301863,46.3942175],[6.2154622,46.3148544],[6.2366531,46.2905578],[6.2802628,46.240557],[6.1311559,46.1531348],[6.1311559,46.1531348],[6.1074611,46.1392424],[5.9783597,46.1318577],[5.9783597,46.1318577],[5.9783597,46.1318577],[5.9598596,46.1307995],[5.9814598,46.1713253],[5.9598596,46.2118512],[6.0894609,46.2456227],[6.131166,46.356973],[6.1362614,46.3705775],[6.0534605,46.4195462],[6.0642606,46.4718921],[6.1470615,46.5512552],[6.1182612,46.5833382],[6.4278643,46.7606388],[6.4422644,46.9446937],[6.6654667,47.0206797],[6.697867,47.0848456],[6.8489053,47.17832],[6.9570696,47.2452605],[6.8489053,47.17832],[6.85,47.17],[7,47.18],[7.15,47.27],[7.3,47.32],[7.45,47.33],[7.55,47.4],[7.6,47.55],[7.5013466,47.55],[7.5870759,47.5846645],[7.5896657,47.6016713],[7.5906759,47.6083046],[7.5875536,47.6122322],[7.5114751,47.7079307],[7.5366754,47.7315707],[7.5258753,47.7839166],[7.55,47.8240355],[7.5654757,47.8497711],[7.5582756,47.8835427],[7.6194762,47.9713487],[7.5762758,48.054089],[7.5798758,48.1148778],[7.6852708,48.25],[7.6878769,48.2533411],[7.702277,48.3107527],[7.7490775,48.3411471],[7.7382774,48.4070016],[7.7706777,48.4897419],[7.8138781,48.5201363],[7.8102781,48.6146967],[7.9578796,48.721077],[7.9686797,48.7565371],[8.0910809,48.8071945],[8.1653716,48.9117314],[8.1920741,48.9493054],[8.199082,48.9591664],[7.9326793,49.0351524],[7.6338763,49.0385295],[7.5078751,49.0942526],[7.4754748,49.1516642],[7.4106741,49.16855],[7.3494735,49.1584185],[7.2738727,49.1043841],[7.0866709,49.1415328],[7.0434704,49.1077612],[7.0074701,49.1465985],[7.0078154,49.15],[7.0110701,49.1820586],[6.9138691,49.2073873],[6.8346683,49.2090759],[6.820674,49.15],[6.8202682,49.1482871],[6.8020084,49.15],[6.7122671,49.1584185],[6.701467,49.2141416],[6.6798668,49.2073873],[6.6720828,49.22],[6.6402664,49.2715532],[6.6720828,49.22],[6.85,49.22],[6.85,49.42],[6.55,49.42],[6.55,49.385401],[6.5106651,49.4252137],[6.4446099,49.45],[6.402664,49.4657396],[6.3450635,49.4556081],[6.3558636,49.5771857],[6.4170642,49.6396631],[6.4170642,49.6700574],[6.4926649,49.7004518],[6.503465,49.7967007],[6.4920799,49.798894],[6.55,49.85],[6.62,50.02],[6.42,50.2],[6.235,50.225],[6.1909854,50.2309479],[6.2550626,50.2559938],[6.2874629,50.3032739],[6.3630636,50.3066511],[6.3738637,50.3286026],[6.3378634,50.3674399],[6.3378634,50.4805745],[6.2082621,50.4856403],[6.1686617,50.522789],[6.1614616,50.5430519],[6.2478625,50.6139721],[6.1578616,50.622415],[6.100261,50.7017782],[6.0102601,50.7085325],[5.99586,50.7507469],[5.9670597,50.7946499],[5.99946,50.8014042],[6.0102601,50.8402415],[6.0570606,50.8520615],[6.0642606,50.9077846],[5.99946,50.9297361],[6.00306,50.9736391],[5.8778763,50.965484],[5.8734587,50.9651962],[5.8518585,51.0428708],[5.8716531,51.0401628],[5.9382594,51.0310507],[5.9814598,51.0749537],[6.1470615,51.1526283],[6.1254613,51.1644483],[6.1578616,51.1796455],[6.0606606,51.1712026],[6.0570606,51.2117285],[6.1938619,51.3451261],[6.2038735,51.45],[5.95,51.45],[5.8,51.33],[5.602201,51.2014307],[5.8302583,51.1560054],[5.602201,51.2014307],[5.5674557,51.2083513],[5.5092544,51.2681491],[5.4918549,51.2860259],[5.4604744,51.2779051],[5.3874539,51.2590087],[5.2146521,51.2590087],[5.2146521,51.2623489],[5.2146521,51.2944688],[5.1246512,51.3130431],[5.0670507,51.3738319],[5.0814508,51.4379978],[5.0274503,51.4768351],[4.9086491,51.3924063],[4.7610476,51.4126692],[4.8222482,51.4143578],[4.8222482,51.4751465],[4.7790478,51.4954095],[4.6314463,51.4177349],[4.5414454,51.4194235],[4.5198452,51.4278664],[4.5342453,51.4683922],[4.4838448,51.4751465],[4.3758438,51.4430636],[4.4118441,51.3569461],[4.2606426,51.3687662],[4.2354424,51.4194235],[4.1094411,51.4076035],[4,51.4430475],[3.9582396,51.4565722],[3.900639,51.4042263],[3.8286383,51.3907177],[3.6882369,51.4548836],[3.5370354,51.4599494],[3.4470345,51.5460668],[3.5586356,51.5950355],[3.8502385,51.6102327],[3.904239,51.5697069],[3.8718387,51.5494439],[4,51.5329128],[4,51.5329128],[4.0158402,51.5308696],[4.1058411,51.4464407],[4.2822428,51.4481293],[4.296643,51.4700808],[4.2678427,51.5089181],[4.0914409,51.5342468],[4,51.5830525],[3.9870399,51.5899698],[4,51.5932856],[4.0662407,51.6102327],[4.2066421,51.5899698],[4.1301534,51.6378053],[4.1300335,51.6375061],[4.1268251,51.632069],[4.1218223,51.6271818],[4.115256,51.6230694],[4.1074286,51.619921],[4.0987003,51.6178815],[3.9727668,51.5976304],[3.96475,51.5968234],[3.9566317,51.596957],[3.9486951,51.5980267],[3.9412173,51.599995],[3.9344596,51.6027932],[3.8364952,51.6520268],[3.8184392,51.6488554],[3.7980824,51.6426358],[3.7327859,51.6588398],[3.7327619,51.6588358],[3.732741,51.6588323],[3.732741,51.6588323],[3.7103429,51.6551023],[3.7023409,51.6542528],[3.694224,51.6543402],[3.6862746,51.6553614],[3.6787692,51.6572811],[3.671969,51.6600323],[3.6661109,51.6635193],[3.6613989,51.6676208],[3.6579974,51.672194],[3.6568836,51.6749535],[3.6568812,51.6749593],[3.6568799,51.6749627],[3.6286641,51.680228],[3.5536524,51.6857],[3.4782404,51.6829825],[3.4047447,51.6721588],[3.2682406,51.6437539],[2.988705,51.5855857],[2.8942608,51.55738],[2.3422007,51.3352479],[1.6087212,51.2020664],[1.5317028,51.182533],[1.4621875,51.154034],[1.3143497,51.079412],[1.2582094,51.0452125],[1.2129461,51.0051536],[1.1800481,50.9605781],[1.1605793,50.9129763],[1.1551479,50.8639353],[1.1638913,50.8150851],[1.1705339,50.7947539],[1.1504492,50.7416868],[1.1387575,50.6794753],[1.1500099,50.6172308],[1.1744685,50.5509602],[1.1429455,50.4705931],[1.1305484,50.4130905],[1.1336505,50.388124],[1.1280043,50.3656049],[1.1225299,50.3066289],[1.1054768,50.2823781],[1.0031715,50.2186748],[0.4727803,50.1154284],[0.385943,50.0910857],[-0.0257472,49.9366992],[-0.0843781,49.9099071],[-0.1349606,49.8770273],[-0.1760049,49.8390395],[-0.206314,49.7970734],[-0.313011,49.6076055],[-0.3144888,49.603831],[-0.3523997,49.6094182],[-0.8154113,49.6523901],[-0.8295438,49.7001311],[-0.8614201,49.7711621],[-0.8896309,49.8174339],[-0.9305792,49.8595684],[-0.9828925,49.896122],[-1.0447967,49.9258393],[-1.1141764,49.9476979],[-1.1886482,49.9609444],[-1.3370286,49.9779154],[-1.424219,49.9818489],[-1.5107549,49.9740099],[-1.5928182,49.9547447],[-1.6339397,49.9417929],[-1.7974126,49.9787384],[-1.8766762,49.9911501],[-1.9581816,49.9934072],[-2.0387956,49.9854234],[-2.1154214,49.9675057],[-2.1851225,49.9403426],[-2.24524,49.9049758],[-2.2934964,49.8627588],[-2.328082,49.8153036],[-2.3477213,49.7644171],[-2.3581465,49.7187918],[-2.3619146,49.663805],[-2.34837,49.6094596],[-2.3181303,49.5580129],[-2.2978646,49.5374122],[-2.2985382,49.5085783],[-2.2820462,49.4536346],[-2.2409423,49.3658555],[-2.2409234,49.365846],[-2.2409066,49.3658376],[-2.2408706,49.3658196],[-2.2408563,49.3658124],[-2.2408563,49.3658124],[-2.2408289,49.3657987],[-2.2407902,49.3657793],[-2.2407902,49.3657793],[-2.0827739,49.2867104],[-2.0826066,49.2867104],[-2.0753188,49.2862814],[-2.0682606,49.2850184],[-2.061654,49.282961],[-2.0004344,49.2593091],[-1.9932079,49.2557628],[-1.9873347,49.2512739],[-1.983096,49.2460578],[-1.9687118,49.2224127],[-1.9663038,49.2166813],[-1.9658722,49.2107449],[-1.9674372,49.2048918],[-1.9854678,49.1643726],[-1.9883768,49.1595883],[-1.9926208,49.155254],[-1.9980449,49.1515275],[-2.0044513,49.1485447],[-2.0116066,49.146414],[-2.0192502,49.1452131],[-2.0226562,49.1451144],[-2.0226777,49.1451138],[-2.0227015,49.1451131],[-2.0227015,49.1451131],[-2.0227137,49.1451128],[-2.0227423,49.1451119],[-2.0227433,49.1451119],[-2.0227676,49.1451112],[-2.0153616,49.1312116],[-1.9933649,49.1001087],[-2.0005305,49.0661505],[-2.0035816,49.012228],[-1.9925184,48.9681555],[-2.0280415,48.9633819],[-2.1054631,48.947572],[-2.1306567,48.9385335],[-2.1853013,48.9545611],[-2.2589148,48.9661219],[-2.3345167,48.9685751],[-2.4095008,48.9618363],[-2.4812833,48.9461382],[-2.591548,48.91423],[-2.617493,48.9393563],[-2.6741646,48.9761633],[-2.6755642,48.9767723],[-2.6938683,48.9942568],[-2.7498283,49.030371],[-2.7732646,49.040564],[-2.7920253,49.0564678],[-2.8520012,49.0908218],[-2.921023,49.1169359],[-2.9964836,49.1338195],[-3.0755211,49.1408319],[-3.1551319,49.137707],[-3.1587609,49.1370902],[-3.2045895,49.1421314],[-3.2878601,49.1401357],[-3.3687716,49.127175],[-3.4358659,49.1063114],[-3.4949587,49.1119445],[-3.5719716,49.1097479],[-3.6469733,49.0981554],[-3.7173009,49.0775795],[-3.7804649,49.048751],[-3.8342408,49.0126921],[-3.8483344,49.0012599],[-3.8907634,48.9958988],[-3.9414647,49.0017063],[-4.020016,49.0007144],[-4.0968087,48.9898934],[-4.2993203,48.9474531],[-4.3025796,48.946528],[-4.3117519,48.9476167],[-4.3942059,48.9463824],[-4.4745791,48.9343055],[-4.6951474,48.8850768],[-4.7654673,48.8642328],[-4.8285231,48.8350636],[-4.8430328,48.8251944],[-4.8798365,48.8155531],[-4.9465847,48.7871342],[-5.0036399,48.7507284],[-5.0089449,48.7466081],[-5.0502761,48.7491295],[-5.1270786,48.7441885],[-5.20106,48.7297856],[-5.2841949,48.7077211],[-5.3569887,48.6824432],[-5.4205338,48.6480216],[-5.4722448,48.6058693],[-5.5100373,48.5577118],[-5.5324099,48.5055154],[-5.5385003,48.4514048]],[[-4.5342453,48.0270718],[-4.4803763,48],[-4.4803763,48],[-4.5342453,48.0270718]],[[-2.1294213,46.8940364],[-2,47.0247843],[-2,47.0247843],[-1.9890199,47.0358769],[-2,47.0247843],[-2,47.0247843],[-2.1294213,46.8940364]],[[-1.4778148,43.5793592],[-1.3625713,44],[-1.3625713,44],[-1.4778148,43.5793592]],[[-1.4058141,46.0531249],[-1.3861163,46],[-1.3861163,46],[-1.4058141,46.0531249]],[[-1.1106111,46.0176648],[-1.0964881,46],[-1.0964881,46],[-1.1106111,46.0176648]],[[-0.2178022,49.2799961],[0,49.3310756],[0.0126001,49.3340306],[0,49.3310756],[-0.2178022,49.2799961]],[[1.2222122,49.9790671],[1.2559433,50],[1.2559433,50],[1.2222122,49.9790671]],[[1.9458195,42.4513896],[1.9566196,42.481784],[1.99982,42.4446353],[1.9818198,42.4412582],[1.9458195,42.4513896]],[[3.2152401,42.4397244],[3.2164443,42.4357835],[3.2154279,42.4391096],[3.2154366,42.4390924],[3.2154445,42.4390769],[3.2154473,42.4390712],[3.2154596,42.4390469],[3.2159545,42.4380663],[3.2164717,42.435734],[3.2164845,42.435676],[3.2164873,42.4356634],[3.2164952,42.4356279],[3.2165042,42.4355874],[3.2152401,42.4397244]],[[3.9336142,51.4079743],[3.9336173,51.4079799],[3.9337659,51.4082479],[3.9441753,51.4223014],[3.948244,51.426666],[3.9535463,51.4304814],[3.9598966,51.4336139],[3.9670725,51.4359535],[3.9748224,51.4374183],[3.9828745,51.437957],[3.9909464,51.4375505],[3.9987551,51.4362132],[4.0060267,51.433992],[4.07929,51.4059531],[4.1291941,51.3868591],[4.0679392,51.4102961],[4.0614199,51.4123364],[4.0544423,51.4136625],[3.9820561,51.4233143],[3.9738038,51.4239023],[3.9655225,51.4234936],[3.9575186,51.4221032],[3.9500881,51.4197827],[3.9435059,51.4166179],[3.9380151,51.4127257],[3.9338186,51.4082502],[3.9336142,51.4079743]],[[3.9546395,43.540522],[4,43.544068],[4.1058411,43.552342],[4,43.544068],[3.9546395,43.540522]],[[3.9730208,51.3969306],[3.9834398,51.4109806],[4,51.404644],[4.0453682,51.3872842],[4.1202412,51.3586347],[4.0453682,51.3872842],[3.9730208,51.3969306]],[[5.9346593,43.1133119],[6,43.1013193],[6.0174602,43.0981147],[6,43.1013193],[5.9346593,43.1133119]],[[7.3674737,43.7228883],[7.3890739,43.7583484],[7.4358744,43.7431512],[7.409178,43.7222816],[7.409178,43.7222816],[7.409177,43.7222808],[7.409177,43.7222808],[7.4091711,43.7222762],[7.4091711,43.7222762],[7.4091677,43.7222736],[7.4091677,43.7222736],[7.4091618,43.7222689],[7.4091618,43.7222689],[7.409161,43.7222683],[7.409161,43.7222683],[7.4091447,43.7222555],[7.4091443,43.7222553],[7.4091442,43.7222552],[7.4067223,43.7203619],[7.4067218,43.7203615],[7.4067216,43.7203614],[7.4067181,43.7203586],[7.4067181,43.7203586],[7.4067173,43.720358],[7.4067173,43.720358],[7.4067162,43.7203571],[7.4067162,43.7203571],[7.4067161,43.720357],[7.4067161,43.720357],[7.4067021,43.7203461],[7.4067021,43.7203461],[7.4066956,43.720341],[7.4066956,43.720341],[7.403474,43.7178226],[7.3674737,43.7228883]]]}}
