{"type":"Feature","properties":{"family":"france","name":"French Empire, 1805 – 1808"},"geometry":{"type":"Polygon","coordinates":[[[-5.538486,48.4514151],[-5.5280854,48.3976134],[-5.5016823,48.3462686],[-5.4603866,48.299451],[-5.4058959,48.2590436],[-5.3404232,48.2266675],[-5.2666065,48.2036197],[-5.2235969,48.1935344],[-5.1441841,48.1806852],[-5.0848396,48.1792201],[-5.0791099,48.1737417],[-5.1095667,48.130226],[-5.1284228,48.0779389],[-5.1313156,48.0241891],[-5.1181789,47.9711193],[-5.0895823,47.9208386],[-5.046701,47.8753396],[-4.9912637,47.8364208],[-4.925481,47.8056171],[-4.8519566,47.7841415],[-4.7672138,47.7658163],[-4.757981,47.7331296],[-4.7298133,47.6854356],[-4.6887736,47.642177],[-4.6363665,47.6049091],[-4.574493,47.5749693],[-4.5053822,47.5534301],[-4.4315118,47.5410622],[-4.355523,47.5383082],[-4.1692769,47.5433315],[-4.0993015,47.5493421],[-4.035838,47.5626993],[-3.9685432,47.5433329],[-3.8867744,47.5324133],[-3.7404869,47.5232613],[-3.7168727,47.5055849],[-3.653735,47.4738281],[-3.6395916,47.4692919],[-3.6519961,47.4441558],[-3.661754,47.3916389],[-3.6561483,47.3388427],[-3.6354398,47.2878004],[-3.595423,47.2170147],[-3.5632024,47.1725908],[-3.5196218,47.1329008],[-3.4661612,47.0992719],[-3.4046208,47.0728266],[-3.3370607,47.0544462],[-3.2657334,47.0447428],[-3.1930119,47.0440396],[-3.0318191,47.052428],[-2.952922,47.0619861],[-2.8784195,47.0821127],[-2.8204346,47.1079434],[-2.7902569,47.0881434],[-2.7250264,47.0595718],[-2.6883512,47.0497025],[-2.6907781,47.0277134],[-2.6820785,46.976696],[-2.6593795,46.9277241],[-2.6538311,46.9207396],[-2.6659714,46.9133096],[-2.7143109,46.8682012],[-2.7479238,46.8172431],[-2.7654004,46.7626388],[-2.766037,46.7067422],[-2.7622434,46.6797402],[-2.7472488,46.6275661],[-2.7176664,46.5784197],[-2.6746778,46.5342019],[-2.6199713,46.4966188],[-2.5556742,46.4671175],[-2.4842703,46.446832],[-2.4085057,46.4365413],[-2.3081997,46.4298141],[-2.2295974,46.4299425],[-2.1833257,46.4364938],[-2.1578717,46.3931952],[-2.1209383,46.3449545],[-2.0707572,46.302809],[-2.0093906,46.2684677],[-1.9466051,46.2459318],[-1.939147,46.1985252],[-1.9174379,46.1496309],[-1.8828333,46.1044461],[-1.8365993,46.0645855],[-1.7925843,46.0332011],[-1.7818144,45.9851828],[-1.7525254,45.9076098],[-1.7192885,45.8486613],[-1.6673054,45.7967153],[-1.6265844,45.7647305],[-1.6296697,45.7500667],[-1.6335119,45.7011869],[-1.6246404,45.65263],[-1.6033796,45.6059927],[-1.5704564,45.5628047],[-1.5269734,45.5244792],[-1.4960506,45.5055513],[-1.6382128,44.6600531],[-1.6398096,44.6086912],[-1.6336284,44.5828449],[-1.6361502,44.5709704],[-1.6546663,44.3358447],[-1.8303077,43.679932],[-1.8450737,43.6628352],[-1.8472588,43.6603051],[-1.932878,43.6353984],[-1.9951903,43.612067],[-2.0503137,43.5806716],[-2.0962874,43.5423368],[-2.1314879,43.4984333],[-2.1546849,43.4505274],[-2.165083,43.4003241],[-2.1684097,43.3564133],[-2.1668935,43.332734],[-2.1668103,43.3327012],[-2.1557046,43.3283153],[-2.1556633,43.328299],[-2.1556436,43.3282912],[-2.1556183,43.3282812],[-2.1279365,43.3173492],[-1.9754696,43.3675493],[-1.9682095,43.3693033],[-1.9606091,43.3699363],[-1.9529922,43.3694212],[-1.9456831,43.36778],[-1.9424849,43.3664906],[-1.8327108,43.4179852],[-1.8259327,43.420486],[-1.8185958,43.4219306],[-1.8110079,43.4222584],[-1.8034876,43.4214556],[-1.7963506,43.419556],[-1.7898964,43.4166393],[-1.7845388,43.4136232],[-1.7845386,43.4136231],[-1.7845338,43.4136204],[-1.7845338,43.4136204],[-1.7845333,43.4136201],[-1.7845291,43.4136177],[-1.8003686,43.4118096],[-1.8073186,43.4105017],[-1.8137931,43.4082463],[-1.8195498,43.4051279],[-1.8243733,43.4012633],[-1.8280834,43.396797],[-1.8305414,43.3918961],[-1.8316558,43.3867441],[-1.8316871,43.3863601],[-1.8316861,43.3863606],[-1.8316842,43.3863615],[-1.8316761,43.3863653],[-1.8316701,43.3863681],[-1.8126181,43.3953043],[-1.7946179,43.3851728],[-1.798218,43.3412698],[-1.7550176,43.3193183],[-1.7478175,43.2906125],[-1.6722167,43.3041211],[-1.6110161,43.2450209],[-1.5390154,43.2838582],[-1.402214,43.2433324],[-1.4094141,43.1673464],[-1.4886149,43.0812289],[-1.4562146,43.0457688],[-1.3662137,43.0339488],[-1.3482135,43.093049],[-1.2870129,43.1099348],[-1.3122131,43.0694089],[-1.1502115,43.005243],[-1.0278103,42.9866686],[-0.9450095,42.9478313],[-0.7614076,42.9461428],[-0.7398074,42.885354],[-0.6498065,42.8498939],[-0.5706057,42.7722193],[-0.5346053,42.7840393],[-0.5346053,42.8076794],[-0.4230042,42.7907936],[-0.3222032,42.8431395],[-0.2358024,42.7857279],[-0.1602016,42.7958594],[-0.1206012,42.7164962],[-0.0378004,42.6844133],[0.1674017,42.7266277],[0.2394024,42.7097419],[0.2754028,42.6692161],[0.3546035,42.7181848],[0.3906039,42.6844133],[0.6426064,42.6844133],[0.6678067,42.7148077],[0.6318063,42.7452021],[0.6498065,42.8245652],[0.6694175,42.8320389],[0.7074071,42.8465167],[0.9198092,42.7840393],[1.0890109,42.7705307],[1.1502115,42.7063648],[1.3410134,42.7080534],[1.4310143,42.5949187],[1.4670147,42.6421988],[1.5282153,42.6489532],[1.7226172,42.6101159],[1.7118171,42.589853],[1.7658177,42.5628357],[1.7226172,42.5493271],[1.7082171,42.5020469],[1.9,42.4445349],[1.9278193,42.4361924],[1.9362393,42.42],[1.9638196,42.3669608],[2.0106201,42.3466978],[2.0646206,42.3585179],[2.1366214,42.4159295],[2.2770228,42.4294381],[2.5254253,42.3264349],[2.5470255,42.3517636],[2.6622266,42.3382549],[2.6406264,42.3720265],[2.6910269,42.405798],[2.7882279,42.4125523],[2.9322293,42.469964],[3.0294303,42.4648982],[3.0870309,42.4277495],[3.1806318,42.4311267],[3.1830192,42.4042513],[3.1830194,42.4042494],[3.1830195,42.4042487],[3.1830195,42.4042486],[3.1830195,42.4042485],[3.1897922,42.4050091],[3.1968032,42.4069357],[3.203136,42.4098777],[3.2085249,42.4137117],[3.2127436,42.4182769],[3.2156147,42.4233817],[3.2170176,42.4288119],[3.2169055,42.4337777],[3.216912,42.4337484],[3.2170973,42.4329129],[3.2225751,42.3708593],[3.3274052,42.3489918],[3.333979,42.3470925],[3.3399327,42.344293],[3.3450431,42.3406984],[3.3491191,42.3364433],[3.3520081,42.3316871],[3.3536022,42.326608],[3.3538419,42.3213962],[3.3527187,42.3162468],[3.3502749,42.3113526],[3.296243,42.2286279],[3.2926783,42.2242684],[3.2880701,42.2204818],[3.282583,42.2174035],[3.2764127,42.2151431],[3.2697795,42.2137813],[3.2629199,42.2133667],[3.2560786,42.2139141],[3.1694467,42.2270307],[3.1562045,42.2111638],[3.1584223,42.1627184],[3.1584223,42.1627175],[3.1584231,42.1626999],[3.1584232,42.1626985],[3.1584235,42.1626918],[3.173881,42.1613794],[3.2431797,42.1653286],[3.3102222,42.1789471],[3.3725871,42.2017438],[3.428016,42.2328955],[3.4744927,42.2712761],[3.5103156,42.3154956],[3.5341607,42.3639494],[3.5451315,42.4148753],[3.5427957,42.4664166],[3.5272055,42.5166894],[3.5123018,42.5497251],[3.4844846,42.611385],[3.4535622,42.6618016],[3.4092633,42.7065027],[3.4071039,42.7079388],[3.4082716,42.8998711],[3.4371629,42.9647546],[3.4927302,43.0071595],[3.5551241,43.0125405],[3.6229131,43.0231454],[3.686826,43.0428072],[3.7446269,43.0708397],[4.0097902,43.226684],[4.0289885,43.2186522],[4.0975921,43.2017666],[4.1693649,43.1949011],[4.3031935,43.1916121],[4.3070723,43.1874612],[4.3580078,43.1507638],[4.4176149,43.1218828],[4.4836737,43.101888],[4.5537337,43.0915192],[4.7508594,43.0763966],[4.7925223,43.0764251],[4.8152836,43.0730512],[4.8841205,43.0723515],[4.928654,43.078012],[4.997985,43.0677878],[5.0414294,43.0677901],[5.0569641,43.0501307],[5.1049833,43.0131925],[5.1615807,42.9834863],[5.2247474,42.9620603],[5.2922508,42.9496693],[5.4974803,42.9265275],[5.5917274,42.8559302],[5.6512766,42.8197315],[5.7197532,42.7934229],[5.7941552,42.7781532],[5.8712312,42.7745887],[5.9476181,42.7828844],[5.9478576,42.78295],[6.0033293,42.7580242],[6.0682515,42.7400321],[6.118453,42.7299472],[6.1806848,42.7215636],[6.2439356,42.721122],[6.3063507,42.7286351],[6.3660991,42.7438823],[6.4019801,42.7556543],[6.4630999,42.7810764],[6.5165537,42.8145597],[6.5603902,42.8548905],[6.5654648,42.8620103],[6.5806928,42.8679914],[6.638279,42.9032492],[6.6474576,42.9117254],[6.7449168,42.9281531],[6.8189618,42.9468306],[6.8859819,42.9765159],[6.9429665,43.0158806],[6.961975,43.0361339],[6.9619575,43.0361389],[6.9619026,43.0361547],[6.9618758,43.0361624],[6.6825799,43.1163496],[6.9618758,43.0361624],[6.9619026,43.0361547],[6.9619575,43.0361389],[6.961975,43.0361339],[6.9619824,43.0361318],[6.9619942,43.0361284],[8.3520814,42.6370276],[8.3521204,42.6370164],[8.3521257,42.6370149],[8.3390052,42.5972793],[8.2944842,42.5713768],[8.2476696,42.5306568],[8.2127426,42.4839089],[8.191055,42.4329802],[8.1834278,42.3798779],[8.1901245,42.3266898],[8.1970878,42.3094972],[8.1873947,42.2785653],[8.1848627,42.2271296],[8.195571,42.1762579],[8.1965813,42.1741787],[8.1963449,42.173154],[8.1990825,42.1177573],[8.2170145,42.0639253],[8.2373152,42.032542],[8.2282308,42.0029404],[8.2264763,41.9491843],[8.2390899,41.8962183],[8.264646,41.8287503],[8.2899227,41.7803177],[8.2970228,41.7719363],[8.2968311,41.7254898],[8.3111133,41.6723446],[8.3392897,41.6223804],[8.3801956,41.577606],[8.4321642,41.5398169],[8.439306,41.5363867],[8.4411913,41.5148583],[8.4580269,41.4659899],[8.4866723,41.4203032],[8.5261048,41.3793896],[8.5749337,41.3446709],[8.63145,41.3173513],[8.7177349,41.2836138],[8.8015231,41.2508525],[8.8135437,41.2366747],[8.8630437,41.1979735],[8.9216664,41.1673725],[8.9871005,41.1460712],[8.9877987,41.145903],[8.9878649,41.1459382],[8.9881218,41.1460751],[8.9953268,41.1483501],[9.1123233,41.1743567],[9.1362195,41.2487169],[9.1383459,41.2533973],[9.1415733,41.2577072],[9.1457934,41.2615017],[9.1508645,41.264653],[9.156616,41.2670551],[9.2178352,41.2873256],[9.224456,41.2889599],[9.2313725,41.2896019],[9.2383237,41.2892273],[9.2450473,41.2878503],[9.2512899,41.2855228],[9.256816,41.2823326],[9.2928176,41.2569964],[9.2977257,41.2527326],[9.301347,41.2477946],[9.3019707,41.2462487],[9.306242,41.2445289],[9.3116727,41.2411725],[9.3161283,41.2370841],[9.3177711,41.2347693],[9.3195139,41.2356571],[9.3258206,41.2376837],[9.332525,41.2387705],[9.3387324,41.2388675],[9.3392723,41.2403523],[9.3427162,41.2453685],[9.3474734,41.2497359],[9.3906742,41.2818282],[9.3958871,41.2850306],[9.4018044,41.287445],[9.4082179,41.2889863],[9.4149017,41.2896003],[9.4216204,41.2892654],[9.4281375,41.2879932],[9.4342235,41.2858287],[9.4396641,41.2828481],[9.4442678,41.2791562],[9.4478729,41.2748831],[9.4503526,41.2701791],[9.4509763,41.2685687],[9.4570419,41.2693035],[9.4643777,41.2690539],[9.4714921,41.2676869],[9.478087,41.2652598],[9.4924901,41.2585031],[9.4984455,41.2550029],[9.5032927,41.2506421],[9.5068167,41.2456144],[9.5088615,41.2401432],[9.5093365,41.2344712],[9.5080613,41.2119606],[9.5080591,41.2119222],[9.5080544,41.2118402],[9.5080529,41.2118124],[9.5252812,41.2286252],[9.5557341,41.2739255],[9.5847785,41.3295532],[9.6038749,41.3801057],[9.605544,41.3955498],[9.6443531,41.4348686],[9.6659548,41.4620001],[9.6809129,41.4807874],[9.7046688,41.5312343],[9.7108759,41.5641822],[9.7288491,41.5931302],[9.7537394,41.6479495],[9.7623959,41.7055083],[9.7633363,41.868558],[9.8548637,41.9667509],[9.8923648,42.0179443],[9.9141888,42.0739571],[9.9192734,42.1321733],[9.8950691,42.5415835],[9.8971459,42.5398625],[9.9526489,42.508538],[10.0151495,42.4855122],[10.0823876,42.4716146],[10.151939,42.4673447],[10.2212998,42.4728555],[10.2364723,42.4751524],[10.277516,42.4591075],[10.3451643,42.4439601],[10.4154525,42.4386498],[10.4857847,42.4433719],[10.5156654,42.4497993],[10.5535639,42.4579513],[10.6162843,42.481849],[10.6716204,42.5141811],[10.7175114,42.5537506],[10.7522365,42.5990904],[10.7744798,42.6485161],[10.7833825,42.7001872],[10.7796284,42.740813],[10.7889051,42.7584644],[10.7165978,42.7791526],[10.7103178,42.7814712],[10.7047534,42.7846247],[10.7001082,42.7884977],[10.696552,42.7929488],[10.6942152,42.7978152],[10.6931834,42.802919],[10.6934946,42.8080737],[10.6951379,42.8130906],[10.6980535,42.8177863],[10.7021348,42.8219888],[10.7308508,42.8462457],[10.7385229,42.8895738],[10.7266934,42.9038327],[10.6283436,42.9303892],[10.5812569,42.9261481],[10.5798231,42.923116],[10.5763181,42.9186724],[10.5763181,42.9186724],[10.5717281,42.914795],[10.5662193,42.9116239],[10.5599908,42.9092738],[10.5312003,42.9008343],[10.5239081,42.8993112],[10.5163447,42.8989139],[10.5088306,42.8996591],[10.5016836,42.9015154],[10.4952066,42.9044041],[10.4896738,42.9082029],[10.471672,42.9233957],[10.4674067,42.9278242],[10.4644356,42.9327873],[10.4428103,42.9817494],[10.4412382,42.9871271],[10.4411893,42.9926262],[10.442666,42.9980185],[10.4456074,43.0030796],[10.4498916,43.0075993],[10.4828361,43.0357091],[10.5054851,43.1328902],[10.4724631,43.1393324],[10.401152,43.1428189],[10.3302917,43.1361863],[10.2625676,43.1196852],[10.2005422,43.0939403],[10.1468253,43.0600964],[10.1405749,43.059514],[10.052444,43.0513023],[9.984828,43.0401486],[9.9213286,43.0199061],[9.8642127,42.9912987],[9.8346883,42.9695127],[9.8300864,43.0116184],[9.8267433,43.0254604],[9.8267309,43.0254523],[9.8266937,43.0254278],[9.8266364,43.0253902],[9.801098,43.0086201],[9.7830978,43.028883],[9.8082981,43.0660317],[9.8159019,43.0656355],[9.8159712,43.0656319],[9.8159757,43.0656316],[9.8159998,43.0656304],[9.7929859,43.1096673],[9.7561053,43.1531243],[9.7086031,43.1907239],[9.6521815,43.2211033],[9.5888757,43.2431591],[9.5209798,43.2560891],[9.4052827,43.2696691],[9.3363392,43.2729529],[9.2677875,43.2668174],[9.2020447,43.2514785],[9.1414256,43.2274766],[9.0880583,43.1956567],[9.0438072,43.1571379],[9.0102076,43.1132728],[8.9884127,43.0655986],[8.9791562,43.0157821],[8.9816108,42.9812882],[8.9643266,42.9770655],[8.8977367,42.9482805],[8.8409325,42.9099078],[8.8160079,42.8890768],[8.7049136,42.8664334],[8.6362271,42.846729],[8.6226319,42.8402718],[8.5963177,42.8360891],[8.5283947,42.8140325],[8.4679946,42.7823612],[8.4176012,42.7423846],[8.3863853,42.7044056],[8.3864026,42.7044006],[8.3864602,42.704384],[8.3864894,42.7043757],[8.7383672,42.603333],[8.3864894,42.7043757],[8.3864602,42.704384],[8.3864026,42.7044006],[8.3863853,42.7044056],[8.3863775,42.7044078],[8.386363,42.7044119],[7.0081213,43.1001777],[7.0080964,43.1001848],[7.0080886,43.1001871],[7.0170801,43.1162331],[7.0432803,43.1821629],[7.0904655,43.1993746],[7.1480292,43.2319969],[7.1957448,43.2722015],[7.2052863,43.2844621],[7.2174618,43.285806],[7.2845081,43.3032114],[7.3457784,43.3295996],[7.3990266,43.364007],[7.4422904,43.4051752],[7.462367,43.4346105],[7.4878617,43.4409365],[7.5533881,43.4690822],[7.6096829,43.5063133],[7.6247655,43.5214279],[7.6905697,43.5208225],[7.7628629,43.5252444],[7.8326086,43.5397154],[8.2056381,43.6456547],[8.2606016,43.6650201],[8.3104776,43.6906066],[8.4075661,43.7494971],[8.4525853,43.7818266],[8.4894007,43.8191903],[8.5169391,43.8605153],[8.5618771,43.9456885],[8.6023542,43.9632593],[8.6682798,43.999553],[8.7215404,44.0453789],[8.7595116,44.0985059],[8.771724,44.1215523],[8.824912,44.1446527],[8.9233811,44.1281091],[8.9599361,44.1047175],[9.0204888,44.0730814],[9.0885099,44.0506497],[9.1613221,44.0383021],[9.2037715,44.0372974],[9.613244,43.8243207],[9.6741323,43.7983553],[9.7406525,43.7810785],[9.8104499,43.7731002],[9.881059,43.7747013],[9.9478335,43.7854778],[10.0066829,43.779627],[10.0814114,43.7830285],[10.1537023,43.7970678],[10.2181349,43.8202688],[10.2180592,43.8206797],[10.2146012,43.8394501],[10.1785528,43.9070099],[10.171634,43.9133851],[10.1716251,43.9133952],[10.1675872,43.9180131],[10.1716251,43.9133952],[10.171625,43.9133953],[10.1377608,43.9446011],[10.1377568,43.9446057],[10.1377545,43.9446084],[10.1377531,43.9446099],[10.142609,43.9409116],[10.1377531,43.9446099],[10.1377415,43.9446187],[10.0826169,43.9954206],[10.002866,44.0248855],[10.0022752,44.025155],[10.0028683,44.0249358],[10.0100021,44.0229292],[10.0175521,44.0220043],[10.0252039,44.0221995],[10.0326391,44.0235066],[10.0395482,44.0258713],[10.0456434,44.0291951],[10.0506707,44.0333396],[10.053229,44.0366092],[10.0532288,44.0366093],[10.0532282,44.0366095],[10.0532282,44.0366095],[10.0532271,44.0366099],[10.0532258,44.0366104],[10.0532221,44.0366117],[10.0532216,44.0366119],[10.02,44.048889],[10.02,44.048889],[10,44.05628],[10,44.05628],[10.02,44.048889],[10.02,44.1],[9.85,44.25],[9.7,44.4],[9.45,44.47],[9.3174419,44.5848837],[9.4,44.75],[9.35,45.1],[9.27,45.13],[9.03,45.12],[8.79,45.11],[8.55,45.1],[8.5,45.18],[8.45,45.27],[8.42,45.38],[8.4,45.5],[8.37,45.6],[8.3,45.68],[8.27,45.77],[8.2,45.82],[8.08,45.86],[7.95,45.88],[7.86,45.93],[7.86,45.9439734],[7.86,45.9439734],[7.8318783,45.9146616],[7.695077,45.9281702],[7.6446764,45.9670075],[7.5402754,45.9838933],[7.3926739,45.9163502],[7.1550716,45.8758243],[7.0902709,45.8808901],[7.0218702,45.9247931],[6.9858699,45.9923362],[6.9138691,46.0480592],[6.8490685,46.0531249],[6.8706687,46.1122251],[6.7734677,46.1341766],[6.7734677,46.1865225],[6.8274683,46.2692628],[6.7518675,46.3452488],[6.7878679,46.3959061],[6.7698891,46.42],[6.7626676,46.4296777],[6.5466655,46.4566949],[6.301863,46.3942175],[6.2154622,46.3148544],[6.2366531,46.2905578],[6.18,46.3],[6.131166,46.356973],[6.1362614,46.3705775],[6.0534605,46.4195462],[6.0642606,46.4718921],[6.1470615,46.5512552],[6.1182612,46.5833382],[6.4278643,46.7606388],[6.4422644,46.9446937],[6.6654667,47.0206797],[6.697867,47.0848456],[6.8489053,47.17832],[6.9570696,47.2452605],[6.8489053,47.17832],[6.85,47.17],[6.93,47.12],[7.05,47.06],[7.2,47.1],[7.3,47.15],[7.45,47.25],[7.55,47.38],[7.6,47.55],[7.5013466,47.55],[7.5870759,47.5846645],[7.5896657,47.6016713],[7.5906759,47.6083046],[7.5875536,47.6122322],[7.5114751,47.7079307],[7.5366754,47.7315707],[7.5258753,47.7839166],[7.55,47.8240355],[7.5654757,47.8497711],[7.5582756,47.8835427],[7.6194762,47.9713487],[7.5762758,48.054089],[7.5798758,48.1148778],[7.6852708,48.25],[7.6878769,48.2533411],[7.702277,48.3107527],[7.7490775,48.3411471],[7.7382774,48.4070016],[7.7706777,48.4897419],[7.8138781,48.5201363],[7.8102781,48.6146967],[7.9578796,48.721077],[7.9686797,48.7565371],[8.0910809,48.8071945],[8.1653716,48.9117314],[8.1920741,48.9493054],[8.199082,48.9591664],[8.1920741,48.9493054],[8.23,48.95],[8.3,49.05],[8.37,49.17],[8.4,49.25],[8.45,49.32],[8.46,49.4],[8.46,49.49],[8.42,49.56],[8.37,49.63],[8.42,49.7],[8.47,49.76],[8.4,49.84],[8.35,49.9],[8.33,49.97],[8.28,50.01],[8.18,50.03],[8.05,50],[7.9,49.97],[7.8,50.03],[7.73,50.12],[7.65,50.2],[7.6,50.27],[7.6,50.35],[7.6,50.36],[7.5,50.42],[7.4,50.45],[7.3,50.53],[7.22,50.6],[7.15,50.68],[7.1,50.74],[7.03,50.83],[6.97,50.93],[6.98,51.02],[6.9,51.1],[6.78,51.2],[6.73,51.3],[6.7,51.38],[6.7065574,51.3914754],[6.7065574,51.3914754],[6.74,51.45],[6.7,51.52],[6.62,51.6],[6.6,51.66],[6.48,51.73],[6.35,51.8],[6.22,51.85],[6.1709091,51.8647273],[6.12,51.88],[6.0973636,51.8825557],[6.1279095,51.8618606],[6.1578616,51.8415678],[6.0822608,51.8533879],[5.958968,51.823096],[5.9310593,51.8162392],[5.9634596,51.7757133],[5.9382594,51.7318103],[5.9930692,51.7207925],[6.0138601,51.7166131],[6.0290824,51.6709176],[6.0318603,51.6625786],[6.0394944,51.6605056],[6.100261,51.6440043],[6.090202,51.609798],[6.0858609,51.5950355],[6.1938619,51.5089181],[6.204662,51.4582608],[6.2038735,51.45],[6.1938619,51.3451261],[6.2038735,51.45],[5.95,51.45],[5.8,51.33],[5.602201,51.2014307],[5.8302583,51.1560054],[5.602201,51.2014307],[5.5674557,51.2083513],[5.5092544,51.2681491],[5.4918549,51.2860259],[5.4604744,51.2779051],[5.3874539,51.2590087],[5.2146521,51.2590087],[5.2146521,51.2623489],[5.2146521,51.2944688],[5.1246512,51.3130431],[5.0670507,51.3738319],[5.0814508,51.4379978],[5.0274503,51.4768351],[4.9086491,51.3924063],[4.7610476,51.4126692],[4.8222482,51.4143578],[4.8222482,51.4751465],[4.7790478,51.4954095],[4.6314463,51.4177349],[4.5414454,51.4194235],[4.5198452,51.4278664],[4.5342453,51.4683922],[4.4838448,51.4751465],[4.3758438,51.4430636],[4.4118441,51.3569461],[4.2606426,51.3687662],[4.2354424,51.4194235],[4.1094411,51.4076035],[4,51.4430475],[3.9582396,51.4565722],[3.900639,51.4042263],[3.8286383,51.3907177],[3.6882369,51.4548836],[3.5370354,51.4599494],[3.4470345,51.5460668],[3.5586356,51.5950355],[3.8502385,51.6102327],[3.904239,51.5697069],[3.8718387,51.5494439],[4,51.5329128],[4,51.5329128],[4.0158402,51.5308696],[4.1058411,51.4464407],[4.2822428,51.4481293],[4.296643,51.4700808],[4.2678427,51.5089181],[4.0914409,51.5342468],[4,51.5830525],[3.9870399,51.5899698],[4,51.5932856],[4.0662407,51.6102327],[4.2066421,51.5899698],[4.1301534,51.6378053],[4.1300335,51.6375061],[4.1268251,51.632069],[4.1218223,51.6271818],[4.115256,51.6230694],[4.1074286,51.619921],[4.0987003,51.6178815],[3.9727668,51.5976304],[3.96475,51.5968234],[3.9566317,51.596957],[3.9486951,51.5980267],[3.9412173,51.599995],[3.9344596,51.6027932],[3.8364952,51.6520268],[3.8364952,51.6520268],[3.8364549,51.652047],[3.8364265,51.6520613],[3.8183793,51.6488915],[3.7979531,51.6426504],[3.732741,51.6588323],[3.7103429,51.6551023],[3.7023409,51.6542528],[3.694224,51.6543402],[3.6862746,51.6553614],[3.6787692,51.6572811],[3.671969,51.6600323],[3.6661109,51.6635193],[3.6613989,51.6676208],[3.6579974,51.672194],[3.6568836,51.6749535],[3.6285014,51.6802497],[3.5535098,51.6857207],[3.4781225,51.6830043],[3.4046548,51.6721838],[3.268233,51.6437943],[3.2682304,51.6437938],[2.9886235,51.5856073],[2.8942215,51.5574125],[2.3421351,51.3352618],[1.8392122,51.2439378],[1.6086231,51.2020659],[1.5316407,51.1825417],[1.4621601,51.1540563],[1.3143265,51.0794346],[1.2582078,51.0452468],[1.2129635,51.0051998],[1.1800808,50.960636],[1.1606228,50.9130447],[1.1551972,50.8640122],[1.1639412,50.8151679],[1.1705821,50.7948411],[1.1504957,50.7417714],[1.1388039,50.6795583],[1.1406863,50.669146],[1.1500581,50.6173077],[1.1745139,50.5510422],[1.1429886,50.4706721],[1.130591,50.4131637],[1.1336932,50.3882076],[1.1280465,50.3656838],[1.1225707,50.3066997],[1.1054942,50.2824152],[1.003123,50.2186694],[0.4726929,50.1154096],[0.3858751,50.0910714],[-0.0258042,49.9366835],[-0.0844105,49.9099027],[-0.1349707,49.877037],[-0.1759965,49.8390653],[-0.2062919,49.7971163],[-0.3129865,49.6076527],[-0.314502,49.6037816],[-0.3525102,49.6093826],[-0.8154494,49.6523405],[-0.8295731,49.7000451],[-0.8614513,49.7710771],[-0.8896696,49.8173568],[-0.9306305,49.8594997],[-0.9829599,49.896061],[-1.0448825,49.9257847],[-1.114281,49.9476475],[-1.18877,49.9608959],[-1.3371505,49.9778645],[-1.4243397,49.9817976],[-1.5108687,49.9739594],[-1.5929195,49.9546966],[-1.6340594,49.9417382],[-1.7975186,49.9786778],[-1.8767723,49.9910888],[-1.9582634,49.9933496],[-2.0388599,49.985374],[-2.1154664,49.967469],[-2.185148,49.9403221],[-2.2452473,49.9049745],[-2.2934882,49.8627786],[-2.3280621,49.8153451],[-2.3476943,49.7644795],[-2.3495664,49.7562865],[-2.3581195,49.7188554],[-2.3618854,49.6638785],[-2.3483378,49.6095399],[-2.3180947,49.558097],[-2.2978378,49.5375074],[-2.2985109,49.5086563],[-2.2820228,49.4537292],[-2.2408563,49.3658124],[-2.2408289,49.3657987],[-2.2407902,49.3657793],[-2.2407902,49.3657793],[-2.0827739,49.2867104],[-2.0826066,49.2867104],[-2.0753188,49.2862814],[-2.0682606,49.2850184],[-2.061654,49.282961],[-2.0004344,49.2593091],[-1.9932079,49.2557628],[-1.9873347,49.2512739],[-1.983096,49.2460578],[-1.9687118,49.2224127],[-1.9663038,49.2166813],[-1.9658722,49.2107449],[-1.9674372,49.2048918],[-1.9854678,49.1643726],[-1.9883768,49.1595883],[-1.9926208,49.155254],[-1.9980449,49.1515275],[-2.0044513,49.1485447],[-2.0116066,49.146414],[-2.0192502,49.1452131],[-2.0226562,49.1451144],[-2.0226777,49.1451138],[-2.0227015,49.1451131],[-2.0153443,49.1313042],[-1.9933377,49.1001864],[-2.0005091,49.0662031],[-2.0035586,49.0122862],[-1.9924666,48.9681159],[-2.0281416,48.9633215],[-2.1055474,48.9475145],[-2.1307463,48.938474],[-2.185359,48.9544922],[-2.2589868,48.9660559],[-2.3346011,48.9685105],[-2.4095942,48.9617716],[-2.445614,48.9538943],[-2.4813811,48.9460722],[-2.5916017,48.9141749],[-2.6175451,48.9392904],[-2.6742254,48.9760925],[-2.6755931,48.9766874],[-2.6939491,48.994211],[-2.7499224,49.0303158],[-2.7732955,49.040477],[-2.7920852,49.0563995],[-2.8520721,49.0907496],[-2.9211035,49.1168609],[-2.9965714,49.1337431],[-3.0756131,49.1407554],[-3.1552244,49.1376318],[-3.158865,49.1370131],[-3.2046828,49.1420528],[-3.2879608,49.1400576],[-3.3688744,49.1270974],[-3.4359797,49.1062302],[-3.4950265,49.1118608],[-3.5720421,49.1096683],[-3.6470434,49.0980811],[-3.7173671,49.0775116],[-3.7805236,49.0486907],[-3.8342884,49.0126405],[-3.8484279,49.0011707],[-3.8908711,48.9958119],[-3.9415698,49.0016173],[-4.0201323,49.0006238],[-4.096931,48.9898008],[-4.2994383,48.9473583],[-4.3026904,48.9464352],[-4.3118421,48.9475214],[-4.3943161,48.9462866],[-4.4747034,48.9342068],[-4.6952671,48.8849758],[-4.7655598,48.8641407],[-4.828588,48.8349873],[-4.8431302,48.825097],[-4.8799222,48.8154606],[-4.9466611,48.7870492],[-5.0037027,48.750653],[-5.0090456,48.7465031],[-5.0503735,48.7490237],[-5.127192,48.7440812],[-5.2011834,48.7296757],[-5.2843164,48.7076105],[-5.3570874,48.6823405],[-5.4206075,48.6479333],[-5.4722933,48.6058007],[-5.5100618,48.5576673],[-5.5324131,48.5054977],[-5.538486,48.4514151]],[[-4.5342453,48.0270718],[-4.4803763,48],[-4.4803763,48],[-4.5342453,48.0270718]],[[-2.1294213,46.8940364],[-2,47.0247843],[-2,47.0247843],[-1.9890199,47.0358769],[-2,47.0247843],[-2,47.0247843],[-2.1294213,46.8940364]],[[-1.4778148,43.5793592],[-1.3625713,44],[-1.3625713,44],[-1.4778148,43.5793592]],[[-1.4058141,46.0531249],[-1.3861163,46],[-1.3861163,46],[-1.4058141,46.0531249]],[[-1.1106111,46.0176648],[-1.0964881,46],[-1.0964881,46],[-1.1106111,46.0176648]],[[-0.2178022,49.2799961],[0,49.3310756],[0.0126001,49.3340306],[0,49.3310756],[-0.2178022,49.2799961]],[[1.2222122,49.9790671],[1.2559433,50],[1.2559433,50],[1.2222122,49.9790671]],[[1.9458195,42.4513896],[1.9566196,42.481784],[1.99982,42.4446353],[1.9818198,42.4412582],[1.9458195,42.4513896]],[[3.2152453,42.4397325],[3.2154473,42.4390712],[3.2163101,42.4362469],[3.2154473,42.4390712],[3.2154596,42.4390469],[3.2159545,42.4380663],[3.2164717,42.435734],[3.2164845,42.435676],[3.2163101,42.4362469],[3.2154473,42.4390712],[3.2152453,42.4397325]],[[3.9336173,51.4079799],[3.9337659,51.4082479],[3.9441753,51.4223014],[3.948244,51.426666],[3.9535463,51.4304814],[3.9598966,51.4336139],[3.9670725,51.4359535],[3.9748224,51.4374183],[3.9828745,51.437957],[3.9909464,51.4375505],[3.9987551,51.4362132],[4.0060267,51.433992],[4.07929,51.4059531],[4.0987733,51.3984966],[4.1112813,51.3937096],[4.0679235,51.4102988],[4.0614037,51.4123393],[4.0544261,51.4136654],[3.9820398,51.4233171],[3.9737907,51.423905],[3.9655132,51.4234965],[3.9575132,51.422107],[3.9500865,51.4197876],[3.9435076,51.4166243],[3.9380195,51.4127338],[3.9338247,51.4082599],[3.9336173,51.4079799]],[[3.9546395,43.540522],[4,43.544068],[4.1058411,43.552342],[4,43.544068],[3.9546395,43.540522]],[[3.9730208,51.3969306],[3.9834398,51.4109806],[4,51.404644],[4.0453682,51.3872842],[4.1202412,51.3586347],[4.0453682,51.3872842],[3.9730208,51.3969306]],[[5.9346593,43.1133119],[6,43.1013193],[6.0174602,43.0981147],[6,43.1013193],[5.9346593,43.1133119]],[[7.3674737,43.7228883],[7.3890739,43.7583484],[7.4358744,43.7431512],[7.409178,43.7222816],[7.409178,43.7222816],[7.409177,43.7222808],[7.409177,43.7222808],[7.4091711,43.7222762],[7.4091711,43.7222762],[7.4091677,43.7222736],[7.4091677,43.7222736],[7.4091618,43.7222689],[7.4091618,43.7222689],[7.409161,43.7222683],[7.409161,43.7222683],[7.4091447,43.7222555],[7.4091443,43.7222553],[7.4091442,43.7222552],[7.4067223,43.7203619],[7.4067218,43.7203615],[7.4067216,43.7203614],[7.4067181,43.7203586],[7.4067181,43.7203586],[7.4067173,43.720358],[7.4067173,43.720358],[7.4067162,43.7203571],[7.4016264,43.7120052],[7.4067162,43.7203571],[7.4067161,43.720357],[7.4067161,43.720357],[7.4067021,43.7203461],[7.4067021,43.7203461],[7.4066956,43.720341],[7.4066956,43.720341],[7.403474,43.7178226],[7.3674737,43.7228883]],[[8.6562866,41.978588],[8.6606342,42],[8.6634866,42.0140481],[8.6606342,42],[8.6562866,41.978588]],[[10.0128669,42.5808935],[10.0134624,42.5862863],[10.0155077,42.5914831],[10.0189209,42.5962749],[10.0477121,42.6283656],[10.0523293,42.6325356],[10.0579797,42.6359486],[10.0644385,42.638469],[10.0714488,42.6399964],[10.0787319,42.64047],[10.0859978,42.639871],[10.0929574,42.6382233],[10.0993338,42.6355924],[10.1048735,42.6320829],[10.1093561,42.6278345],[10.1237512,42.6109448],[10.1271927,42.6057341],[10.1290427,42.6001026],[10.1326311,42.5798385],[10.1328337,42.5743132],[10.1315031,42.5688734],[10.1286953,42.5637473],[10.1245287,42.5591501],[10.1191781,42.5552746],[10.1128683,42.5522832],[10.1058639,42.5503015],[10.0984586,42.5494124],[10.0909629,42.5496533],[10.0441821,42.5547169],[10.0370583,42.5560346],[10.0304343,42.5583724],[10.0245763,42.5616366],[10.0197197,42.5656958],[10.0160601,42.5703871],[10.0137446,42.5755218],[10.0128669,42.5808935]]]}}
