{"type":"Feature","properties":{"family":"france","name":"French Empire, 1809 – 1812"},"geometry":{"type":"Polygon","coordinates":[[[-5.5385346,48.4513886],[-5.5281713,48.3976292],[-5.5018091,48.3463251],[-5.4605557,48.2995442],[-5.4061063,48.2591669],[-5.3406714,48.2268124],[-5.2668861,48.203776],[-5.223878,48.1936907],[-5.144419,48.1808352],[-5.0850585,48.1793716],[-5.0790562,48.173635],[-5.1095355,48.1301491],[-5.1284247,48.0778953],[-5.1313546,48.0241812],[-5.1182578,47.9711476],[-5.0897022,47.9209013],[-5.0468614,47.8754331],[-4.9914619,47.8365394],[-4.925712,47.8057539],[-4.8522133,47.7842881],[-4.7672967,47.7659257],[-4.7580039,47.7330446],[-4.7298508,47.6853999],[-4.6888333,47.642189],[-4.6364542,47.6049643],[-4.5746122,47.5750605],[-4.5055333,47.5535481],[-4.4316925,47.5411964],[-4.3557279,47.538447],[-4.1694863,47.5434671],[-4.0994591,47.5494803],[-4.0360498,47.5628237],[-3.9687416,47.5434592],[-3.8869849,47.5325443],[-3.7406823,47.5233906],[-3.7169921,47.5056597],[-3.6538561,47.4739162],[-3.639503,47.4693158],[-3.6519761,47.4440709],[-3.6617541,47.3915695],[-3.6561649,47.3387917],[-3.6354688,47.2877704],[-3.5954515,47.2169877],[-3.5632517,47.172598],[-3.5196948,47.1329403],[-3.4662594,47.0993399],[-3.404744,47.0729178],[-3.337207,47.0545544],[-3.2658992,47.0448609],[-3.1931917,47.0441601],[-3.0320025,47.0525454],[-2.9531041,47.0620982],[-2.8785918,47.0822134],[-2.8205777,47.1080357],[-2.7904011,47.0882351],[-2.725195,47.0596753],[-2.6883242,47.0497541],[-2.6907714,47.0277],[-2.6820999,46.9767024],[-2.659428,46.9277502],[-2.6537608,46.9206142],[-2.6658997,46.9131872],[-2.7142608,46.8680757],[-2.7478897,46.8171174],[-2.7653759,46.7625169],[-2.7660152,46.7066291],[-2.7622207,46.679628],[-2.7472361,46.6274972],[-2.7176746,46.5783948],[-2.7176602,46.5783799],[-2.6747163,46.5342185],[-2.6200471,46.4966716],[-2.5557911,46.4671985],[-2.4844287,46.4469314],[-2.4087024,46.4366482],[-2.3083995,46.4299196],[-2.2298028,46.4300449],[-2.1834087,46.4366086],[-2.1578688,46.3931631],[-2.1209483,46.3449446],[-2.0707787,46.3028222],[-2.0094217,46.2685042],[-1.9465796,46.2459658],[-1.9391331,46.1985084],[-1.9174491,46.1496336],[-1.8828697,46.1044683],[-1.83666,46.0646262],[-1.7925559,46.0331785],[-1.7817741,45.9850995],[-1.7524839,45.9075295],[-1.7192759,45.8486337],[-1.6673385,45.7967361],[-1.6265092,45.7646678],[-1.6296125,45.7499161],[-1.6334523,45.7010672],[-1.6245892,45.6525453],[-1.603347,45.6059445],[-1.5704518,45.5627923],[-1.5270043,45.5244997],[-1.4959584,45.5054983],[-1.63811,44.6598994],[-1.6397105,44.6085547],[-1.6335235,44.5826789],[-1.6360477,44.5707905],[-1.6545546,44.3356563],[-1.8301628,43.6797476],[-1.8470566,43.6601855],[-1.932609,43.6352955],[-1.9949513,43.6119502],[-2.0501043,43.5805358],[-2.0961043,43.5421791],[-2.1313249,43.4982531],[-2.1545342,43.4503269],[-2.1649356,43.4001081],[-2.1682605,43.3561984],[-2.1667558,43.3326809],[-2.1279321,43.3173487],[-1.975466,43.3675484],[-1.9682056,43.3693026],[-1.9606052,43.3699356],[-1.9529883,43.3694207],[-1.9456794,43.3677797],[-1.9424805,43.3664901],[-1.8327081,43.4179838],[-1.8259296,43.4204848],[-1.8185924,43.4219296],[-1.8110044,43.4222577],[-1.8034841,43.4214552],[-1.7963473,43.4195558],[-1.7898934,43.4166393],[-1.7845173,43.4136128],[-1.7845075,43.4136073],[-1.8003396,43.4118],[-1.8072918,43.4104914],[-1.813769,43.4082348],[-1.8195285,43.4051146],[-1.8243547,43.4012479],[-1.8280668,43.3967795],[-1.8305263,43.3918767],[-1.8316412,43.3867232],[-1.8316701,43.3863681],[-1.8126181,43.3953043],[-1.7946179,43.3851728],[-1.798218,43.3412698],[-1.7550176,43.3193183],[-1.7478175,43.2906125],[-1.6722167,43.3041211],[-1.6110161,43.2450209],[-1.5390154,43.2838582],[-1.402214,43.2433324],[-1.4094141,43.1673464],[-1.4886149,43.0812289],[-1.4562146,43.0457688],[-1.3662137,43.0339488],[-1.3482135,43.093049],[-1.2870129,43.1099348],[-1.3122131,43.0694089],[-1.1502115,43.005243],[-1.0278103,42.9866686],[-0.9450095,42.9478313],[-0.7614076,42.9461428],[-0.7398074,42.885354],[-0.6498065,42.8498939],[-0.5706057,42.7722193],[-0.5346053,42.7840393],[-0.5346053,42.8076794],[-0.4230042,42.7907936],[-0.3222032,42.8431395],[-0.2358024,42.7857279],[-0.1602016,42.7958594],[-0.1206012,42.7164962],[-0.0378004,42.6844133],[0.1674017,42.7266277],[0.2394024,42.7097419],[0.2754028,42.6692161],[0.3546035,42.7181848],[0.3906039,42.6844133],[0.6426064,42.6844133],[0.6678067,42.7148077],[0.6318063,42.7452021],[0.6498065,42.8245652],[0.6694175,42.8320389],[0.7074071,42.8465167],[0.9198092,42.7840393],[1.0890109,42.7705307],[1.1502115,42.7063648],[1.3410134,42.7080534],[1.4310143,42.5949187],[1.4670147,42.6421988],[1.5282153,42.6489532],[1.7226172,42.6101159],[1.7118171,42.589853],[1.7658177,42.5628357],[1.7226172,42.5493271],[1.7082171,42.5020469],[1.9,42.4445349],[1.9278193,42.4361924],[1.9362393,42.42],[1.9638196,42.3669608],[2.0106201,42.3466978],[2.0646206,42.3585179],[2.1366214,42.4159295],[2.2770228,42.4294381],[2.5254253,42.3264349],[2.5470255,42.3517636],[2.6622266,42.3382549],[2.6406264,42.3720265],[2.6910269,42.405798],[2.7882279,42.4125523],[2.9322293,42.469964],[3.0294303,42.4648982],[3.0870309,42.4277495],[3.1806318,42.4311267],[3.1830192,42.4042513],[3.1897711,42.4050098],[3.1967824,42.4069374],[3.2031159,42.409881],[3.2085058,42.413717],[3.2127254,42.4182845],[3.2155974,42.4233916],[3.2170009,42.4288239],[3.2168875,42.4338614],[3.2169058,42.433779],[3.2170976,42.4329143],[3.2225758,42.370855],[3.3274095,42.3489867],[3.3339824,42.3470877],[3.3399351,42.344289],[3.3450448,42.3406955],[3.3491201,42.3364416],[3.3520086,42.3316869],[3.3536024,42.3266094],[3.3538422,42.3213991],[3.3527193,42.316251],[3.350276,42.311358],[3.2962442,42.2286334],[3.2926793,42.2242737],[3.2880707,42.2204871],[3.2825828,42.2174086],[3.2764117,42.2151481],[3.2697775,42.2137862],[3.2629169,42.2133716],[3.2560748,42.2139191],[3.1694469,42.227035],[3.1562045,42.2111679],[3.1584242,42.1626832],[3.1737345,42.1613837],[3.2430184,42.1653402],[3.3100515,42.1789699],[3.3724116,42.201781],[3.4278393,42.2329499],[3.4743175,42.2713492],[3.5101434,42.3155878],[3.533992,42.3640599],[3.544966,42.4150015],[3.5426325,42.4665545],[3.5270434,42.5168334],[3.4843227,42.6115329],[3.4534241,42.6619155],[3.4091656,42.7065826],[3.4069506,42.7080559],[3.4081235,42.8999731],[3.4369878,42.9647883],[3.4925087,43.0071547],[3.5549296,43.0125363],[3.6227029,43.0231379],[3.6866077,43.0427974],[3.7444079,43.0708289],[4.0096504,43.2267083],[4.0289835,43.2186193],[4.0975295,43.2017463],[4.1692448,43.194886],[4.3032337,43.1915917],[4.3071522,43.1873968],[4.3580501,43.1507137],[4.4176136,43.1218447],[4.4836257,43.1018587],[4.5536391,43.0914949],[4.7507585,43.076369],[4.7924278,43.0763975],[4.8152235,43.0730193],[4.8840107,43.072324],[4.9285371,43.0779865],[4.9978807,43.0677558],[5.0414914,43.0677572],[5.0570303,43.0500804],[5.1050198,43.0131431],[5.1615853,42.9834387],[5.2247194,42.9620152],[5.2921909,42.9496275],[5.4975395,42.9264698],[5.5918563,42.8558178],[5.6513564,42.8196455],[5.7197719,42.7933573],[5.7941065,42.7781003],[5.871115,42.7745395],[5.9474407,42.7828299],[5.9477995,42.7829282],[6.0033418,42.7579583],[6.0682424,42.7399674],[6.1184419,42.7298821],[6.180615,42.7215057],[6.2438084,42.7210647],[6.3061711,42.728572],[6.3658754,42.7438074],[6.4017565,42.7555784],[6.462891,42.7810073],[6.5163619,42.814506],[6.5602155,42.8548597],[6.5652618,42.8619408],[6.5805447,42.8679468],[6.6381168,42.9032113],[6.6472506,42.9116486],[6.7447408,42.9280785],[6.8187803,42.9467555],[6.8858014,42.9764475],[6.9427923,43.0158256],[6.9618758,43.0361624],[6.6825799,43.1163496],[6.9619026,43.0361547],[6.9619575,43.0361389],[6.961975,43.0361339],[6.9619824,43.0361318],[6.9619942,43.0361284],[8.3520814,42.6370276],[8.3521204,42.6370164],[8.3521257,42.6370149],[8.3521371,42.6370116],[8.3522205,42.6369877],[8.3522693,42.6369736],[8.3391976,42.5973792],[8.2947014,42.5714864],[8.247865,42.5307354],[8.2129201,42.4839481],[8.19122,42.4329748],[8.1835868,42.3798266],[8.1902842,42.3265946],[8.1972354,42.3094252],[8.1875528,42.2784946],[8.1850287,42.2270171],[8.1957493,42.1761084],[8.1967339,42.1740823],[8.1965131,42.1731253],[8.1992442,42.1176872],[8.2171735,42.0638181],[8.2374643,42.0324322],[8.228402,42.0028875],[8.22665,41.9490748],[8.2392775,41.8960579],[8.2648338,41.8285926],[8.290099,41.7801692],[8.2972091,41.7717718],[8.2969965,41.7254876],[8.3112535,41.6723083],[8.3394055,41.6223131],[8.3802881,41.5775128],[8.4322348,41.5397048],[8.4394955,41.5362153],[8.4413731,41.514754],[8.4582043,41.4658626],[8.4868421,41.4201584],[8.5262641,41.3792337],[8.5750794,41.344511],[8.6315792,41.3171949],[8.8017122,41.2506708],[8.8136538,41.2365693],[8.8631326,41.1978481],[8.9217351,41.167236],[8.9871497,41.1459335],[8.987636,41.1458163],[8.9876786,41.145839],[8.9877987,41.145903],[8.9878649,41.1459382],[8.9881218,41.1460751],[8.9953268,41.1483501],[9.1123233,41.1743567],[9.1362195,41.2487169],[9.1383459,41.2533973],[9.1415733,41.2577072],[9.1457934,41.2615017],[9.1508645,41.264653],[9.156616,41.2670551],[9.2178352,41.2873256],[9.224456,41.2889599],[9.2313725,41.2896019],[9.2383237,41.2892273],[9.2450473,41.2878503],[9.2512899,41.2855228],[9.256816,41.2823326],[9.2928176,41.2569964],[9.2977257,41.2527326],[9.301347,41.2477946],[9.3019707,41.2462487],[9.306242,41.2445289],[9.3116727,41.2411725],[9.3161283,41.2370841],[9.3177711,41.2347693],[9.3195139,41.2356571],[9.3258206,41.2376837],[9.332525,41.2387705],[9.3387324,41.2388675],[9.3392723,41.2403523],[9.3427162,41.2453685],[9.3474734,41.2497359],[9.3906742,41.2818282],[9.3958871,41.2850306],[9.4018044,41.287445],[9.4082179,41.2889863],[9.4149017,41.2896003],[9.4216204,41.2892654],[9.4281375,41.2879932],[9.4342235,41.2858287],[9.4396641,41.2828481],[9.4442678,41.2791562],[9.4478729,41.2748831],[9.4503526,41.2701791],[9.4509763,41.2685687],[9.4570419,41.2693035],[9.4643777,41.2690539],[9.4714921,41.2676869],[9.478087,41.2652598],[9.4924901,41.2585031],[9.4984455,41.2550029],[9.5032927,41.2506421],[9.5068167,41.2456144],[9.5088615,41.2401432],[9.5093365,41.2344712],[9.5080613,41.2119606],[9.5250525,41.2285505],[9.5555062,41.2738598],[9.5845534,41.329488],[9.6036656,41.3800572],[9.6053399,41.3954819],[9.6440812,41.4347297],[9.6806665,41.4806737],[9.7044514,41.531153],[9.7106817,41.5641456],[9.7286214,41.5930375],[9.7535469,41.6479301],[9.7622185,41.7055682],[9.7631652,41.8685025],[9.8546174,41.9666084],[9.8921612,42.0178591],[9.9140136,42.0739409],[9.9191091,42.1322306],[9.9071715,42.3345801],[9.9264262,42.3277858],[9.9974148,42.3146631],[10.0440155,42.3096236],[10.1187847,42.3072419],[10.1926155,42.3161646],[10.2624316,42.3360196],[10.3253181,42.3659789],[10.3786392,42.4047923],[10.4094366,42.4389651],[10.4155782,42.438501],[10.4858754,42.4432488],[10.5158568,42.4497207],[10.5147994,42.4478451],[10.5007931,42.398486],[10.4995032,42.3480423],[10.5109437,42.2982827],[10.534684,42.2509471],[10.5698681,42.2076868],[10.6152482,42.1700072],[10.6692299,42.1392168],[10.7446711,42.1038964],[10.8060607,42.0808007],[10.8721499,42.0666644],[10.9405944,42.0619876],[11.0089704,42.0669352],[11.0748564,42.0813315],[11.1359164,42.1046663],[11.1690443,42.1239424],[11.2899319,42.1315636],[11.3821384,42.0894877],[11.505803,41.9117288],[11.5465282,41.8653362],[11.5990326,41.8260714],[11.6610995,41.7955758],[11.7301244,41.7751218],[11.8284411,41.7543077],[11.8566815,41.7329321],[11.8987928,41.6455195],[11.9324193,41.5936941],[11.9799025,41.5483382],[12.0390653,41.5115034],[12.1980673,41.4320069],[12.3494141,41.2838117],[12.4062446,41.2394688],[12.4748395,41.2058977],[12.551646,41.1848274],[12.6731465,41.1627731],[12.7467626,41.0792583],[12.7904158,41.0387243],[12.843511,41.0052404],[12.904064,40.9800481],[12.9698234,40.9640798],[13.0383516,40.9579253],[13.1071132,40.9618116],[13.1735647,40.975594],[13.406685,41.0424839],[13.4694808,41.0659631],[13.5249727,41.0982487],[13.5710237,41.1381044],[13.6539401,41.2255298],[13.60582,41.2255288],[13.6049881,41.2251388],[13.6084463,41.2159314],[13.6096856,41.2107211],[13.6095483,41.2054291],[13.6080402,41.2002593],[13.6052196,41.1954106],[13.6011954,41.1910697],[13.5961225,41.1874034],[13.5901962,41.1845529],[13.5836447,41.1826278],[13.5767198,41.181702],[13.5479312,41.1800142],[13.5418447,41.1800466],[13.5358531,41.1808531],[13.5301287,41.1824105],[13.2846905,41.2671657],[13.2846905,41.2671657],[13.2846905,41.2671657],[13.2846905,41.2671657],[13.2846646,41.2671747],[13.2915202,41.2691423],[13.2975521,41.2713745],[13.3029176,41.2744176],[13.3074269,41.2781641],[13.3109207,41.2824817],[13.3137221,41.286808],[13.2859329,41.2964028],[13.2786779,41.2943204],[13.0447304,41.2271711],[13.2786779,41.2943204],[13.36,41.42],[13.52,41.55],[13.55,41.7],[13.42,41.82],[13.3,41.95],[13.18,42.05],[13.05,42.15],[12.95,42.3],[13.05,42.48],[13.2,42.62],[13.38,42.75],[13.2,42.75],[13.05,42.85],[12.9,43.05],[12.75,43.3],[12.55,43.5],[12.3,43.62],[12.18,43.68],[12.05,43.82],[11.85,43.97],[11.65,44.1],[11.45,44.15],[11.2,44.18],[11,44.15],[10.9,44.18],[10.67,44.14],[10.55,44.15],[10.5095238,44.117619],[10.58,44.1],[10.65,43.95],[10.65,43.82],[10.55,43.75],[10.4,43.76],[10.28,43.8],[10.2583867,43.806484],[10.25349,43.8331521],[10.2534889,43.833158],[10.2511025,43.8461544],[10.2534889,43.833158],[10.25349,43.8331521],[10.2583867,43.806484],[10.2583867,43.806484],[10.2641776,43.7749456],[10.2583867,43.806484],[10.2583867,43.806484],[10.25349,43.8331521],[10.2534889,43.833158],[10.2534888,43.8331585],[10.2525898,43.8331212],[10.2456015,43.8318285],[10.2390906,43.8295901],[10.2333001,43.8264896],[10.2284463,43.8226429],[10.2247101,43.8181935],[10.2222306,43.8133074],[10.2211001,43.808167],[10.2213604,43.8029641],[10.2214129,43.8026792],[10.2214002,43.8027178],[10.2213839,43.8027672],[10.2213282,43.8029362],[10.2146013,43.8394501],[10.1785466,43.9070217],[10.0826219,43.9954185],[10.0028641,44.0248859],[10.0024154,44.0250907],[10.0023905,44.025102],[10.0028843,44.0249195],[10.0100158,44.0229138],[10.0175627,44.02199],[10.025211,44.0221864],[10.0326425,44.0234951],[10.0395478,44.0258614],[10.0456396,44.0291869],[10.0506641,44.0333332],[10.0532258,44.0366104],[10.0532221,44.0366117],[10.0532216,44.0366119],[10.02,44.048889],[10.02,44.048889],[10,44.05628],[10,44.05628],[10.02,44.048889],[10.02,44.1],[9.85,44.25],[9.7,44.4],[9.85,44.45],[10.05,44.38],[10.1428571,44.3892857],[10.25,44.4],[10.4,44.55],[10.5,44.95],[10.42,44.98],[10.2,45],[10.02,45.12],[9.85,45.1],[9.69,45.06],[9.45,45.1],[9.35,45.1],[9.27,45.13],[9.03,45.12],[8.79,45.11],[8.55,45.1],[8.5,45.18],[8.45,45.27],[8.42,45.38],[8.4,45.5],[8.37,45.6],[8.3,45.68],[8.27,45.77],[8.2,45.82],[8.08,45.86],[7.95,45.88],[7.86,45.93],[7.86,45.9439734],[7.86,45.9439734],[7.896679,45.9822047],[7.9866799,45.9990905],[8.0262803,46.0919622],[8.1090811,46.1274223],[8.1306813,46.196654],[8.0766808,46.2625085],[8.2818828,46.3705775],[8.3178832,46.4330548],[8.400684,46.4516292],[8.4294843,46.448252],[8.4461398,46.415441],[8.43,46.48],[8.42,46.58],[8.33,46.57],[8.13,46.55],[7.95,46.49],[7.69,46.43],[7.53,46.41],[7.36,46.37],[7.2,46.33],[7.1,46.27],[7.02,46.22],[6.95,46.3],[6.86,46.42],[6.7698891,46.42],[6.7878679,46.3959061],[6.7698891,46.42],[6.7626676,46.4296777],[6.5466655,46.4566949],[6.301863,46.3942175],[6.2154622,46.3148544],[6.2366531,46.2905578],[6.18,46.3],[6.131166,46.356973],[6.1362614,46.3705775],[6.0534605,46.4195462],[6.0642606,46.4718921],[6.1470615,46.5512552],[6.1182612,46.5833382],[6.4278643,46.7606388],[6.4422644,46.9446937],[6.6654667,47.0206797],[6.697867,47.0848456],[6.8489053,47.17832],[6.9570696,47.2452605],[6.8489053,47.17832],[6.85,47.17],[6.93,47.12],[7.05,47.06],[7.2,47.1],[7.3,47.15],[7.45,47.25],[7.55,47.38],[7.6,47.55],[7.5013466,47.55],[7.5870759,47.5846645],[7.5896657,47.6016713],[7.5906759,47.6083046],[7.5875536,47.6122322],[7.5114751,47.7079307],[7.5366754,47.7315707],[7.5258753,47.7839166],[7.55,47.8240355],[7.5654757,47.8497711],[7.5582756,47.8835427],[7.6194762,47.9713487],[7.5762758,48.054089],[7.5798758,48.1148778],[7.6852708,48.25],[7.6878769,48.2533411],[7.702277,48.3107527],[7.7490775,48.3411471],[7.7382774,48.4070016],[7.7706777,48.4897419],[7.8138781,48.5201363],[7.8102781,48.6146967],[7.9578796,48.721077],[7.9686797,48.7565371],[8.0910809,48.8071945],[8.1653716,48.9117314],[8.1920741,48.9493054],[8.199082,48.9591664],[8.1920741,48.9493054],[8.23,48.95],[8.3,49.05],[8.37,49.17],[8.4,49.25],[8.45,49.32],[8.46,49.4],[8.46,49.49],[8.42,49.56],[8.37,49.63],[8.42,49.7],[8.47,49.76],[8.4,49.84],[8.35,49.9],[8.33,49.97],[8.28,50.01],[8.18,50.03],[8.05,50],[7.9,49.97],[7.8,50.03],[7.73,50.12],[7.65,50.2],[7.6,50.27],[7.6,50.35],[7.6,50.36],[7.5,50.42],[7.4,50.45],[7.3,50.53],[7.22,50.6],[7.15,50.68],[7.1,50.74],[7.03,50.83],[6.97,50.93],[6.98,51.02],[6.9,51.1],[6.78,51.2],[6.73,51.3],[6.7,51.38],[6.7065574,51.3914754],[6.7065574,51.3914754],[6.74,51.45],[6.7,51.52],[6.62,51.6],[6.6,51.66],[6.9,51.72],[7.05,51.75],[7.2,51.78],[7.45,51.82],[7.75,51.85],[7.875,51.9],[8,51.95],[8.1847826,52.046087],[8.25,52.08],[8.45,52.15],[8.7,52.27],[8.92,52.29],[9.06,52.37],[9.2,52.45],[9.5,52.62],[9.8,52.85],[10.1,53.05],[10.4,53.2],[10.56,53.37],[10.65,53.6],[10.7493631,53.8484076],[10.75,53.85],[10.80875,53.9283333],[10.7,53.88],[10.62,53.82],[10.5,53.72],[10.35,53.6],[10.2,53.52],[10.1,53.63],[9.95,53.62],[9.8,53.56],[9.7,53.6066667],[9.65,53.63],[9.5378425,53.6823402],[9.5469826,53.6437564],[9.5469882,53.6437328],[9.5469882,53.6437328],[9.5490955,53.6348369],[9.5469882,53.6437328],[9.5469882,53.6437328],[9.5469826,53.6437564],[9.5378425,53.6823402],[9.5378425,53.6823402],[9.5315274,53.7089987],[9.5315272,53.7089996],[9.5233434,53.7078767],[9.515144,53.7056752],[9.5102736,53.7036009],[9.4790134,53.7314933],[9.4790041,53.731497],[9.4374944,53.7479716],[9.4232674,53.77522],[9.4232666,53.7752215],[9.4232666,53.7752215],[9.418857,53.783667],[9.4232666,53.7752215],[9.3103743,53.8333013],[9.3103774,53.8332985],[9.3172055,53.8271946],[9.3267975,53.8186198],[9.3333548,53.812758],[9.3522937,53.7958277],[9.3547552,53.7936272],[9.3614641,53.7876299],[9.3687195,53.7811439],[9.4046156,53.7490548],[9.325,53.79],[9.1932207,53.8577722],[9.243115,53.8618422],[9.2495851,53.86237],[9.2532832,53.8626717],[9.2533316,53.8626756],[9.2533316,53.8626756],[9.2533604,53.862678],[9.2533604,53.862678],[9.253361,53.862678],[9.253361,53.862678],[9.2754928,53.8644834],[9.253361,53.862678],[9.253361,53.862678],[9.2533604,53.862678],[9.2533604,53.862678],[9.2533316,53.8626756],[9.2533316,53.8626756],[9.2532832,53.8626717],[9.2495851,53.86237],[9.243115,53.8618422],[9.1932207,53.8577722],[9.1932207,53.8577722],[9.243115,53.8618422],[9.2495851,53.86237],[9.2532832,53.8626717],[9.2532853,53.8626719],[9.2231899,53.878155],[9.2152618,53.8814155],[9.2063438,53.8836154],[9.1968365,53.8846561],[9.1871667,53.8844908],[8.9999591,53.8692319],[8.9823143,53.8696036],[8.9737727,53.8702556],[8.965589,53.8718395],[8.9580527,53.8742992],[8.9514306,53.8775477],[8.9005761,53.9076643],[8.9004204,53.9077762],[8.8830887,53.9180399],[8.8782355,53.9214254],[8.8743874,53.925234],[8.7915103,54.0248304],[8.7884294,54.029629],[8.7869479,54.0346842],[8.78712,54.0398133],[8.7889401,54.0448308],[8.7923429,54.0495553],[8.7972058,54.0538156],[8.8033532,54.0574578],[8.8105629,54.0603498],[8.8185739,54.0623869],[8.8270963,54.0634954],[8.8358212,54.0636351],[8.9607328,54.0585627],[8.971822,54.0933467],[8.9564945,54.1107068],[8.9564877,54.1107145],[8.9416508,54.1095139],[8.9376998,54.1106949],[8.9376981,54.1106946],[8.8757049,54.0988708],[8.8667545,54.0977236],[8.8575951,54.0976414],[8.8485902,54.0986273],[8.8400972,54.1006423],[8.8324532,54.1036063],[8.8259619,54.1074017],[8.8208815,54.1118779],[8.7852339,54.1512461],[8.7811092,54.1522036],[8.6972681,54.1616329],[8.6118589,54.1617444],[8.5278841,54.1525339],[8.4482928,54.1343242],[8.3758723,54.1077541],[8.2964965,54.0721227],[8.2307164,54.0359823],[8.1989961,54.0099778],[8.151861,54.0268247],[8.067347,54.0448668],[7.987696,54.0567603],[7.9047078,54.064424],[7.8207061,54.0630013],[7.7385623,54.0525403],[7.7371735,54.0521978],[7.677812,54.0513893],[7.5946907,54.0457207],[7.5147276,54.0312143],[7.5143012,54.031083],[7.4304031,54.0260551],[7.3869451,54.0209607],[7.3034707,54.0061555],[7.2263262,53.9822691],[7.1583357,53.9501792],[7.1354449,53.9343049],[7.1028038,53.9267389],[7.0327108,53.9010629],[6.9415028,53.8603825],[6.8603132,53.8717516],[6.7719281,53.8737141],[6.6306505,53.8686221],[6.5437313,53.8603892],[6.4611443,53.8424032],[6.3860044,53.8153435],[6.3211315,53.7802307],[6.3129492,53.7736773],[6.2527011,53.776892],[6.1685059,53.7767124],[6.0858179,53.7673107],[6.0075098,53.7490135],[5.9480182,53.731145],[5.6932374,53.7372495],[5.6132226,53.7348803],[5.5351704,53.7241873],[5.5164959,53.7194551],[5.4780716,53.7162425],[5.3188612,53.6930106],[5.1487941,53.669741],[5.054918,53.6501483],[4.9705806,53.6188383],[4.8876253,53.5798174],[4.8254369,53.5442536],[4.8200233,53.5396849],[4.7913927,53.5332938],[4.7198397,53.5075027],[4.657557,53.4742848],[4.5496245,53.4047699],[4.4984775,53.3648078],[4.4607178,53.319855],[4.4376261,53.2714868],[4.4365518,53.2644744],[4.3430367,53.1863775],[4.3001498,53.1420926],[4.2720442,53.0937306],[4.2596897,53.0430453],[4.2634785,52.9918688],[4.2754862,52.9615756],[4.0952428,52.4443508],[3.8720937,52.2420001],[3.8378726,52.2351002],[3.7611312,52.2081626],[3.6948286,52.172318],[3.6416514,52.1290332],[3.6037305,52.0800752],[3.5825587,52.0274365],[3.5822173,52.0223353],[3.5505055,52.0060666],[3.4991177,51.9668967],[3.4736775,51.959994],[3.4018958,51.9285931],[3.3418652,51.8889259],[3.2960124,51.8426181],[3.2705971,51.7991487],[3.1956555,51.7661664],[3.1327298,51.7323325],[3.0814532,51.6916649],[3.0436909,51.6456684],[3.0207944,51.5960407],[3.0202673,51.5922978],[2.9883321,51.5855896],[2.8939318,51.5573927],[2.3418716,51.3352324],[1.6083834,51.2020204],[1.5313885,51.1824903],[1.461905,51.1540016],[1.3140761,51.0793758],[1.2579839,51.0452026],[1.2127641,51.0051773],[1.1799014,50.9606403],[1.1604572,50.9130788],[1.1550379,50.8640766],[1.16378,50.8152605],[1.1704333,50.7948986],[1.1503341,50.7417878],[1.1386529,50.6796116],[1.1499056,50.6173955],[1.1743777,50.5510949],[1.1428394,50.4706819],[1.1304514,50.4131948],[1.1335566,50.38825],[1.1279091,50.3657204],[1.1224332,50.3067028],[1.1053216,50.2823659],[1.0029459,50.2186119],[0.4725486,50.1153431],[0.3857095,50.0909961],[-0.0259634,49.9365962],[-0.0845668,49.9098151],[-0.135121,49.8769532],[-0.1761382,49.8389893],[-0.2064231,49.7970513],[-0.313105,49.6075884],[-0.314614,49.6037332],[-0.3524438,49.6093078],[-0.8153211,49.6522549],[-0.8294513,49.6999919],[-0.8613282,49.7710268],[-0.8895417,49.8172937],[-0.9305023,49.859426],[-0.9828361,49.8959792],[-1.0447675,49.9256973],[-1.1141787,49.9475574],[-1.1886839,49.9608059],[-1.3370694,49.9777731],[-1.4243286,49.9817074],[-1.5109269,49.9738615],[-1.593039,49.9545828],[-1.6340465,49.941665],[-1.7973787,49.9785724],[-1.8766678,49.9909876],[-1.9581988,49.9932515],[-2.038837,49.9852778],[-2.1154836,49.9673737],[-2.185201,49.9402273],[-2.2453295,49.9048803],[-2.293591,49.862686],[-2.3281758,49.8152559],[-2.3478086,49.764396],[-2.3582311,49.7187726],[-2.3619904,49.6638414],[-2.3484484,49.6095496],[-2.3182223,49.5581505],[-2.297937,49.5375366],[-2.2986106,49.508632],[-2.2821346,49.4537555],[-2.2409822,49.3658754],[-2.2409423,49.3658555],[-2.2409234,49.365846],[-2.2409066,49.3658376],[-2.2408706,49.3658196],[-2.2408563,49.3658124],[-2.2408563,49.3658124],[-2.2408289,49.3657987],[-2.2407902,49.3657793],[-2.2407902,49.3657793],[-2.0827739,49.2867104],[-2.0826066,49.2867104],[-2.0753188,49.2862814],[-2.0682606,49.2850184],[-2.061654,49.282961],[-2.0004344,49.2593091],[-1.9932079,49.2557628],[-1.9873347,49.2512739],[-1.983096,49.2460578],[-1.9687118,49.2224127],[-1.9663038,49.2166813],[-1.9658722,49.2107449],[-1.9674372,49.2048918],[-1.9854678,49.1643726],[-1.9883768,49.1595883],[-1.9926208,49.155254],[-1.9980449,49.1515275],[-2.0044513,49.1485447],[-2.0116066,49.146414],[-2.0192502,49.1452131],[-2.0226562,49.1451144],[-2.0226777,49.1451138],[-2.0227015,49.1451131],[-2.0227015,49.1451131],[-2.0227137,49.1451128],[-2.0227423,49.1451119],[-2.0227433,49.1451119],[-2.0227676,49.1451112],[-2.0227859,49.1451107],[-2.0154504,49.1313425],[-1.993405,49.1001747],[-2.0005903,49.0661193],[-2.0036335,49.012227],[-1.9925178,48.9680021],[-2.0281203,48.9632165],[-2.105574,48.9473981],[-2.1306705,48.9383942],[-2.1852591,48.9543973],[-2.2589166,48.9659559],[-2.3345637,48.9684034],[-2.4095902,48.9616558],[-2.4814083,48.9459465],[-2.5914604,48.9140951],[-2.6174334,48.9392303],[-2.6740883,48.976003],[-2.6754394,48.9765905],[-2.6939335,48.9942266],[-2.7499239,49.0302999],[-2.7731404,49.0403795],[-2.7920695,49.0564026],[-2.8520757,49.0907221],[-2.9211269,49.116803],[-2.9966138,49.1336562],[-3.075673,49.1406419],[-3.155299,49.1374954],[-3.1587823,49.1369026],[-3.2046911,49.1419387],[-3.2879879,49.1399246],[-3.3689186,49.1269497],[-3.4359063,49.1061143],[-3.4949019,49.1117366],[-3.5719726,49.1095385],[-3.6470288,49.0979402],[-3.7174024,49.0773549],[-3.7805996,49.0485152],[-3.8343922,49.0124449],[-3.8484782,49.0010174],[-3.8907103,48.9956861],[-3.9415054,49.0014904],[-4.0200775,49.0004845],[-4.0968875,48.9896547],[-4.299396,48.947207],[-4.3025734,48.9463051],[-4.3116649,48.9473838],[-4.394202,48.9461447],[-4.4746539,48.9340529],[-4.6952186,48.8848162],[-4.7655171,48.8639816],[-4.8285541,48.8348369],[-4.8431556,48.824913],[-4.8799074,48.8152865],[-4.946702,48.7868511],[-5.003784,48.7504278],[-5.0090124,48.7463666],[-5.0502804,48.7488742],[-5.1271175,48.7439186],[-5.2011293,48.7295038],[-5.2842622,48.7074363],[-5.3570362,48.6821692],[-5.4205642,48.6477752],[-5.4722636,48.6056653],[-5.5100519,48.5575628],[-5.5324295,48.5054303],[-5.5385346,48.4513886]],[[10.2534888,43.8331585],[10.2534889,43.833158],[10.25349,43.8331521],[10.2583867,43.806484],[10.2583867,43.806484],[10.2641776,43.7749456],[10.2641776,43.7749456],[10.3109966,43.5199633],[10.277333,43.7033001],[10.2641776,43.7749456],[10.2641776,43.7749456],[10.2583867,43.806484],[10.2583867,43.806484],[10.25349,43.8331521],[10.2534889,43.833158],[10.2534888,43.8331585]],[[-4.5342453,48.0270718],[-4.4803763,48],[-4.4803763,48],[-4.5342453,48.0270718]],[[-2.1294213,46.8940364],[-2,47.0247843],[-2,47.0247843],[-1.9890199,47.0358769],[-2,47.0247843],[-2,47.0247843],[-2.1294213,46.8940364]],[[-1.4778148,43.5793592],[-1.3625713,44],[-1.3625713,44],[-1.4778148,43.5793592]],[[-1.4058141,46.0531249],[-1.3861163,46],[-1.3861163,46],[-1.4058141,46.0531249]],[[-1.1106111,46.0176648],[-1.0964881,46],[-1.0964881,46],[-1.1106111,46.0176648]],[[-0.2178022,49.2799961],[0,49.3310756],[0.0126001,49.3340306],[0,49.3310756],[-0.2178022,49.2799961]],[[1.2222122,49.9790671],[1.2559433,50],[1.2559433,50],[1.2222122,49.9790671]],[[1.9458195,42.4513896],[1.9566196,42.481784],[1.99982,42.4446353],[1.9818198,42.4412582],[1.9458195,42.4513896]],[[3.2154163,42.4391338],[3.2154518,42.4390633],[3.2159549,42.4380666],[3.2164814,42.4356927],[3.2165187,42.4355244],[3.2154163,42.4391338]],[[3.8718387,51.5494439],[4,51.5329128],[4,51.5329128],[3.8718387,51.5494439]],[[3.9402394,51.7419418],[4,51.7076824],[4,51.7076824],[4.0374404,51.6862187],[4,51.7076824],[4,51.7076824],[3.9402394,51.7419418]],[[3.9546395,43.540522],[4,43.544068],[4.1058411,43.552342],[4,43.544068],[3.9546395,43.540522]],[[3.9582396,51.4565722],[4,51.4430475],[4.1094411,51.4076035],[4,51.4430475],[3.9582396,51.4565722]],[[3.9834398,51.4109806],[4,51.404644],[4.0453682,51.3872842],[4.1202412,51.3586347],[4.0453682,51.3872842],[4,51.404644],[3.9834398,51.4109806]],[[3.9870399,51.5899698],[4,51.5830525],[4.0914409,51.5342468],[4,51.5830525],[3.9870399,51.5899698]],[[3.9870399,51.5899698],[4,51.5932856],[4.0662407,51.6102327],[4,51.5932856],[3.9870399,51.5899698]],[[4,51.6298781],[4,51.6298781],[4.0878409,51.6440043],[4,51.6298781]],[[5.9346593,43.1133119],[6,43.1013193],[6.0174602,43.0981147],[6,43.1013193],[5.9346593,43.1133119]],[[6.717439,43.1836479],[7.0079641,43.1002228],[7.0169282,43.1162203],[7.0431031,43.182079],[7.0902957,43.1992967],[7.1478562,43.2319238],[7.1955749,43.2721369],[7.2050997,43.2843763],[7.2173461,43.2857282],[7.2843798,43.3031367],[7.3456419,43.3295323],[7.3988863,43.3639509],[7.4421501,43.4051337],[7.462182,43.4345113],[7.4877014,43.4408434],[7.5532176,43.468988],[7.6095102,43.5062216],[7.6245991,43.5213426],[7.6905146,43.5207344],[7.7627511,43.5251513],[7.8324473,43.5396112],[8.2054769,43.6455397],[8.2604225,43.6648972],[8.3102878,43.6904768],[8.4073792,43.7493647],[8.4524138,43.7817044],[8.4892457,43.8190846],[8.5168003,43.8604314],[8.5617209,43.9455618],[8.6021864,43.9631261],[8.6681202,43.9994243],[8.7213939,44.045264],[8.7593812,44.0984129],[8.7715737,44.1214192],[8.8248527,44.1445572],[8.9235149,44.1279789],[8.9600971,44.1045689],[9.0206284,44.0729412],[9.0886181,44.0505175],[9.1613921,44.038177],[9.2038983,44.0371736],[9.613397,43.8241666],[9.6742637,43.7982055],[9.7407552,43.7809345],[9.8105191,43.7729628],[9.8810924,43.7745712],[9.8880596,43.7756991],[9.8883277,43.7707185],[9.9477923,43.4576406],[9.9669847,43.401554],[10.0021283,43.3496972],[10.1513301,43.1778598],[10.1409214,43.0596856],[10.052531,43.0514445],[9.9849177,43.0402833],[9.9214209,43.0200229],[9.8643086,42.9913887],[9.8345649,42.9694173],[9.8299457,43.0116822],[9.8266364,43.0253902],[9.801098,43.0086201],[9.7830978,43.028883],[9.8082981,43.0660317],[9.8159019,43.0656355],[9.7928519,43.1097688],[9.7559829,43.1532399],[9.7084973,43.1908499],[9.6520968,43.2212354],[9.5888157,43.2432932],[9.5209472,43.256221],[9.405246,43.269799],[9.3363224,43.2730757],[9.2677915,43.2669273],[9.2020704,43.2515704],[9.1414733,43.2275462],[9.0881275,43.195701],[9.0438969,43.1571549],[9.0103159,43.1132616],[8.988537,43.0655596],[8.979293,43.0157168],[8.9817395,42.9814045],[8.9644632,42.9771805],[8.8979241,42.9484036],[8.8411524,42.9100442],[8.8162264,42.8892104],[8.705079,42.8665529],[8.636401,42.8468443],[8.6228163,42.8403892],[8.5963667,42.8361774],[8.5284806,42.8141056],[8.4681123,42.7824191],[8.4177433,42.7424276],[8.3864894,42.7043757],[8.7383672,42.603333],[8.3864602,42.704384],[8.3864026,42.7044006],[8.3863853,42.7044056],[8.3863775,42.7044078],[8.386363,42.7044119],[7.0081213,43.1001777],[7.0080964,43.1001848],[7.0080886,43.1001871],[7.0080719,43.1001918],[7.0080018,43.100212],[6.717439,43.1836479]],[[7.3674737,43.7228883],[7.3890739,43.7583484],[7.4358744,43.7431512],[7.409178,43.7222816],[7.409178,43.7222816],[7.409177,43.7222808],[7.409177,43.7222808],[7.4091711,43.7222762],[7.4091711,43.7222762],[7.4091677,43.7222736],[7.4091677,43.7222736],[7.4091618,43.7222689],[7.4091618,43.7222689],[7.409161,43.7222683],[7.409161,43.7222683],[7.4091447,43.7222555],[7.4091443,43.7222553],[7.4091442,43.7222552],[7.4067223,43.7203619],[7.4067218,43.7203615],[7.4067216,43.7203614],[7.4067181,43.7203586],[7.4067181,43.7203586],[7.4067173,43.720358],[7.4067173,43.720358],[7.4067162,43.7203571],[7.4067162,43.7203571],[7.4067161,43.720357],[7.4067161,43.720357],[7.4067021,43.7203461],[7.4067021,43.7203461],[7.4066956,43.720341],[7.4016118,43.7119991],[7.4066956,43.720341],[7.403474,43.7178226],[7.3674737,43.7228883]],[[8.594856,53.9011149],[8.5955225,53.9014779],[8.6249871,53.9146738],[8.6322279,53.917327],[8.6401793,53.9191429],[8.6485651,53.9200585],[8.657094,53.920042],[8.6631688,53.9193544],[8.6635322,53.9193132],[8.6571162,53.9200345],[8.6486234,53.9200451],[8.6402711,53.9191286],[8.632348,53.9173166],[8.6251277,53.9146718],[8.594856,53.9011149]],[[8.6232282,53.88],[8.6526865,53.8931892],[8.6967654,53.88],[8.6967654,53.88],[8.6232282,53.88]],[[8.6562866,41.978588],[8.6606342,42],[8.6634866,42.0140481],[8.6606342,42],[8.6562866,41.978588]],[[8.6654684,53.9190941],[8.6654699,53.9190939],[8.6656615,53.9190493],[8.6654684,53.9190941]],[[11.9179192,42.0376882],[12,42.0019386],[12,42.0019386],[11.9179192,42.0376882]]]}}
