{"type":"Feature","properties":{"family":"other","name":"Republic of Genoa, 1789 – 1796"},"geometry":{"type":"Polygon","coordinates":[[[7.3517268,43.7066391],[7.3896287,43.6987288],[7.9678344,43.5780547],[8.2053398,43.64549],[8.2603766,43.6648823],[8.310328,43.6905052],[8.4074321,43.7494001],[8.4525442,43.7817958],[8.4894384,43.8192363],[8.5170366,43.8606443],[8.5618752,43.9456229],[8.6021097,43.9630877],[8.6681647,43.9994537],[8.7215365,44.0453758],[8.7595891,44.0986134],[8.771693,44.1214534],[8.8245345,44.1443998],[8.9231063,44.1278301],[8.9597392,44.1043822],[9.0202901,44.0727458],[9.0883187,44.0503261],[9.1611479,44.0380031],[9.2034065,44.0370241],[9.6129555,43.8239453],[9.6738556,43.7979757],[9.7404013,43.7807114],[9.8102364,43.7727625],[9.8808928,43.7744099],[9.9233643,43.781302],[9.9532782,43.7789983],[10.0206717,43.7791042],[10.0934829,43.784346],[10.1635131,43.7996873],[10.2180592,43.8206797],[10.2146012,43.8394501],[10.1785528,43.9070099],[10.171634,43.9133851],[10.1716251,43.9133952],[10.1675872,43.9180131],[10.1716251,43.9133952],[10.171625,43.9133953],[10.1377608,43.9446011],[10.1377568,43.9446057],[10.1426065,43.9409121],[10.1377568,43.9446057],[10.1377387,43.9446195],[10.0826144,43.9954213],[10.0028641,44.024886],[10.0028439,44.0248952],[10.0028425,44.0248958],[10.0099725,44.0228915],[10.0175274,44.0219691],[10.0251853,44.0221691],[10.0326272,44.0234832],[10.039543,44.0258566],[10.0456446,44.0291905],[10.0506776,44.0333459],[10.0532282,44.0366095],[10.0532271,44.0366099],[10.0532258,44.0366104],[10.0532221,44.0366117],[10.0532216,44.0366119],[10.02,44.048889],[10.02,44.048889],[10,44.05628],[10,44.05628],[10.02,44.048889],[10.02,44.1],[9.85,44.25],[9.7,44.4],[9.45,44.47],[9.3174419,44.5848837],[9.3174419,44.5848837],[9.3,44.6],[9.2,44.6],[9,44.7],[8.8,44.78],[8.6,44.65],[8.5,44.55],[8.375,44.475],[8.25,44.4],[8,44.2],[7.6390664,44.0195332],[7.5917131,43.9763231],[7.53,43.8],[7.5287814,43.7918758],[7.5379431,43.7917963],[7.5379454,43.7917962],[7.5379461,43.7917962],[7.695077,43.7904314],[7.5379461,43.7917962],[7.5379454,43.7917962],[7.5379431,43.7917963],[7.5287814,43.7918758],[7.500675,43.79212],[7.4924912,43.7859356],[7.4938002,43.7823805],[7.4971123,43.7775522],[7.5016867,43.7732952],[7.5073409,43.7697793],[7.5138493,43.7671445],[7.5180224,43.7661759],[7.5209526,43.7654958],[7.5282207,43.7649108],[7.5283678,43.764899],[7.6912915,43.7634835],[7.6945844,43.7634549],[7.6945844,43.7634541],[7.6828981,43.7635565],[7.5595147,43.7646284],[7.5712501,43.6688155],[7.5711438,43.6608458],[7.3896287,43.6987288],[7.3896287,43.6987288],[7.3517268,43.7066391]]]}}
