{"type":"Feature","properties":{"family":"other","name":"States of the German Confederation, 1815"},"geometry":{"type":"Polygon","coordinates":[[[6.3120517,53.7737128],[6.3793138,53.7701063],[6.4650889,53.7604714],[6.546121,53.7412985],[6.6194002,53.7133019],[6.622694,53.7114282],[6.7906973,53.7196674],[6.8850282,53.7183926],[6.9768459,53.7055804],[7.0621484,53.6817902],[7.1319534,53.6504303],[7.0552712,53.6070669],[7.0494708,53.6030612],[7.045099,53.5984606],[7.0423232,53.5934418],[7.0412495,53.5881976],[7.0419184,53.5829291],[7.0443035,53.5778384],[7.048313,53.5731208],[7.0754077,53.5477429],[7.0680678,53.5483868],[7.0590423,53.5486379],[7.0501132,53.5478211],[7.0416349,53.5459689],[7.0339438,53.5431548],[7.027345,53.5394905],[7.0220998,53.5351213],[7.018416,53.5302205],[6.9788793,53.4592868],[6.9768437,53.4537035],[6.9768292,53.4479895],[6.9946326,53.3467174],[7.0298285,53.3332069],[7.0829838,53.3358278],[7.0917738,53.3357464],[7.1003702,53.3346494],[7.1084468,53.3325782],[7.1156975,53.3296115],[7.1218473,53.3258618],[7.1266635,53.3214714],[7.129964,53.3166065],[7.1303245,53.315487],[7.2036182,53.3112773],[7.1728105,53.277262],[7.2084049,53.2704729],[7.2161623,53.2684633],[7.2161623,53.2684633],[7.2161623,53.2684633],[7.1946719,53.2447755],[7.1730717,53.1451495],[7.175796,53.1],[7.1838718,52.9661603],[7.0614706,52.8243198],[7.0362704,52.6470192],[7.0182702,52.6267562],[6.7374674,52.6351991],[6.701467,52.6183134],[6.7050671,52.5828532],[6.7446674,52.5592132],[6.6726667,52.5423274],[6.7158672,52.4612757],[6.899469,52.4325699],[6.9750698,52.4511442],[7.0470705,52.3650268],[7.0110701,52.2856636],[7.0238063,52.2363793],[7.0254703,52.2299406],[7.0238063,52.2363793],[7.05,52.25],[7.2,52.3],[7.35,52.35],[7.6,52.4],[7.85,52.35],[8.1,52.12],[8.4,52.15],[8.6,52.45],[8.775,52.475],[8.95,52.5],[9.1,52.4],[9.05,52.15],[9.2,51.95],[9.4,51.75],[9.45,51.55],[9.275,51.5],[9.1,51.45],[8.9,51.35],[8.6,51.1],[8.4,50.95],[8.35,50.75],[8,50.65],[7.7,50.6],[7.6,50.35],[7.6,50.27],[7.65,50.2],[7.73,50.12],[7.8,50.03],[7.9,49.97],[7.85,49.85],[7.35,49.65],[7.15,49.55],[7.1,49.35],[7.0981132,49.3311321],[7.08,49.15],[7.0078154,49.15],[7.0110701,49.1820586],[7.0078154,49.15],[7.0074701,49.1465985],[7.0434704,49.1077612],[7.0866709,49.1415328],[7.2738727,49.1043841],[7.3494735,49.1584185],[7.4106741,49.16855],[7.4754748,49.1516642],[7.5078751,49.0942526],[7.6338763,49.0385295],[7.9326793,49.0351524],[8.199082,48.9591664],[8.1920741,48.9493054],[8.1653716,48.9117314],[8.0910809,48.8071945],[7.9686797,48.7565371],[7.9578796,48.721077],[7.8102781,48.6146967],[7.8138781,48.5201363],[7.7706777,48.4897419],[7.7382774,48.4070016],[7.7490775,48.3411471],[7.702277,48.3107527],[7.6878769,48.2533411],[7.6852708,48.25],[7.5798758,48.1148778],[7.5762758,48.054089],[7.6194762,47.9713487],[7.5582756,47.8835427],[7.5654757,47.8497711],[7.55,47.8240355],[7.5258753,47.7839166],[7.5366754,47.7315707],[7.5114751,47.7079307],[7.5875536,47.6122322],[7.5906759,47.6083046],[7.5896657,47.6016713],[7.5870759,47.5846645],[7.5928766,47.5856168],[7.6590766,47.5964846],[7.6482765,47.5711559],[7.6086761,47.5644016],[7.6842768,47.5441387],[7.7670777,47.5559587],[7.8210782,47.594796],[7.896679,47.5880417],[7.9110791,47.5610244],[8.0406804,47.5610244],[8.2314823,47.6218132],[8.3067848,47.5923797],[8.3067848,47.5923797],[8.3178832,47.5880417],[8.4222842,47.5812874],[8.5230852,47.6218132],[8.5590856,47.5897303],[8.6058861,47.6555848],[8.4582846,47.6403876],[8.3898839,47.6657162],[8.3898839,47.6927335],[8.4618846,47.7636537],[8.5842858,47.8008024],[8.6166862,47.7568994],[8.6454865,47.7906709],[8.7138871,47.7568994],[8.699487,47.7231279],[8.7174872,47.694422],[8.7714877,47.694422],[8.7714877,47.7214393],[8.796688,47.7197507],[8.904689,47.6522076],[9.0162902,47.6792248],[9.1818918,47.670782],[9.5490955,47.5340072],[9.6750968,47.5221872],[9.7686977,47.5880417],[9.8082981,47.5762216],[9.8334983,47.5340072],[9.9450995,47.5407615],[9.9810998,47.4816613],[10.0243002,47.4884156],[10.0819008,47.4276268],[10.0531005,47.4056753],[10.0819008,47.3583952],[10.2079021,47.3719038],[10.1935019,47.3043607],[10.1611016,47.2705891],[10.2474572,47.2898288],[10.3051031,47.3026721],[10.4275043,47.3955439],[10.4527045,47.4597098],[10.4203042,47.4934813],[10.4275043,47.5762216],[10.4563046,47.5795988],[10.4527045,47.5458272],[10.4815048,47.5323186],[10.6075061,47.562713],[10.7623076,47.5137443],[10.8703087,47.5272529],[10.8919089,47.5154329],[10.8523085,47.4934813],[10.9603096,47.4326926],[10.9783098,47.3904781],[11.0827108,47.3887896],[11.1943119,47.4293154],[11.2375124,47.3938553],[11.3059131,47.4360697],[11.3851139,47.4445126],[11.3671137,47.4698413],[11.4139141,47.5053014],[11.5507155,47.5137443],[11.6191162,47.5897303],[11.8207182,47.5745331],[11.9359194,47.6099932],[12.1735217,47.6049274],[12.2059221,47.6370104],[12.1771218,47.7062421],[12.2383224,47.7315707],[12.2383224,47.6792248],[12.4255243,47.6910449],[12.497525,47.6285675],[12.6523265,47.6758477],[12.720517,47.670517],[12.65,47.6],[12.5,47.35],[12.3,47.25],[12.1,47.1],[12.4,47.12],[12.7,47.1],[13,47.07],[13.3,47.05],[13.6,47.05],[13.8,47.25],[13.75,47.45],[13.45,47.75],[13.3,47.95],[13.6,47.95],[13.75,48.025],[13.9,48.1],[13.85,48.35],[13.7190255,48.5246326],[13.7323373,48.5589736],[13.797138,48.5978109],[13.8151382,48.6957484],[13.7827378,48.7160113],[13.8151382,48.7666686],[13.7251373,48.8679832],[13.6207362,48.9085091],[13.6099361,48.9456578],[13.5163352,48.9709865],[13.4839348,48.9372149],[13.4587346,48.9456578],[13.397534,48.9777408],[13.3723337,49.0385295],[13.300333,49.0942526],[13.1779318,49.1178927],[13.00153,49.2951933],[12.8863289,49.3390963],[12.8575286,49.3222105],[12.7783278,49.332342],[12.7099271,49.4049508],[12.6451265,49.4302795],[12.6235262,49.5096426],[12.5839258,49.5231512],[12.5479255,49.59576],[12.501125,49.6194001],[12.497525,49.6700574],[12.4183242,49.7004518],[12.3823238,49.7426663],[12.4543245,49.779815],[12.4615246,49.8304723],[12.4831248,49.8270951],[12.5191252,49.911524],[12.4615246,49.9317869],[12.4723247,49.955427],[12.4507245,49.9807557],[12.2455225,50.0449216],[12.2419224,50.0702503],[12.2283274,50.0783274],[12.1879219,50.1023332],[12.1843218,50.1715649],[12.0799208,50.2424851],[12.1123211,50.2762567],[12.0763208,50.315094],[12.1377783,50.307333],[12.1699217,50.3032739],[12.1771218,50.2695024],[12.2419224,50.2526166],[12.2275223,50.2374194],[12.299523,50.1614334],[12.3355234,50.2593709],[12.3468474,50.2677175],[12.5119251,50.3893914],[12.6919269,50.3944571],[12.7387274,50.4316058],[12.8179282,50.4434258],[12.9511295,50.4045886],[12.99793,50.4332944],[13.0087301,50.4923946],[13.1599316,50.4974603],[13.2319323,50.5818892],[13.2859329,50.5683806],[13.3687337,50.6291693],[13.4479345,50.5970864],[13.5235352,50.6629409],[13.5163352,50.6916467],[13.5559356,50.7068439],[13.8331383,50.7237297],[13.8835388,50.742304],[13.8907389,50.7811413],[14.0347403,50.8030928],[14.2327423,50.8790788],[14.3479435,50.8807673],[14.3803438,50.9212932],[14.2399424,50.982082],[14.2867429,51.0361165],[14.398344,51.0124764],[14.4811448,51.037805],[14.5747457,50.9753277],[14.5495455,50.9128503],[14.6287463,50.9212932],[14.6143461,50.8453072],[14.7583476,50.8098471],[14.8087481,50.8588158],[14.8411148,50.9039899],[14.9563496,51.0648223],[14.8411148,50.9039899],[14.8,51.015],[14.75,51.15],[14.625,51.225],[14.5,51.3],[14.2,51.35],[13.9,51.38],[13.5,51.4],[13.2,51.45],[12.9,51.4],[12.6,51.42],[12.42,51.45],[12.28,51.32],[12.2,51.15],[12.25,50.95],[11.8,51.05],[11.6,51.0625],[11.4,51.075],[11,51.1],[10.7,51.1],[10.3,51.15],[10.175,51.225],[10.05,51.3],[10,51.45],[10.1833333,51.5166667],[10.3666667,51.5833333],[10.55,51.65],[10.6,51.95],[10.75,52.1],[10.95,52.35],[10.85,52.5],[10.85,52.7],[11,52.85],[11.15,52.98],[11.3,53.1],[11.3136364,53.1],[11.38,53.1],[11.6,53.1],[11.75,53.15],[11.9,53.2],[12.1,53.25],[12.3,53.3],[12.4666667,53.25],[12.6333333,53.2],[12.8,53.15],[13.2,53.15],[13.7,53.4],[13.6,53.6],[13.3,53.75],[13.05,53.92],[12.6,54.1],[12.45,54.25],[12.4459875,54.258025],[12.4459875,54.258025],[12.4489416,54.2575816],[12.4489416,54.2575816],[12.4579246,54.2562333],[12.4489416,54.2575816],[12.4489416,54.2575816],[12.4459875,54.258025],[12.3939626,54.2658336],[12.3866798,54.2803683],[12.3849376,54.2860119],[12.3852788,54.2917426],[12.3876886,54.2973012],[12.392059,54.3024365],[12.4114367,54.320165],[12.4082596,54.3207077],[12.3935457,54.3241582],[12.396724,54.3524822],[12.4,54.3517139],[12.4,54.3587647],[12.3894203,54.3485591],[12.385221,54.3445083],[12.3710561,54.3308443],[12.3675151,54.3325106],[12.3616628,54.3366128],[12.3573085,54.3413057],[12.354623,54.346406],[12.3537118,54.3517142],[12.3537039,54.3587649],[12.354451,54.3636081],[12.3566793,54.3682941],[12.3601615,54.3724837],[12.3601614,54.3724836],[12.3084659,54.3225782],[12.1621384,54.2650944],[12.1564941,54.262474],[12.151617,54.2593721],[12.0985325,54.219759],[12.0934148,54.2204828],[12.084165,54.2206779],[12.0750345,54.2197878],[11.9914079,54.2063714],[11.9913244,54.206358],[11.9899452,54.2082819],[11.9752853,54.2486612],[11.9559367,54.276483],[11.9477524,54.3017891],[11.9476775,54.3017932],[11.8791236,54.3055488],[11.7907645,54.3210533],[11.7428885,54.3359833],[11.7135976,54.2922234],[11.6658887,54.2482658],[11.604727,54.2104479],[11.5323917,54.1801583],[11.5286722,54.1791637],[11.5204362,54.131815],[11.5030318,54.0977814],[11.5019211,54.0973037],[11.4947565,54.0934732],[11.4891202,54.0888466],[11.4852626,54.0836295],[11.4833544,54.078054],[11.4834796,54.0723679],[11.4842782,54.0703108],[11.4663961,54.0501914],[11.4283027,54.0501887],[11.4198529,54.0497256],[11.4116925,54.0483567],[11.4041005,54.0461288],[11.3973365,54.0431182],[11.3916315,54.0394278],[11.3376468,53.9971973],[11.3329317,53.9926197],[11.3298462,53.9875849],[11.3298017,53.9874084],[11.3256526,53.9871783],[11.3164666,53.9854805],[11.2892954,53.9785362],[11.2860768,53.9879939],[11.2832561,53.9933306],[11.2786256,53.9982106],[11.2723834,54.0024243],[11.2075788,54.0379007],[11.2011486,54.0408362],[11.1939359,54.0430577],[11.1861679,54.0444951],[11.1780893,54.0451031],[11.1699547,54.0448627],[11.0474774,54.034725],[11.0397306,54.0336709],[11.0324098,54.0318467],[10.9234566,53.997796],[10.9354585,53.9830004],[10.9387145,53.9775425],[10.9398058,53.9723323],[10.9397434,53.9723128],[10.902709,53.9607323],[10.8940597,53.9713817],[10.88,53.96],[10.80875,53.9283333],[10.7,53.88],[10.62,53.82],[10.5,53.72],[10.35,53.6],[10.2,53.52],[10.1,53.63],[9.95,53.62],[9.8,53.56],[9.7,53.6066667],[9.65,53.63],[9.5378425,53.6823402],[9.5469826,53.6437564],[9.5469882,53.6437328],[9.509759,53.661101],[9.5034457,53.6646576],[9.4983905,53.6688618],[9.4947788,53.6735597],[9.4927432,53.6785793],[9.4888047,53.6951349],[9.4458876,53.71216],[9.4458568,53.7121875],[9.4458568,53.7121875],[9.4410405,53.716493],[9.4046156,53.7490548],[9.4046156,53.7490548],[9.3687195,53.7811439],[9.3614641,53.7876299],[9.3547552,53.7936272],[9.3522937,53.7958277],[9.3333548,53.812758],[9.3267975,53.8186198],[9.3172055,53.8271946],[9.3103774,53.8332985],[9.3103743,53.8333013],[9.3064016,53.8368526],[9.301617,53.8411298],[9.3016169,53.8411299],[9.2754928,53.8644834],[9.3016169,53.8411299],[9.301617,53.8411298],[9.3064016,53.8368526],[9.3103743,53.8333013],[9.3103774,53.8332985],[9.3172055,53.8271946],[9.3267975,53.8186198],[9.3333548,53.812758],[9.3522937,53.7958277],[9.3547552,53.7936272],[9.3614641,53.7876299],[9.3687195,53.7811439],[9.4046156,53.7490548],[9.325,53.79],[9.1932207,53.8577722],[9.1932207,53.8577722],[9.1932207,53.8577722],[9.1890569,53.8574326],[9.1817917,53.8568399],[9.1481252,53.8540936],[9.1480619,53.8540885],[9.1476836,53.8552563],[9.1477001,53.8603938],[9.1493678,53.8654365],[9.1498104,53.8660837],[8.9997638,53.8692386],[8.8693779,53.8586102],[8.7175756,53.9040261],[8.7248794,53.9012929],[8.7312213,53.8977633],[8.7363102,53.8935884],[8.7399615,53.8889201],[8.742043,53.8839281],[8.7424795,53.8787936],[8.7412559,53.8737033],[8.7384172,53.868842],[8.7374312,53.867832],[8.7373853,53.8678458],[8.7373853,53.8678458],[8.6967654,53.88],[8.6967654,53.88],[8.6232282,53.88],[8.6526865,53.8931892],[8.6232282,53.88],[8.6232282,53.88],[8.598865,53.869092],[8.5869185,53.8637432],[8.5868887,53.8637299],[8.5857995,53.8644788],[8.58147,53.8689661],[8.5786691,53.8738578],[8.5775002,53.8789748],[8.5780064,53.8841297],[8.58017,53.8891336],[8.5839122,53.893803],[8.5890962,53.8979669],[8.5955324,53.9014723],[8.624997,53.9146684],[8.6322397,53.9173224],[8.6401927,53.9191392],[8.6485797,53.9200555],[8.6570824,53.9200397],[8.6570493,53.9200434],[8.64854,53.9200571],[8.6401742,53.9191423],[8.6322413,53.9173307],[8.6250157,53.914685],[8.5457982,53.8792071],[8.53924,53.875616],[8.5339947,53.87134],[8.5302628,53.8665429],[8.4475894,53.7246738],[8.4451573,53.7170642],[8.4416094,53.6680943],[8.4421934,53.6624797],[8.4447285,53.6570585],[8.4641467,53.6277434],[8.4531424,53.6296576],[8.3757387,53.6533078],[8.3072572,53.6852272],[8.2501923,53.7242637],[8.2386744,53.7360968],[8.2405321,53.731816],[8.2386744,53.7360968],[8.2386744,53.7360968],[8.2383035,53.7369514],[8.2344202,53.74173],[8.2291821,53.7458488],[8.2066425,53.7690051],[8.1782336,53.817828],[8.1660541,53.868955],[8.1706089,53.9205182],[8.1917925,53.9706267],[8.2288839,54.0174365],[8.2805645,54.0592185],[8.3370588,54.0901094],[8.3363073,54.0906233],[8.2953336,54.0722244],[8.2297183,54.0361652],[8.198058,54.0102021],[8.1514364,54.0268358],[8.0667544,54.044897],[7.9870925,54.0567873],[7.9039301,54.0644686],[7.8197813,54.0630554],[7.7375246,54.0525962],[7.7360598,54.0522351],[7.6768053,54.0514232],[7.593641,54.0457521],[7.5136675,54.0312549],[7.5131353,54.0310911],[7.4292587,54.0260605],[7.3857992,54.0209621],[7.3023769,54.0061672],[7.2253077,53.9823176],[7.1574044,53.9502877],[7.1343273,53.9342911],[7.1016562,53.9267173],[7.0315796,53.9010426],[6.9405295,53.8604197],[6.859545,53.871729],[6.771026,53.8736818],[6.6297382,53.8685786],[6.5427597,53.8603403],[6.4601477,53.8423597],[6.385015,53.8153163],[6.3201778,53.78023],[6.3120517,53.7737128]],[[9.6916653,53.5762379],[9.6917584,53.5762165],[9.7959948,53.5522696],[9.8246543,53.5456855],[9.8334983,53.5436537],[9.7131637,53.5662306],[9.7130841,53.5662456],[9.6916653,53.5762379]],[[11.3743137,53.9809952],[11.3986246,54],[11.3986246,54],[11.3743137,53.9809952]],[[11.4820039,54],[11.496715,54.0232096],[11.4820039,54],[11.4820039,54]],[[12.7387274,48.1131892],[12.8611286,48.1959295],[12.8887371,48.2067208],[12.75,48.1],[12.8891566,48.0620482],[12.8622374,47.9678309],[12.9907299,47.846394],[12.8622374,47.9678309],[12.7495275,48.0743519],[12.7387274,48.1131892]],[[13.4551346,48.5741708],[13.5976399,48.56706],[13.6243362,48.5657279],[13.6346455,48.5608924],[13.7179372,48.5218249],[13.6346455,48.5608924],[13.5976399,48.56706],[13.4551346,48.5741708]]]}}
