{"type":"Feature","properties":{"family":"britain","name":"Gibraltar, British, 1789 – 1815"},"geometry":{"type":"Polygon","coordinates":[[[-5.6388868,35.9905706],[-5.6067469,35.9480501],[-5.5614662,35.9085812],[-5.5412663,35.8968319],[-5.4915039,35.9305459],[-5.4854062,35.9338223],[-5.4785757,35.9359395],[-5.4065537,35.9511407],[-5.4005543,35.9519396],[-5.3944779,35.9518391],[-5.3885279,35.9508428],[-5.3829032,35.9489838],[-5.3777919,35.9463243],[-5.373365,35.9429534],[-5.3697705,35.9389837],[-5.3557386,35.9200531],[-5.398254,35.9250385],[-5.3557386,35.9200531],[-5.2830528,35.9115299],[-5.3194048,35.8710345],[-5.3406534,35.8473639],[-5.3194048,35.8710345],[-5.3121874,35.8612974],[-5.3092445,35.8561677],[-5.307687,35.8506499],[-5.3065583,35.8430426],[-5.250149,35.8511163],[-5.226434,35.8586623],[-5.1882746,35.8708044],[-5.1324211,35.9000357],[-5.0848046,35.9376544],[-5.0626369,35.9639829],[-5.0473228,35.9821714],[-5.0214798,36.0318218],[-5.0137511,36.062849],[-5.0137042,36.0630371],[-5.0137011,36.0630496],[-5.0136838,36.0631192],[-5.0083246,36.0846338],[-5.0045972,36.115018],[-5.0049661,36.1711033],[-5.0197023,36.2259143],[-5.0481967,36.2770771],[-5.0892382,36.3223716],[-5.1410627,36.3598286],[-5.1672859,36.371987],[-5.1672909,36.3719894],[-5.1672912,36.3719895],[-5.1672931,36.3719904],[-5.2246333,36.2840105],[-5.2277532,36.2800826],[-5.2316646,36.276646],[-5.2362504,36.2738036],[-5.2614421,36.2608099],[-5.3040597,36.1363989],[-5.3037978,36.1386019],[-5.3038561,36.1442103],[-5.3053492,36.1496878],[-5.3082128,36.1547976],[-5.3123235,36.1593188],[-5.3175036,36.1630559],[-5.3235293,36.1658473],[-5.3281951,36.1670647],[-5.3370534,36.1411764],[-5.3586536,36.1411764],[-5.3658537,36.1631279],[-5.3734753,36.1652307],[-5.3776659,36.1633626],[-5.382785,36.159837],[-5.3869251,36.1555547],[-5.3899183,36.1506894],[-5.3916435,36.1454386],[-5.3920309,36.1400152],[-5.3910858,36.1347535],[-5.3910825,36.1347352],[-5.3910823,36.1347341],[-5.3910813,36.1347286],[-5.3935559,36.1422651],[-5.3948849,36.1426319],[-5.3973132,36.0695603],[-5.3980716,36.0645202],[-5.399984,36.0596835],[-5.4029825,36.0552214],[-5.4069606,36.0512919],[-5.4117776,36.0480342],[-5.4172627,36.0455636],[-5.5972185,35.9814196],[-5.6034084,35.97977],[-5.6098751,35.9791265],[-5.6163717,35.9795138],[-5.6226499,35.9809172],[-5.6284699,35.9832828],[-5.6336093,35.9865205],[-5.6388868,35.9905706]],[[-5.3910147,36.1345259],[-5.3903556,36.133048],[-5.3887857,36.1295281],[-5.3894014,36.1309086],[-5.390922,36.1342436],[-5.3910147,36.1345259]]]}}
