{"type":"Feature","properties":{"family":"other","name":"Electorate of Hanover, under the British king, 1789 – 1802"},"geometry":{"type":"Polygon","coordinates":[[[8.2,52.45],[8.3,52.45],[8.4,52.45],[8.45,52.45],[8.7,52.5],[8.95,52.5],[9,52.5],[9.0272727,52.4590909],[9.1,52.45],[9.15,52.25],[9.0357143,52.1642857],[9.05,52.15],[9.15,52.05],[9.35,51.95],[9.4,51.825],[9.45,51.7],[9.55,51.55],[9.7,51.35],[9.9806452,51.3967742],[10,51.4],[10.1,51.55],[10.275,51.525],[10.45,51.5],[10.55,51.65],[10.3,51.75],[10.0052632,51.8763158],[9.95,51.9],[9.75,52.05],[9.7722222,52.0833333],[9.85,52.2],[10,52.3],[10.1615385,52.3403846],[10.8,52.5],[10.85,52.7],[11,52.85],[11.15,52.98],[11.3,53.1],[11.3136364,53.1],[11.2856015,53.1065614],[11.1,53.15],[10.9,53.3],[10.72,53.38],[10.95,53.45],[10.95,53.72],[10.7493631,53.8484076],[10.7,53.88],[10.62,53.82],[10.5,53.72],[10.35,53.6],[10.202381,53.4819048],[10.2,53.48],[10,53.515],[9.8246543,53.5456855],[9.8334983,53.5436537],[9.7131637,53.5662306],[9.6917584,53.5762165],[9.6916653,53.5762379],[9.6570966,53.5841796],[9.6916653,53.5762379],[9.6917584,53.5762165],[9.7959948,53.5522696],[9.7,53.6066667],[9.65,53.63],[9.5378425,53.6823402],[9.5469826,53.6437564],[9.5098345,53.6610865],[9.5035203,53.6646439],[9.4984638,53.6688505],[9.4948505,53.673552],[9.4928136,53.6785762],[9.4888771,53.6951218],[9.4458568,53.7121875],[9.4410405,53.716493],[9.4046156,53.7490548],[9.4046156,53.7490548],[9.3687195,53.7811439],[9.3333548,53.812758],[9.3267975,53.8186198],[9.3333548,53.812758],[9.3547552,53.7936272],[9.3522937,53.7958277],[9.3333548,53.812758],[9.3267975,53.8186198],[9.3103774,53.8332985],[9.3103743,53.8333013],[9.301617,53.8411298],[9.3016169,53.8411299],[9.301617,53.8411298],[9.3064016,53.8368526],[9.301617,53.8411298],[9.2754928,53.8644834],[9.301617,53.8411298],[9.3103743,53.8333013],[9.3103774,53.8332985],[9.3172055,53.8271946],[9.3267975,53.8186198],[9.3333548,53.812758],[9.3614641,53.7876299],[9.3687195,53.7811439],[9.4046156,53.7490548],[9.325,53.79],[9.1932207,53.8577722],[9.243115,53.8618422],[9.2495851,53.86237],[9.2532832,53.8626717],[9.2532853,53.8626719],[9.2533316,53.8626756],[9.2533316,53.8626756],[9.2533604,53.862678],[9.2533604,53.862678],[9.2533316,53.8626756],[9.2533316,53.8626756],[9.2532853,53.8626719],[9.2532832,53.8626717],[9.2495851,53.86237],[9.243115,53.8618422],[9.1932207,53.8577722],[9.1890569,53.8574326],[9.1817917,53.8568399],[9.1481252,53.8540936],[9.1477522,53.8552435],[9.1477645,53.8603836],[9.1494272,53.8654293],[9.1498722,53.8660816],[8.9999234,53.8692328],[8.9997359,53.8692367],[8.8693934,53.858612],[8.6733487,53.9172647],[8.6722144,53.9175239],[8.6721253,53.9175446],[8.6700953,53.9180172],[8.6695862,53.9181357],[8.6700953,53.9180172],[8.6700953,53.9180172],[8.6721253,53.9175446],[8.6722144,53.9175239],[8.6722144,53.9175239],[8.6733629,53.9172565],[8.7174612,53.9040594],[8.7174612,53.9040594],[8.717653,53.9039876],[8.7248195,53.901305],[8.7311568,53.8977762],[8.7362429,53.8936014],[8.739893,53.8889324],[8.7419751,53.883939],[8.7424139,53.8788028],[8.7411942,53.8737105],[8.7383608,53.8688469],[8.7373853,53.8678458],[8.6967654,53.88],[8.6967654,53.88],[8.6232282,53.88],[8.598865,53.869092],[8.575,53.85],[8.5636937,53.8409549],[8.4906849,53.7158886],[8.5636937,53.8409549],[8.5734857,53.8577291],[8.5868887,53.8637299],[8.5869185,53.8637432],[8.5858453,53.8644826],[8.5815234,53.8689725],[8.5787292,53.8738669],[8.5775656,53.8789863],[8.5780758,53.8841433],[8.5802418,53.8891486],[8.5839848,53.8938188],[8.5891678,53.8979825],[8.5956012,53.9014868],[8.5956552,53.9015109],[8.5958226,53.9015859],[8.5958231,53.9015862],[8.5956807,53.9015357],[8.5956218,53.9015148],[8.5956182,53.9015136],[8.5955551,53.9014912],[8.595621,53.9015146],[8.5955551,53.9014912],[8.5955407,53.9014861],[8.5711723,53.8905725],[8.5711637,53.8905674],[8.5620314,53.8851036],[8.5268715,53.8569559],[8.5232079,53.8535011],[8.5205339,53.8498488],[8.5204689,53.84976],[8.4475733,53.724668],[8.4475204,53.7245026],[8.4460515,53.7199081],[8.4454316,53.7179692],[8.4451397,53.7170562],[8.4415923,53.6680863],[8.4421761,53.6624737],[8.4447102,53.6570546],[8.4641113,53.6277548],[8.4641109,53.6277549],[8.4533489,53.62963],[8.3760452,53.6532912],[8.3076558,53.6852263],[8.2506728,53.7242829],[8.2440195,53.7311329],[8.2434493,53.7291843],[8.2454984,53.6899525],[8.2390745,53.6319072],[8.2390745,53.631907],[8.23485,53.6291923],[8.2390745,53.631907],[8.2408076,53.6330207],[8.2478966,53.6360975],[8.2558523,53.6383078],[8.2643772,53.6395688],[8.3220129,53.6446378],[8.3312365,53.6448848],[8.3403546,53.6440216],[8.3489912,53.642084],[8.3567899,53.6391519],[8.3634292,53.6353462],[8.4129,53.6005269],[8.4929542,53.5841956],[8.4929545,53.5841951],[8.5029069,53.5691648],[8.4971781,53.566075],[8.491927,53.5618804],[8.4881374,53.5571628],[8.4879354,53.5566952],[8.4879355,53.5566952],[8.4879366,53.556695],[8.4879366,53.556695],[8.5308202,53.5479496],[8.5437187,53.5453192],[8.5437187,53.5453192],[8.5518855,53.5436537],[8.5437187,53.5453192],[8.5437187,53.5453192],[8.5308202,53.5479496],[8.5308202,53.5479496],[8.5378174,53.5304566],[8.5378174,53.5304565],[8.506965,53.5015143],[8.5039168,53.4986548],[8.5039156,53.4986536],[8.5058814,53.4937518],[8.5094386,53.4879361],[8.5099915,53.4872734],[8.5099963,53.4872785],[8.5156194,53.4932475],[8.5288503,53.5072924],[8.5402012,53.5193417],[8.5416487,53.5208782],[8.55,53.5],[8.8,53.2],[8.75,53.05],[8.55,52.95],[8.25,52.75],[8.2,52.45]]]}}
