{"type":"Feature","properties":{"family":"other","name":"Electorate of Hanover, occupied by France, 1803 – 1805"},"geometry":{"type":"Polygon","coordinates":[[[7.75,52.5],[7.85,52.35],[7.8538462,52.3346154],[7.9,52.3],[7.9,52.15],[8.1,52.075],[8.26,52.015],[8.314,52.006],[8.35,52.15],[8.4,52.275],[8.4133333,52.3083333],[8.3,52.45],[8.4,52.45],[8.45,52.45],[8.7,52.5],[8.95,52.5],[9,52.5],[9.0272727,52.4590909],[9.1,52.45],[9.15,52.25],[9.0357143,52.1642857],[9.05,52.15],[9.15,52.05],[9.35,51.95],[9.4,51.825],[9.45,51.7],[9.55,51.55],[9.7,51.35],[9.9806452,51.3967742],[9.95,51.55],[10.025,51.65],[10.1,51.75],[10.025,51.85],[10.0052632,51.8763158],[9.95,51.9],[9.75,52.05],[9.7722222,52.0833333],[9.75,52.1],[9.85,52.25],[10,52.3],[10.15,52.35],[10.1615385,52.3403846],[10.8,52.5],[10.85,52.7],[11,52.85],[11.15,52.98],[11.3,53.1],[11.3136364,53.1],[11.2856015,53.1065614],[11.1,53.15],[10.9,53.3],[10.72,53.38],[10.95,53.45],[10.95,53.72],[10.7493631,53.8484076],[10.7,53.88],[10.62,53.82],[10.5,53.72],[10.35,53.6],[10.202381,53.4819048],[10.2,53.48],[10,53.515],[9.8246543,53.5456855],[9.8334983,53.5436537],[9.7131637,53.5662306],[9.6917584,53.5762165],[9.6916653,53.5762379],[9.6570966,53.5841796],[9.6916653,53.5762379],[9.6917584,53.5762165],[9.7959948,53.5522696],[9.7,53.6066667],[9.65,53.63],[9.5378425,53.6823402],[9.5469826,53.6437564],[9.5098345,53.6610865],[9.5035203,53.6646439],[9.4984638,53.6688505],[9.4948505,53.673552],[9.4928136,53.6785762],[9.4888771,53.6951218],[9.4458568,53.7121875],[9.4046156,53.7490548],[9.4046156,53.7490548],[9.3687195,53.7811439],[9.3614641,53.7876299],[9.3547552,53.7936272],[9.3522937,53.7958277],[9.3333548,53.812758],[9.3267975,53.8186198],[9.3172055,53.8271946],[9.3103774,53.8332985],[9.3103743,53.8333013],[9.3064016,53.8368526],[9.301617,53.8411298],[9.3064016,53.8368526],[9.3103743,53.8333013],[9.3103774,53.8332985],[9.3172055,53.8271946],[9.3267975,53.8186198],[9.3333548,53.812758],[9.3522937,53.7958277],[9.3547552,53.7936272],[9.3614641,53.7876299],[9.3687195,53.7811439],[9.4046156,53.7490548],[9.4046156,53.7490548],[9.4410405,53.716493],[9.4046156,53.7490548],[9.4046156,53.7490548],[9.3687195,53.7811439],[9.3614641,53.7876299],[9.3547552,53.7936272],[9.3522937,53.7958277],[9.3333548,53.812758],[9.3267975,53.8186198],[9.3333548,53.812758],[9.3522937,53.7958277],[9.3547552,53.7936272],[9.3614641,53.7876299],[9.3687195,53.7811439],[9.4046156,53.7490548],[9.325,53.79],[9.1932207,53.8577722],[9.243115,53.8618422],[9.2495851,53.86237],[9.2532832,53.8626717],[9.2532853,53.8626719],[9.2533316,53.8626756],[9.2533316,53.8626756],[9.2533604,53.862678],[9.2533604,53.862678],[9.253361,53.862678],[9.253361,53.862678],[9.2533604,53.862678],[9.2533604,53.862678],[9.2533316,53.8626756],[9.2533316,53.8626756],[9.2532853,53.8626719],[9.2532832,53.8626717],[9.2495851,53.86237],[9.243115,53.8618422],[9.1932207,53.8577722],[9.1932207,53.8577722],[9.1932207,53.8577722],[9.1932207,53.8577722],[9.1932207,53.8577722],[9.1932207,53.8577722],[9.1932207,53.8577722],[9.1890569,53.8574326],[9.1817917,53.8568399],[9.1481252,53.8540936],[9.1477522,53.8552435],[9.1477645,53.8603836],[9.1494272,53.8654293],[9.1498722,53.8660816],[8.9999234,53.8692328],[8.9997359,53.8692367],[8.999735,53.8692367],[8.8693941,53.8586122],[8.6733491,53.9172649],[8.6721253,53.9175446],[8.6722144,53.9175239],[8.6722144,53.9175239],[8.6733629,53.9172565],[8.7174612,53.9040594],[8.7174612,53.9040594],[8.717653,53.9039876],[8.7248195,53.901305],[8.7311568,53.8977762],[8.7362429,53.8936014],[8.739893,53.8889324],[8.7419751,53.883939],[8.7424139,53.8788028],[8.7411942,53.8737105],[8.7383608,53.8688469],[8.7373853,53.8678458],[8.6967654,53.88],[8.6967654,53.88],[8.6232282,53.88],[8.598865,53.869092],[8.575,53.85],[8.5636937,53.8409549],[8.4906849,53.7158886],[8.5636937,53.8409549],[8.5734857,53.8577291],[8.5868887,53.8637299],[8.5869185,53.8637432],[8.5858453,53.8644826],[8.5815234,53.8689725],[8.5787292,53.8738669],[8.5775656,53.8789863],[8.5780758,53.8841433],[8.5802418,53.8891486],[8.5839848,53.8938188],[8.5891678,53.8979825],[8.5956012,53.9014868],[8.5956552,53.9015109],[8.5958226,53.9015859],[8.5956204,53.9015143],[8.5955413,53.9014863],[8.5711729,53.8905727],[8.5620317,53.8851036],[8.5268717,53.8569559],[8.5232081,53.853501],[8.520469,53.8497598],[8.4475734,53.7246677],[8.4451397,53.7170559],[8.4415923,53.6680859],[8.4421761,53.6624733],[8.4447102,53.6570542],[8.4641109,53.6277549],[8.4533489,53.62963],[8.3760452,53.6532912],[8.3076558,53.6852263],[8.2506728,53.7242829],[8.2440195,53.7311329],[8.2434493,53.7291843],[8.2454984,53.6899525],[8.2390745,53.6319072],[8.2408071,53.6330206],[8.2478959,53.6360973],[8.2558514,53.6383075],[8.2643762,53.6395685],[8.3220119,53.6446375],[8.3312356,53.6448845],[8.340354,53.6440213],[8.3489908,53.6420836],[8.3567897,53.6391514],[8.3634291,53.6353456],[8.4128997,53.6005265],[8.4929541,53.5841952],[8.5029066,53.5691647],[8.4971782,53.566075],[8.4919271,53.5618803],[8.4881374,53.5571626],[8.4879355,53.5566952],[8.4879366,53.556695],[8.4879366,53.556695],[8.5308202,53.5479496],[8.5437187,53.5453192],[8.5437187,53.5453192],[8.5518855,53.5436537],[8.5378174,53.5304565],[8.506965,53.5015143],[8.5039168,53.4986548],[8.5039156,53.4986536],[8.5039155,53.4986535],[8.5058815,53.4937514],[8.5094386,53.4879357],[8.5099914,53.4872732],[8.5099915,53.4872734],[8.5099963,53.4872785],[8.5156194,53.4932475],[8.5288503,53.5072924],[8.5402012,53.5193417],[8.5416487,53.5208782],[8.55,53.5],[8.8,53.2],[8.75,53.05],[8.55,52.95],[8.25,52.75],[7.8,52.75],[7.75,52.5]],[[9.4458568,53.7121875],[9.4458876,53.71216],[9.5814958,53.5909339],[9.4458876,53.71216],[9.4458568,53.7121875],[9.4458568,53.7121875]]]}}
