{"type":"Feature","properties":{"family":"other","name":"Hanover and Hamburg, under French occupation, 1807 – 1809"},"geometry":{"type":"Polygon","coordinates":[[[8.25,52.75],[8.3,52.75],[8.35,52.6],[8.4,52.45],[8.4777778,52.4555556],[8.7,52.5],[8.95,52.5],[9,52.5],[9.0045455,52.4931818],[9.1,52.5],[9.2,52.3],[9.35,52.225],[9.5,52.15],[9.75,52.1],[9.85,52.25],[10.1,52.35],[10.25,52.4],[10.4,52.45],[10.7,52.55],[10.85,52.7],[11,52.85],[11.15,52.98],[11.2856015,53.1065614],[11.2856015,53.1065614],[11.1,53.15],[10.9,53.3],[10.72,53.38],[10.95,53.45],[10.95,53.72],[10.7493631,53.8484076],[10.7,53.88],[10.62,53.82],[10.5,53.72],[10.2404762,53.512381],[10.2330508,53.5376271],[10.2,53.52],[10.1,53.63],[9.95,53.62],[9.8,53.56],[9.75,53.5833333],[9.75,53.5783333],[9.7,53.6066667],[9.65,53.63],[9.5378425,53.6823402],[9.5469826,53.6437564],[9.5098345,53.6610865],[9.5035203,53.6646439],[9.4984638,53.6688505],[9.4948505,53.673552],[9.4928136,53.6785762],[9.4888771,53.6951218],[9.4458568,53.7121875],[9.3224456,53.8225102],[9.3016167,53.8411301],[9.3219153,53.8229843],[9.2754928,53.8644834],[9.3333548,53.812758],[9.3552691,53.7931678],[9.3267975,53.8186198],[9.3593875,53.7894862],[9.4046155,53.7490549],[9.325,53.79],[9.1932207,53.8577722],[9.1481252,53.8540936],[9.1481252,53.8540936],[9.1932207,53.8577722],[9.1932207,53.8577722],[9.1481252,53.8540936],[9.1477522,53.8552435],[9.1477645,53.8603836],[9.1494272,53.8654293],[9.1498722,53.8660816],[8.999736,53.8692367],[8.8693948,53.8586122],[8.6733509,53.9172646],[8.6721187,53.9175462],[8.6733629,53.9172565],[8.7174612,53.9040594],[8.7248195,53.901305],[8.7311568,53.8977762],[8.7362429,53.8936014],[8.739893,53.8889324],[8.7419751,53.883939],[8.7424139,53.8788028],[8.7411942,53.8737105],[8.7383608,53.8688469],[8.7373853,53.8678458],[8.6967654,53.88],[8.6967654,53.88],[8.6967654,53.88],[8.6967654,53.88],[8.6526865,53.8931892],[8.6967654,53.88],[8.6232282,53.88],[8.6232282,53.88],[8.6232282,53.88],[8.598865,53.869092],[8.598865,53.869092],[8.575,53.85],[8.5636937,53.8409549],[8.4906849,53.7158886],[8.5734857,53.8577291],[8.5869185,53.8637432],[8.5858453,53.8644826],[8.5815234,53.8689725],[8.5787292,53.8738669],[8.5775656,53.8789863],[8.5780758,53.8841433],[8.5802418,53.8891486],[8.5839848,53.8938188],[8.5891678,53.8979825],[8.5956012,53.9014868],[8.5958227,53.901586],[8.5956204,53.9015143],[8.5956368,53.9015201],[8.5955677,53.9014956],[8.5955688,53.901496],[8.5955395,53.9014856],[8.571171,53.890572],[8.5620297,53.8851028],[8.5268697,53.8569551],[8.5232061,53.8535002],[8.5204671,53.8497591],[8.4475717,53.7246669],[8.4451381,53.7170554],[8.4415908,53.6680854],[8.4421746,53.662473],[8.4447087,53.6570542],[8.5029058,53.5691641],[8.4971777,53.5660749],[8.4919263,53.5618801],[8.4881364,53.5571625],[8.4879347,53.5566954],[8.5437187,53.5453192],[8.5437187,53.5453192],[8.5518855,53.5436537],[8.5308202,53.5479496],[8.5378174,53.5304566],[8.5039145,53.4986527],[8.5058802,53.4937512],[8.5094374,53.4879356],[8.5099907,53.4872725],[8.5099907,53.4872725],[8.5288503,53.5072924],[8.5416487,53.5208782],[8.55,53.5],[8.8,53.2],[8.75,53.05],[8.55,52.95],[8.25,52.75]],[[9.6570966,53.5841796],[9.7562897,53.5613913],[9.8246543,53.5456855],[9.8334983,53.5436537],[9.7131637,53.5662306],[9.6917584,53.5762165],[9.6570966,53.5841796]],[[10.1851852,53.4825926],[10.202381,53.4819048],[10.2,53.48],[10.1851852,53.4825926]]]}}
