{"type":"Feature","properties":{"family":"client","name":"Kingdom of Holland, 1807 – 1809"},"geometry":{"type":"Polygon","coordinates":[[[3.2531226,51.7377654],[3.2580714,51.6835622],[3.268233,51.6437943],[3.4046548,51.6721838],[3.4781225,51.6830043],[3.5535098,51.6857207],[3.6285014,51.6802497],[3.6568836,51.6749535],[3.6568837,51.6749535],[3.6568914,51.6749344],[3.6579978,51.6721935],[3.6613991,51.6676206],[3.6661108,51.6635194],[3.6719687,51.6600326],[3.6787687,51.6572816],[3.6862738,51.6553621],[3.694223,51.654341],[3.7023397,51.6542537],[3.7103415,51.6551032],[3.7326808,51.6588234],[3.7327383,51.658833],[3.732741,51.6588323],[3.732741,51.6588323],[3.7979531,51.6426504],[3.8183793,51.6488915],[3.8364265,51.6520613],[3.8364265,51.6520613],[3.8364267,51.6520614],[3.9344587,51.6027937],[3.9412163,51.5999956],[3.9486939,51.5980273],[3.9566303,51.5969578],[3.9647486,51.5968241],[3.9727654,51.5976312],[4.0986989,51.6178821],[4.1074274,51.6199217],[4.115255,51.6230702],[4.1218216,51.6271827],[4.1268245,51.63207],[4.130033,51.6375072],[4.1301526,51.6378057],[4.1301534,51.6378053],[4.2066421,51.5899698],[4.0662407,51.6102327],[4,51.5932856],[3.9870399,51.5899698],[4,51.5830525],[4.0914409,51.5342468],[4.2678427,51.5089181],[4.296643,51.4700808],[4.2822428,51.4481293],[4.1058411,51.4464407],[4.0158402,51.5308696],[4,51.5329128],[3.8718387,51.5494439],[3.904239,51.5697069],[3.8502385,51.6102327],[3.5586356,51.5950355],[3.4470345,51.5460668],[3.5370354,51.4599494],[3.6882369,51.4548836],[3.8286383,51.3907177],[3.900639,51.4042263],[3.9582396,51.4565722],[4,51.4430475],[4.1094411,51.4076035],[4.2354424,51.4194235],[4.2606426,51.3687662],[4.4118441,51.3569461],[4.3758438,51.4430636],[4.4838448,51.4751465],[4.5342453,51.4683922],[4.5198452,51.4278664],[4.5414454,51.4194235],[4.6314463,51.4177349],[4.7790478,51.4954095],[4.8222482,51.4751465],[4.8222482,51.4143578],[4.7610476,51.4126692],[4.9086491,51.3924063],[5.0274503,51.4768351],[5.0814508,51.4379978],[5.0670507,51.3738319],[5.1246512,51.3130431],[5.2146521,51.2944688],[5.2146521,51.2623489],[5.2146521,51.2590087],[5.3874539,51.2590087],[5.4604744,51.2779051],[5.4918549,51.2860259],[5.5092544,51.2681491],[5.5674557,51.2083513],[5.602201,51.2014307],[5.8302583,51.1560054],[5.602201,51.2014307],[5.8,51.33],[5.95,51.45],[6.2038735,51.45],[6.1938619,51.3451261],[6.2038735,51.45],[6.204662,51.4582608],[6.1938619,51.5089181],[6.0858609,51.5950355],[6.090202,51.609798],[6.100261,51.6440043],[6.0394944,51.6605056],[6.0318603,51.6625786],[6.0290824,51.6709176],[6.0138601,51.7166131],[5.9930692,51.7207925],[5.9382594,51.7318103],[5.9634596,51.7757133],[5.9310593,51.8162392],[5.958968,51.823096],[6.0822608,51.8533879],[6.1578616,51.8415678],[6.1279095,51.8618606],[6.0973636,51.8825557],[6.0930609,51.8854708],[6.1254613,51.8972909],[6.2511671,51.8700778],[6.2511671,51.8700778],[6.2658627,51.8668965],[6.3450635,51.8213049],[6.3810638,51.8280592],[6.3774638,51.8601422],[6.4638646,51.8483221],[6.4736345,51.85265],[6.4736345,51.85265],[6.4736345,51.85265],[6.5286653,51.8770279],[6.7158672,51.8989794],[6.8094681,51.9597682],[6.7770678,52.0019827],[6.6726667,52.0492628],[6.7482675,52.1032973],[6.8310683,52.1134288],[6.892088,52.15],[7.0254703,52.2299406],[7.0238063,52.2363793],[7.0110701,52.2856636],[7.0470705,52.3650268],[6.9750698,52.4511442],[6.899469,52.4325699],[6.7158672,52.4612757],[6.6726667,52.5423274],[6.7446674,52.5592132],[6.7050671,52.5828532],[6.701467,52.6183134],[6.7374674,52.6351991],[7.0182702,52.6267562],[7.0362704,52.6470192],[7.0614706,52.8243198],[7.1838718,52.9661603],[7.175796,53.1],[7.3,53.1],[7.45,53.125],[7.6,53.15],[7.75,53.3],[7.7666667,53.4666667],[7.7833333,53.6333333],[7.7906908,53.7069083],[7.7544271,53.7033419],[7.7446114,53.7023765],[7.74522,53.708526],[7.7465696,53.7136377],[7.7495434,53.718502],[7.7540324,53.7229398],[7.7598718,53.7267878],[7.7668467,53.7299041],[7.7747004,53.7321739],[7.7831435,53.7335136],[7.9432288,53.7492583],[7.9432509,53.7492591],[7.9432509,53.7492591],[7.9432549,53.7492595],[7.9432509,53.7492591],[7.7924829,53.7344315],[7.7836651,53.7330089],[7.7755045,53.7305743],[7.7683292,53.7272256],[7.7624276,53.7230975],[7.7580366,53.718356],[7.7553321,53.7131917],[7.7544223,53.7078121],[7.7544271,53.7033419],[7.7906908,53.7069083],[7.8,53.7078239],[7.8273499,53.7105137],[7.8355572,53.7113208],[7.8355572,53.7113208],[7.9506795,53.7226429],[7.8355572,53.7113208],[7.8355572,53.7113208],[7.8273499,53.7105137],[7.8,53.7078239],[7.8,53.45],[8.1191274,53.45],[8.0766808,53.4693563],[8.1191274,53.45],[8.1549834,53.4336491],[8.1561026,53.4344222],[8.160408,53.438899],[8.1632048,53.443782],[8.1643902,53.4488926],[8.1639204,53.454044],[8.1618119,53.4590478],[8.1581414,53.4637209],[8.1530426,53.4678923],[8.1468935,53.4713029],[8.22054,53.4377185],[8.2319298,53.4380751],[8.2702747,53.4824764],[8.274091,53.5013718],[8.2377737,53.498362],[8.2288588,53.4981492],[8.2200452,53.4989792],[8.211674,53.5008198],[8.204069,53.5035999],[8.1975246,53.5072118],[8.1927694,53.511125],[8.1878611,53.5076307],[8.1814061,53.5044625],[8.1740825,53.5020542],[8.1382175,53.4927095],[8.1381535,53.4926972],[8.1381532,53.4926971],[8.1381528,53.492697],[8.1147976,53.4866168],[8.1381528,53.492697],[8.1381777,53.4927035],[8.1458123,53.4952367],[8.1524894,53.4985938],[8.1579609,53.5026501],[8.1620233,53.5072552],[8.1645254,53.512238],[8.1653736,53.5174136],[8.1654091,53.5506018],[8.1558816,53.5267679],[8.12,53.5174179],[8.12,53.5873131],[8.1654135,53.554696],[8.1654483,53.5873085],[8.1647791,53.5919382],[8.1627808,53.5964308],[8.1595125,53.6006531],[8.155282,53.6042976],[8.2016711,53.5709607],[8.2041655,53.5687847],[8.227177,53.6198801],[8.2302551,53.6247589],[8.2348577,53.6291948],[8.2408132,53.6330223],[8.2478996,53.6360983],[8.2558523,53.6383079],[8.2643742,53.6395686],[8.3220098,53.6446376],[8.3312308,53.6448843],[8.3403467,53.6440212],[8.3489813,53.6420837],[8.3567786,53.6391518],[8.3634171,53.6353464],[8.412888,53.6005272],[8.4929539,53.5841936],[8.4447087,53.6570542],[8.4421746,53.662473],[8.4415908,53.6680854],[8.4451381,53.7170554],[8.4475717,53.7246669],[8.4774071,53.775866],[8.4473128,53.8165181],[8.4047769,53.8614864],[8.381906,53.8774717],[8.3479684,53.9207635],[8.2950181,53.9635252],[8.228789,53.9993459],[8.1518346,54.0268279],[8.0671461,54.0448964],[7.987484,54.0567914],[7.9042564,54.0644809],[7.8200291,54.063066],[7.7376865,54.0525947],[7.7362869,54.0522498],[7.6771884,54.0514464],[7.5939208,54.0457752],[7.5138386,54.0312632],[7.5133557,54.0311146],[7.4295362,54.0260904],[7.3860733,54.0209936],[7.302568,54.0061881],[7.2254137,53.9823189],[7.1574292,53.9502618],[7.1010812,53.9111911],[7.0583938,53.8665341],[7.0392671,53.8327541],[7.0267145,53.8380699],[6.9461386,53.8597447],[6.8599322,53.8717911],[6.7713846,53.8737491],[6.6300887,53.8686525],[6.5430594,53.8604133],[6.4603857,53.8424264],[6.3851837,53.8153714],[6.3202736,53.7802688],[6.3121078,53.7737327],[6.2524574,53.7769138],[6.1680174,53.776733],[6.0851057,53.7673074],[6.0066097,53.7489656],[5.9473854,53.7311735],[5.6929754,53.7372633],[5.6127542,53.7348858],[5.5345145,53.7241691],[5.5158604,53.7194431],[5.4774771,53.7162301],[5.3182807,53.6929936],[5.1482263,53.6697186],[5.0541654,53.6500838],[4.9696933,53.6187206],[4.8867386,53.5796904],[4.8245585,53.5441252],[4.8191797,53.5395852],[4.7907035,53.5332276],[4.719045,53.5073991],[4.6566932,53.4741418],[4.5487684,53.4046136],[4.497642,53.3646555],[4.4599152,53.3197197],[4.4368647,53.2713792],[4.4357964,53.2643679],[4.3422414,53.186212],[4.299386,53.1419405],[4.2713197,53.0936043],[4.2590083,53.0429542],[4.2628405,52.9918182],[4.2826223,52.9420355],[4.3175917,52.8953905],[4.3664531,52.8535498],[4.3870829,52.8415338],[4.3993199,52.8195198],[4.4419906,52.7741748],[4.4981979,52.7346195],[4.5658316,52.7023156],[4.6304347,52.6771179],[4.6454888,52.6724089],[4.7322473,52.959406],[4.6454878,52.6724057],[4.595446,52.5068673],[4.5090451,52.336321],[4.4082441,52.2231863],[4.1878745,52.0429992],[4.1878718,52.0429969],[4.1746551,52.0472707],[4.0966178,52.0619387],[3.9481766,52.0806209],[3.9470947,52.0773573],[3.9470407,52.0106868],[3.8938703,52.0101952],[3.640376,51.9932028],[3.5541744,51.9817999],[3.4734958,51.9599426],[3.4016503,51.9285307],[3.3415682,51.8888552],[3.2956782,51.8425426],[3.2658093,51.7914859],[3.2531226,51.7377654]],[[3.9402394,51.7419418],[4,51.7076824],[4,51.7076824],[4.0374404,51.6862187],[4,51.7076824],[4,51.7076824],[3.9402394,51.7419418]],[[4,51.6298781],[4,51.6298781],[4.0878409,51.6440043],[4,51.6298781]],[[7.2666727,53.3241387],[7.3649371,53.3027395],[7.3656544,53.3030405],[7.3674737,53.3021872],[7.2666727,53.3241387]],[[7.6626766,53.7614802],[7.7981143,53.7811431],[7.7983223,53.7832232],[7.8,53.7832457],[7.8,53.7814168],[7.8138781,53.7834317],[7.7981143,53.7811431],[7.6626766,53.7614802]],[[7.943274,53.74926],[7.9521474,53.7496037],[7.9532014,53.7495215],[7.9487062,53.7494031],[7.943274,53.74926]],[[7.9540907,53.7495449],[7.9565231,53.7492624],[7.9610095,53.7489124],[7.9630264,53.748507],[7.9540907,53.7495449]],[[8.0743294,53.7216281],[8.0753957,53.7268157],[8.0781324,53.7317835],[8.0824373,53.736345],[8.0881491,53.7403289],[8.1205501,53.7589115],[8.1276994,53.7622575],[8.1358331,53.7646943],[8.1446256,53.7661244],[8.1537248,53.7664906],[8.1627662,53.7657781],[8.1713876,53.7640155],[8.2146077,53.7521889],[8.222332,53.749499],[8.2290178,53.7459672],[8.2344067,53.7417302],[8.2382909,53.7369517],[8.2405207,53.7318164],[8.2410105,53.7265228],[8.2397422,53.7212753],[8.2367652,53.7162765],[8.2321951,53.7117193],[8.2262087,53.7077797],[8.2190372,53.7046096],[8.2109575,53.7023311],[8.2022811,53.7010323],[8.1267263,53.6942823],[8.117917,53.6940043],[8.1091813,53.6947371],[8.1008465,53.6964535],[8.0932249,53.6990889],[8.0866023,53.7025448],[8.0812272,53.7066916],[8.0773015,53.7113737],[8.074973,53.7164156],[8.0743294,53.7216281]],[[8.4454444,53.7180133],[8.4455383,53.7195342],[8.4474796,53.724379],[8.4454444,53.7180133]]]}}
