{"type":"Feature","properties":{"family":"client","name":"Kingdom of Holland, 1806 – 1807"},"geometry":{"type":"Polygon","coordinates":[[[3.2531178,51.7377753],[3.2580667,51.6835709],[3.2682304,51.6437938],[3.268233,51.6437943],[3.4046548,51.6721838],[3.4781225,51.6830043],[3.5535098,51.6857207],[3.6285014,51.6802497],[3.6568836,51.6749535],[3.6579974,51.672194],[3.6613989,51.6676208],[3.6661109,51.6635193],[3.671969,51.6600323],[3.6787692,51.6572811],[3.6862746,51.6553614],[3.694224,51.6543402],[3.7023409,51.6542528],[3.7103429,51.6551023],[3.732741,51.6588323],[3.7979531,51.6426504],[3.8183793,51.6488915],[3.8364265,51.6520613],[3.8364549,51.652047],[3.8364952,51.6520268],[3.8364952,51.6520268],[3.9344596,51.6027932],[3.9412173,51.599995],[3.9486951,51.5980267],[3.9566317,51.596957],[3.96475,51.5968234],[3.9727668,51.5976304],[4.0987003,51.6178815],[4.1074286,51.619921],[4.115256,51.6230694],[4.1218223,51.6271818],[4.1268251,51.632069],[4.1300335,51.6375061],[4.1301534,51.6378053],[4.2066421,51.5899698],[4.0662407,51.6102327],[4,51.5932856],[3.9870399,51.5899698],[4,51.5830525],[4.0914409,51.5342468],[4.2678427,51.5089181],[4.296643,51.4700808],[4.2822428,51.4481293],[4.1058411,51.4464407],[4.0158402,51.5308696],[4,51.5329128],[3.8718387,51.5494439],[3.904239,51.5697069],[3.8502385,51.6102327],[3.5586356,51.5950355],[3.4470345,51.5460668],[3.5370354,51.4599494],[3.6882369,51.4548836],[3.8286383,51.3907177],[3.900639,51.4042263],[3.9582396,51.4565722],[4,51.4430475],[4.1094411,51.4076035],[4.2354424,51.4194235],[4.2606426,51.3687662],[4.4118441,51.3569461],[4.3758438,51.4430636],[4.4838448,51.4751465],[4.5342453,51.4683922],[4.5198452,51.4278664],[4.5414454,51.4194235],[4.6314463,51.4177349],[4.7790478,51.4954095],[4.8222482,51.4751465],[4.8222482,51.4143578],[4.7610476,51.4126692],[4.9086491,51.3924063],[5.0274503,51.4768351],[5.0814508,51.4379978],[5.0670507,51.3738319],[5.1246512,51.3130431],[5.2146521,51.2944688],[5.2146521,51.2623489],[5.2146521,51.2590087],[5.3874539,51.2590087],[5.4604744,51.2779051],[5.4918549,51.2860259],[5.5092544,51.2681491],[5.5674557,51.2083513],[5.602201,51.2014307],[5.8302583,51.1560054],[5.602201,51.2014307],[5.8,51.33],[5.95,51.45],[6.2038735,51.45],[6.1938619,51.3451261],[6.2038735,51.45],[6.204662,51.4582608],[6.1938619,51.5089181],[6.0858609,51.5950355],[6.090202,51.609798],[6.100261,51.6440043],[6.0394944,51.6605056],[6.0318603,51.6625786],[6.0290824,51.6709176],[6.0138601,51.7166131],[5.9930692,51.7207925],[5.9382594,51.7318103],[5.9634596,51.7757133],[5.9310593,51.8162392],[5.958968,51.823096],[6.0822608,51.8533879],[6.1578616,51.8415678],[6.1279095,51.8618606],[6.0973636,51.8825557],[6.0930609,51.8854708],[6.1254613,51.8972909],[6.2511671,51.8700778],[6.2511671,51.8700778],[6.2658627,51.8668965],[6.3450635,51.8213049],[6.3810638,51.8280592],[6.3774638,51.8601422],[6.4638646,51.8483221],[6.4736345,51.85265],[6.4736345,51.85265],[6.4736345,51.85265],[6.5286653,51.8770279],[6.7158672,51.8989794],[6.8094681,51.9597682],[6.7770678,52.0019827],[6.6726667,52.0492628],[6.7482675,52.1032973],[6.8310683,52.1134288],[6.892088,52.15],[7.0254703,52.2299406],[7.0238063,52.2363793],[7.0110701,52.2856636],[7.0470705,52.3650268],[6.9750698,52.4511442],[6.899469,52.4325699],[6.7158672,52.4612757],[6.6726667,52.5423274],[6.7446674,52.5592132],[6.7050671,52.5828532],[6.701467,52.6183134],[6.7374674,52.6351991],[7.0182702,52.6267562],[7.0362704,52.6470192],[7.0614706,52.8243198],[7.1838718,52.9661603],[7.175796,53.1],[7.1730717,53.1451495],[7.1946719,53.2447755],[7.0794708,53.266727],[7.0866709,53.3089415],[7.0182702,53.3055643],[6.899469,53.3511559],[6.8670687,53.4338962],[6.8274683,53.450782],[6.780864,53.4491366],[6.7906239,53.4862897],[6.7874645,53.5378764],[6.785789,53.5421617],[6.7785555,53.5389956],[6.770181,53.536704],[6.7612008,53.5354644],[6.7519845,53.535328],[6.7429117,53.5363004],[6.6637554,53.5498008],[6.6546561,53.5520059],[6.6465672,53.5553218],[6.639867,53.5595934],[6.6348695,53.564621],[6.616851,53.5882548],[6.6140316,53.5931545],[6.6128405,53.5982836],[6.6133224,53.6034532],[6.6154599,53.6084731],[6.6191749,53.6131581],[6.6243311,53.6173356],[6.6307386,53.6208517],[6.6381614,53.6235765],[6.646326,53.6254097],[6.7283749,53.6386051],[6.6822383,53.6775226],[6.6194044,53.7133037],[6.5461097,53.7413021],[6.4650621,53.7604764],[6.3792725,53.7701123],[6.2524775,53.7769105],[6.1680381,53.77673],[6.0851262,53.7673048],[6.0066294,53.7489632],[5.9474054,53.7311716],[5.6929939,53.7372627],[5.6127733,53.7348856],[5.5345333,53.7241691],[5.5158799,53.7194434],[5.4774964,53.7162305],[5.3182996,53.6929949],[5.1482448,53.6697208],[5.0541834,53.6500863],[4.9697098,53.6187232],[4.8867544,53.5796934],[4.8245726,53.5441278],[4.8191946,53.5395887],[4.7907194,53.5332314],[4.71906,53.5074031],[4.6567068,53.4741456],[4.5487807,53.4046178],[4.4976526,53.364659],[4.459924,53.3197223],[4.4368718,53.2713806],[4.4358033,53.26437],[4.34225,53.1862165],[4.2993931,53.141944],[4.2713254,53.0936066],[4.2590128,53.0429551],[4.2628441,52.9918175],[4.2826253,52.9420333],[4.3175946,52.8953871],[4.3664562,52.8535453],[4.3870876,52.8415281],[4.399323,52.8195166],[4.441994,52.7741706],[4.4982018,52.7346147],[4.565836,52.7023105],[4.6304398,52.6771128],[4.6454878,52.6724057],[4.595446,52.5068673],[4.5090451,52.336321],[4.4082441,52.2231863],[4.1878745,52.0429992],[4.1746465,52.0472767],[4.0966061,52.0619457],[3.9481659,52.0806283],[3.9470841,52.0773646],[3.9470321,52.0106943],[3.8938586,52.0102029],[3.6403649,51.9932118],[3.5541646,51.9818096],[3.4734872,51.9599529],[3.4016429,51.9285415],[3.3415619,51.8888663],[3.2956726,51.8425537],[3.2658043,51.7914966],[3.2531178,51.7377753]],[[3.9402394,51.7419418],[4,51.7076824],[4,51.7076824],[4.0374404,51.6862187],[4,51.7076824],[4,51.7076824],[3.9402394,51.7419418]],[[4,51.6298781],[4,51.6298781],[4.0878409,51.6440043],[4,51.6298781]]]}}
