{"type":"Feature","properties":{"family":"other","name":"Duchy of Oldenburg, 1803 – 1805"},"geometry":{"type":"Polygon","coordinates":[[[6.4736345,51.85265],[6.575,51.815],[6.75,51.75],[6.85,51.7],[6.95,51.65],[7.3,51.62],[7.4417582,51.9318681],[7.45,51.95],[7.3,52.2],[7.45,52.25],[7.4894737,52.2631579],[7.25,52.4],[7.2,52.6],[7.5,52.6],[7.6333333,52.5],[7.8538462,52.3346154],[7.85,52.35],[7.75,52.5],[7.8,52.75],[8.25,52.75],[8.55,52.95],[8.75,53.05],[8.8,53.2],[8.55,53.5],[8.5416487,53.5208782],[8.5402012,53.5193417],[8.5288503,53.5072924],[8.5156194,53.4932475],[8.5099963,53.4872785],[8.5099915,53.4872734],[8.5099914,53.4872732],[8.5094386,53.4879357],[8.5058815,53.4937514],[8.5039155,53.4986535],[8.5039156,53.4986536],[8.5039168,53.4986548],[8.506965,53.5015143],[8.5378174,53.5304565],[8.5518855,53.5436537],[8.5437187,53.5453192],[8.5437187,53.5453192],[8.5308202,53.5479496],[8.4879366,53.556695],[8.4879366,53.556695],[8.4879355,53.5566952],[8.4881374,53.5571626],[8.4919271,53.5618803],[8.4971782,53.566075],[8.5029066,53.5691647],[8.4929541,53.5841952],[8.4128997,53.6005265],[8.3634291,53.6353456],[8.3567897,53.6391514],[8.3489908,53.6420836],[8.340354,53.6440213],[8.3312356,53.6448845],[8.3220119,53.6446375],[8.2643762,53.6395685],[8.2558514,53.6383075],[8.2478959,53.6360973],[8.2408071,53.6330206],[8.2390745,53.6319072],[8.2348496,53.6291923],[8.2302457,53.6247556],[8.2271669,53.619876],[8.2041628,53.568797],[8.2017051,53.5709441],[8.0941368,53.6482604],[8.0747203,53.7122201],[8.0719527,53.7177926],[8.0672338,53.7228856],[8.0607818,53.7272631],[8.0528956,53.7307219],[8.0439409,53.7331013],[7.9646971,53.7483073],[7.95406,53.7495431],[7.9432315,53.7492583],[7.7833453,53.7335331],[7.7833708,53.7335341],[7.7923624,53.7338696],[7.8013498,53.7331402],[7.8099148,53.7313724],[7.8177179,53.7286362],[7.8244502,53.7250402],[7.8298451,53.7207266],[7.8336896,53.7158665],[7.8355572,53.7113208],[7.8273499,53.7105137],[7.8,53.7078239],[7.7906908,53.7069083],[7.7833333,53.6333333],[7.7666667,53.4666667],[7.75,53.3],[7.6,53.15],[7.45,53.125],[7.3,53.1],[7.175796,53.1],[7.1838718,52.9661603],[7.0614706,52.8243198],[7.0362704,52.6470192],[7.0182702,52.6267562],[6.7374674,52.6351991],[6.701467,52.6183134],[6.7050671,52.5828532],[6.7446674,52.5592132],[6.6726667,52.5423274],[6.7158672,52.4612757],[6.899469,52.4325699],[6.9750698,52.4511442],[7.0470705,52.3650268],[7.0110701,52.2856636],[7.0238063,52.2363793],[7.0254703,52.2299406],[6.892088,52.15],[6.8310683,52.1134288],[6.7482675,52.1032973],[6.6726667,52.0492628],[6.7770678,52.0019827],[6.8094681,51.9597682],[6.7158672,51.8989794],[6.5286653,51.8770279],[6.4736345,51.85265]],[[8.5518855,53.5436537],[8.5378174,53.5304565],[8.5378174,53.5304566],[8.5308202,53.5479496],[8.5308202,53.5479496],[8.5437187,53.5453192],[8.5437187,53.5453192],[8.5518855,53.5436537]],[[8.1147762,53.4866147],[8.1740651,53.5020499],[8.1813958,53.5044579],[8.1813965,53.5044581],[8.1878585,53.5076274],[8.1927655,53.5111187],[8.1975169,53.5072098],[8.2040621,53.5035984],[8.2116681,53.5008188],[8.2200404,53.4989787],[8.2288551,53.4981491],[8.2377714,53.4983621],[8.274082,53.5013713],[8.270265,53.4824724],[8.2319236,53.4380749],[8.2205598,53.4377191],[8.1152613,53.4857481],[8.1147762,53.4866147]]]}}
