{"type":"Feature","properties":{"family":"other","name":"German states outside the Confederation of the Rhine, 1806 – 1807"},"geometry":{"type":"Polygon","coordinates":[[[8.5,50.95],[8.65,50.9],[8.8,50.85],[9,50.7],[9.15,50.65],[9.3,50.6],[9.55,50.4],[9.725,50.425],[9.9,50.45],[10.3,50.45],[10.45,50.4],[10.6,50.35],[10.9,50.15],[11.1,50.2],[11.3,50.25],[11.6,50.45],[11.7666667,50.4166667],[11.8,50.41],[11.65,50.4],[11.8,50.41],[11.95,50.42],[12.1377783,50.307333],[12.05,50.36],[12.1,50.35],[12.25,50.3],[12.3468474,50.2677175],[12.3355234,50.2593709],[12.5119251,50.3893914],[12.6919269,50.3944571],[12.7387274,50.4316058],[12.8179282,50.4434258],[12.9511295,50.4045886],[12.99793,50.4332944],[13.0087301,50.4923946],[13.1599316,50.4974603],[13.2319323,50.5818892],[13.2859329,50.5683806],[13.3687337,50.6291693],[13.4479345,50.5970864],[13.5235352,50.6629409],[13.5163352,50.6916467],[13.5559356,50.7068439],[13.8331383,50.7237297],[13.8835388,50.742304],[13.8907389,50.7811413],[14.0347403,50.8030928],[14.2327423,50.8790788],[14.3479435,50.8807673],[14.3803438,50.9212932],[14.2399424,50.982082],[14.2867429,51.0361165],[14.398344,51.0124764],[14.4811448,51.037805],[14.5747457,50.9753277],[14.5495455,50.9128503],[14.6287463,50.9212932],[14.6143461,50.8453072],[14.7583476,50.8098471],[14.8087481,50.8588158],[14.9815498,50.8588158],[14.99595,50.9584419],[14.9599496,50.9922134],[15.00315,51.0209193],[15.1075511,50.9803934],[15.1435514,51.0107878],[15.1687517,50.9787048],[15.25,50.9582893],[15.25,51.15],[15.3,51.45],[15.25,51.7],[15.1,51.95],[14.75,52],[14.6,52.1],[14.3,52.15],[13.6,52.15],[13.3,52.1],[13.1,52.05],[12.9,52.12],[12.6,52.2],[12.4,52.2],[12.25,52.1],[12.1,52.05],[11.95,51.98],[11.9273973,51.960411],[11.8,51.85],[11.7,51.72],[11.85,51.6],[12.05,51.6],[12.15,51.5],[12.05,51.4],[11.85,51.42],[11.6,51.45],[11.45,51.6],[11.2,51.62],[11,51.7],[10.95,51.4],[10.75,51.2],[11.2,51.05],[11.15,50.9],[10.9,50.88],[10.6,51.05],[10.475,51.1],[10.35,51.15],[10.175,51.225],[10,51.3],[9.9806452,51.3967742],[9.7,51.35],[9.55,51.55],[9.45,51.7],[9.4,51.825],[9.35,51.95],[9.15,52.05],[9.05,52.15],[9.0357143,52.1642857],[8.95,52.1],[8.825,52.025],[8.7,51.95],[8.8666667,51.8833333],[9.0333333,51.8166667],[9.2,51.75],[9.15,51.5],[8.975,51.475],[8.8,51.45],[8.5272727,51.4954545],[8.5,51.5],[8.5272727,51.4954545],[8.65,51.25],[8.55,51.1],[8.5,50.95]]]}}
