{"type":"Feature","properties":{"family":"other","name":"Free City of Hamburg, 1789 – 1807"},"geometry":{"type":"Polygon","coordinates":[[[9.65,53.63],[9.7,53.6066667],[9.7959948,53.5522696],[9.6917584,53.5762165],[9.6916653,53.5762379],[9.6570966,53.5841796],[9.6916653,53.5762379],[9.6917584,53.5762165],[9.7959948,53.5522696],[9.8246543,53.5456855],[9.8334983,53.5436537],[9.8246543,53.5456855],[10,53.515],[10.2,53.48],[10.202381,53.4819048],[10.35,53.6],[10.2,53.52],[10.1,53.63],[9.95,53.62],[9.8,53.56],[9.7,53.6066667],[9.65,53.63]]]}}
