{"type":"Feature","properties":{"family":"other","name":"Duchy of Oldenburg, 1806 – 1807"},"geometry":{"type":"Polygon","coordinates":[[[6.6726667,52.5423274],[6.7158672,52.4612757],[6.899469,52.4325699],[6.9750698,52.4511442],[7.0470705,52.3650268],[7.0110701,52.2856636],[7.0238063,52.2363793],[7.0254703,52.2299406],[6.892088,52.15],[7,52.15],[7.15,52.1],[7.3,52.05],[7.4417582,51.9318681],[7.45,51.95],[7.3,52.2],[7.45,52.25],[7.4894737,52.2631579],[7.25,52.4],[7.2,52.6],[7.5,52.6],[7.6333333,52.5],[7.8538462,52.3346154],[7.85,52.35],[7.75,52.5],[7.8,52.75],[8.25,52.75],[8.55,52.95],[8.75,53.05],[8.8,53.2],[8.55,53.5],[8.5416487,53.5208782],[8.5402012,53.5193417],[8.5288503,53.5072924],[8.5156194,53.4932475],[8.5099963,53.4872785],[8.5094327,53.4879539],[8.5058779,53.4937647],[8.5039168,53.4986548],[8.506965,53.5015143],[8.5378174,53.5304565],[8.5378174,53.5304566],[8.5308202,53.5479496],[8.5308202,53.5479496],[8.5437187,53.5453192],[8.5437187,53.5453192],[8.5518855,53.5436537],[8.5437187,53.5453192],[8.5437187,53.5453192],[8.5308202,53.5479496],[8.4879366,53.556695],[8.4881387,53.5571622],[8.4919298,53.561875],[8.4971823,53.5660652],[8.5029207,53.5691559],[8.4929616,53.584196],[8.4129189,53.600525],[8.3634481,53.6353444],[8.3568075,53.6391506],[8.3490066,53.6420831],[8.3403669,53.6440209],[8.3312449,53.644884],[8.3220173,53.6446368],[8.2643814,53.6395677],[8.2558517,53.6383061],[8.2478917,53.6360949],[8.2407988,53.633017],[8.2348379,53.6291873],[8.2302317,53.624749],[8.2271517,53.619868],[8.2041597,53.5688152],[8.2017243,53.570943],[8.0941532,53.6482618],[8.0747361,53.7122247],[8.0719693,53.7177954],[8.0672513,53.7228868],[8.0608002,53.727263],[8.0529147,53.7307208],[8.0453396,53.7327336],[8.0439605,53.7331],[7.9647165,53.7483061],[7.9540734,53.7495425],[7.9432382,53.7492575],[7.7833708,53.7335341],[7.7923624,53.7338696],[7.8013498,53.7331402],[7.8099148,53.7313724],[7.8177179,53.7286362],[7.8244502,53.7250402],[7.8298451,53.7207266],[7.8336896,53.7158665],[7.8355572,53.7113208],[7.8273499,53.7105137],[7.8,53.7078239],[7.7906908,53.7069083],[7.7544271,53.7033419],[7.7446114,53.7023765],[7.7446114,53.7023765],[7.7446017,53.7023755],[7.7445867,53.7023741],[7.7445867,53.7023741],[7.7446017,53.7023755],[7.7446114,53.7023765],[7.7446114,53.7023765],[7.7544271,53.7033419],[7.7906908,53.7069083],[7.8,53.7078239],[7.8273499,53.7105137],[7.8355572,53.7113208],[7.9506795,53.7226429],[7.8355572,53.7113208],[7.8355572,53.7113208],[7.8273499,53.7105137],[7.8,53.7078239],[7.7906908,53.7069083],[7.7833333,53.6333333],[7.7666667,53.4666667],[7.75,53.3],[7.6,53.15],[7.45,53.125],[7.3,53.1],[7.175796,53.1],[7.1838718,52.9661603],[7.0614706,52.8243198],[7.0362704,52.6470192],[7.0182702,52.6267562],[6.7374674,52.6351991],[6.701467,52.6183134],[6.7050671,52.5828532],[6.7446674,52.5592132],[6.6726667,52.5423274]],[[8.1147897,53.4866201],[8.1740671,53.502052],[8.1814022,53.5044613],[8.1878676,53.5076317],[8.1927575,53.5111103],[8.1975047,53.5072065],[8.2040509,53.5035963],[8.2116578,53.5008178],[8.2200313,53.4989785],[8.2288474,53.4981495],[8.2377655,53.4983628],[8.2740693,53.5013715],[8.2702509,53.4824647],[8.2319155,53.4380738],[8.2205765,53.4377188],[8.1152779,53.4857481],[8.1147897,53.4866201]]]}}
