{"type":"Feature","properties":{"family":"other","name":"Duchies of Mecklenburg, 1789 – 1807"},"geometry":{"type":"Polygon","coordinates":[[[10.7,53.88],[10.7493631,53.8484076],[10.95,53.72],[10.95,53.45],[10.72,53.38],[10.9,53.3],[11.1,53.15],[11.2856015,53.1065614],[11.3136364,53.1],[11.38,53.1],[11.6,53.1],[11.75,53.15],[11.9,53.2],[12.1,53.25],[12.3,53.3],[12.4666667,53.25],[12.6333333,53.2],[12.8,53.15],[13.2,53.15],[13.7,53.4],[13.6,53.6],[13.3,53.75],[13.05,53.92],[12.6,54.1],[12.45,54.25],[12.4459875,54.258025],[12.4459875,54.258025],[12.4489416,54.2575816],[12.4489416,54.2575816],[12.4579246,54.2562333],[12.4489416,54.2575816],[12.4489416,54.2575816],[12.4459875,54.258025],[12.3939626,54.2658336],[12.3939532,54.2658351],[12.3939532,54.2658351],[12.3939532,54.2658351],[12.3866764,54.2803573],[12.3849337,54.2860035],[12.3852754,54.2917372],[12.3858304,54.2930172],[12.3876869,54.297299],[12.3920599,54.3024373],[12.4114272,54.3201566],[12.4082491,54.3206994],[12.3935445,54.3241476],[12.3935457,54.3241582],[12.396724,54.3524822],[12.4,54.3517139],[12.4,54.3587647],[12.3894203,54.3485591],[12.385221,54.3445083],[12.3710561,54.3308443],[12.3710472,54.3308357],[12.3675077,54.3325014],[12.3616567,54.3366034],[12.3573034,54.3412962],[12.3546185,54.3463966],[12.3537076,54.3517052],[12.3536996,54.3587559],[12.3540797,54.36122],[12.3544472,54.3636019],[12.3566768,54.3682908],[12.3601614,54.3724836],[12.3601659,54.372489],[12.3084656,54.322579],[12.1621376,54.2650949],[12.1564937,54.2624746],[12.1516168,54.2593729],[12.0985315,54.2197592],[12.0934136,54.220483],[12.0841636,54.2206782],[12.075033,54.2197881],[11.9914076,54.2063719],[11.9892915,54.2093423],[11.9758289,54.247711],[11.9558796,54.2764107],[11.9476775,54.3017932],[11.9476685,54.3018212],[11.971168,54.300532],[11.9476685,54.3018212],[11.8794619,54.3055632],[11.7912224,54.3210603],[11.7425539,54.3362471],[11.7132027,54.2922742],[11.6655983,54.2483127],[11.6045531,54.2104895],[11.5323421,54.1801928],[11.528055,54.1790443],[11.5198147,54.1316726],[11.5023382,54.0974838],[11.5019204,54.0973041],[11.4947559,54.0934737],[11.4891199,54.0888472],[11.4852624,54.0836302],[11.4833544,54.0780547],[11.4834797,54.0723686],[11.4841339,54.0706833],[11.4659281,54.0501916],[11.4283011,54.0501889],[11.4198515,54.0497258],[11.4116914,54.0483569],[11.4040997,54.0461292],[11.397336,54.0431187],[11.3916312,54.0394284],[11.3376465,53.997198],[11.3329315,53.9926204],[11.3298461,53.9875855],[11.3298015,53.9874086],[11.3256514,53.9871785],[11.3164654,53.9854808],[11.289295,53.9785366],[11.2860767,53.987993],[11.283256,53.99333],[11.2786252,53.9982102],[11.2723826,54.0024241],[11.2075781,54.0379006],[11.2011476,54.0408362],[11.1939347,54.0430577],[11.1861666,54.0444952],[11.1780878,54.0451033],[11.1699531,54.0448628],[11.0474758,54.0347251],[11.0397292,54.033671],[11.0324087,54.031847],[10.9234041,53.9977801],[10.9353879,53.9830065],[10.9386473,53.9775429],[10.9397434,53.9723128],[10.902709,53.9607323],[10.8940597,53.9713817],[10.88,53.96],[10.80875,53.9283333],[10.7,53.88]],[[11.3743137,53.9809952],[11.3986246,54],[11.3986246,54],[11.3743137,53.9809952]],[[11.4820039,54],[11.496715,54.0232096],[11.4820039,54],[11.4820039,54]]]}}
