{"type":"Feature","properties":{"family":"other","name":"States of the Holy Roman Empire, 1789 – 1796"},"geometry":{"type":"Polygon","coordinates":[[[5.8518585,51.0428708],[5.8734587,50.9651962],[5.8778763,50.965484],[6.00306,50.9736391],[5.99946,50.9297361],[6.0642606,50.9077846],[6.0570606,50.8520615],[6.0102601,50.8402415],[5.99946,50.8014042],[5.9670597,50.7946499],[5.99586,50.7507469],[6.0102601,50.7085325],[6.100261,50.7017782],[6.1578616,50.622415],[6.2478625,50.6139721],[6.1614616,50.5430519],[6.1686617,50.522789],[6.2082621,50.4856403],[6.3378634,50.4805745],[6.3378634,50.3674399],[6.3738637,50.3286026],[6.3630636,50.3066511],[6.2874629,50.3032739],[6.2550626,50.2559938],[6.1909854,50.2309479],[6.235,50.225],[6.42,50.2],[6.62,50.02],[6.55,49.85],[6.4920799,49.798894],[6.503465,49.7967007],[6.4926649,49.7004518],[6.4170642,49.6700574],[6.4170642,49.6396631],[6.3558636,49.5771857],[6.3450635,49.4556081],[6.402664,49.4657396],[6.4446099,49.45],[6.5106651,49.4252137],[6.55,49.385401],[6.55,49.42],[6.85,49.42],[6.85,49.22],[6.6720828,49.22],[6.6402664,49.2715532],[6.6720828,49.22],[6.6798668,49.2073873],[6.701467,49.2141416],[6.7122671,49.1584185],[6.8020084,49.15],[6.8202682,49.1482871],[6.820674,49.15],[6.8346683,49.2090759],[6.9138691,49.2073873],[7.0110701,49.1820586],[7.0078154,49.15],[7.0074701,49.1465985],[7.0434704,49.1077612],[7.0866709,49.1415328],[7.2738727,49.1043841],[7.3494735,49.1584185],[7.4106741,49.16855],[7.4754748,49.1516642],[7.5078751,49.0942526],[7.6338763,49.0385295],[7.9326793,49.0351524],[8.199082,48.9591664],[8.1920741,48.9493054],[8.1653716,48.9117314],[8.0910809,48.8071945],[7.9686797,48.7565371],[7.9578796,48.721077],[7.8102781,48.6146967],[7.8138781,48.5201363],[7.7706777,48.4897419],[7.7382774,48.4070016],[7.7490775,48.3411471],[7.702277,48.3107527],[7.6878769,48.2533411],[7.6852708,48.25],[7.5798758,48.1148778],[7.6852708,48.25],[7.95,48.25],[8.2,48.05],[8.15,47.8],[8.35,47.65],[8.3067848,47.5923797],[8.3178832,47.5880417],[8.4222842,47.5812874],[8.5230852,47.6218132],[8.5590856,47.5897303],[8.6058861,47.6555848],[8.4582846,47.6403876],[8.3898839,47.6657162],[8.3898839,47.6927335],[8.4618846,47.7636537],[8.5842858,47.8008024],[8.6166862,47.7568994],[8.6454865,47.7906709],[8.7138871,47.7568994],[8.699487,47.7231279],[8.7174872,47.694422],[8.7714877,47.694422],[8.7714877,47.7214393],[8.796688,47.7197507],[8.904689,47.6522076],[9.0162902,47.6792248],[9.1818918,47.670782],[9.5490955,47.5340072],[9.6750968,47.5221872],[9.7686977,47.5880417],[9.8082981,47.5762216],[9.8334983,47.5340072],[9.9450995,47.5407615],[9.9810998,47.4816613],[10.0243002,47.4884156],[10.0819008,47.4276268],[10.0531005,47.4056753],[10.0819008,47.3583952],[10.2079021,47.3719038],[10.1935019,47.3043607],[10.1611016,47.2705891],[10.2474572,47.2898288],[10.3051031,47.3026721],[10.4275043,47.3955439],[10.4527045,47.4597098],[10.4203042,47.4934813],[10.4275043,47.5762216],[10.4563046,47.5795988],[10.4527045,47.5458272],[10.4815048,47.5323186],[10.6075061,47.562713],[10.7623076,47.5137443],[10.8703087,47.5272529],[10.8919089,47.5154329],[10.8523085,47.4934813],[10.9603096,47.4326926],[10.9783098,47.3904781],[11.0827108,47.3887896],[11.1943119,47.4293154],[11.2375124,47.3938553],[11.3059131,47.4360697],[11.3851139,47.4445126],[11.3671137,47.4698413],[11.4139141,47.5053014],[11.5507155,47.5137443],[11.6191162,47.5897303],[11.8207182,47.5745331],[11.9359194,47.6099932],[12.1735217,47.6049274],[12.2059221,47.6370104],[12.1771218,47.7062421],[12.2383224,47.7315707],[12.2383224,47.6792248],[12.4255243,47.6910449],[12.497525,47.6285675],[12.6523265,47.6758477],[12.720517,47.670517],[12.65,47.6],[12.5,47.35],[12.3,47.25],[12.1,47.1],[12.4,47.12],[12.7,47.1],[13,47.07],[13.3,47.05],[13.6,47.05],[13.8,47.25],[13.75,47.45],[13.45,47.75],[13.3,47.95],[13.175,48.025],[13.05,48.1],[12.9,48.1],[12.8891566,48.0620482],[12.8622374,47.9678309],[12.9907299,47.846394],[12.8622374,47.9678309],[12.7495275,48.0743519],[12.7387274,48.1131892],[12.8611286,48.1959295],[12.8887371,48.2067208],[13.0339303,48.2634726],[13.2751328,48.3073756],[13.404734,48.3766073],[13.4371344,48.4306417],[13.4551346,48.5741708],[13.5976399,48.56706],[13.6243362,48.5657279],[13.6346455,48.5608924],[13.7179372,48.5218249],[13.7190255,48.5246326],[13.7323373,48.5589736],[13.797138,48.5978109],[13.8151382,48.6957484],[13.7827378,48.7160113],[13.8151382,48.7666686],[13.7251373,48.8679832],[13.6207362,48.9085091],[13.6099361,48.9456578],[13.5163352,48.9709865],[13.4839348,48.9372149],[13.4587346,48.9456578],[13.397534,48.9777408],[13.3723337,49.0385295],[13.300333,49.0942526],[13.1779318,49.1178927],[13.00153,49.2951933],[12.8863289,49.3390963],[12.8575286,49.3222105],[12.7783278,49.332342],[12.7099271,49.4049508],[12.6451265,49.4302795],[12.6235262,49.5096426],[12.5839258,49.5231512],[12.5479255,49.59576],[12.501125,49.6194001],[12.497525,49.6700574],[12.4183242,49.7004518],[12.3823238,49.7426663],[12.4543245,49.779815],[12.4615246,49.8304723],[12.4831248,49.8270951],[12.5191252,49.911524],[12.4615246,49.9317869],[12.4723247,49.955427],[12.4507245,49.9807557],[12.2455225,50.0449216],[12.2419224,50.0702503],[12.2283274,50.0783274],[12.1879219,50.1023332],[12.2283274,50.0783274],[12.05,49.9],[11.8,49.75],[11.55,49.7],[11.3,49.55],[11.2666667,49.5166667],[11.15,49.4],[11,49.3],[10.95,49.1],[10.75,48.95],[10.45,48.95],[10.15,49],[9.95,49.15],[10,49.4],[10.175,49.475],[10.35,49.55],[10.55,49.68],[10.85,49.68],[11,49.715],[11.15,49.75],[11.35,49.95],[11.25,50.1],[11.45,50.2],[11.65,50.4],[11.8,50.41],[11.95,50.42],[12.05,50.36],[12.1377783,50.307333],[12.0763208,50.315094],[12.1377783,50.307333],[12.1699217,50.3032739],[12.1771218,50.2695024],[12.2419224,50.2526166],[12.2275223,50.2374194],[12.299523,50.1614334],[12.3355234,50.2593709],[12.3468474,50.2677175],[12.5119251,50.3893914],[12.6919269,50.3944571],[12.7387274,50.4316058],[12.8179282,50.4434258],[12.9511295,50.4045886],[12.99793,50.4332944],[13.0087301,50.4923946],[13.1599316,50.4974603],[13.2319323,50.5818892],[13.2859329,50.5683806],[13.3687337,50.6291693],[13.4479345,50.5970864],[13.5235352,50.6629409],[13.5163352,50.6916467],[13.5559356,50.7068439],[13.8331383,50.7237297],[13.8835388,50.742304],[13.8907389,50.7811413],[14.0347403,50.8030928],[14.2327423,50.8790788],[14.3479435,50.8807673],[14.3803438,50.9212932],[14.2399424,50.982082],[14.2867429,51.0361165],[14.398344,51.0124764],[14.4811448,51.037805],[14.5747457,50.9753277],[14.5495455,50.9128503],[14.6287463,50.9212932],[14.6143461,50.8453072],[14.7583476,50.8098471],[14.8087481,50.8588158],[14.9815498,50.8588158],[14.99595,50.9584419],[14.9599496,50.9922134],[15.00315,51.0209193],[15.1075511,50.9803934],[15.1435514,51.0107878],[15.1687517,50.9787048],[15.25,50.9582893],[15.25,51.15],[15.3,51.45],[15.25,51.7],[15.1,51.95],[14.75,52],[14.6,52.1],[14.3,52.15],[13.6,52.15],[13.3,52.1],[13.1,52.05],[12.9,52.12],[12.6,52.2],[12.4,52.2],[12.25,52.1],[12.1,52.05],[11.95,51.98],[11.9273973,51.960411],[11.8,51.85],[11.7,51.72],[11.85,51.6],[12.05,51.6],[12.15,51.5],[12.05,51.4],[11.85,51.42],[11.6,51.45],[11.45,51.6],[11.2,51.62],[11,51.7],[10.75,51.75],[10.6,51.8],[10.6,51.95],[10.75,52.1],[10.95,52.35],[10.85,52.5],[10.85,52.7],[10.8,52.5],[10.1615385,52.3403846],[10,52.3],[9.85,52.2],[9.7722222,52.0833333],[9.75,52.05],[9.95,51.9],[10.0052632,51.8763158],[10.3,51.75],[10.55,51.65],[10.45,51.5],[10.275,51.525],[10.1,51.55],[10,51.4],[9.9806452,51.3967742],[9.7,51.35],[9.55,51.55],[9.45,51.7],[9.4,51.825],[9.35,51.95],[9.15,52.05],[9.05,52.15],[9.0357143,52.1642857],[9.15,52.25],[9.0357143,52.1642857],[8.95,52.1],[8.825,52.025],[8.7,51.95],[8.5,51.92],[8.3,51.95],[8.3113636,51.9954545],[8.314,52.006],[8.35,52.15],[8.4,52.275],[8.4133333,52.3083333],[8.45,52.4],[8.7,52.5],[8.45,52.45],[8.4,52.45],[8.3,52.45],[8.2,52.45],[8.25,52.75],[8.55,52.95],[8.75,53.05],[8.8,53.2],[8.55,53.5],[8.5416487,53.5208782],[8.5402012,53.5193417],[8.5288503,53.5072924],[8.5156194,53.4932475],[8.5099963,53.4872785],[8.5099915,53.4872734],[8.5094386,53.4879361],[8.5058814,53.4937518],[8.5039156,53.4986536],[8.5039168,53.4986548],[8.506965,53.5015143],[8.5378174,53.5304565],[8.5378174,53.5304566],[8.5308202,53.5479496],[8.5308202,53.5479496],[8.5437187,53.5453192],[8.5437187,53.5453192],[8.5518855,53.5436537],[8.5437187,53.5453192],[8.5437187,53.5453192],[8.5308202,53.5479496],[8.4879366,53.556695],[8.4879366,53.556695],[8.4879355,53.5566952],[8.4879354,53.5566952],[8.4881374,53.5571628],[8.491927,53.5618804],[8.4971781,53.566075],[8.5029069,53.5691648],[8.4929545,53.5841951],[8.4929542,53.5841956],[8.4129,53.6005269],[8.3634292,53.6353462],[8.3567899,53.6391519],[8.3489912,53.642084],[8.3403546,53.6440216],[8.3312365,53.6448848],[8.3220129,53.6446378],[8.2643772,53.6395688],[8.2558523,53.6383078],[8.2478966,53.6360975],[8.2408076,53.6330207],[8.2390745,53.631907],[8.23485,53.6291923],[8.2302459,53.6247554],[8.227167,53.6198756],[8.2041632,53.5687973],[8.2017052,53.5709448],[8.0941367,53.648261],[8.0747202,53.7122208],[8.0719527,53.7177932],[8.0672339,53.7228862],[8.0607821,53.7272636],[8.052896,53.7307223],[8.0439416,53.7331017],[7.9646979,53.7483077],[7.9540609,53.7495434],[7.9432326,53.7492586],[7.7833408,53.733533],[7.7833453,53.7335331],[7.7833708,53.7335341],[7.7923624,53.7338696],[7.8013498,53.7331402],[7.8099148,53.7313724],[7.8177179,53.7286362],[7.8244502,53.7250402],[7.8298451,53.7207266],[7.8336896,53.7158665],[7.8355572,53.7113208],[7.8273499,53.7105137],[7.8,53.7078239],[7.7906908,53.7069083],[7.7544271,53.7033419],[7.7446114,53.7023765],[7.7446114,53.7023765],[7.7446017,53.7023755],[7.7446114,53.7023765],[7.7446114,53.7023765],[7.7544271,53.7033419],[7.7906908,53.7069083],[7.8,53.7078239],[7.8273499,53.7105137],[7.8355572,53.7113208],[7.9506795,53.7226429],[7.8355572,53.7113208],[7.8355572,53.7113208],[7.8273499,53.7105137],[7.8,53.7078239],[7.7906908,53.7069083],[7.7833333,53.6333333],[7.7666667,53.4666667],[7.75,53.3],[7.6,53.15],[7.45,53.125],[7.3,53.1],[7.175796,53.1],[7.1838718,52.9661603],[7.0614706,52.8243198],[7.0362704,52.6470192],[7.0182702,52.6267562],[6.7374674,52.6351991],[6.701467,52.6183134],[6.7050671,52.5828532],[6.7446674,52.5592132],[6.6726667,52.5423274],[6.7158672,52.4612757],[6.899469,52.4325699],[6.9750698,52.4511442],[7.0470705,52.3650268],[7.0110701,52.2856636],[7.0238063,52.2363793],[7.0254703,52.2299406],[6.892088,52.15],[6.8310683,52.1134288],[6.7482675,52.1032973],[6.6726667,52.0492628],[6.7770678,52.0019827],[6.8094681,51.9597682],[6.7158672,51.8989794],[6.5286653,51.8770279],[6.4736345,51.85265],[6.575,51.815],[6.75,51.75],[6.85,51.7],[6.95,51.65],[7.3,51.62],[7.7,51.68],[8,51.7],[8.3,51.65],[8.2647059,51.5970588],[8.2,51.5],[7.95,51.4],[7.8,51.2],[7.55,51.12],[7.35,51.25],[7.1,51.38],[6.99,51.38],[6.85,51.38],[6.7065574,51.3914754],[6.7065574,51.3914754],[6.6,51.4],[6.35,51.45],[6.15,51.55],[6.090202,51.609798],[6.100261,51.6440043],[6.090202,51.609798],[6.0858609,51.5950355],[6.1938619,51.5089181],[6.204662,51.4582608],[6.2038735,51.45],[6.1938619,51.3451261],[6.0570606,51.2117285],[6.0606606,51.1712026],[6.1578616,51.1796455],[6.1254613,51.1644483],[6.1470615,51.1526283],[5.9814598,51.0749537],[5.9382594,51.0310507],[5.8716531,51.0401628],[5.8518585,51.0428708]],[[7.2,52.6],[7.5,52.6],[7.6333333,52.5],[7.8538462,52.3346154],[7.8538462,52.3346154],[7.9,52.3],[7.9,52.15],[7.6,52.2],[7.4894737,52.2631579],[7.25,52.4],[7.2,52.6]],[[8.1147765,53.4866147],[8.1740642,53.5020495],[8.1813958,53.5044579],[8.187858,53.5076273],[8.192765,53.5111185],[8.1975165,53.5072094],[8.2040616,53.503598],[8.2116674,53.5008185],[8.2200396,53.4989784],[8.2288542,53.4981487],[8.2377704,53.4983618],[8.2740821,53.5013711],[8.2702651,53.4824721],[8.2319241,53.4380752],[8.2205604,53.4377194],[8.1152613,53.4857487],[8.1147765,53.4866147]]]}}
