{"type":"Feature","properties":{"family":"other","name":"States of the Holy Roman Empire, 1803 – 1805"},"geometry":{"type":"Polygon","coordinates":[[[6.7,51.38],[6.73,51.3],[6.78,51.2],[6.9,51.1],[6.98,51.02],[6.97,50.93],[7.03,50.83],[7.1,50.74],[7.15,50.68],[7.22,50.6],[7.3,50.53],[7.4,50.45],[7.5,50.42],[7.6,50.36],[7.6,50.35],[7.6,50.27],[7.65,50.2],[7.73,50.12],[7.8,50.03],[7.9,49.97],[8.05,50],[8.18,50.03],[8.28,50.01],[8.33,49.97],[8.35,49.9],[8.4,49.84],[8.47,49.76],[8.42,49.7],[8.37,49.63],[8.42,49.56],[8.46,49.49],[8.46,49.4],[8.45,49.32],[8.4,49.25],[8.37,49.17],[8.3,49.05],[8.23,48.95],[8.1920741,48.9493054],[8.199082,48.9591664],[8.1920741,48.9493054],[8.1653716,48.9117314],[8.0910809,48.8071945],[7.9686797,48.7565371],[7.9578796,48.721077],[7.8102781,48.6146967],[7.8138781,48.5201363],[7.7706777,48.4897419],[7.7382774,48.4070016],[7.7490775,48.3411471],[7.702277,48.3107527],[7.6878769,48.2533411],[7.6852708,48.25],[7.5798758,48.1148778],[7.6852708,48.25],[7.95,48.25],[8.2,48.05],[8.15,47.8],[8.35,47.65],[8.3067848,47.5923797],[8.3178832,47.5880417],[8.4222842,47.5812874],[8.5230852,47.6218132],[8.5590856,47.5897303],[8.6058861,47.6555848],[8.4582846,47.6403876],[8.3898839,47.6657162],[8.3898839,47.6927335],[8.4618846,47.7636537],[8.5842858,47.8008024],[8.6166862,47.7568994],[8.6454865,47.7906709],[8.7138871,47.7568994],[8.699487,47.7231279],[8.7174872,47.694422],[8.7714877,47.694422],[8.7714877,47.7214393],[8.796688,47.7197507],[8.904689,47.6522076],[9.0162902,47.6792248],[9.1818918,47.670782],[9.5490955,47.5340072],[9.6750968,47.5221872],[9.7686977,47.5880417],[9.8082981,47.5762216],[9.8334983,47.5340072],[9.9450995,47.5407615],[9.9810998,47.4816613],[10.0243002,47.4884156],[10.0819008,47.4276268],[10.0531005,47.4056753],[10.0819008,47.3583952],[10.2079021,47.3719038],[10.1935019,47.3043607],[10.1611016,47.2705891],[10.2474572,47.2898288],[10.3051031,47.3026721],[10.4275043,47.3955439],[10.4527045,47.4597098],[10.4203042,47.4934813],[10.4275043,47.5762216],[10.4563046,47.5795988],[10.4527045,47.5458272],[10.4815048,47.5323186],[10.6075061,47.562713],[10.7623076,47.5137443],[10.8703087,47.5272529],[10.8919089,47.5154329],[10.8523085,47.4934813],[10.9603096,47.4326926],[10.9783098,47.3904781],[11.0827108,47.3887896],[11.1943119,47.4293154],[11.2375124,47.3938553],[11.3059131,47.4360697],[11.3851139,47.4445126],[11.3671137,47.4698413],[11.4139141,47.5053014],[11.5507155,47.5137443],[11.6191162,47.5897303],[11.8207182,47.5745331],[11.9359194,47.6099932],[12.1735217,47.6049274],[12.2059221,47.6370104],[12.1771218,47.7062421],[12.2383224,47.7315707],[12.2383224,47.6792248],[12.4255243,47.6910449],[12.497525,47.6285675],[12.6523265,47.6758477],[12.720517,47.670517],[12.65,47.6],[12.5,47.35],[12.3,47.25],[12.1,47.1],[12.4,47.12],[12.7,47.1],[13,47.07],[13.3,47.05],[13.6,47.05],[13.8,47.25],[13.75,47.45],[13.45,47.75],[13.3,47.95],[13.175,48.025],[13.05,48.1],[12.9,48.1],[12.8891566,48.0620482],[12.8622374,47.9678309],[12.9907299,47.846394],[12.8622374,47.9678309],[12.7495275,48.0743519],[12.7387274,48.1131892],[12.8611286,48.1959295],[12.8887371,48.2067208],[13.0339303,48.2634726],[13.2751328,48.3073756],[13.404734,48.3766073],[13.4371344,48.4306417],[13.4551346,48.5741708],[13.5976399,48.56706],[13.6243362,48.5657279],[13.6346455,48.5608924],[13.7179372,48.5218249],[13.7190255,48.5246326],[13.7323373,48.5589736],[13.797138,48.5978109],[13.8151382,48.6957484],[13.7827378,48.7160113],[13.8151382,48.7666686],[13.7251373,48.8679832],[13.6207362,48.9085091],[13.6099361,48.9456578],[13.5163352,48.9709865],[13.4839348,48.9372149],[13.4587346,48.9456578],[13.397534,48.9777408],[13.3723337,49.0385295],[13.300333,49.0942526],[13.1779318,49.1178927],[13.00153,49.2951933],[12.8863289,49.3390963],[12.8575286,49.3222105],[12.7783278,49.332342],[12.7099271,49.4049508],[12.6451265,49.4302795],[12.6235262,49.5096426],[12.5839258,49.5231512],[12.5479255,49.59576],[12.501125,49.6194001],[12.497525,49.6700574],[12.4183242,49.7004518],[12.3823238,49.7426663],[12.4543245,49.779815],[12.4615246,49.8304723],[12.4831248,49.8270951],[12.5191252,49.911524],[12.4615246,49.9317869],[12.4723247,49.955427],[12.4507245,49.9807557],[12.2455225,50.0449216],[12.2419224,50.0702503],[12.2283274,50.0783274],[12.1879219,50.1023332],[12.2283274,50.0783274],[12.05,49.9],[11.8,49.75],[11.55,49.7],[11.3,49.55],[11.2666667,49.5166667],[11.15,49.4],[11,49.3],[10.95,49.1],[10.75,48.95],[10.45,48.95],[10.15,49],[9.95,49.15],[10,49.4],[10.175,49.475],[10.35,49.55],[10.55,49.68],[10.85,49.68],[11,49.715],[11.15,49.75],[11.35,49.95],[11.25,50.1],[11.45,50.2],[11.65,50.4],[11.8,50.41],[11.95,50.42],[12.05,50.36],[12.1377783,50.307333],[12.0763208,50.315094],[12.1377783,50.307333],[12.1699217,50.3032739],[12.1771218,50.2695024],[12.2419224,50.2526166],[12.2275223,50.2374194],[12.299523,50.1614334],[12.3355234,50.2593709],[12.3468474,50.2677175],[12.5119251,50.3893914],[12.6919269,50.3944571],[12.7387274,50.4316058],[12.8179282,50.4434258],[12.9511295,50.4045886],[12.99793,50.4332944],[13.0087301,50.4923946],[13.1599316,50.4974603],[13.2319323,50.5818892],[13.2859329,50.5683806],[13.3687337,50.6291693],[13.4479345,50.5970864],[13.5235352,50.6629409],[13.5163352,50.6916467],[13.5559356,50.7068439],[13.8331383,50.7237297],[13.8835388,50.742304],[13.8907389,50.7811413],[14.0347403,50.8030928],[14.2327423,50.8790788],[14.3479435,50.8807673],[14.3803438,50.9212932],[14.2399424,50.982082],[14.2867429,51.0361165],[14.398344,51.0124764],[14.4811448,51.037805],[14.5747457,50.9753277],[14.5495455,50.9128503],[14.6287463,50.9212932],[14.6143461,50.8453072],[14.7583476,50.8098471],[14.8087481,50.8588158],[14.9815498,50.8588158],[14.99595,50.9584419],[14.9599496,50.9922134],[15.00315,51.0209193],[15.1075511,50.9803934],[15.1435514,51.0107878],[15.1687517,50.9787048],[15.25,50.9582893],[15.25,51.15],[15.3,51.45],[15.25,51.7],[15.1,51.95],[14.75,52],[14.6,52.1],[14.3,52.15],[13.6,52.15],[13.3,52.1],[13.1,52.05],[12.9,52.12],[12.6,52.2],[12.4,52.2],[12.25,52.1],[12.1,52.05],[11.95,51.98],[11.9273973,51.960411],[11.8,51.85],[11.7,51.72],[11.85,51.6],[12.05,51.6],[12.15,51.5],[12.05,51.4],[11.85,51.42],[11.6,51.45],[11.45,51.6],[11.2,51.62],[11,51.7],[10.95,51.4],[10.75,51.2],[11.2,51.05],[11.15,50.9],[10.9,50.88],[10.6,51.05],[10.475,51.1],[10.35,51.15],[10.175,51.225],[10,51.3],[9.9806452,51.3967742],[9.7,51.35],[9.55,51.55],[9.45,51.7],[9.4,51.825],[9.35,51.95],[9.15,52.05],[9.05,52.15],[9.0357143,52.1642857],[9.15,52.25],[9.0357143,52.1642857],[8.95,52.1],[8.825,52.025],[8.7,51.95],[8.8666667,51.8833333],[9.0333333,51.8166667],[9.2,51.75],[9.15,51.5],[8.975,51.475],[8.8,51.45],[8.5272727,51.4954545],[8.5,51.5],[8.4090909,51.5681818],[8.3,51.65],[8.2647059,51.5970588],[8.2,51.5],[7.95,51.4],[7.8,51.2],[7.55,51.12],[7.35,51.25],[7.1,51.38],[6.99,51.38],[6.85,51.38],[6.7065574,51.3914754],[6.7,51.38]]]}}
