{"type":"Feature","properties":{"family":"france","name":"Illyrian Provinces of the French Empire, 1809 – 1813"},"geometry":{"type":"Polygon","coordinates":[[[12.05,47.0512216],[12.1807218,47.0848456],[12.2059221,47.0797799],[12.202322,47.0527627],[12.1123211,46.9936625],[12.1411214,46.927808],[12.1267213,46.9092336],[12.1267213,46.9092336],[12.2671227,46.8687078],[12.2743227,46.7842789],[12.3427234,46.7657045],[12.39814,46.6969],[12.39814,46.6969],[12.403924,46.6897186],[12.5479255,46.6525699],[12.7495275,46.6407498],[12.8287283,46.6103554],[12.9005129,46.6046162],[12.9005129,46.6046162],[12.9501299,46.6006493],[13.1455315,46.5850268],[13.2319323,46.5529438],[13.2802294,46.5549426],[13.3,46.55],[13.45,46.5],[13.4833333,46.4],[13.4833334,46.4],[13.5444677,46.4],[13.5444677,46.4],[13.5595261,46.4118957],[13.5307353,46.3891518],[13.4916967,46.37491],[13.4335343,46.3536917],[13.3651337,46.2895258],[13.4083341,46.208474],[13.4371344,46.2101626],[13.4227342,46.228737],[13.4695347,46.2236712],[13.5919166,46.1919166],[13.6219596,46.1841213],[13.6303792,46.1588623],[13.6171362,46.1257338],[13.5055351,46.0666336],[13.4623346,46.0058448],[13.5091351,45.9670075],[13.6063361,45.9855818],[13.6243362,45.9670075],[13.6066877,45.9333439],[13.5,45.88],[13.5240727,45.7596366],[13.5739357,45.7897069],[13.5235352,45.7593125],[13.5559356,45.737361],[13.4941342,45.7124182],[13.4973258,45.7089814],[13.502813,45.7050919],[13.5093084,45.702053],[13.5165461,45.6999891],[13.5242301,45.6989846],[13.532046,45.6990806],[13.5396742,45.7002731],[13.5467396,45.7024935],[13.4204776,45.6515411],[13.413658,45.6493686],[13.4063668,45.6481578],[13.3988786,45.6479542],[13.3914752,45.6487655],[13.3844356,45.6505611],[13.3592436,45.6590003],[13.3529522,45.6616482],[13.3474918,45.6650806],[13.3430601,45.6691735],[13.3398177,45.6737788],[13.3378821,45.6787299],[13.3373237,45.6838477],[13.3381632,45.6889468],[13.3403706,45.6938426],[13.3438661,45.6983579],[13.3485235,45.7023289],[13.3541743,45.705612],[13.3606137,45.7080879],[13.3730971,45.7118551],[13.3534237,45.7192325],[13.2192379,45.7499782],[13.169861,45.7281023],[13.1674471,45.7272482],[13.1724687,45.7250912],[13.1779612,45.7215517],[13.1823738,45.7173399],[13.1855415,45.7126135],[13.1873461,45.7075497],[13.1877203,45.7023378],[13.1866506,45.6971731],[13.1841774,45.6922486],[13.1803934,45.6877487],[13.153818,45.6621396],[13.1666942,45.6299026],[13.1460635,45.6026412],[13.1246347,45.5532892],[13.1170392,45.5019826],[13.1235176,45.4505998],[13.1641034,45.2970766],[13.1829097,45.2499907],[13.1999662,45.2254615],[13.2148615,45.1188958],[13.2293606,45.0672701],[13.2447113,45.0409599],[13.2482307,45.0270168],[13.2690722,44.9750977],[13.3040594,44.9271414],[13.3517681,44.885055],[13.4085206,44.84407],[13.4223803,44.7959208],[13.4505047,44.7479182],[13.49102,44.7046238],[13.6063929,44.6036069],[13.6594024,44.5655052],[13.7218824,44.5355934],[13.7913787,44.5150405],[13.865173,44.5046489],[13.8965586,44.5047281],[13.911483,44.4835075],[13.9549959,44.4430026],[14.0083572,44.4090485],[14.0696614,44.3828481],[14.1091334,44.3693953],[14.1252818,44.3652028],[14.1408831,44.3552836],[14.3133733,44.2661227],[14.3737223,44.2408511],[14.3751656,44.221302],[14.3936606,44.16958],[14.4259527,44.1214756],[14.4707527,44.0788617],[14.5183094,44.0484981],[14.5481238,44.0132602],[14.8223054,43.7505658],[14.8984863,43.695724],[14.9703704,43.6570283],[15.0151575,43.6375251],[15.0388432,43.6195827],[15.0826551,43.5912152],[15.1320431,43.5681695],[15.2182004,43.5345327],[15.2834577,43.5145451],[15.352727,43.5038472],[15.4235283,43.5028219],[15.4933291,43.5115059],[15.538154,43.5237365],[15.5594009,43.5153033],[15.5669282,43.4852206],[15.5944242,43.435164],[15.609615,43.4182955],[15.6155674,43.4034448],[15.649152,43.3565021],[15.6946344,43.3152106],[15.7502576,43.281145],[15.7980043,43.261984],[15.7648823,43.2386238],[15.7228551,43.1938046],[15.6940415,43.1437511],[15.6795804,43.0905003],[15.6800208,43.0362138],[15.6953054,42.9830893],[15.7247795,42.9332721],[15.7645719,42.8810397],[15.8053798,42.8378707],[15.8567614,42.8012949],[15.9167706,42.7726855],[15.9831475,42.7531147],[16.0534019,42.7433153],[16.1249041,42.7436538],[16.1949792,42.7541174],[16.261004,42.7743147],[16.3301501,42.801478],[16.3596292,42.7656163],[16.406354,42.7274877],[16.4567782,42.6994271],[16.4616498,42.6822651],[16.4834362,42.6313127],[16.5183923,42.5845056],[16.5651285,42.5436669],[16.6218066,42.5103838],[16.6862135,42.4859474],[16.7558459,42.4713043],[16.8280056,42.4670212],[16.8999004,42.4732636],[17.014631,42.4917596],[17.0819396,42.5077059],[17.1438758,42.5328664],[17.1608804,42.543353],[17.2130609,42.5185998],[17.2912987,42.4978676],[17.6642061,42.4323066],[17.7349491,42.4250146],[17.8062582,42.4279748],[17.875444,42.4410755],[17.8872368,42.4452416],[18.2974697,42.1937704],[18.3584622,42.1632578],[18.4264323,42.1424173],[18.4497952,42.139081],[18.4647827,42.1346904],[18.474494,42.1236691],[18.5185419,42.0828793],[18.5723,42.0491296],[18.633756,42.0236741],[18.6813664,42.0121316],[18.6829991,42.0117358],[18.7104861,41.9935725],[18.7698277,41.9673169],[18.8347377,41.9498546],[18.9028899,41.94181],[18.9718463,41.9434705],[19.0391419,41.9547762],[19.1023686,41.9753227],[19.105385,41.9768631],[19.1053852,41.9768632],[19.1053602,41.9769135],[19.1053543,41.9769255],[19.1043018,41.9790426],[19.1032952,41.985339],[19.1032695,42.0308211],[19.0575641,42.0616241],[19.0575641,42.0616241],[19.053024,42.0653044],[19.0494746,42.0695422],[19.0470376,42.0741925],[19.0457967,42.0790962],[19.0457945,42.0840855],[19.0479346,42.1012305],[19.0339716,42.1130153],[19.0120913,42.1120808],[19.0054636,42.1122459],[18.9989863,42.1133003],[18.9928743,42.1152089],[18.9873308,42.1179083],[18.9825398,42.1213089],[18.8979582,42.1932816],[18.8978894,42.1933536],[18.897956,42.193297],[18.9030601,42.1897174],[18.9089962,42.1869302],[18.9155432,42.1850392],[18.9224575,42.1841147],[18.9294817,42.1841912],[18.9363547,42.1852657],[18.9428206,42.1872983],[18.9486389,42.1902134],[18.9492739,42.1906862],[18.9492739,42.1906862],[19.0099901,42.1390028],[18.9492739,42.1906862],[18.9492739,42.1906862],[18.9492739,42.1906862],[18.9492719,42.1906879],[18.9492695,42.1906899],[18.9492674,42.1906917],[18.9492674,42.1906917],[18.9492621,42.1906963],[18.9386866,42.1996985],[18.9254149,42.2109957],[18.95,42.27],[18.85,42.38],[18.75,42.48],[18.65,42.55],[18.5004705,42.5998432],[18.499873,42.5993651],[18.475,42.475],[18.4699829,42.4499145],[18.4375844,42.493604],[18.4375844,42.5227197],[18.4375844,42.5594586],[18.3734434,42.5793146],[18.2575826,42.6151816],[17.9947799,42.7401363],[17.8639522,42.8144191],[17.8579786,42.8178109],[17.8111781,42.9106826],[17.703177,42.9191255],[17.6590962,42.8940191],[17.6527765,42.8904197],[17.5555756,42.9343227],[17.6134434,42.9231464],[17.6134533,42.9231444],[17.6134567,42.9231438],[17.6149035,42.9235567],[17.6149016,42.9235578],[17.614896,42.9235609],[17.5807758,42.9427656],[17.6138401,42.9522056],[17.6635766,42.9664057],[17.6599766,42.9934229],[17.5879759,43.0829175],[17.4403744,43.1521492],[17.400774,43.2163151],[17.2891729,43.3041211],[17.2675727,43.3530899],[17.2855729,43.4375187],[17.2711727,43.4628474],[17.0623706,43.5270133],[16.7131671,43.771857],[16.6980174,43.8009913],[16.6771668,43.8410887],[16.500765,43.9930607],[16.4395644,44.0133236],[16.4143641,44.055538],[16.3279633,44.0825553],[16.2163622,44.20751],[16.1875619,44.2818074],[16.2055621,44.351039],[16.1371614,44.3780563],[16.1587616,44.4168936],[16.1155612,44.5215854],[16.0075601,44.5401597],[16.0435604,44.5891284],[16.0291603,44.6245886],[15.9679597,44.6397858],[15.8887589,44.7242146],[15.8059581,44.6971974],[15.8059581,44.6971974],[15.7267573,44.7698062],[15.7159572,44.8035778],[15.7735577,44.8457922],[15.7303573,44.9268439],[15.7627576,44.9758126],[15.7555576,45.0416671],[15.7915579,45.1902619],[15.8779588,45.2172792],[16.0219602,45.213902],[16.0255603,45.1835076],[16.0687607,45.169999],[16.1227612,45.0957016],[16.2127621,45.0315357],[16.3171632,45.0011413],[16.3423634,45.006207],[16.3891639,45.1176531],[16.4359644,45.1328503],[16.4827648,45.1987048],[16.5295653,45.2223449],[16.8103681,45.1818191],[16.8902559,45.253248],[16.6,45.35],[16.37,45.48],[16.26,45.565],[16.15,45.65],[15.98,45.78],[15.8,45.82],[15.65,45.85],[15.4,46],[15.1,46.1],[14.95,46.17],[14.75,46.3],[14.566731,46.4099614],[14.5387454,46.3790203],[14.502745,46.4178576],[14.4055441,46.4398091],[14.1734606,46.4398091],[14.1,46.55],[14,46.7],[13.85,46.85],[13.725,46.9],[13.6,46.95],[13.3,47.05],[12.95,47.05],[12.7,47.1],[12.4,47.12],[12.225,47.11],[12.05,47.1],[12.05,47.0512216]],[[13.5932458,45.7439348],[13.5932497,45.7439326],[13.5939412,45.7422927],[13.594494,45.7375298],[13.5945803,45.7367921],[13.5939364,45.7422993],[13.5932458,45.7439348]],[[13.5942183,45.734761],[13.5945799,45.73679],[13.5945807,45.736783],[13.5942183,45.734761]],[[15.00315,44.0521609],[15.0473647,44],[15.0473647,44],[15.00315,44.0521609]],[[15.078931,44],[15.078931,44],[15.1435514,43.9491577],[15.078931,44]],[[15.1435514,44.1956899],[15.371836,44],[15.371836,44],[15.1435514,44.1956899]],[[15.2623526,44.011635],[15.2724587,44],[15.2724587,44],[15.2623526,44.011635]],[[15.2960885,44],[15.2960885,44],[15.3847538,43.9694206],[15.2960885,44]]]}}
