{"type":"Feature","properties":{"family":"other","name":"Ionian Islands, under Russian and Ottoman protection, 1799 – 1807"},"geometry":{"type":"Polygon","coordinates":[[[19.2748523,39.7551553],[19.2794475,39.7045492],[19.2962596,39.6554952],[19.3246714,39.6097227],[19.3636617,39.5688424],[19.5173422,39.4355094],[19.5456345,39.3688997],[19.575931,39.3168259],[19.619664,39.2708335],[19.6748639,39.2329694],[19.7390627,39.2049158],[19.7903961,39.1877111],[19.7904664,39.1822057],[19.8029895,39.1331533],[19.8269433,39.0867303],[19.861487,39.044525],[19.9054239,39.0079786],[19.9572429,38.9783372],[20.0219081,38.9480398],[20.0836435,38.9251811],[20.1499146,38.9121502],[20.2181723,38.909448],[20.2857937,38.9171786],[20.3071405,38.923107],[20.2844649,38.891276],[20.2643941,38.8446554],[20.207624,38.6570647],[20.1985465,38.6025795],[20.2005322,38.5818215],[20.1711979,38.5653471],[20.1233756,38.5245395],[20.0872593,38.4769442],[20.0643537,38.4245761],[20.0111431,38.2437508],[20.0026227,38.1935104],[20.0062127,38.1429045],[20.0217617,38.093718],[20.0486993,38.0476823],[20.0860587,38.006415],[20.1325136,37.9713633],[20.1864256,37.9437547],[20.245902,37.9245551],[20.2678969,37.9210239],[20.2944376,37.9030242],[20.2857997,37.8820418],[20.2777896,37.8311331],[20.2821274,37.7799478],[20.2986313,37.7303352],[20.3266825,37.6840842],[20.3652514,37.6428591],[20.5597658,37.4710435],[20.6088188,37.4353028],[20.6656651,37.4078151],[20.7281355,37.3896258],[20.7938528,37.3814261],[20.8603204,37.3835276],[20.9250142,37.3958506],[20.9686081,37.4117682],[21.4598818,36.6339426],[21.4647336,36.6277907],[21.4710288,36.6225484],[21.4785095,36.6184304],[22.3782549,36.218594],[22.3851887,36.2160697],[22.3925531,36.2145327],[22.400134,36.2140276],[22.572826,36.2140279],[22.5728535,36.2140279],[22.8746002,36.2140285],[22.908068,36.2140285],[22.8746002,36.2140285],[22.5728535,36.2140279],[22.5754375,36.1859248],[22.5850362,36.1387136],[22.6047916,36.0936099],[22.6340675,36.0520273],[22.6719334,36.0152666],[22.7547412,35.9478914],[22.8020876,35.9158553],[22.8558792,35.8914142],[22.9142824,35.8753986],[22.9503036,35.8712395],[22.9503077,35.871239],[22.9753113,35.8683521],[23.0368937,35.8705139],[23.0978872,35.8772463],[23.1639501,35.890174],[23.225426,35.9136707],[23.2797714,35.946766],[23.3247297,35.988092],[23.3584238,36.0359381],[23.4091165,36.1286748],[23.4150974,36.1431108],[23.4151043,36.1431276],[23.4289151,36.1764625],[23.4373749,36.2263913],[23.4360941,36.2465613],[23.4360925,36.2465868],[23.4341791,36.2767215],[23.4194167,36.3256958],[23.3935829,36.371601],[23.3575639,36.4128281],[23.2133463,36.5484565],[23.1650864,36.5855111],[23.1086137,36.6141449],[23.0929699,36.6189229],[23.1071578,36.597408],[23.1717551,36.5640706],[23.1770192,36.5607069],[23.1813431,36.5565663],[23.1845532,36.5518153],[23.1865208,36.5466447],[23.1871669,36.5412624],[23.1864659,36.5358847],[23.1844463,36.5307274],[23.1757997,36.5145216],[23.2267243,36.4767876],[23.2314305,36.4724645],[23.2348921,36.4674367],[23.236952,36.4619324],[23.2375169,36.4562017],[23.2365617,36.4505048],[23.2293519,36.4268668],[23.2293519,36.4268668],[23.2270038,36.421599],[23.2233577,36.4168349],[23.2185705,36.4127795],[23.2128484,36.4096072],[23.2064376,36.4074545],[23.1996138,36.4064138],[23.1926703,36.40653],[23.0919049,36.4166577],[23.0851681,36.4179111],[23.0788941,36.4202527],[23.0733502,36.4235825],[23.0687729,36.4277587],[23.0653574,36.4326034],[23.0314453,36.4948714],[22.9754163,36.4924765],[22.9687114,36.4927299],[22.9622036,36.4940535],[22.9561537,36.4963942],[22.9508041,36.4996582],[22.9463695,36.5037148],[22.9430278,36.5084013],[22.9032195,36.5799299],[22.8558218,36.6095636],[22.8511515,36.6131066],[22.8474059,36.6172995],[22.8474059,36.6172995],[22.8447221,36.6219891],[22.8435975,36.6256907],[22.7879347,36.6049041],[22.7341853,36.5730929],[22.6732963,36.5288437],[22.6320764,36.4928552],[22.5996576,36.4514636],[22.5770971,36.4060379],[22.5651216,36.3580775],[22.5641059,36.309163],[22.5662365,36.2859919],[22.5667226,36.2859919],[22.6480059,36.2859878],[22.6714975,36.2859866],[22.8682128,36.2859765],[22.8682154,36.2859765],[22.8682128,36.2859765],[22.6714975,36.2859866],[22.6480059,36.2859878],[22.5667226,36.2859919],[22.5662365,36.2859919],[22.5662102,36.2859919],[22.4115574,36.2859998],[22.0274877,36.4567245],[22.0274839,36.4567262],[22.0274793,36.4567282],[21.9913555,36.4727858],[21.9913551,36.472786],[21.9913301,36.4727971],[21.5338595,36.6761496],[21.2289251,37.1596879],[21.2289216,37.1596934],[21.2289188,37.1596979],[21.0558173,37.4341873],[21.0558157,37.4341897],[20.890543,37.6962649],[21.0558157,37.4341897],[21.0558173,37.4341873],[21.0588144,37.4343943],[21.0839887,37.4400666],[21.0840035,37.44007],[21.120947,37.4483942],[21.178654,37.4714461],[21.2298656,37.5027251],[21.272738,37.5411108],[21.3057193,37.5852263],[21.3171886,37.610516],[21.3171892,37.6105172],[21.3128055,37.6102951],[21.3061525,37.6110046],[21.2998052,37.6127354],[21.2940103,37.6154203],[21.2889933,37.6189548],[21.2849493,37.6232016],[21.2820359,37.6279954],[21.2803666,37.6331498],[21.2543986,37.7668386],[21.0992037,37.8183809],[21.0931333,37.8209911],[21.0878529,37.8245146],[21.0835792,37.8288071],[21.0804875,37.8336925],[21.0787048,37.8389707],[21.0714885,37.8744285],[21.0711711,37.8809318],[21.0728351,37.8873068],[21.101608,37.954858],[21.1042254,37.959498],[21.1078987,37.9636693],[21.1124978,37.9672239],[21.1178598,37.9700358],[21.1237946,37.9720053],[21.1300917,37.9730626],[21.1365279,37.9731701],[21.1428748,37.972324],[21.1489074,37.9705543],[21.1544116,37.9679239],[21.1609251,37.9641054],[21.1609505,37.9640905],[21.1258639,37.996719],[21.1286338,38.0030151],[21.1379212,38.0540663],[21.141829,38.1199105],[21.1382095,38.1735433],[21.1211333,38.2255481],[21.0972787,38.2641192],[21.1058394,38.3002158],[21.1056291,38.3132231],[21.1056291,38.3132238],[21.1056193,38.3132249],[21.0785257,38.3163994],[21.0785257,38.3163994],[21.0718603,38.3177251],[21.0656649,38.3200657],[21.0601874,38.3233276],[21.055647,38.3273804],[21.0522256,38.3320617],[21.0500602,38.3371845],[21.049238,38.3425435],[21.049792,38.3479242],[21.0517004,38.3531112],[21.0724923,38.3937832],[21.0656939,38.3962192],[21.0602432,38.3986663],[21.055451,38.4018498],[21.051477,38.4056635],[21.0484537,38.4099805],[21.0464821,38.4146567],[21.0456282,38.4195365],[21.0459205,38.4244571],[21.0495109,38.444721],[21.0510946,38.4498732],[21.0539334,38.4546838],[21.0579178,38.4589673],[21.0628944,38.4625581],[21.0657067,38.4639017],[21.0625867,38.4650217],[21.0570209,38.4682012],[21.0523746,38.4721851],[21.0488337,38.476814],[21.0465403,38.4819027],[21.0455862,38.4872476],[21.0455887,38.4872786],[21.0380353,38.4857847],[21.0312746,38.4849946],[21.0244484,38.4852649],[21.0178252,38.4865849],[21.0116655,38.4889026],[21.0062115,38.492127],[21.0016779,38.4961312],[20.9982433,38.5007577],[20.9960428,38.5058245],[20.9951635,38.5111321],[20.9917653,38.6008197],[20.9769371,38.6216806],[20.9769371,38.6216806],[20.9760762,38.6185353],[20.9733321,38.6136045],[20.9693922,38.6091964],[20.9644133,38.6054858],[20.8924207,38.5615965],[20.8865048,38.5586874],[20.8799618,38.55677],[20.87306,38.5559229],[20.8660823,38.5561808],[20.8593148,38.5575331],[20.8530348,38.5599244],[20.8475,38.5632566],[20.8429373,38.5673931],[20.8395341,38.5721644],[20.8374302,38.5773746],[20.8367121,38.5828101],[20.8374097,38.5882478],[20.8394947,38.5934646],[20.8718729,38.6525737],[20.8755769,38.6576992],[20.8806156,38.6620757],[20.8867494,38.6654947],[20.8902526,38.6666557],[20.889621,38.6670653],[20.8850743,38.6716058],[20.8818669,38.6767976],[20.84255,38.7628135],[20.7928866,38.7375671],[20.786971,38.7351569],[20.7805731,38.7336776],[20.773931,38.7331843],[20.7672917,38.7336952],[20.7609023,38.7351915],[20.7550005,38.7376174],[20.7550005,38.7376174],[20.7545875,38.737877],[20.7545875,38.7378774],[20.7546078,38.7799939],[20.7543375,38.7824564],[20.7543353,38.7824589],[20.7543208,38.7824753],[20.7308073,38.8091284],[20.7308073,38.8091284],[20.7308073,38.8091284],[20.7339326,38.8173374],[20.7387949,38.830109],[20.7387959,38.8301117],[20.7186154,38.8616848],[20.7160446,38.8649003],[20.7183019,38.8691703],[20.7183019,38.8691703],[20.7222781,38.8737407],[20.7273658,38.8775855],[20.7333518,38.8805436],[20.7390092,38.8822044],[20.7316358,38.8878804],[20.727222,38.8920359],[20.7239582,38.8967924],[20.7219751,38.9019596],[20.7213524,38.9073312],[20.7221151,38.9126924],[20.7250505,38.9233883],[20.723702,38.9236189],[20.7175446,38.9257038],[20.7120195,38.9286733],[20.7073341,38.9324162],[20.7036641,38.936792],[20.7011475,38.9416368],[20.656959,39.0578897],[20.5894829,39.1069828],[20.5894815,39.1069839],[20.5598611,39.1005066],[20.5289239,39.087994],[20.5294819,39.0889125],[20.5454966,39.1389857],[20.4550115,39.2048192],[20.4501049,39.2092404],[20.4465394,39.214376],[20.4444819,39.2199859],[20.444029,39.225808],[20.4461285,39.2595703],[20.3178765,39.2773256],[20.3111629,39.2788005],[20.3049639,39.2812814],[20.2995283,39.284669],[20.2950739,39.2888274],[20.2917795,39.2935898],[20.2625764,39.3483376],[20.2150106,39.3795624],[20.2093737,39.3842577],[20.2053285,39.3898485],[20.1837127,39.430368],[20.1817194,39.4354965],[20.1810773,39.4408285],[20.1818118,39.446154],[20.1838944,39.4512629],[20.1872432,39.4559539],[20.1917265,39.4600418],[20.1971674,39.4633655],[20.2020833,39.4652959],[20.1890214,39.4775361],[20.1853083,39.4817793],[20.1827012,39.4864881],[20.1812942,39.4914928],[20.1812052,39.4944219],[20.1257135,39.503801],[20.119276,39.5054042],[20.1133594,39.507934],[20.1081853,39.5112958],[20.1039475,39.5153637],[20.1008046,39.5199854],[20.0988746,39.524988],[20.0988746,39.524988],[20.09823,39.5301842],[20.0988953,39.5353793],[20.1008458,39.5403787],[20.1387641,39.6116096],[19.9666125,39.6764571],[19.9604485,39.6794171],[19.9552102,39.6832918],[19.9511229,39.6879147],[19.9483624,39.6930874],[19.9470476,39.6985873],[19.9472354,39.7041782],[19.9489182,39.7096197],[19.952718,39.7179484],[19.9527167,39.7179478],[19.9527167,39.7179478],[19.9512685,39.7172405],[19.9527167,39.7179478],[19.9527167,39.7179478],[19.952718,39.7179484],[19.952718,39.7179484],[19.952718,39.7179484],[19.9565958,39.7198426],[19.9612309,39.723137],[19.9650235,39.7270171],[19.9678509,39.7313573],[19.9696213,39.736017],[19.9823063,39.7855864],[19.9829668,39.7907164],[19.9823455,39.7958496],[19.9804646,39.8007983],[19.9773927,39.805382],[19.9732418,39.809433],[19.9681633,39.8128034],[19.9623428,39.8153701],[19.9614929,39.8156654],[19.961494,39.8156696],[19.9709979,39.8514099],[19.8905371,39.8826273],[19.884657,39.8854996],[19.8796314,39.8892058],[19.8756579,39.8936001],[19.8728928,39.89851],[19.8714453,39.9037423],[19.8713724,39.9090912],[19.8726775,39.9143465],[19.8753094,39.9193013],[19.8791648,39.9237607],[19.8997567,39.9430906],[19.8401015,40.0218903],[19.8401015,40.0218903],[19.760759,40.0376295],[19.7542367,40.0394623],[19.7483113,40.0422391],[19.7432131,40.045852],[19.7391402,40.0501607],[19.7212871,40.0735967],[19.7118634,40.0713121],[19.4844135,39.995054],[19.4265944,39.9703618],[19.3853187,39.94385],[19.385309,39.9438438],[19.3758796,39.9377872],[19.3340669,39.8984921],[19.3026291,39.8538762],[19.2826629,39.8055254],[19.2748523,39.7551553]],[[19.9351994,39.7412231],[19.9490401,39.7882897],[19.9478607,39.790796],[19.9495995,39.7901918],[19.9490401,39.7882897],[19.9351994,39.7412231]],[[20.0815747,39.4368507],[20.0936009,39.433902],[20.1188012,39.378179],[20.1134299,39.3731402],[20.0815747,39.4368507]],[[20.0921713,39.4625567],[20.0921739,39.4625559],[20.0922159,39.4625456],[20.1041892,39.4596098],[20.1101418,39.4576651],[20.1155275,39.4549063],[20.1201615,39.4514281],[20.1238854,39.4473497],[20.1265715,39.4428107],[20.1517485,39.3870801],[20.1533984,39.3817079],[20.153598,39.376188],[20.1523392,39.3707518],[20.1496752,39.365627],[20.1457178,39.3610285],[20.1404523,39.3560908],[20.1404486,39.3560873],[20.1444152,39.3607295],[20.1470954,39.3660359],[20.1482748,39.3716593],[20.1479006,39.3773489],[20.1459889,39.3828511],[20.1141586,39.4465703],[20.1114015,39.4508906],[20.1076932,39.4547634],[20.1031519,39.4580653],[20.0979224,39.460691],[20.0921739,39.4625559],[20.0921713,39.4625567]],[[20.698407,38.6892395],[20.72,38.7207491],[20.72,38.78],[20.7135269,38.8091287],[20.7308073,38.7821112],[20.7308073,38.7365196],[20.72,38.7207491],[20.698407,38.6892395]],[[20.7164072,38.6267621],[20.72,38.6672069],[20.72,38.705155],[20.7236072,38.7078138],[20.72,38.6672069],[20.7164072,38.6267621]],[[20.7317066,38.6027187],[20.7335483,38.6034349],[20.7341868,38.6036832],[20.7341868,38.6036831],[20.7338591,38.6034974],[20.7317066,38.6027187]],[[20.7374599,38.6055391],[20.7400565,38.6071036],[20.7444858,38.6110584],[20.7478503,38.6156091],[20.7500222,38.6205831],[20.7509187,38.6257917],[20.7515484,38.6393881],[20.751547,38.6393894],[20.7515365,38.6393993],[20.7380074,38.6520908],[20.7522702,38.655239],[20.7522811,38.6552414],[20.7522826,38.6552417],[20.7545491,38.7041837],[20.7541258,38.7094782],[20.752985,38.7128345],[20.7541147,38.7163454],[20.7544681,38.7196913],[20.7544683,38.7196925],[20.7563034,38.7165671],[20.7578737,38.711331],[20.7580815,38.7059552],[20.7561301,38.6841238],[20.7898406,38.6915603],[20.7964181,38.6924857],[20.8031001,38.6924048],[20.8096363,38.6913207],[20.815782,38.6892739],[20.815782,38.6892739],[20.821307,38.6863412],[20.8260044,38.6826323],[20.8260044,38.6826323],[20.8296987,38.6782861],[20.8322516,38.6734653],[20.8335678,38.6683504],[20.8335984,38.6631328],[20.8323425,38.6580076],[20.8298473,38.6531666],[20.8262065,38.6487908],[20.8067717,38.629744],[20.8067717,38.629744],[20.8257308,38.6119465],[20.8294518,38.6076785],[20.8320629,38.6029339],[20.8334686,38.5978867],[20.8336177,38.592722],[20.8325048,38.5876293],[20.8301711,38.5827953],[20.8267024,38.5783972],[20.8222261,38.5745962],[20.8169062,38.5715317],[20.8109379,38.5693159],[20.8045398,38.56803],[20.7979464,38.5677211],[20.7913993,38.5684005],[20.7851382,38.5700433],[20.7793926,38.5725893],[20.7743731,38.5759453],[20.7376815,38.6056647],[20.73746,38.6055391],[20.7374599,38.6055391]],[[22.8646083,36.3276944],[22.8647319,36.3292459],[22.8647366,36.3293045],[22.8646973,36.3283561],[22.8646577,36.3273977],[22.8646576,36.3273951],[22.8646558,36.327406],[22.8646083,36.3276944]],[[22.8648612,36.3323174],[22.8650166,36.3328252],[22.8650172,36.3328272],[22.8650178,36.3328344],[22.8650288,36.3329723],[22.8654529,36.3342557],[22.8654747,36.3343215],[22.8652423,36.3335624],[22.8654747,36.3343215],[22.8654904,36.3343728],[22.8665296,36.3377676],[22.8654904,36.3343728],[22.8654747,36.3343215],[22.8652423,36.3335624],[22.8650172,36.3328272],[22.8650166,36.3328252],[22.8648612,36.3323174]],[[22.8665296,36.3377676],[22.8667132,36.3380734],[22.8667163,36.3380787],[22.8667176,36.3380824],[22.8667176,36.3380826],[22.8667224,36.3380904],[22.8667879,36.3381979],[22.8667163,36.3380787],[22.8667132,36.3380734],[22.8665296,36.3377676]],[[22.898029,36.3286084],[22.9333183,36.3744454],[22.9448294,36.3893972],[22.9588859,36.3727409],[23.0132301,36.3083455],[22.9588859,36.3727409],[22.9333183,36.3744454],[22.898029,36.3286084]],[[22.9050695,36.3889101],[22.9050712,36.3889124],[22.9163963,36.4036299],[22.9204429,36.4078759],[22.9254504,36.4113942],[22.9312217,36.4140461],[22.9375295,36.415727],[22.9441249,36.4163708],[22.9507482,36.415952],[22.9571381,36.4144871],[22.9630428,36.4120339],[22.9682297,36.4086891],[22.9682297,36.4086891],[22.9724944,36.4045845],[22.9863951,36.3881055],[22.9864162,36.3880805],[22.9863995,36.3880968],[22.9828139,36.391622],[22.9782777,36.3947385],[22.973127,36.3971584],[22.9675249,36.398805],[22.9616491,36.399626],[22.9360726,36.4013312],[22.9299488,36.4012868],[22.9239376,36.4003459],[22.9182399,36.3985399],[22.9130461,36.3959293],[22.9085297,36.3926012],[22.9050695,36.3889101]]]}}
