{"type":"Feature","properties":{"family":"britain","name":"United States of the Ionian Islands, a British protectorate, 1815"},"geometry":{"type":"Polygon","coordinates":[[[19.2748523,39.7551553],[19.2794475,39.7045492],[19.2962596,39.6554952],[19.3246714,39.6097227],[19.3636617,39.5688424],[19.5173422,39.4355094],[19.5456345,39.3688997],[19.575931,39.3168259],[19.619664,39.2708335],[19.6748639,39.2329694],[19.7390627,39.2049158],[19.7903961,39.1877111],[19.7904664,39.1822057],[19.8029895,39.1331533],[19.8269433,39.0867303],[19.861487,39.044525],[19.9054239,39.0079786],[19.9572429,38.9783372],[20.0219081,38.9480398],[20.0836435,38.9251811],[20.1499146,38.9121502],[20.2181723,38.909448],[20.2857937,38.9171786],[20.3071405,38.923107],[20.2844649,38.891276],[20.2643941,38.8446554],[20.207624,38.6570647],[20.1985465,38.6025795],[20.2005322,38.5818215],[20.1711979,38.5653471],[20.1233756,38.5245395],[20.0872593,38.4769442],[20.0643537,38.4245761],[20.0111431,38.2437508],[20.0026227,38.1935104],[20.0062127,38.1429045],[20.0217617,38.093718],[20.0486993,38.0476823],[20.0860587,38.006415],[20.1325136,37.9713633],[20.1864256,37.9437547],[20.245902,37.9245551],[20.2678969,37.9210239],[20.2944376,37.9030242],[20.2857997,37.8820418],[20.2777896,37.8311331],[20.2821274,37.7799478],[20.2986313,37.7303352],[20.3266825,37.6840842],[20.3652514,37.6428591],[20.5597658,37.4710435],[20.6088188,37.4353028],[20.6656651,37.4078151],[20.7281355,37.3896258],[20.7938528,37.3814261],[20.8603204,37.3835276],[20.9250142,37.3958506],[20.9686081,37.4117682],[21.4598818,36.6339426],[21.4647336,36.6277907],[21.4710288,36.6225484],[21.4785095,36.6184304],[22.3782549,36.218594],[22.3851887,36.2160697],[22.3925531,36.2145327],[22.400134,36.2140276],[22.572826,36.2140279],[22.5728535,36.2140279],[22.8746002,36.2140285],[22.908068,36.2140285],[22.8746002,36.2140285],[22.5728535,36.2140279],[22.5754375,36.1859248],[22.5850362,36.1387136],[22.6047916,36.0936099],[22.6340675,36.0520273],[22.6719334,36.0152666],[22.7547412,35.9478914],[22.8020876,35.9158553],[22.8558792,35.8914142],[22.9142824,35.8753986],[22.9503036,35.8712395],[22.9503077,35.871239],[22.9753113,35.8683521],[23.0368937,35.8705139],[23.0978872,35.8772463],[23.1639501,35.890174],[23.225426,35.9136707],[23.2797714,35.946766],[23.3247297,35.988092],[23.3584238,36.0359381],[23.4091165,36.1286748],[23.4150974,36.1431108],[23.4151043,36.1431276],[23.4289151,36.1764625],[23.4373749,36.2263913],[23.4360941,36.2465613],[23.4360925,36.2465868],[23.4341791,36.2767215],[23.4194167,36.3256958],[23.3935829,36.371601],[23.3575639,36.4128281],[23.2133463,36.5484565],[23.1650864,36.5855111],[23.1086137,36.6141449],[23.0929699,36.6189229],[23.092967,36.6189238],[23.1071565,36.5974065],[23.1717522,36.5640698],[23.177017,36.5607058],[23.1813416,36.5565647],[23.1845523,36.5518133],[23.1865204,36.5466423],[23.1871669,36.5412598],[23.1864661,36.5358818],[23.1844466,36.5307244],[23.1757999,36.5145186],[23.2267223,36.4767862],[23.2314293,36.4724626],[23.2348914,36.4674342],[23.2369517,36.4619295],[23.2375169,36.4561984],[23.2365617,36.4505012],[23.229352,36.4268632],[23.2270042,36.4215962],[23.2233587,36.4168329],[23.2185723,36.4127783],[23.212851,36.4096066],[23.2064411,36.4074543],[23.199618,36.4064139],[23.1926752,36.4065302],[23.0919098,36.4166578],[23.085172,36.4179115],[23.0788969,36.4202535],[23.073352,36.4235839],[23.0687739,36.427761],[23.0653578,36.4326065],[23.0314472,36.4948714],[22.9754212,36.4924765],[22.9754212,36.4924765],[22.9687156,36.49273],[22.9622069,36.4940539],[22.9561561,36.496395],[22.9508058,36.4996597],[22.9463704,36.503717],[22.9430281,36.5084042],[22.9032205,36.5799317],[22.8558242,36.6095644],[22.8511532,36.6131079],[22.8474069,36.6173014],[22.8447226,36.6219915],[22.8435985,36.625691],[22.8435975,36.6256907],[22.7879347,36.6049041],[22.7341853,36.5730929],[22.6732963,36.5288437],[22.6320764,36.4928552],[22.5996576,36.4514636],[22.5770971,36.4060379],[22.5651216,36.3580775],[22.5641059,36.309163],[22.5662365,36.2859919],[22.5667226,36.2859919],[22.6480059,36.2859878],[22.6714975,36.2859866],[22.8682128,36.2859765],[22.8682154,36.2859765],[22.8682128,36.2859765],[22.6714975,36.2859866],[22.6480059,36.2859878],[22.5667226,36.2859919],[22.5662365,36.2859919],[22.5662102,36.2859919],[22.4115574,36.2859998],[22.0274877,36.4567245],[22.0274839,36.4567262],[22.0274793,36.4567282],[21.9913555,36.4727858],[21.9913551,36.472786],[21.9913301,36.4727971],[21.5338595,36.6761496],[21.2289251,37.1596879],[21.2289216,37.1596934],[21.2289188,37.1596979],[21.0558173,37.4341873],[21.0558157,37.4341897],[20.890543,37.6962649],[21.0558157,37.4341897],[21.0558173,37.4341873],[21.0588144,37.4343943],[21.0839887,37.4400666],[21.0840035,37.44007],[21.120947,37.4483942],[21.178654,37.4714461],[21.2298656,37.5027251],[21.272738,37.5411108],[21.3057193,37.5852263],[21.3171886,37.610516],[21.3128062,37.6102943],[21.3061532,37.6110043],[21.3061531,37.6110043],[21.2998057,37.6127357],[21.2940108,37.6154211],[21.2889936,37.6189562],[21.2849495,37.6232034],[21.282036,37.6279977],[21.2803665,37.6331524],[21.254399,37.7668388],[21.099207,37.81838],[21.0931357,37.8209906],[21.0878545,37.8245147],[21.08358,37.8288079],[21.0804878,37.8336942],[21.0787048,37.8389732],[21.0714885,37.874431],[21.071171,37.8809347],[21.072835,37.8873098],[21.101608,37.9548611],[21.1042253,37.9595009],[21.1078983,37.9636718],[21.1124972,37.9672261],[21.1178588,37.9700376],[21.1237932,37.9720068],[21.13009,37.9730638],[21.1365259,37.973171],[21.1428726,37.9723247],[21.1489051,37.9705549],[21.1544094,37.9679243],[21.1609531,37.9640881],[21.1609505,37.9640905],[21.1258639,37.996719],[21.1286338,38.0030151],[21.1379212,38.0540663],[21.141829,38.1199105],[21.1382095,38.1735433],[21.1211333,38.2255481],[21.0972787,38.2641192],[21.1058394,38.3002158],[21.1056291,38.3132231],[21.0785291,38.3163984],[21.0718631,38.3177242],[21.0656672,38.3200651],[21.060189,38.3233274],[21.0556481,38.3273806],[21.0522261,38.3320626],[21.0500604,38.3371859],[21.0492379,38.3425454],[21.0497918,38.3479266],[21.0517003,38.3531139],[21.0724911,38.3937837],[21.0656967,38.3962183],[21.0602454,38.3986657],[21.0554525,38.4018496],[21.0514779,38.4056639],[21.0484542,38.4099814],[21.0464823,38.4146583],[21.0456281,38.4195387],[21.0459204,38.4244598],[21.0495108,38.4447238],[21.0510945,38.4498758],[21.0539332,38.4546863],[21.0579174,38.4589695],[21.0628937,38.4625601],[21.0657042,38.4639027],[21.0625891,38.4650209],[21.0570226,38.4682008],[21.0523757,38.4721852],[21.0488344,38.4768146],[21.0465405,38.4819039],[21.0455862,38.4872494],[21.0455884,38.4872769],[21.038038,38.4857836],[21.031277,38.4849935],[21.0244505,38.485264],[21.0178269,38.4865842],[21.0116668,38.4889024],[21.0062124,38.4921272],[21.0016785,38.496132],[20.9982435,38.500759],[20.9960428,38.5058263],[20.9951634,38.5111344],[20.9917653,38.6008212],[20.9769379,38.6216809],[20.9760763,38.6185329],[20.9733324,38.6136023],[20.9693929,38.6091944],[20.9644143,38.6054841],[20.8924218,38.5615947],[20.8865059,38.5586857],[20.8799629,38.5567685],[20.873061,38.5559217],[20.8660833,38.5561799],[20.8660832,38.5561799],[20.8593155,38.5575326],[20.8593155,38.5575326],[20.8530354,38.5599244],[20.8475004,38.5632571],[20.8429375,38.5673941],[20.8395342,38.5721658],[20.8374301,38.5773765],[20.836712,38.5828124],[20.8374096,38.5882503],[20.8394946,38.5934673],[20.8718729,38.6525764],[20.8755765,38.6577014],[20.8806147,38.6620775],[20.8867479,38.6654962],[20.8902512,38.6666573],[20.8896223,38.667065],[20.885075,38.6716062],[20.8818671,38.6767988],[20.8425514,38.762812],[20.7928878,38.7375655],[20.7869724,38.7351554],[20.7805746,38.7336762],[20.7739325,38.733183],[20.7672932,38.7336942],[20.7609037,38.7351908],[20.7609037,38.7351908],[20.7550018,38.7376169],[20.7545875,38.7378774],[20.7546078,38.7799939],[20.7543375,38.7824564],[20.7543353,38.7824589],[20.7543208,38.7824753],[20.7308073,38.8091284],[20.7308073,38.8091284],[20.7308073,38.8091284],[20.7339326,38.8173374],[20.7387949,38.830109],[20.7387959,38.8301117],[20.7186154,38.8616848],[20.7160446,38.8649003],[20.7160438,38.8649014],[20.7183017,38.8691726],[20.7222776,38.8737427],[20.7273647,38.8775872],[20.7333502,38.880545],[20.739008,38.882206],[20.7316373,38.8878799],[20.7272229,38.892036],[20.7239586,38.896793],[20.7219752,38.9019609],[20.7213523,38.9073331],[20.722115,38.9126948],[20.7250497,38.9233878],[20.7237026,38.9236183],[20.7175451,38.9257035],[20.71202,38.9286734],[20.7073345,38.9324166],[20.7036644,38.9367929],[20.7011477,38.9416379],[20.6569595,39.0578897],[20.5894819,39.1069839],[20.5894815,39.1069839],[20.5598611,39.1005066],[20.5289239,39.087994],[20.5294819,39.0889125],[20.5454966,39.1389857],[20.5454966,39.1389859],[20.455013,39.2048185],[20.4501057,39.2092403],[20.4465397,39.2143765],[20.4444819,39.2199872],[20.4440289,39.22581],[20.4461282,39.2595692],[20.3178791,39.2773241],[20.311165,39.2787991],[20.3049656,39.2812803],[20.3049655,39.2812804],[20.2995294,39.2846683],[20.2950746,39.2888272],[20.2917799,39.2935902],[20.2625772,39.3483371],[20.2150122,39.3795613],[20.2093746,39.3842572],[20.2053288,39.3898488],[20.183713,39.4303683],[20.1817196,39.4354971],[20.1810772,39.4408294],[20.1818115,39.4461551],[20.1838938,39.4512642],[20.1872423,39.4559553],[20.1917253,39.4600433],[20.197166,39.4633671],[20.2020819,39.4652975],[20.1890225,39.4775354],[20.1853091,39.4817789],[20.1827016,39.486488],[20.1812944,39.4914931],[20.1812052,39.4944208],[20.125716,39.5037994],[20.119278,39.5054028],[20.1133609,39.5079329],[20.1081864,39.511295],[20.1039481,39.5153634],[20.1008049,39.5199857],[20.0988747,39.5249889],[20.09823,39.5301856],[20.0988952,39.5353812],[20.1008458,39.5403811],[20.1387627,39.6116094],[19.9666147,39.6764555],[19.9604501,39.6794158],[19.9552112,39.683291],[19.9511234,39.6879145],[19.9483626,39.6930878],[19.9470476,39.6985885],[19.9472354,39.70418],[19.9489182,39.7096221],[19.9527167,39.7179478],[19.952718,39.7179484],[19.952718,39.7179484],[19.952718,39.7179484],[19.9565958,39.7198426],[19.9612309,39.723137],[19.9650235,39.7270171],[19.9678509,39.7313573],[19.9696213,39.736017],[19.9823063,39.7855864],[19.9829668,39.7907164],[19.9823455,39.7958496],[19.9804646,39.8007983],[19.9773927,39.805382],[19.9732418,39.809433],[19.9681633,39.8128034],[19.9623428,39.8153701],[19.9614929,39.8156654],[19.9614924,39.8156656],[19.9709972,39.8514093],[19.8905391,39.8826256],[19.8846586,39.8854982],[19.8796325,39.8892047],[19.8756585,39.8935996],[19.8728931,39.89851],[19.8714453,39.9037428],[19.8713723,39.9090924],[19.8726773,39.9143482],[19.8753093,39.9193034],[19.879165,39.923763],[19.8997558,39.943092],[19.8401028,40.0218887],[19.760761,40.0376276],[19.7542385,40.0394606],[19.7483128,40.0422376],[19.7432142,40.0458509],[19.7432141,40.045851],[19.7391409,40.05016],[19.7212872,40.0735967],[19.7212871,40.0735967],[19.7118634,40.0713121],[19.4844135,39.995054],[19.4265944,39.9703618],[19.3853187,39.94385],[19.385309,39.9438438],[19.3758796,39.9377872],[19.3340669,39.8984921],[19.3026291,39.8538762],[19.2826629,39.8055254],[19.2748523,39.7551553]],[[19.9351994,39.7412231],[19.9490401,39.7882897],[19.9478607,39.790796],[19.9495995,39.7901918],[19.9490401,39.7882897],[19.9351994,39.7412231]],[[20.0815747,39.4368507],[20.0936009,39.433902],[20.1188012,39.378179],[20.1134299,39.3731402],[20.0815747,39.4368507]],[[20.0921469,39.4625627],[20.0921563,39.4625612],[20.1041867,39.4596115],[20.1101399,39.4576665],[20.115526,39.4549074],[20.1201606,39.4514287],[20.1238848,39.4473497],[20.1265713,39.4428102],[20.1517483,39.3870795],[20.1533984,39.3817068],[20.1535981,39.3761865],[20.1523394,39.3707498],[20.1496754,39.3656248],[20.1457179,39.361026],[20.140438,39.3560749],[20.1404486,39.3560873],[20.1444152,39.3607295],[20.1470954,39.3660359],[20.1482748,39.3716593],[20.1479006,39.3773489],[20.1459889,39.3828511],[20.1141586,39.4465703],[20.1114015,39.4508906],[20.1076932,39.4547634],[20.1031519,39.4580653],[20.0979224,39.460691],[20.0921739,39.4625559],[20.0921713,39.4625567],[20.0921469,39.4625627]],[[20.698407,38.6892395],[20.72,38.7207491],[20.72,38.78],[20.7135269,38.8091287],[20.7308073,38.7821112],[20.7308073,38.7365196],[20.72,38.7207491],[20.698407,38.6892395]],[[20.7164072,38.6267621],[20.72,38.6672069],[20.72,38.705155],[20.7236072,38.7078138],[20.72,38.6672069],[20.7164072,38.6267621]],[[20.7316265,38.6026875],[20.7317066,38.6027187],[20.7335483,38.6034349],[20.7341868,38.6036832],[20.7341998,38.6036882],[20.7338592,38.6034951],[20.7316265,38.6026875]],[[20.7373908,38.6054975],[20.7374599,38.6055391],[20.7400565,38.6071036],[20.7444858,38.6110584],[20.7478503,38.6156091],[20.7500222,38.6205831],[20.7509187,38.6257917],[20.7515484,38.6393881],[20.751547,38.6393894],[20.7515365,38.6393993],[20.7380074,38.6520908],[20.7522702,38.655239],[20.7522811,38.6552414],[20.7522826,38.6552417],[20.7545491,38.7041837],[20.7541258,38.7094782],[20.752985,38.7128345],[20.7541147,38.7163454],[20.7544681,38.7196913],[20.7563035,38.7165653],[20.7578738,38.7113288],[20.7580816,38.7059527],[20.7561305,38.6841257],[20.7898383,38.6915616],[20.7964159,38.6924869],[20.803098,38.6924059],[20.8096345,38.6913216],[20.8157805,38.6892745],[20.8213058,38.6863414],[20.8260036,38.6826321],[20.8296981,38.6782855],[20.8322513,38.6734643],[20.8335678,38.668349],[20.8335985,38.663131],[20.8323428,38.6580056],[20.8298477,38.6531644],[20.8262068,38.6487885],[20.8067725,38.6297422],[20.8257296,38.6119466],[20.8294509,38.6076784],[20.8320624,38.6029335],[20.8334685,38.5978861],[20.8336179,38.5927211],[20.8325054,38.5876282],[20.8301721,38.5827941],[20.8267038,38.5783959],[20.8222277,38.5745949],[20.8169081,38.5715303],[20.8109399,38.5693145],[20.804542,38.5680287],[20.7979486,38.5677199],[20.7914014,38.5683994],[20.7851402,38.5700425],[20.7793944,38.5725887],[20.7743746,38.575945],[20.7376838,38.6056636],[20.7373908,38.6054975]],[[22.8646083,36.3276973],[22.8647369,36.3293115],[22.8647366,36.3293045],[22.8646973,36.3283561],[22.8646577,36.3273977],[22.8646576,36.3273951],[22.8646291,36.3267068],[22.8646576,36.3273951],[22.8646577,36.3273977],[22.8646973,36.3283561],[22.8646577,36.3273977],[22.8646083,36.3276973]],[[22.8650166,36.3328252],[22.8650286,36.3329752],[22.8654904,36.3343728],[22.8654747,36.3343215],[22.8652423,36.3335624],[22.8650172,36.3328272],[22.8650166,36.3328252]],[[22.8667132,36.3380734],[22.8667171,36.3380854],[22.8669291,36.3384332],[22.8667879,36.3381979],[22.8667163,36.3380787],[22.8667132,36.3380734]],[[22.898029,36.3286084],[22.9333183,36.3744454],[22.9448294,36.3893972],[22.9588859,36.3727409],[23.0132301,36.3083455],[22.9588859,36.3727409],[22.9333183,36.3744454],[22.898029,36.3286084]],[[22.9050547,36.3888944],[22.9163956,36.4036324],[22.920442,36.407878],[22.9254493,36.4113959],[22.9312205,36.4140473],[22.9375281,36.4157277],[22.9441235,36.4163708],[22.9507468,36.4159515],[22.9571368,36.414486],[22.9630416,36.4120323],[22.9682287,36.4086871],[22.9724936,36.4045821],[22.9863995,36.3880968],[22.9828139,36.391622],[22.9782777,36.3947385],[22.973127,36.3971584],[22.9675249,36.398805],[22.9616491,36.399626],[22.9360726,36.4013312],[22.9299488,36.4012868],[22.9239376,36.4003459],[22.9182399,36.3985399],[22.9130461,36.3959293],[22.9085297,36.3926012],[22.9050695,36.3889101],[22.9050547,36.3888944]]]}}
