{"type":"Feature","properties":{"family":"britain","name":"Ionian Islands, held by Britain, 1809 – 1813"},"geometry":{"type":"Polygon","coordinates":[[[20.0026301,38.1935286],[20.0062197,38.1429226],[20.0217688,38.0937353],[20.0487069,38.0476983],[20.0860675,38.0064292],[20.1325239,37.9713756],[20.1864378,37.9437653],[20.2459163,37.9245641],[20.267909,37.921033],[20.2944413,37.9030382],[20.2858009,37.8820505],[20.2777909,37.8311439],[20.2821284,37.7799603],[20.2986317,37.7303487],[20.3266822,37.684098],[20.3652503,37.6428725],[20.559762,37.4710541],[20.6088152,37.4353123],[20.6656623,37.4078231],[20.7281338,37.3896322],[20.7938525,37.3814311],[20.8603218,37.3835313],[20.9250171,37.3958533],[20.9686077,37.4117689],[20.9685964,37.4117867],[20.8174082,37.6511605],[20.9685964,37.4117867],[20.9686081,37.4117682],[21.4598818,36.6339426],[21.4647336,36.6277907],[21.4710288,36.6225484],[21.4785095,36.6184304],[22.3782549,36.218594],[22.3851887,36.2160697],[22.3925531,36.2145327],[22.400134,36.2140276],[22.572826,36.2140279],[22.5754115,36.1859036],[22.5850083,36.1386961],[22.6047607,36.0935961],[22.6340329,36.0520169],[22.6718947,36.015259],[22.7547015,35.9478825],[22.8020473,35.9158465],[22.8558395,35.8914054],[22.9142445,35.8753898],[22.9503046,35.8712265],[22.9752767,35.8683434],[23.0368635,35.8705053],[23.097858,35.8772375],[23.1639343,35.8901678],[23.2254234,35.9136695],[23.2797807,35.9467719],[23.3247485,35.9881063],[23.358449,36.0359614],[23.4091413,36.1286997],[23.4151102,36.1431071],[23.42894,36.1764885],[23.4374001,36.2264174],[23.43612,36.2465799],[23.4342049,36.2767465],[23.4194435,36.3257189],[23.3936109,36.3716215],[23.3575934,36.4128458],[23.2133737,36.548472],[23.1651118,36.5855264],[23.1086361,36.614159],[23.0929533,36.6189482],[23.0929699,36.6189229],[23.1071578,36.597408],[23.1717551,36.5640706],[23.1770192,36.5607069],[23.1813431,36.5565663],[23.1845532,36.5518153],[23.1865208,36.5466447],[23.1871669,36.5412624],[23.1864659,36.5358847],[23.1844463,36.5307274],[23.1757997,36.5145216],[23.2267243,36.4767876],[23.2314305,36.4724645],[23.2348921,36.4674367],[23.236952,36.4619324],[23.2375169,36.4562017],[23.2365617,36.4505048],[23.2293519,36.4268668],[23.2293519,36.4268668],[23.2270038,36.421599],[23.2233577,36.4168349],[23.2185705,36.4127795],[23.2128484,36.4096072],[23.2064376,36.4074545],[23.1996138,36.4064138],[23.1926703,36.40653],[23.0919049,36.4166577],[23.0851681,36.4179111],[23.0788941,36.4202527],[23.0733502,36.4235825],[23.0687729,36.4277587],[23.0653574,36.4326034],[23.0314453,36.4948714],[22.9754163,36.4924765],[22.9687114,36.4927299],[22.9622036,36.4940535],[22.9561537,36.4963942],[22.9508041,36.4996582],[22.9463695,36.5037148],[22.9430278,36.5084013],[22.9032195,36.5799299],[22.8558218,36.6095636],[22.8511515,36.6131066],[22.8474059,36.6172995],[22.8474059,36.6172995],[22.8447221,36.6219891],[22.8435975,36.6256907],[22.8435971,36.6256918],[22.7879329,36.6049032],[22.7341782,36.5730881],[22.67329,36.5288398],[22.6320646,36.4928475],[22.5996411,36.451452],[22.5770769,36.4060225],[22.5650989,36.3580586],[22.5640821,36.309141],[22.5662102,36.2859919],[22.5662365,36.2859919],[22.5667226,36.2859919],[22.6480059,36.2859878],[22.6714975,36.2859866],[22.8682128,36.2859765],[22.6714975,36.2859866],[22.6480059,36.2859878],[22.5667226,36.2859919],[22.5662365,36.2859919],[22.5662102,36.2859919],[22.4115574,36.2859998],[22.0274877,36.4567245],[22.0274839,36.4567262],[22.0274793,36.4567282],[21.9913555,36.4727858],[21.9913551,36.472786],[21.9913301,36.4727971],[21.5338595,36.6761496],[21.2289251,37.1596879],[21.2289216,37.1596934],[21.2289188,37.1596979],[21.0558173,37.4341873],[21.0558157,37.4341897],[21.0588169,37.434397],[21.0840006,37.4400711],[21.1209502,37.4483963],[21.1786577,37.4714477],[21.2298694,37.5027263],[21.2727416,37.5411118],[21.3057224,37.585227],[21.3171911,37.6105161],[21.3171916,37.6105174],[21.3171892,37.6105172],[21.3128055,37.6102951],[21.3061525,37.6110046],[21.2998052,37.6127354],[21.2940103,37.6154203],[21.2889933,37.6189548],[21.2849493,37.6232016],[21.2820359,37.6279954],[21.2803666,37.6331498],[21.2543986,37.7668386],[21.0992037,37.8183809],[21.0931333,37.8209911],[21.0878529,37.8245146],[21.0835792,37.8288071],[21.0804875,37.8336925],[21.0787048,37.8389707],[21.0714885,37.8744285],[21.0711711,37.8809318],[21.0728351,37.8873068],[21.101608,37.954858],[21.1042254,37.959498],[21.1078987,37.9636693],[21.1124978,37.9672239],[21.1178598,37.9700358],[21.1237946,37.9720053],[21.1300917,37.9730626],[21.1365279,37.9731701],[21.1428748,37.972324],[21.1489074,37.9705543],[21.1544116,37.9679239],[21.1609251,37.9641054],[21.1258595,37.9967133],[21.1286296,38.0030099],[21.1379158,38.0540591],[21.1418225,38.1199039],[21.1382019,38.1735371],[21.1211241,38.2255424],[21.0972702,38.2641108],[21.10583,38.3002086],[21.1056193,38.3132243],[21.1056193,38.3132249],[21.0785257,38.3163994],[21.0785257,38.3163994],[21.0718603,38.3177251],[21.0656649,38.3200657],[21.0601874,38.3233276],[21.055647,38.3273804],[21.0522256,38.3320617],[21.0500602,38.3371845],[21.049238,38.3425435],[21.049792,38.3479242],[21.0517004,38.3531112],[21.0724923,38.3937832],[21.0656939,38.3962192],[21.0602432,38.3986663],[21.055451,38.4018498],[21.051477,38.4056635],[21.0484537,38.4099805],[21.0464821,38.4146567],[21.0456282,38.4195365],[21.0459205,38.4244571],[21.0495109,38.444721],[21.0510946,38.4498732],[21.0539334,38.4546838],[21.0579178,38.4589673],[21.0628944,38.4625581],[21.0657067,38.4639017],[21.0625867,38.4650217],[21.0570209,38.4682012],[21.0523746,38.4721851],[21.0488337,38.476814],[21.0465403,38.4819027],[21.0455862,38.4872476],[21.0455887,38.4872786],[21.0380353,38.4857847],[21.0312746,38.4849946],[21.0244484,38.4852649],[21.0178252,38.4865849],[21.0116655,38.4889026],[21.0062115,38.492127],[21.0016779,38.4961312],[20.9982433,38.5007577],[20.9960428,38.5058245],[20.9951635,38.5111321],[20.9917653,38.6008197],[20.9769371,38.6216806],[20.9769371,38.6216806],[20.9760762,38.6185353],[20.9733321,38.6136045],[20.9693922,38.6091964],[20.9644133,38.6054858],[20.8924207,38.5615965],[20.8865048,38.5586874],[20.8799618,38.55677],[20.87306,38.5559229],[20.8660823,38.5561808],[20.8593148,38.5575331],[20.8530348,38.5599244],[20.8475,38.5632566],[20.8429373,38.5673931],[20.8395341,38.5721644],[20.8374302,38.5773746],[20.8367121,38.5828101],[20.8374097,38.5882478],[20.8394947,38.5934646],[20.8718729,38.6525737],[20.8755769,38.6576992],[20.8806156,38.6620757],[20.8867494,38.6654947],[20.8902526,38.6666557],[20.889621,38.6670653],[20.8850743,38.6716058],[20.8818669,38.6767976],[20.84255,38.7628135],[20.7928866,38.7375671],[20.786971,38.7351569],[20.7805731,38.7336776],[20.773931,38.7331843],[20.7672917,38.7336952],[20.7609023,38.7351915],[20.7550005,38.7376174],[20.7550005,38.7376174],[20.7545875,38.737877],[20.7545858,38.7378781],[20.7545858,38.7378784],[20.754606,38.7799923],[20.7543353,38.7824589],[20.7543208,38.7824753],[20.7308073,38.8091284],[20.7308073,38.8091284],[20.7308073,38.8091284],[20.7339326,38.8173374],[20.7387949,38.830109],[20.7186133,38.8616837],[20.7160434,38.8648981],[20.7160446,38.8649003],[20.7183019,38.8691703],[20.7183019,38.8691703],[20.7222781,38.8737407],[20.7273658,38.8775855],[20.7333518,38.8805436],[20.7390092,38.8822044],[20.7316358,38.8878804],[20.727222,38.8920359],[20.7239582,38.8967924],[20.7219751,38.9019596],[20.7213524,38.9073312],[20.7221151,38.9126924],[20.7250505,38.9233883],[20.723702,38.9236189],[20.7175446,38.9257038],[20.7120195,38.9286733],[20.7073341,38.9324162],[20.7036641,38.936792],[20.7011475,38.9416368],[20.656959,39.0578897],[20.5894829,39.1069828],[20.5598612,39.100506],[20.5289347,39.0879919],[20.5002846,39.0408052],[20.4595372,38.9980705],[20.4088428,38.9623565],[20.3501681,38.9350396],[20.307146,38.9231005],[20.2844812,38.8912906],[20.2644118,38.8446733],[20.2076396,38.6570852],[20.198561,38.6026008],[20.2005475,38.5818307],[20.171201,38.5653502],[20.1233821,38.5245468],[20.0872682,38.4769556],[20.064364,38.4245912],[20.0111514,38.2437684],[20.0026301,38.1935286]],[[20.698407,38.6892395],[20.72,38.7207491],[20.72,38.78],[20.7135269,38.8091287],[20.7308073,38.7821112],[20.7308073,38.7365196],[20.72,38.7207491],[20.698407,38.6892395]],[[20.7164072,38.6267621],[20.72,38.6672069],[20.72,38.705155],[20.7236072,38.7078138],[20.72,38.6672069],[20.7164072,38.6267621]],[[20.7317059,38.6027184],[20.7341868,38.6036831],[20.7338591,38.6034974],[20.7317066,38.6027187],[20.7317059,38.6027184]],[[20.73746,38.6055391],[20.7400559,38.6071032],[20.7444849,38.6110576],[20.747849,38.615608],[20.7500207,38.6205818],[20.7509172,38.6257901],[20.751547,38.6393894],[20.7515365,38.6393993],[20.7380074,38.6520908],[20.7522702,38.655239],[20.7522811,38.6552414],[20.7545475,38.7041822],[20.7541242,38.7094766],[20.7529834,38.7128329],[20.754113,38.7163439],[20.754467,38.7196946],[20.7544683,38.7196925],[20.7563034,38.7165671],[20.7578737,38.711331],[20.7580815,38.7059552],[20.7561301,38.6841238],[20.7898406,38.6915603],[20.7964181,38.6924857],[20.8031001,38.6924048],[20.8096363,38.6913207],[20.815782,38.6892739],[20.815782,38.6892739],[20.821307,38.6863412],[20.8260044,38.6826323],[20.8260044,38.6826323],[20.8296987,38.6782861],[20.8322516,38.6734653],[20.8335678,38.6683504],[20.8335984,38.6631328],[20.8323425,38.6580076],[20.8298473,38.6531666],[20.8262065,38.6487908],[20.8067717,38.629744],[20.8067717,38.629744],[20.8257308,38.6119465],[20.8294518,38.6076785],[20.8320629,38.6029339],[20.8334686,38.5978867],[20.8336177,38.592722],[20.8325048,38.5876293],[20.8301711,38.5827953],[20.8267024,38.5783972],[20.8222261,38.5745962],[20.8169062,38.5715317],[20.8109379,38.5693159],[20.8045398,38.56803],[20.7979464,38.5677211],[20.7913993,38.5684005],[20.7851382,38.5700433],[20.7793926,38.5725893],[20.7743731,38.5759453],[20.7376815,38.6056647],[20.73746,38.6055391]],[[22.8646083,36.3276944],[22.8647319,36.3292459],[22.8648589,36.3323152],[22.8646268,36.3267043],[22.8646558,36.327406],[22.8646083,36.3276944]],[[22.8650178,36.3328344],[22.8650288,36.3329723],[22.8654529,36.3342557],[22.8650178,36.3328344]],[[22.8667176,36.3380824],[22.8667176,36.3380826],[22.8667224,36.3380904],[22.8667202,36.3380867],[22.8667176,36.3380824]],[[22.898029,36.3286084],[22.9333183,36.3744454],[22.9448294,36.3893972],[22.9588859,36.3727409],[23.0132301,36.3083455],[22.9588859,36.3727409],[22.9333183,36.3744454],[22.898029,36.3286084]],[[22.9050712,36.3889124],[22.9163963,36.4036299],[22.9204429,36.4078759],[22.9254504,36.4113942],[22.9312217,36.4140461],[22.9375295,36.415727],[22.9441249,36.4163708],[22.9507482,36.415952],[22.9571381,36.4144871],[22.9630428,36.4120339],[22.9682297,36.4086891],[22.9682297,36.4086891],[22.9724944,36.4045845],[22.9863951,36.3881055],[22.9828169,36.3916233],[22.9782808,36.3947397],[22.9731302,36.3971594],[22.9675283,36.3988059],[22.9616525,36.3996269],[22.936076,36.4013321],[22.9299513,36.4012876],[22.9239391,36.4003465],[22.9182404,36.3985402],[22.9130457,36.395929],[22.9085285,36.3926004],[22.9050712,36.3889124]]]}}
