{"type":"Feature","properties":{"family":"client","name":"Spain under Joseph Bonaparte, contested by the juntas, 1813"},"geometry":{"type":"Polygon","coordinates":[[[-9.6599022,42.9505296],[-9.6592893,42.8921327],[-9.6415373,42.8351857],[-9.607521,42.7823532],[-9.5822301,42.7520271],[-9.5364167,42.7079274],[-9.4793642,42.6716046],[-9.4375905,42.6544776],[-9.429517,42.6429517],[-9.4363158,42.6093139],[-9.4318187,42.5537006],[-9.4119178,42.4999407],[-9.3774969,42.4503218],[-9.3197212,42.3846198],[-9.277478,42.3451085],[-9.2573013,42.3321376],[-9.2542237,42.3275291],[-9.2273497,42.3019051],[-9.2298251,42.2941588],[-9.2324593,42.2417693],[-9.2286299,42.2239299],[-9.2306332,42.2211949],[-9.2524364,42.1644869],[-9.2570501,42.1056144],[-9.2413838,41.8794139],[-9.2373131,41.8596866],[-9.2373095,41.8597076],[-9.2373093,41.8597089],[-9.2373082,41.8597152],[-9.2280277,41.9136891],[-9.2018115,41.9683099],[-9.1604488,42.0174846],[-9.0346473,42.1359855],[-8.9949366,42.1676776],[-8.8926216,42.2370167],[-8.8880353,42.234367],[-8.8813323,42.2319237],[-8.8740984,42.2305428],[-8.8666374,42.2302822],[-8.7880921,42.2334866],[-8.8706828,42.1814968],[-8.8755583,42.1777662],[-8.8793763,42.1734115],[-8.8819953,42.1685945],[-8.8833182,42.1634942],[-8.8832963,42.1582997],[-8.8819307,42.153204],[-8.8795574,42.1489115],[-8.9021867,42.144996],[-8.9090015,42.1432732],[-8.9152233,42.1405885],[-8.9206081,42.1370474],[-8.9249448,42.1327886],[-8.9280635,42.1279792],[-8.9298423,42.1228079],[-8.9302117,42.1174774],[-8.9156848,41.8912146],[-8.9146277,41.8859069],[-8.9121797,41.8808592],[-8.9084379,41.8762713],[-8.9035507,41.8723249],[-8.9000133,41.8704173],[-8.9000043,41.8704238],[-8.9000037,41.8704242],[-8.9000004,41.8704267],[-8.82857,41.9223245],[-8.7498875,41.9684565],[-8.6706867,42.0005395],[-8.6274863,42.0511968],[-8.3466835,42.1018541],[-8.2206822,42.1542],[-8.202682,42.0697712],[-8.1378814,42.0731483],[-8.0946809,42.0410653],[-8.2314823,41.9042906],[-8.2206822,41.8688305],[-8.1774818,41.8502561],[-8.1810818,41.8114188],[-8.0478805,41.8164846],[-7.9938799,41.8637647],[-7.9434794,41.8671419],[-7.9074791,41.914422],[-7.896679,41.858699],[-7.7202772,41.8992249],[-7.6086761,41.8738962],[-7.6230762,41.8316818],[-7.6050761,41.8249275],[-7.5474755,41.8316818],[-7.5150752,41.8654533],[-7.4826748,41.8570104],[-7.4430744,41.8063531],[-7.3926739,41.8418132],[-7.2198722,41.8789619],[-7.198272,41.9009134],[-7.198272,41.9633908],[-7.1586716,41.9853423],[-7.0506705,41.9414393],[-6.9930699,41.9667679],[-6.9462695,41.9431279],[-6.8562686,41.9431279],[-6.8238682,41.9836537],[-6.7266673,41.9313078],[-6.6222662,41.9414393],[-6.6078661,41.9617022],[-6.5718657,41.9431279],[-6.5754658,41.8823391],[-6.5250653,41.8671419],[-6.5790658,41.7404986],[-6.5430654,41.6594469],[-6.4602646,41.6763327],[-6.3666637,41.662824],[-6.2730627,41.6290525],[-6.204662,41.5699523],[-6.2802628,41.4973435],[-6.3198632,41.411226],[-6.3774638,41.3977174],[-6.3774638,41.3774545],[-6.496265,41.2947142],[-6.6474665,41.267697],[-6.7554676,41.159628],[-6.7662677,41.1089707],[-6.8166682,41.0549362],[-6.9066691,41.0566248],[-6.9426694,41.0160989],[-6.8166682,40.8573727],[-6.8382684,40.8404869],[-6.8382684,40.7425494],[-6.8130681,40.6479891],[-6.8490685,40.5652488],[-6.8130681,40.5145915],[-6.8562686,40.4419827],[-6.8526685,40.4098997],[-6.795068,40.3558652],[-6.8706687,40.2950764],[-6.8778688,40.2646821],[-7.0146701,40.2258448],[-7.0434704,40.1819418],[-7.0290703,40.132973],[-6.9570696,40.1025786],[-6.8814688,40.0097069],[-6.9282693,39.8611121],[-7.00027,39.8020119],[-7.0218702,39.6939429],[-7.5582756,39.6804343],[-7.4682747,39.5504139],[-7.3134731,39.4575421],[-7.3278733,39.3410303],[-7.2522725,39.27011],[-7.2594726,39.2110098],[-7.1694717,39.170484],[-7.1586716,39.1046295],[-7.0650707,39.1147609],[-7.0146701,39.0961866],[-6.9750698,39.0235778],[-7.0650707,38.9053774],[-7.0578706,38.85472],[-7.0703296,38.85],[-7.1514715,38.8192599],[-7.2738727,38.7331425],[-7.2918729,38.6385821],[-7.2702727,38.6183192],[-7.3154474,38.5318684],[-7.3602736,38.4460843],[-7.1658717,38.2721609],[-7.104671,38.1742234],[-6.9462695,38.1961749],[-7.0254703,38.0222514],[-7.1226712,38.0408258],[-7.1586716,37.9969228],[-7.2738727,37.9766599],[-7.3062731,37.8500166],[-7.4430744,37.7301276],[-7.4718747,37.6372558],[-7.5150752,37.6017957],[-7.5294753,37.5562041],[-7.4682747,37.4751524],[-7.4142741,37.19316],[-7.3787445,37.1946251],[-7.3736329,37.168615],[-7.3735802,37.1678431],[-7.37358,37.1678398],[-7.3735799,37.1678392],[-7.3735794,37.1678311],[-7.0850023,37.179729],[-7.0782486,37.1805474],[-7.0718376,37.1824291],[-7.0710751,37.1828057],[-7.0686575,37.1607453],[-7.0768056,37.1059042],[-7.0987594,37.0535338],[-7.1335747,37.0058208],[-7.1797775,36.9647536],[-7.2212378,36.9403824],[-7.2213084,36.9403409],[-7.2213207,36.9403336],[-7.2214918,36.9402331],[-7.1414695,36.9480228],[-7.0452315,36.9197797],[-7.0329896,36.9172404],[-6.7698566,36.7793625],[-6.7713689,36.7744494],[-6.7749402,36.7249539],[-6.7671578,36.6757759],[-6.7483061,36.628574],[-6.6903398,36.5189776],[-6.6573109,36.4707645],[-6.6215601,36.4371452],[-6.6207715,36.4349567],[-6.5909328,36.3884312],[-6.3165995,36.0446479],[-6.2783384,36.0050698],[-6.2317052,35.9719101],[-6.1783157,35.9463109],[-6.1200128,35.9291529],[-6.0588033,35.9210261],[-6.0339224,35.9196214],[-5.8767162,35.8285644],[-5.8760049,35.8286618],[-5.8701348,35.8286133],[-5.7774504,35.8211216],[-5.7117002,35.8563655],[-5.7063075,35.8587069],[-5.7004794,35.8602066],[-5.6944133,35.860814],[-5.6883148,35.8605083],[-5.6095549,35.8505666],[-5.5412663,35.8968319],[-5.4915039,35.9305459],[-5.5412663,35.8968319],[-5.5614662,35.9085812],[-5.6067469,35.9480501],[-5.6388868,35.9905706],[-5.6388884,35.9905729],[-5.6388888,35.9905733],[-5.6388963,35.9905833],[-5.6335995,35.9865184],[-5.6284586,35.9832794],[-5.6226374,35.9809125],[-5.6163585,35.9795082],[-5.6098618,35.9791199],[-5.6033954,35.9797627],[-5.5972064,35.9814119],[-5.4172511,36.0455563],[-5.4117688,36.0480258],[-5.4069544,36.0512822],[-5.4029786,36.0552102],[-5.3999819,36.059671],[-5.3980707,36.0645065],[-5.3973128,36.0695458],[-5.3948845,36.1426309],[-5.3935515,36.1422629],[-5.3910858,36.1347535],[-5.3920309,36.1400152],[-5.3916435,36.1454386],[-5.3899183,36.1506894],[-5.3869251,36.1555547],[-5.382785,36.159837],[-5.3776659,36.1633626],[-5.3734753,36.1652307],[-5.3658537,36.1631279],[-5.3586536,36.1411764],[-5.3370534,36.1411764],[-5.3281951,36.1670647],[-5.3235293,36.1658473],[-5.3175036,36.1630559],[-5.3123235,36.1593188],[-5.3082128,36.1547976],[-5.3053492,36.1496878],[-5.3038561,36.1442103],[-5.3037978,36.1386019],[-5.3040597,36.1363989],[-5.3040597,36.1363989],[-5.3040604,36.1363926],[-5.3040606,36.1363914],[-5.3040627,36.1363739],[-5.2614409,36.2607984],[-5.2362425,36.2737956],[-5.2316594,36.2766364],[-5.2277504,36.280071],[-5.2246322,36.2839969],[-5.1672859,36.371987],[-5.1410627,36.3598286],[-5.0892382,36.3223716],[-5.0481967,36.2770771],[-5.0197023,36.2259143],[-5.0049661,36.1711033],[-5.0045972,36.115018],[-5.0083246,36.0846338],[-5.0136838,36.0631192],[-5.0137011,36.0630496],[-5.0137042,36.0630371],[-5.0137511,36.062849],[-4.9285015,36.2077826],[-4.8442119,36.2353542],[-4.6551749,36.2378341],[-4.5922424,36.2434293],[-4.5317241,36.2584679],[-4.4757713,36.282416],[-4.3391999,36.3548029],[-4.286971,36.3889071],[-4.2442021,36.4307117],[-4.2172276,36.4632123],[-3.8570206,36.4813023],[-3.4710179,36.4290814],[-3.4041847,36.4253684],[-3.337765,36.4323932],[-3.274386,36.4498777],[-3.2165581,36.4771303],[-3.215246,36.4778994],[-2.9958562,36.4816113],[-2.8488839,36.4325178],[-2.7907451,36.4178565],[-2.7302871,36.4118787],[-2.6694874,36.4147798],[-2.6103344,36.4264646],[-2.554764,36.4465509],[-2.4505889,36.4936816],[-2.3951571,36.5250084],[-2.3794611,36.5383872],[-2.2836543,36.4974866],[-2.2266172,36.4782702],[-2.1661895,36.4677691],[-2.1044048,36.4663363],[-2.0433409,36.4740198],[-1.9850517,36.4905609],[-1.9315009,36.5154032],[-1.8844969,36.54771],[-1.8456335,36.5863924],[-1.7533507,36.6976204],[-1.7340037,36.7063138],[-1.6787117,36.7373556],[-1.6322219,36.7766076],[-1.596408,36.8225005],[-1.5727246,36.8731966],[-1.5010797,37.0902605],[-1.4489673,37.1483258],[-1.3550552,37.1824169],[-1.3043684,37.2051462],[-1.2592848,37.2344367],[-1.2095807,37.272791],[-1.1632142,37.2665965],[-1.0930828,37.2630692],[-1.0235449,37.2710862],[-0.9610709,37.2892843],[-0.9264154,37.2865105],[-0.8650112,37.2904865],[-0.8055163,37.3032079],[-0.5865789,37.3671588],[-0.5257343,37.3905324],[-0.4718892,37.4229995],[-0.4271711,37.4632833],[-0.3933571,37.5097974],[-0.3718026,37.5607068],[-0.3633854,37.6139993],[-0.3684675,37.6675641],[-0.3868764,37.7192751],[-0.3885947,37.7219237],[-0.3922425,37.7652536],[-0.4005537,37.8090793],[-0.4008531,37.8098096],[-0.3816861,37.8263743],[-0.3499179,37.8657407],[-0.3271998,37.9088416],[-0.3142262,37.9543907],[-0.3084334,37.9881639],[-0.3003444,37.99204],[-0.2522822,38.0263276],[-0.2132523,38.0671287],[-0.1846622,38.1129885],[-0.1675533,38.1622692],[-0.1660971,38.1771394],[-0.120185,38.2226875],[-0.1007734,38.2471411],[0.040785,38.2863209],[0.0962878,38.3061215],[0.1464877,38.3332837],[0.1898126,38.36696],[0.2011897,38.3796572],[0.2103839,38.3818485],[0.26448,38.4034672],[0.3129155,38.4321789],[0.4676197,38.5416264],[0.5155805,38.583292],[0.5515275,38.6317981],[0.5738903,38.6850599],[0.581675,38.7407836],[0.5745111,38.7965639],[0.5526741,38.8499874],[0.5170788,38.8987371],[0.434464,38.98843],[0.3846026,39.0317074],[0.323911,39.0656671],[0.16332,39.136252],[0.0271095,39.4345976],[0.02718,39.4486216],[0.2035246,39.700166],[0.6293884,40.1189973],[0.6633182,40.1588646],[0.7652996,40.3046549],[0.7167478,40.2971531],[0.7049495,40.2969809],[0.6782629,40.2837296],[0.6117495,40.263763],[0.5413886,40.2543972],[0.4700307,40.2560112],[0.4005648,40.268539],[0.383762,40.2744897],[0.3837588,40.2744908],[0.3838059,40.2745585],[0.5764222,40.5515385],[0.5763632,40.5516056],[0.5480239,40.510838],[0.5440453,40.5062909],[0.5389479,40.5024457],[0.5329408,40.4994599],[0.5262701,40.4974557],[0.5192089,40.4965152],[0.5120463,40.496677],[0.5050755,40.4979343],[0.5002186,40.4996556],[0.5167317,40.5234168],[0.5634056,40.5905775],[0.5167317,40.5234168],[0.41,40.635],[0.3,40.75],[0.25,41.05],[0.35,41.3],[0.42,41.6],[0.51,41.775],[0.6,41.95],[0.65,42.075],[0.7,42.2],[0.75,42.55],[0.7,42.725],[0.6694175,42.8320389],[0.6498065,42.8245652],[0.6318063,42.7452021],[0.6678067,42.7148077],[0.6426064,42.6844133],[0.3906039,42.6844133],[0.3546035,42.7181848],[0.2754028,42.6692161],[0.2394024,42.7097419],[0.1674017,42.7266277],[-0.0378004,42.6844133],[-0.1206012,42.7164962],[-0.1602016,42.7958594],[-0.2358024,42.7857279],[-0.3222032,42.8431395],[-0.4230042,42.7907936],[-0.5346053,42.8076794],[-0.5346053,42.7840393],[-0.5706057,42.7722193],[-0.6498065,42.8498939],[-0.7398074,42.885354],[-0.7614076,42.9461428],[-0.9450095,42.9478313],[-1.0278103,42.9866686],[-1.1502115,43.005243],[-1.3122131,43.0694089],[-1.2870129,43.1099348],[-1.3482135,43.093049],[-1.3662137,43.0339488],[-1.4562146,43.0457688],[-1.4886149,43.0812289],[-1.4094141,43.1673464],[-1.402214,43.2433324],[-1.5390154,43.2838582],[-1.6110161,43.2450209],[-1.6722167,43.3041211],[-1.7478175,43.2906125],[-1.7550176,43.3193183],[-1.798218,43.3412698],[-1.7946179,43.3851728],[-1.8126181,43.3953043],[-1.8316701,43.3863681],[-1.8316761,43.3863653],[-1.8316467,43.3867265],[-1.8305319,43.3918793],[-1.8280726,43.3967814],[-1.8243606,43.4012491],[-1.8195347,43.4051152],[-1.8137754,43.4082348],[-1.8072983,43.4104912],[-1.800346,43.4117996],[-1.7845106,43.4136073],[-1.7845039,43.413608],[-1.7898847,43.4166373],[-1.796338,43.4195533],[-1.8034748,43.4214521],[-1.8109955,43.422254],[-1.8185844,43.4219254],[-1.8259227,43.4204799],[-1.8327025,43.4179783],[-1.9424699,43.3664872],[-1.9456696,43.3677771],[-1.9529783,43.3694177],[-1.9605954,43.3699322],[-1.9681966,43.3692987],[-1.9754579,43.3675442],[-2.1279209,43.3173459],[-2.1668105,43.3327043],[-2.1683163,43.3562339],[-2.1649909,43.4001436],[-2.1545903,43.450354],[-2.1313834,43.4982713],[-2.0961666,43.5421888],[-2.0501713,43.5805384],[-1.9950233,43.6119474],[-1.9326856,43.6352897],[-1.8471301,43.6601803],[-1.8448737,43.662793],[-1.8856255,43.6597673],[-1.9540173,43.6447188],[-2.0171452,43.6204618],[-2.0726676,43.5878984],[-2.1006248,43.5679726],[-2.11019,43.5664517],[-2.5488052,43.6691534],[-2.5503506,43.669389],[-2.5622239,43.6764706],[-2.6243439,43.7009493],[-2.6917801,43.7164581],[-2.7620775,43.7224316],[-2.8326726,43.7186519],[-3.0098167,43.6966115],[-3.0769575,43.6834192],[-3.1395061,43.6613986],[-3.1590873,43.6508438],[-3.1620415,43.6537138],[-3.2176739,43.6897039],[-3.2821597,43.7169169],[-3.4266166,43.764383],[-3.4912596,43.7805708],[-3.5589288,43.7879243],[-3.6273232,43.7861934],[-3.6941158,43.775437],[-3.7465045,43.7592737],[-3.7630165,43.7626531],[-3.8435894,43.766077],[-3.9232838,43.7568507],[-3.9983277,43.7354108],[-4.0969407,43.6977623],[-4.4599886,43.6585805],[-5.2096442,43.7986744],[-5.2665,43.8047657],[-5.2750858,43.8082527],[-5.3474714,43.8248918],[-5.4230375,43.83057],[-5.5452336,43.8306357],[-5.614642,43.8720264],[-5.6760732,43.9017465],[-5.7444559,43.9221335],[-5.8170897,43.9323812],[-5.8911002,43.9320842],[-5.9635562,43.9212545],[-6.0315904,43.9003209],[-6.0925175,43.8701116],[-6.1350986,43.8384102],[-7.0091127,43.8270728],[-7.0130961,43.8267261],[-7.0394603,43.8288125],[-7.0579073,43.828965],[-7.0938089,43.8639758],[-7.1552293,43.9024702],[-7.2267953,43.9304462],[-7.4001966,43.9812991],[-7.425365,43.9865383],[-7.4619131,44.0105524],[-7.5272053,44.0384924],[-7.5990181,44.0563584],[-7.6743728,44.0634089],[-7.7501382,44.0593514],[-7.8231657,44.044355],[-7.8543113,44.032641],[-7.8769451,44.0355575],[-7.9474931,44.0349651],[-8.016605,44.0248383],[-8.081804,44.0055405],[-8.2334215,43.9479037],[-8.2938879,43.9191038],[-8.345435,43.8824146],[-8.3861283,43.839226],[-8.3874381,43.8370056],[-8.4537002,43.8177603],[-8.5230306,43.7911368],[-8.5830262,43.7545957],[-8.6310261,43.7097696],[-8.6649192,43.6586567],[-8.6832348,43.6035302],[-8.6860292,43.5881103],[-8.6911793,43.5865558],[-8.6950902,43.587761],[-8.7732499,43.6047797],[-8.8546496,43.6090089],[-8.9353296,43.6002438],[-9.0113673,43.5789114],[-9.1593721,43.5229697],[-9.2203049,43.4940035],[-9.2721948,43.4569397],[-9.2830529,43.4453256],[-9.3386628,43.4299112],[-9.403408,43.3995178],[-9.4580199,43.3600274],[-9.5001409,43.3131605],[-9.5359377,43.262408],[-9.5500068,43.2367304],[-9.5847452,43.2059704],[-9.6177379,43.1621684],[-9.6390238,43.1146638],[-9.6478955,43.0650968],[-9.6440771,43.0151747],[-9.6422916,43.009875],[-9.6433001,43.0076368],[-9.6599022,42.9505296]],[[-8.8938889,42.1187399],[-8.8863321,42],[-8.8794888,41.8924705],[-8.8863321,42],[-8.8938889,42.1187399]],[[-6.0354604,36.1901451],[-6,36.188129],[-5.9166592,36.1833908],[-6,36.188129],[-6.0354604,36.1901451]],[[-6,43.5770084],[-6,43.5770084],[-5.9058591,43.5878021],[-6,43.5770084]],[[-4.0122401,43.4527159],[-4,43.4469748],[-3.9798398,43.4375187],[-4,43.4469748],[-4.0122401,43.4527159]],[[-0.0090001,38.8699172],[0,38.8677596],[0.1530015,38.83108],[0,38.8677596],[-0.0090001,38.8699172]],[[0,38.6184185],[0,38.6184185],[0.0810008,38.6318278],[0,38.6184185]]]}}
