{"type":"Feature","properties":{"family":"client","name":"Spain under Joseph Bonaparte, contested by the juntas, 1808 – 1812"},"geometry":{"type":"Polygon","coordinates":[[[-9.6599128,42.9505632],[-9.6592963,42.892212],[-9.6415523,42.8353059],[-9.6075546,42.7825057],[-9.5822648,42.7521801],[-9.5364473,42.7080768],[-9.4793839,42.6717474],[-9.4376268,42.6546261],[-9.4295139,42.6430472],[-9.436323,42.6093555],[-9.4318256,42.5537818],[-9.4119335,42.5000569],[-9.3775296,42.4504655],[-9.3197562,42.3847644],[-9.2775081,42.3452485],[-9.2573264,42.3322747],[-9.254225,42.3276324],[-9.2273323,42.3019971],[-9.2298382,42.2941537],[-9.2324608,42.2417829],[-9.2286243,42.2239378],[-9.2306593,42.2211598],[-9.2524461,42.1644957],[-9.257055,42.1056682],[-9.2413889,41.8794737],[-9.2373095,41.8597076],[-9.2373093,41.8597089],[-9.2373082,41.8597152],[-9.2280277,41.9136891],[-9.2018115,41.9683099],[-9.1604488,42.0174846],[-9.0346473,42.1359855],[-8.9949366,42.1676776],[-8.8926216,42.2370167],[-8.8926127,42.2370227],[-8.8880301,42.2343765],[-8.881326,42.2319339],[-8.8740911,42.2305534],[-8.8666294,42.230293],[-8.7880654,42.233498],[-8.8706915,42.1814867],[-8.8755641,42.1777583],[-8.8793798,42.1734067],[-8.881997,42.1685933],[-8.8833189,42.1634967],[-8.8832968,42.158306],[-8.8819319,42.1532137],[-8.8795487,42.1489036],[-8.9021963,42.1449849],[-8.9090093,42.1432628],[-8.9152293,42.1405796],[-8.9206123,42.1370406],[-8.9249474,42.1327845],[-8.9280649,42.1279782],[-8.929843,42.1228101],[-8.9302121,42.1174827],[-8.9156853,41.8912206],[-8.9146282,41.8859141],[-8.9121797,41.8808674],[-8.9084371,41.8762803],[-8.9035488,41.8723345],[-8.9000043,41.8704238],[-8.9000037,41.8704242],[-8.9000004,41.8704267],[-8.82857,41.9223245],[-8.7498875,41.9684565],[-8.6706867,42.0005395],[-8.6274863,42.0511968],[-8.3466835,42.1018541],[-8.2206822,42.1542],[-8.202682,42.0697712],[-8.1378814,42.0731483],[-8.0946809,42.0410653],[-8.2314823,41.9042906],[-8.2206822,41.8688305],[-8.1774818,41.8502561],[-8.1810818,41.8114188],[-8.0478805,41.8164846],[-7.9938799,41.8637647],[-7.9434794,41.8671419],[-7.9074791,41.914422],[-7.896679,41.858699],[-7.7202772,41.8992249],[-7.6086761,41.8738962],[-7.6230762,41.8316818],[-7.6050761,41.8249275],[-7.5474755,41.8316818],[-7.5150752,41.8654533],[-7.4826748,41.8570104],[-7.4430744,41.8063531],[-7.3926739,41.8418132],[-7.2198722,41.8789619],[-7.198272,41.9009134],[-7.198272,41.9633908],[-7.1586716,41.9853423],[-7.0506705,41.9414393],[-6.9930699,41.9667679],[-6.9462695,41.9431279],[-6.8562686,41.9431279],[-6.8238682,41.9836537],[-6.7266673,41.9313078],[-6.6222662,41.9414393],[-6.6078661,41.9617022],[-6.5718657,41.9431279],[-6.5754658,41.8823391],[-6.5250653,41.8671419],[-6.5790658,41.7404986],[-6.5430654,41.6594469],[-6.4602646,41.6763327],[-6.3666637,41.662824],[-6.2730627,41.6290525],[-6.204662,41.5699523],[-6.2802628,41.4973435],[-6.3198632,41.411226],[-6.3774638,41.3977174],[-6.3774638,41.3774545],[-6.496265,41.2947142],[-6.6474665,41.267697],[-6.7554676,41.159628],[-6.7662677,41.1089707],[-6.8166682,41.0549362],[-6.9066691,41.0566248],[-6.9426694,41.0160989],[-6.8166682,40.8573727],[-6.8382684,40.8404869],[-6.8382684,40.7425494],[-6.8130681,40.6479891],[-6.8490685,40.5652488],[-6.8130681,40.5145915],[-6.8562686,40.4419827],[-6.8526685,40.4098997],[-6.795068,40.3558652],[-6.8706687,40.2950764],[-6.8778688,40.2646821],[-7.0146701,40.2258448],[-7.0434704,40.1819418],[-7.0290703,40.132973],[-6.9570696,40.1025786],[-6.8814688,40.0097069],[-6.9282693,39.8611121],[-7.00027,39.8020119],[-7.0218702,39.6939429],[-7.5582756,39.6804343],[-7.4682747,39.5504139],[-7.3134731,39.4575421],[-7.3278733,39.3410303],[-7.2522725,39.27011],[-7.2594726,39.2110098],[-7.1694717,39.170484],[-7.1586716,39.1046295],[-7.0650707,39.1147609],[-7.0146701,39.0961866],[-6.9750698,39.0235778],[-7.0650707,38.9053774],[-7.0578706,38.85472],[-7.0703296,38.85],[-7.1514715,38.8192599],[-7.2738727,38.7331425],[-7.2918729,38.6385821],[-7.2702727,38.6183192],[-7.3154474,38.5318684],[-7.3602736,38.4460843],[-7.1658717,38.2721609],[-7.104671,38.1742234],[-6.9462695,38.1961749],[-7.0254703,38.0222514],[-7.1226712,38.0408258],[-7.1586716,37.9969228],[-7.2738727,37.9766599],[-7.3062731,37.8500166],[-7.4430744,37.7301276],[-7.4718747,37.6372558],[-7.5150752,37.6017957],[-7.5294753,37.5562041],[-7.4682747,37.4751524],[-7.4142741,37.19316],[-7.3787445,37.1946251],[-7.3736329,37.168615],[-7.3735802,37.1678431],[-7.37358,37.1678398],[-7.3735799,37.1678392],[-7.0850115,37.1797361],[-7.0782578,37.1805543],[-7.0718463,37.1824356],[-7.0710762,37.1828158],[-7.0710751,37.1828057],[-7.0686575,37.1607453],[-7.0768056,37.1059042],[-7.0987594,37.0535338],[-7.1335747,37.0058208],[-7.1797775,36.9647536],[-7.2212378,36.9403824],[-7.2213084,36.9403409],[-7.2213207,36.9403336],[-7.1415777,36.9480944],[-7.0453448,36.9198507],[-7.0330921,36.9173088],[-6.7698278,36.7793563],[-6.7713602,36.7743809],[-6.7749378,36.7248971],[-6.7671628,36.6757326],[-6.7483189,36.6285456],[-6.6903554,36.5189515],[-6.6573449,36.4707648],[-6.6215832,36.4371368],[-6.6207895,36.4349334],[-6.5909606,36.388421],[-6.3166394,36.0446426],[-6.2783988,36.0050834],[-6.2317871,35.9719395],[-6.1784186,35.9463521],[-6.1201347,35.9292012],[-6.0589408,35.9210765],[-6.0340425,35.9196703],[-5.8767518,35.8285595],[-5.8767162,35.8285644],[-5.8760049,35.8286618],[-5.8701348,35.8286133],[-5.7774504,35.8211216],[-5.7117002,35.8563655],[-5.7063075,35.8587069],[-5.7004794,35.8602066],[-5.6944133,35.860814],[-5.6883148,35.8605083],[-5.6095549,35.8505666],[-5.5412663,35.8968319],[-5.4915039,35.9305459],[-5.5412663,35.8968319],[-5.5614662,35.9085812],[-5.6067469,35.9480501],[-5.6388868,35.9905706],[-5.6388884,35.9905729],[-5.6388888,35.9905733],[-5.7060938,36.0421487],[-5.6336063,35.9865194],[-5.6284665,35.9832813],[-5.6226462,35.9809153],[-5.6163679,35.9795117],[-5.6098714,35.9791241],[-5.6034048,35.9797674],[-5.5972152,35.9814169],[-5.4172595,36.0455609],[-5.4117752,36.0480313],[-5.4069589,36.0512887],[-5.4029814,36.0552178],[-5.3999834,36.0596796],[-5.3980713,36.0645162],[-5.3973131,36.0695561],[-5.3948848,36.1426311],[-5.3935546,36.1422639],[-5.3910825,36.1347352],[-5.3910858,36.1347535],[-5.3920309,36.1400152],[-5.3916435,36.1454386],[-5.3899183,36.1506894],[-5.3869251,36.1555547],[-5.382785,36.159837],[-5.3776659,36.1633626],[-5.3734753,36.1652307],[-5.3658537,36.1631279],[-5.3586536,36.1411764],[-5.3370534,36.1411764],[-5.3281951,36.1670647],[-5.3235293,36.1658473],[-5.3175036,36.1630559],[-5.3123235,36.1593188],[-5.3082128,36.1547976],[-5.3053492,36.1496878],[-5.3038561,36.1442103],[-5.3037978,36.1386019],[-5.3040597,36.1363989],[-5.3040597,36.1363989],[-5.3040604,36.1363926],[-5.3040606,36.1363914],[-5.2614419,36.2608061],[-5.2362484,36.2738007],[-5.2316632,36.2766428],[-5.2277525,36.2800788],[-5.2246331,36.2840062],[-5.1672909,36.3719894],[-5.1672859,36.371987],[-5.1410627,36.3598286],[-5.0892382,36.3223716],[-5.0481967,36.2770771],[-5.0197023,36.2259143],[-5.0049661,36.1711033],[-5.0045972,36.115018],[-5.0083246,36.0846338],[-5.0136838,36.0631192],[-5.0137011,36.0630496],[-5.0137042,36.0630371],[-4.9285293,36.2078359],[-4.8443194,36.2353796],[-4.6552974,36.2378553],[-4.5923483,36.2434513],[-4.5318104,36.2584943],[-4.4758368,36.28245],[-4.3392613,36.3548356],[-4.2870096,36.3889534],[-4.2442214,36.4307741],[-4.2172849,36.4632272],[-3.8571331,36.481307],[-3.4711307,36.4290779],[-3.4042914,36.425364],[-3.337861,36.4323905],[-3.2744679,36.4498796],[-3.2166238,36.4771391],[-3.2153409,36.4778911],[-2.9959593,36.4815984],[-2.8489719,36.4324961],[-2.7908399,36.4178361],[-2.7303854,36.4118596],[-2.6695857,36.4147622],[-2.6104291,36.4264489],[-2.5548515,36.4465375],[-2.4506738,36.493667],[-2.3952152,36.525008],[-2.3795503,36.5383598],[-2.283725,36.4974485],[-2.226692,36.4782334],[-2.1662654,36.4677352],[-2.1044789,36.4663069],[-2.0434103,36.4739966],[-1.9851141,36.4905455],[-1.9315542,36.5153968],[-1.8845398,36.5477137],[-1.8456652,36.5864068],[-1.7534031,36.6976053],[-1.7340912,36.7062825],[-1.6787735,36.7373378],[-1.6322601,36.7766086],[-1.5964267,36.8225239],[-1.5727296,36.8732443],[-1.5010894,37.0902839],[-1.4490238,37.1482951],[-1.3551427,37.182373],[-1.3044412,37.2051081],[-1.2593421,37.2344074],[-1.2096627,37.2727405],[-1.1632935,37.2665446],[-1.0931563,37.2630173],[-1.0236091,37.2710388],[-0.9611755,37.2892302],[-0.926502,37.2864545],[-0.8651057,37.2904295],[-0.8056146,37.3031491],[-0.5866733,37.3670965],[-0.5258115,37.3904764],[-0.4719477,37.4229548],[-0.4272112,37.463254],[-0.3933803,37.5097865],[-0.3718115,37.5607163],[-0.3633836,37.6140296],[-0.3684593,37.6676141],[-0.3868662,37.7193421],[-0.388593,37.7220045],[-0.3922404,37.7653253],[-0.4005536,37.8091609],[-0.4008278,37.8098298],[-0.3817236,37.8263399],[-0.3499386,37.8657265],[-0.3272077,37.90885],[-0.3142262,37.9544228],[-0.3084441,37.9881294],[-0.3004028,37.9919826],[-0.2523214,38.0262853],[-0.2132746,38.067106],[-0.1846713,38.1129885],[-0.167554,38.1622936],[-0.1661009,38.1771292],[-0.1202157,38.2226499],[-0.1008275,38.2470729],[0.040709,38.2862441],[0.0962247,38.3060495],[0.1464385,38.3332207],[0.1897771,38.3669099],[0.2011302,38.3795808],[0.2103114,38.3817689],[0.2644112,38.4033888],[0.3128533,38.4321034],[0.4675628,38.5415507],[0.5155453,38.5832353],[0.5515102,38.6317659],[0.5738858,38.6850559],[0.5816769,38.7408091],[0.5745126,38.7966178],[0.5526686,38.8500662],[0.5170604,38.8988353],[0.4344418,38.9885289],[0.3845834,39.0318025],[0.3238999,39.0657571],[0.1633093,39.1363386],[0.0271109,39.434643],[0.027181,39.4485972],[0.2034973,39.7000969],[0.6293634,40.1189191],[0.6632902,40.1587827],[0.7653533,40.305094],[0.7952811,40.310604],[0.8582094,40.3327516],[0.9143168,40.3637928],[1.0941851,40.4850094],[1.1410227,40.5231926],[1.177356,40.5675034],[1.201811,40.616292],[1.216401,40.6567722],[1.2282664,40.7104871],[1.2256545,40.7649111],[1.2118567,40.807819],[2.1589315,41.0151613],[2.2201395,41.0329639],[2.2760506,41.0588657],[2.324796,41.0920035],[2.5163969,41.247876],[3.0964165,41.4719141],[3.1601119,41.5029787],[3.3794395,41.6359577],[3.4323807,41.6753205],[3.4734074,41.7219476],[3.5566259,41.8415998],[3.5833704,41.8915835],[3.5962726,41.9445107],[3.5947858,41.9982783],[3.5789336,42.0507447],[3.5622214,42.0880517],[3.5910169,42.1230812],[3.6453283,42.2056639],[3.6699572,42.2545264],[3.6814364,42.3059696],[3.6793056,42.3580724],[3.6636115,42.4088849],[3.6349114,42.4565003],[3.5942566,42.4991282],[3.5431563,42.5351618],[3.5123566,42.5496695],[3.5272089,42.5167483],[3.5427985,42.4664719],[3.5451304,42.4149248],[3.5341527,42.3639913],[3.5102979,42.3155291],[3.4744632,42.271301],[3.4279735,42.2329123],[3.3725312,42.2017535],[3.3101536,42.1789513],[3.2431001,42.1653291],[3.173793,42.1613783],[3.1584242,42.1626831],[3.1589314,42.1516031],[3.1584242,42.1626831],[3.1584242,42.1626832],[3.1562045,42.2111679],[3.1694469,42.227035],[3.2560748,42.2139191],[3.2629169,42.2133716],[3.2697775,42.2137862],[3.2764117,42.2151481],[3.2825828,42.2174086],[3.2880707,42.2204871],[3.2926793,42.2242737],[3.2962442,42.2286334],[3.350276,42.311358],[3.3527193,42.316251],[3.3538422,42.3213991],[3.3536024,42.3266094],[3.3520086,42.3316869],[3.3491201,42.3364416],[3.3450448,42.3406955],[3.3399351,42.344289],[3.3339824,42.3470877],[3.3274095,42.3489867],[3.2225758,42.370855],[3.2170976,42.4329143],[3.2169058,42.433779],[3.2170174,42.4288166],[3.2156136,42.4233855],[3.2127413,42.4182798],[3.2085212,42.4137137],[3.2031308,42.4098789],[3.1967965,42.4069362],[3.189784,42.4050091],[3.1830194,42.4042494],[3.1830192,42.4042513],[3.1806318,42.4311267],[3.0870309,42.4277495],[3.0294303,42.4648982],[2.9322293,42.469964],[2.7882279,42.4125523],[2.6910269,42.405798],[2.6406264,42.3720265],[2.6622266,42.3382549],[2.5470255,42.3517636],[2.5254253,42.3264349],[2.2770228,42.4294381],[2.1366214,42.4159295],[2.0646206,42.3585179],[2.0106201,42.3466978],[1.9638196,42.3669608],[1.9362393,42.42],[1.9,42.42],[1.9,42.4445349],[1.7082171,42.5020469],[1.5174152,42.4294381],[1.4490145,42.4345038],[1.4058141,42.4868497],[1.4490145,42.5037355],[1.4058141,42.5290642],[1.4310143,42.5949187],[1.3410134,42.7080534],[1.1502115,42.7063648],[1.0890109,42.7705307],[0.9198092,42.7840393],[0.7074071,42.8465167],[0.6694175,42.8320389],[0.6498065,42.8245652],[0.6318063,42.7452021],[0.6678067,42.7148077],[0.6426064,42.6844133],[0.3906039,42.6844133],[0.3546035,42.7181848],[0.2754028,42.6692161],[0.2394024,42.7097419],[0.1674017,42.7266277],[-0.0378004,42.6844133],[-0.1206012,42.7164962],[-0.1602016,42.7958594],[-0.2358024,42.7857279],[-0.3222032,42.8431395],[-0.4230042,42.7907936],[-0.5346053,42.8076794],[-0.5346053,42.7840393],[-0.5706057,42.7722193],[-0.6498065,42.8498939],[-0.7398074,42.885354],[-0.7614076,42.9461428],[-0.9450095,42.9478313],[-1.0278103,42.9866686],[-1.1502115,43.005243],[-1.3122131,43.0694089],[-1.2870129,43.1099348],[-1.3482135,43.093049],[-1.3662137,43.0339488],[-1.4562146,43.0457688],[-1.4886149,43.0812289],[-1.4094141,43.1673464],[-1.402214,43.2433324],[-1.5390154,43.2838582],[-1.6110161,43.2450209],[-1.6722167,43.3041211],[-1.7478175,43.2906125],[-1.7550176,43.3193183],[-1.798218,43.3412698],[-1.7946179,43.3851728],[-1.8126181,43.3953043],[-1.8316701,43.3863681],[-1.8316761,43.3863653],[-1.8316842,43.3863615],[-1.8316861,43.3863606],[-1.8316554,43.3867376],[-1.8305409,43.3918895],[-1.8280823,43.3967904],[-1.8243714,43.4012568],[-1.8195469,43.4051217],[-1.813789,43.4082404],[-1.8073132,43.410496],[-1.800362,43.4118041],[-1.7845173,43.4136128],[-1.7898934,43.4166393],[-1.7963473,43.4195558],[-1.8034841,43.4214552],[-1.8110044,43.4222577],[-1.8185924,43.4219296],[-1.8259296,43.4204848],[-1.8327081,43.4179838],[-1.9424805,43.3664901],[-1.9456794,43.3677797],[-1.9529883,43.3694207],[-1.9606052,43.3699356],[-1.9682056,43.3693026],[-1.975466,43.3675484],[-2.1279321,43.3173487],[-2.1667558,43.3326809],[-2.1668933,43.3327353],[-2.168405,43.356349],[-2.1650785,43.4002591],[-2.1546798,43.4504591],[-2.1314797,43.4983637],[-2.0962739,43.5422676],[-2.0502929,43.5806041],[-1.995161,43.6120022],[-1.9328394,43.6353368],[-1.8472502,43.6602358],[-1.8450107,43.6628289],[-1.8856765,43.659815],[-1.954064,43.6447748],[-2.0171857,43.6205245],[-2.0727005,43.5879659],[-2.1006938,43.5680134],[-2.1103201,43.5664825],[-2.5489399,43.669175],[-2.5504592,43.6694066],[-2.5622979,43.6764678],[-2.6244368,43.7009568],[-2.6918902,43.7164725],[-2.7622013,43.7224493],[-2.8328054,43.7186691],[-3.0099478,43.6966252],[-3.0770632,43.683437],[-3.139585,43.6614251],[-3.1591864,43.6508589],[-3.1621166,43.6537046],[-3.2177677,43.6896998],[-3.2822693,43.7169167],[-3.4267295,43.7643807],[-3.4913791,43.7805698],[-3.5590506,43.7879248],[-3.6274428,43.7861958],[-3.6942288,43.7754415],[-3.7466387,43.7592711],[-3.7631378,43.7626478],[-3.8437113,43.7660734],[-3.9234003,43.7568493],[-3.9984331,43.7354123],[-4.0970643,43.6977543],[-4.4601198,43.658564],[-5.2097699,43.7986402],[-5.2666079,43.8047286],[-5.2751809,43.80821],[-5.3475934,43.824854],[-5.4231826,43.8305329],[-5.5453271,43.8305961],[-5.6146872,43.8719556],[-5.6761272,43.9016804],[-5.7445166,43.9220741],[-5.8171546,43.9323305],[-5.8911664,43.9320438],[-5.9636206,43.9212259],[-6.0316504,43.9003053],[-6.0925703,43.8701098],[-6.1352263,43.8383585],[-7.0092564,43.8270028],[-7.0132372,43.8266564],[-7.0395996,43.828742],[-7.0579566,43.8288934],[-7.0938212,43.863865],[-7.1552703,43.9023736],[-7.2268699,43.9303607],[-7.4002747,43.9812109],[-7.4254092,43.9864431],[-7.4619671,44.0104569],[-7.527278,44.0384],[-7.5991081,44.0562697],[-7.674477,44.0633244],[-7.7502521,44.0592717],[-7.8232835,44.0442805],[-7.8544616,44.0325565],[-7.8770459,44.0354673],[-7.9476182,44.0348779],[-8.0167487,44.0247509],[-8.0819584,44.0054501],[-8.2335718,43.9478112],[-8.2939995,43.9190298],[-8.3455105,43.8823684],[-8.3861733,43.8392146],[-8.3875228,43.8369269],[-8.4538551,43.8176599],[-8.5231484,43.7910515],[-8.5831076,43.7545364],[-8.6310758,43.7097448],[-8.6649447,43.658672],[-8.683246,43.6035879],[-8.6860636,43.5880385],[-8.6912923,43.5864602],[-8.6951351,43.5876443],[-8.773328,43.6046695],[-8.854759,43.6089015],[-8.935464,43.6001354],[-9.0115167,43.5787988],[-9.1595175,43.5228548],[-9.2204176,43.4939044],[-9.2722756,43.456865],[-9.2831663,43.4452161],[-9.3387878,43.4297991],[-9.4035088,43.3994206],[-9.4580954,43.3599524],[-9.500192,43.3131138],[-9.5359869,43.262362],[-9.5500617,43.2366695],[-9.5848086,43.2059034],[-9.6177754,43.1621371],[-9.6390426,43.1146721],[-9.6479042,43.065146],[-9.6440848,43.0152634],[-9.6422872,43.009929],[-9.6433257,43.007624],[-9.6599128,42.9505632]],[[-8.8938889,42.1187399],[-8.8863321,42],[-8.8794888,41.8924705],[-8.8863321,42],[-8.8938889,42.1187399]],[[-6.0354604,36.1901451],[-6,36.188129],[-5.9166592,36.1833908],[-6,36.188129],[-6.0354604,36.1901451]],[[-6,43.5770084],[-6,43.5770084],[-5.9058591,43.5878021],[-6,43.5770084]],[[-4.0122401,43.4527159],[-4,43.4469748],[-3.9798398,43.4375187],[-4,43.4469748],[-4.0122401,43.4527159]],[[-0.0090001,38.8699172],[0,38.8677596],[0.1530015,38.83108],[0,38.8677596],[-0.0090001,38.8699172]],[[0,38.6184185],[0,38.6184185],[0.0810008,38.6318278],[0,38.6184185]],[[3.2141584,42],[3.2141584,42],[3.2346323,41.9650794],[3.2141584,42]]]}}
