{"type":"Feature","properties":{"family":"other","name":"Prince-Bishopric of Liège, 1789 – 1794"},"geometry":{"type":"Polygon","coordinates":[[[4.25,50.35],[4.3,50.15],[4.4,49.98],[4.6,49.98],[4.6618925,50.0088832],[4.6818468,50.0837589],[4.8150482,50.1614334],[4.8726487,50.1394819],[4.8657774,50.1040295],[4.9,50.12],[4.95,50.2],[5.05,50.3],[5.3,50.3],[5.45,50.34],[5.6,50.38],[5.95,50.4],[6,50.55],[5.8,50.7],[5.7517514,50.772373],[5.7,50.85],[5.85,51],[5.85,51.2],[5.5092544,51.2681491],[5.4604744,51.2779051],[5.45,51.28],[5.2146521,51.2623489],[5.05,51.25],[5,51],[4.95,50.8],[5.05,50.6],[5,50.42],[4.82,50.36],[4.6,50.36],[4.425,50.355],[4.25,50.35]]]}}
