{"type":"Feature","properties":{"family":"client","name":"Ligurian Republic, 1801 – 1804"},"geometry":{"type":"Polygon","coordinates":[[[8.9436704,44.1246202],[9.2853706,44.0132962],[9.5977225,43.8323553],[9.6582506,43.8035841],[9.7252859,43.7837421],[9.7963354,43.7735659],[9.8687626,43.7734326],[9.887778,43.7760851],[9.7631995,43.8456872],[9.7104231,43.881438],[9.6681242,43.9238321],[9.6378987,43.9712943],[9.6209023,44.0220567],[9.6203491,44.0313796],[9.4234589,44.2146998],[9.4279164,44.213501],[9.4354808,44.212652],[9.4431284,44.2129171],[9.4735633,44.2162137],[9.8098456,44.021084],[9.8158546,44.0182182],[9.8225145,44.0162316],[9.8295796,44.0151974],[9.8367892,44.0151538],[9.8438775,44.0161024],[9.8505828,44.0180082],[9.856658,44.0208009],[9.8618786,44.0243775],[9.866052,44.028606],[9.8690238,44.0333303],[9.8792432,44.0548764],[9.9295427,44.0273301],[9.9358586,44.024531],[9.9428165,44.0226798],[9.9501447,44.0218487],[9.9575569,44.0220703],[9.964764,44.0233357],[9.9898751,44.0296864],[9.9755287,44.0349868],[9.9694452,44.0377922],[9.9642219,44.0413837],[9.9600525,44.0456283],[9.957098,44.0503592],[9.9882999,44.0606038],[9.9926613,44.058992],[10.02,44.1],[9.85,44.25],[9.7,44.4],[9.45,44.47],[9.3174419,44.5848837],[9.3,44.55],[9.1142857,44.4142857],[9.0680458,44.380495],[9.102691,44.3746791],[9.1068612,44.3702781],[9.095099,44.3616855],[9.0891384,44.3581306],[9.0822844,44.3555239],[9.0748273,44.3539756],[9.0670831,44.3535514],[9.0593796,44.3542692],[9.0589836,44.3543357],[9.0594264,44.3542286],[9.0797235,44.3508228],[9.1146702,44.3139558],[9.1186503,44.3104316],[9.123398,44.3074335],[9.1287795,44.305046],[9.1935605,44.2814156],[9.2003178,44.27951],[9.20746,44.2785673],[9.2147221,44.2786226],[9.2218346,44.2796737],[9.2285339,44.2816818],[9.2345713,44.2845723],[9.2397227,44.2882379],[9.2437967,44.2925427],[9.246642,44.2973268],[9.2519079,44.3092562],[9.391404,44.2311588],[9.3378069,44.1921202],[9.2782681,44.1566864],[9.2099157,44.1307128],[9.1356222,44.1152881],[9.0584997,44.1110582],[8.9817746,44.1182009],[8.9436704,44.1246202]]]}}
