{"type":"Feature","properties":{"family":"client","name":"Ligurian Republic, 1797 – 1800"},"geometry":{"type":"Polygon","coordinates":[[[7.500675,43.79212],[7.5287814,43.7918758],[7.5379431,43.7917963],[7.5379454,43.7917962],[7.5379461,43.7917962],[7.5374391,43.7873053],[7.5354594,43.7822626],[7.5321652,43.7775928],[7.5276811,43.7734723],[7.5180224,43.7661759],[7.5209526,43.7654958],[7.5282207,43.7649108],[7.5283678,43.764899],[7.5595147,43.7646284],[7.6828981,43.7635565],[7.6912915,43.7634835],[7.6945844,43.7634549],[7.6945882,43.7634549],[7.6966393,43.7635805],[7.7018465,43.7638992],[7.70186,43.763902],[7.7035446,43.7642516],[7.7039591,43.7643376],[7.7040639,43.7643593],[7.7047536,43.7645024],[7.7040639,43.7643593],[7.7047536,43.7645024],[7.7088478,43.765352],[7.7089147,43.765371],[7.7089223,43.7653731],[7.8193864,43.7967574],[7.8955911,43.8184081],[7.8955936,43.8184088],[7.8955953,43.8184093],[7.8732232,43.7981231],[7.8698171,43.7509532],[7.8504573,43.6976729],[7.8165573,43.6483532],[7.769558,43.6050415],[7.7114321,43.5695317],[7.6479025,43.5445903],[7.6245871,43.5212374],[7.690202,43.5206664],[7.7624961,43.525091],[7.8322606,43.539561],[7.9678344,43.5780547],[8.2053398,43.64549],[8.2603766,43.6648823],[8.310328,43.6905052],[8.4074321,43.7494001],[8.4525442,43.7817958],[8.4894384,43.8192363],[8.5170366,43.8606443],[8.5618752,43.9456229],[8.6021097,43.9630877],[8.6681647,43.9994537],[8.7215365,44.0453758],[8.7595891,44.0986134],[8.771693,44.1214534],[8.8245345,44.1443998],[8.9231063,44.1278301],[8.9597392,44.1043822],[9.0202901,44.0727458],[9.0883187,44.0503261],[9.1611479,44.0380031],[9.2034065,44.0370241],[9.6129555,43.8239453],[9.6738556,43.7979757],[9.7404013,43.7807114],[9.8102364,43.7727625],[9.8808928,43.7744099],[9.8885465,43.775652],[9.763192,43.8456883],[9.7104177,43.881438],[9.6681208,43.9238307],[9.637897,43.9712913],[9.6209019,44.0220521],[9.6203486,44.0313772],[9.4234551,44.2147012],[9.4279166,44.2135012],[9.435481,44.2126523],[9.4431286,44.2129174],[9.473563,44.216214],[9.8098458,44.0210847],[9.8158549,44.0182189],[9.8225148,44.0162323],[9.82958,44.0151981],[9.8367896,44.0151545],[9.8438778,44.0161031],[9.8505832,44.0180088],[9.8566583,44.0208014],[9.8618789,44.0243779],[9.8660522,44.0286063],[9.869024,44.0333305],[9.8792435,44.054877],[9.9295426,44.027331],[9.9358587,44.0245319],[9.9428168,44.0226807],[9.9501452,44.0218496],[9.9575576,44.0220711],[9.9647648,44.0233366],[9.9898737,44.0296868],[9.9755279,44.034987],[9.9694445,44.0377923],[9.9642214,44.0413837],[9.9600522,44.0456282],[9.9570977,44.0503591],[9.957098,44.0503592],[9.9882999,44.0606038],[9.9926613,44.058992],[10.02,44.1],[9.85,44.25],[9.7,44.4],[9.45,44.47],[9.3174419,44.5848837],[9.3174419,44.5848837],[9.3,44.6],[9.2,44.6],[9,44.7],[8.8,44.78],[8.6,44.65],[8.5,44.55],[8.375,44.475],[8.25,44.4],[8,44.2],[7.6390664,44.0195332],[7.5917131,43.9763231],[7.53,43.8],[7.5287814,43.7918758],[7.5379431,43.7917963],[7.5379454,43.7917962],[7.5379461,43.7917962],[7.695077,43.7904314],[7.5379461,43.7917962],[7.5379454,43.7917962],[7.5379431,43.7917963],[7.5287814,43.7918758],[7.500675,43.79212]]]}}
