{"type":"Feature","properties":{"family":"other","name":"Republic of Lucca, 1789 – 1800"},"geometry":{"type":"Polygon","coordinates":[[[10.1637389,43.9285371],[10.1649189,43.9231339],[10.1675872,43.9180131],[10.1716251,43.9133952],[10.171634,43.9133851],[10.1785528,43.9070099],[10.2146012,43.8394501],[10.2180592,43.8206797],[10.2181349,43.8202688],[10.2181461,43.8202079],[10.2181476,43.8201999],[10.2213281,43.8029362],[10.2213321,43.8029238],[10.2230773,43.797626],[10.2262711,43.7926785],[10.2307784,43.7882962],[10.2364147,43.7846581],[10.2429492,43.7819131],[10.2641776,43.7749456],[10.2641776,43.7749456],[10.2583867,43.806484],[10.28,43.8],[10.4,43.76],[10.55,43.75],[10.65,43.82],[10.65,43.95],[10.58,44.1],[10.5095238,44.117619],[10.45,44.07],[10.44,44.06],[10.4,44.02],[10.3,43.95],[10.23,43.93],[10.2011452,43.93],[10.2115021,43.9204518],[10.2011452,43.93],[10.1927264,43.9377614],[10.1757498,43.9349321],[10.1687277,43.9342549],[10.1642508,43.9344363],[10.1642508,43.9344362],[10.1640962,43.9340006],[10.1637389,43.9285371]]]}}
