{"type":"Feature","properties":{"family":"client","name":"Principality of Lucca and Piombino, under Elisa Bonaparte, 1806 – 1813"},"geometry":{"type":"Polygon","coordinates":[[[9.7,44.4],[9.85,44.25],[10.02,44.1],[10.02,44.048889],[10.0532216,44.0366119],[10.0532221,44.0366117],[10.0532258,44.0366104],[10.0532271,44.0366099],[10.0532282,44.0366095],[10.0532282,44.0366095],[10.0532288,44.0366093],[10.053229,44.0366092],[10.1071011,44.0167007],[10.053229,44.0366092],[10.0506707,44.0333396],[10.0456434,44.0291951],[10.0395482,44.0258713],[10.0326391,44.0235066],[10.0252039,44.0221995],[10.0175521,44.0220043],[10.0100021,44.0229292],[10.0028683,44.0249358],[10.0022752,44.025155],[10.0022711,44.0251565],[10.0023791,44.0251072],[10.0023905,44.025102],[10.0024154,44.0250907],[10.0028641,44.0248859],[10.0826219,43.9954185],[10.1785466,43.9070217],[10.2146013,43.8394501],[10.2213282,43.8029362],[10.2213839,43.8027672],[10.2214002,43.8027178],[10.2214129,43.8026792],[10.2230775,43.797626],[10.2262713,43.7926785],[10.2307786,43.7882961],[10.2364149,43.7846581],[10.2429495,43.7819131],[10.2641776,43.7749456],[10.2583867,43.806484],[10.2583867,43.806484],[10.25349,43.8331521],[10.2534889,43.833158],[10.2534888,43.8331585],[10.2511025,43.8461544],[10.2534888,43.8331585],[10.2534889,43.833158],[10.25349,43.8331521],[10.2583867,43.806484],[10.28,43.8],[10.4,43.76],[10.55,43.75],[10.65,43.82],[10.65,43.95],[10.58,44.1],[10.5095238,44.117619],[10.45,44.07],[10.44,44.06],[10.4413333,44.0653333],[10.3478571,44.015],[10.32,44],[10.3478571,44.015],[10.325,44.175],[10.3,44.35],[10.1428571,44.3892857],[10.05,44.38],[9.85,44.45],[9.7,44.4]]]}}
