{"type":"Feature","properties":{"family":"other","name":"Malta, held by the Knights of St John, 1789 – 1798"},"geometry":{"type":"Polygon","coordinates":[[[13.8495119,36.0858086],[13.8509013,36.0338758],[13.8645623,35.98312],[13.8899668,35.9354184],[13.9261566,35.8925324],[13.9717817,35.8560427],[14.0174496,35.8259271],[14.03269,35.781501],[14.0581301,35.738548],[14.0924544,35.6998888],[14.1345863,35.6667227],[14.2137164,35.6145146],[14.2736555,35.5829441],[14.3404765,35.5624987],[14.4445586,35.5406193],[14.5096328,35.532387],[14.5754224,35.5347477],[14.6393572,35.5476092],[14.6989375,35.5704691],[14.7518291,35.6024333],[14.7959527,35.6422508],[14.835621,35.6860655],[14.8682767,35.7304406],[14.8899395,35.7790536],[14.8997961,35.8301258],[14.8974624,35.8817853],[14.8830005,35.9321348],[14.8569201,35.9793217],[14.820163,36.0216065],[14.6978579,36.136686],[14.6535436,36.1712404],[14.6020889,36.1986183],[14.594599,36.2011587],[14.5802957,36.2166373],[14.5319334,36.2518746],[14.4759776,36.2788543],[14.4145642,36.2965431],[14.2628888,36.3270387],[14.1991051,36.3346468],[14.1346936,36.3322322],[14.0720664,36.3198854],[14.0135667,36.2980686],[13.9613787,36.267598],[13.9174445,36.2296125],[13.883391,36.1855301],[13.8604696,36.1369935],[13.8495119,36.0858086]]]}}
