{"type":"Feature","properties":{"family":"britain","name":"Menorca, held by Britain, 1799 – 1800"},"geometry":{"type":"Polygon","coordinates":[[[3.4515177,40.0063541],[3.4611666,39.9547745],[3.4684544,39.9387542],[3.842551,39.9855169],[3.8482874,39.9857862],[3.8502385,39.9843782],[3.8322383,39.9354095],[3.8905092,39.932194],[3.8880134,39.9289152],[3.881918,39.9236352],[3.8745973,39.9193681],[3.8663327,39.9162777],[3.8574413,39.9144827],[3.4929913,39.868927],[3.4983173,39.850837],[3.5264608,39.8023254],[3.5663848,39.7589758],[3.6165322,39.722457],[3.6749617,39.6941721],[3.7394225,39.6752065],[3.8074398,39.6662874],[3.8074879,39.6662847],[3.9070984,39.660824],[4.0689534,39.5860798],[4.1402472,39.5609334],[4.21698,39.5486013],[4.2953428,39.5496952],[4.3455513,39.5547414],[4.4135556,39.5669557],[4.4770979,39.5892996],[4.5336693,39.6208927],[4.5810278,39.6604891],[4.6164878,39.7055125],[4.6174154,39.7062869],[4.6539284,39.7528153],[4.6776152,39.8040212],[4.6874893,39.8578352],[4.6831181,39.9120771],[4.6646458,39.9645447],[4.6327931,40.0131026],[4.4677012,40.2110868],[4.4268074,40.251066],[4.3767848,40.2844752],[4.3194053,40.310123],[4.2567106,40.3270935],[4.232274,40.3299539],[4.2189289,40.3345371],[4.1523555,40.3463861],[4.0840265,40.3482199],[4.0165209,40.3399691],[3.7130358,40.2789461],[3.6490406,40.2607563],[3.5908658,40.2334888],[3.5406948,40.1981709],[3.5004015,40.1561313],[3.4752865,40.1151597],[3.4714796,40.1089492],[3.4549887,40.0583931],[3.4515177,40.0063541]],[[3.8322383,39.9354095],[3.8905092,39.932194],[4,39.9261521],[4,39.9261521],[4.0158402,39.925278],[4,39.9261521],[4,39.9261521],[3.8905092,39.932194],[3.8322383,39.9354095]],[[3.803438,40.0181498],[3.8285899,40],[3.8285899,40],[3.803438,40.0181498]],[[3.8214382,40.0468556],[4,40.0669988],[4.1058411,40.0789386],[4,40.0669988],[3.8214382,40.0468556]],[[4.2412448,40],[4.2412448,40],[4.2642426,39.9860668],[4.2412448,40]]]}}
