{"type":"Feature","properties":{"family":"other","name":"Duchy of Modena, 1789 – 1796"},"geometry":{"type":"Polygon","coordinates":[[[9.7,44.4],[9.85,44.25],[10.02,44.1],[10.02,44.048889],[10.0532216,44.0366119],[10.0532221,44.0366117],[10.0532258,44.0366104],[10.0532271,44.0366099],[10.0532282,44.0366095],[10.0532288,44.0366093],[10.053229,44.0366092],[10.1071011,44.0167007],[10.053229,44.0366092],[10.0532288,44.0366093],[10.0532282,44.0366095],[10.0506776,44.0333459],[10.0456446,44.0291905],[10.039543,44.0258566],[10.0326272,44.0234832],[10.0251853,44.0221691],[10.0175274,44.0219691],[10.0099725,44.0228915],[10.0028425,44.0248958],[10.0028439,44.0248952],[10.0028641,44.024886],[10.0826144,43.9954213],[10.1377387,43.9446195],[10.1377568,43.9446057],[10.1426065,43.9409121],[10.148356,43.9379306],[10.1547818,43.9357814],[10.1616541,43.9345415],[10.1642508,43.9344363],[10.1687277,43.9342549],[10.1757498,43.9349321],[10.1927264,43.9377614],[10.1927264,43.9377615],[10.1927264,43.9377615],[10.1927261,43.9377617],[10.1672869,43.9612145],[10.1672869,43.9612145],[10.1397992,43.9865558],[10.1252163,44],[10.1397992,43.9865558],[10.1672869,43.9612145],[10.22,43.97],[10.32,44],[10.3478571,44.015],[10.4413333,44.0653333],[10.45,44.07],[10.5095238,44.117619],[10.55,44.15],[10.67,44.14],[10.9,44.18],[11,44.15],[11.05,44.35],[11.05,44.55],[11.2,44.7],[11.3,44.82],[11.2,44.92],[11,44.88],[10.8,44.88],[10.65,44.9],[10.5,44.95],[10.4,44.55],[10.25,44.4],[10.1428571,44.3892857],[10.05,44.38],[9.85,44.45],[9.7,44.4]],[[10.1071011,44.0167007],[10.1252163,44],[10.1252163,44],[10.1071011,44.0167007]]]}}
