{"type":"Feature","properties":{"family":"other","name":"Sultanate of Morocco, 1789 – 1815"},"geometry":{"type":"Polygon","coordinates":[[[-16.2939558,23.6639686],[-16.2860871,23.6109082],[-16.2669055,23.5603625],[-16.2591433,23.5483457],[-16.276414,23.5137661],[-16.2893049,23.468693],[-16.2935359,23.4222888],[-16.2902305,21.9986666],[-16.284579,21.9461201],[-16.2679799,21.8956588],[-16.2410834,21.8492222],[-16.204932,21.8085931],[-16.16092,21.7753302],[-16.1107393,21.7507085],[-16.0563148,21.7356718],[-15.9997315,21.7307964],[-14.5129383,21.7305863],[-14.4552098,21.7356478],[-14.3996647,21.7512738],[-14.3485163,21.7768432],[-14.3038056,21.8113384],[-14.1032573,22],[-14.5101037,22],[-14.4415444,22.0803934],[-14.3083431,22.190151],[-14.2219422,22.3100399],[-14.1895419,22.4501919],[-14.1715417,22.7592015],[-14.099541,23.1002941],[-14.0203402,23.4109923],[-13.8907389,23.6912961],[-13.7683377,23.7909222],[-13.3111331,23.9800429],[-13.0591306,24.4004986],[-12.9907299,24.4697303],[-12.6307263,24.6791139],[-12.4291243,24.8293972],[-12.3103231,25.1097011],[-12.0583206,25.9911384],[-12.0295203,26.0299757],[-12,26.0369784],[-12,26.0369784],[-11.7163172,26.1042731],[-11.6371164,26.2950823],[-11.4679147,26.5196631],[-11.3383134,26.6327978],[-11.3167132,26.6834551],[-11.3167132,26.7442439],[-11.3923139,26.8827072],[-10.9207092,27.0093505],[-10.7551076,27.0194819],[-10.5499055,26.9907761],[-10.2511025,26.8607557],[-10.0315003,26.9097244],[-9.898299,26.8489356],[-9.8154982,26.8489356],[-9.7326973,26.8607557],[-9.4122941,27.0887136],[-9.00189,27.0904022],[-8.7930879,27.1207966],[-8.7534875,27.151191],[-8.7534875,27.1900283],[-8.796688,27.3082287],[-8.7750878,27.4602006],[-8.8182882,27.6611413],[-8.6814868,27.6611413],[-8.6670867,28.7114364],[-8.4294843,28.8414568],[-8.3682837,28.9157542],[-8.0370804,29.0998091],[-7.6518765,29.3767358],[-7.3494735,29.3834901],[-7.2594726,29.467919],[-7.0686707,29.5168877],[-6.9570696,29.5084448],[-6.7842678,29.4459675],[-6.697867,29.5168877],[-6.2730627,29.5793651],[-5.99946,29.5793651],[-5.7546575,29.6148252],[-5.7222572,29.523642],[-5.6358564,29.4949362],[-5.5386554,29.523642],[-5.2722527,29.8866862],[-5.1750518,29.9778693],[-4.8762488,30.1804986],[-4.6242462,30.2851904],[-4.4838448,30.3831279],[-4.3722437,30.5080826],[-4.1562416,30.5857571],[-3.8358384,30.6279716],[-3.6450365,30.7107119],[-3.6594366,30.8373552],[-3.5550356,30.9555556],[-3.6234362,31.0872646],[-3.7314373,31.1767592],[-3.8106381,31.1429876],[-3.8430384,31.1700049],[-3.8142381,31.2206622],[-3.8142381,31.337174],[-3.7458375,31.3844542],[-3.6738367,31.3895199],[-3.6594366,31.6478722],[-3.5910359,31.6782666],[-3.2202322,31.7171039],[-2.8278283,31.7947785],[-2.9394294,32.0480651],[-2.8818288,32.0767709],[-2.5146251,32.1324939],[-1.2114121,32.0902795],[-1.1898119,32.1257396],[-1.2114121,32.1578226],[-1.3050131,32.1510683],[-1.3086131,32.167954],[-1.2762128,32.200037],[-1.2438124,32.3570747],[-1.2186122,32.3925348],[-1.1214112,32.4178635],[-1.0314103,32.4938495],[-1.4238142,32.7420703],[-1.5570156,32.9328795],[-1.503015,32.975094],[-1.499415,33.0595228],[-1.6758168,33.238512],[-1.6830168,33.3685325],[-1.6110161,33.522193],[-1.6614166,33.6454592],[-1.7478175,33.7028708],[-1.701017,33.7721025],[-1.7190172,33.8987457],[-1.6686167,34.0794235],[-1.7478175,34.2904957],[-1.8090181,34.373236],[-1.704617,34.4796163],[-1.8702187,34.5961282],[-1.7694177,34.7413458],[-1.9782198,34.8646119],[-2.00342,34.9186464],[-2.1942219,35.0030753],[-2.2230222,35.0891927],[-2.2537541,35.0988025],[-2.2512795,35.1030982],[-2.2473191,35.107421],[-2.2423735,35.111005],[-2.2366432,35.113705],[-2.2303603,35.1154114],[-2.2203712,35.1172337],[-2.4056015,35.1751587],[-2.4113946,35.1764829],[-2.4173892,35.176922],[-2.423385,35.1764612],[-2.4291816,35.175116],[-2.4345852,35.1729312],[-2.526368,35.126809],[-2.5483484,35.1280662],[-2.5378127,35.1696797],[-2.5139434,35.2165166],[-2.4796264,35.2588071],[-2.4360793,35.2950317],[-2.3848576,35.3238865],[-2.3277991,35.3443311],[-2.2669577,35.3556272],[-2.2045276,35.3573661],[-2.1481308,35.3545328],[-2.2988452,35.4016944],[-2.3569174,35.4149772],[-2.41703,35.4193866],[-2.4771573,35.4147732],[-2.5352726,35.4012918],[-2.5667737,35.3885573],[-2.6374305,35.4346524],[-2.6377612,35.4525304],[-2.6454237,35.5062564],[-2.6661281,35.5576142],[-2.6990602,35.6045275],[-2.7429055,35.6450964],[-2.7959003,35.6776753],[-2.8559015,35.7009407],[-2.9204742,35.7139461],[-2.9869923,35.7161617],[-3.0527481,35.7074963],[-3.1150651,35.6883018],[-3.1714104,35.659358],[-3.2194999,35.6218405],[-3.2573922,35.5772721],[-3.3102059,35.4993731],[-3.3662424,35.4796539],[-3.4720619,35.4915687],[-3.5182897,35.5161529],[-3.5773299,35.5409956],[-3.641336,35.5556689],[-3.7076983,35.5595734],[-3.7737084,35.5525491],[-3.836672,35.5348819],[-3.8494402,35.5287431],[-3.8856159,35.5347847],[-3.9544006,35.5344082],[-4.0216262,35.5224157],[-4.3574093,35.4312577],[-4.6271658,35.4891465],[-4.8435393,35.6180042],[-4.959632,35.7240174],[-5.0626369,35.9639829],[-5.0848046,35.9376544],[-5.1324211,35.9000357],[-5.1882746,35.8708044],[-5.226434,35.8586623],[-5.2423924,35.8478894],[-5.2971415,35.8232542],[-5.303297,35.8210618],[-5.3065583,35.8430426],[-5.307687,35.8506499],[-5.3092445,35.8561677],[-5.3121874,35.8612974],[-5.3194048,35.8710345],[-5.3406534,35.8473639],[-5.398254,35.9250385],[-5.3557386,35.9200531],[-5.3697705,35.9389837],[-5.373365,35.9429534],[-5.3777919,35.9463243],[-5.3829032,35.9489838],[-5.3885279,35.9508428],[-5.3944779,35.9518391],[-5.4005543,35.9519396],[-5.4065537,35.9511407],[-5.4785757,35.9359395],[-5.4854062,35.9338223],[-5.4915039,35.9305459],[-5.5412663,35.8968319],[-5.6095549,35.8505666],[-5.6883148,35.8605083],[-5.6944133,35.860814],[-5.7004794,35.8602066],[-5.7063075,35.8587069],[-5.7117002,35.8563655],[-5.7774504,35.8211216],[-5.8701348,35.8286133],[-5.8760049,35.8286618],[-5.8767162,35.8285644],[-5.8767518,35.8285595],[-5.876753,35.8285594],[-5.8767578,35.8285587],[-6.0340931,35.9196971],[-6.0589967,35.9211038],[-6.1201848,35.9292277],[-6.1784615,35.9463756],[-6.1861189,35.9500469],[-6.2184173,35.911124],[-6.2426161,35.8658493],[-6.5947992,34.9864265],[-7.0879094,34.2027871],[-7.2189834,34.0987138],[-7.5460492,33.9702429],[-7.5889946,33.9498226],[-7.6276887,33.9242128],[-7.7036895,33.8654317],[-8.4021713,33.6420825],[-8.4558365,33.6197576],[-8.5036081,33.5895451],[-8.5734977,33.5360718],[-8.6347068,33.5242017],[-8.6940405,33.5014124],[-8.7466371,33.469111],[-8.7903424,33.4286253],[-9.1097806,33.0625479],[-9.4792905,32.7741441],[-9.5206758,32.7346338],[-9.5521142,32.6890977],[-9.5724174,32.6392791],[-9.5808277,32.5870823],[-9.5953422,32.2570011],[-9.6385494,32.1711803],[-9.9079471,31.90716],[-9.9553055,31.8449642],[-10.1345256,31.5170064],[-10.1546176,31.4683805],[-10.1634823,31.4173783],[-10.1608134,31.365865],[-10.1467267,31.3157218],[-10.1360962,31.2957452],[-10.1595401,31.1612285],[-10.1611552,31.0924993],[-10.1319766,30.8606029],[-10.1825442,30.7399443],[-10.1973804,30.6898469],[-10.2008223,30.6382335],[-10.1927612,30.5870005],[-10.1735102,30.5380272],[-10.1437904,30.4931076],[-10.104702,30.4538848],[-10.057683,30.421792],[-9.9353179,30.353474],[-9.9339909,30.3514415],[-9.9559888,30.2065972],[-10.0809774,29.9888559],[-10.2904246,29.7736423],[-10.323698,29.7319308],[-10.4996042,29.4589111],[-10.7683374,29.2049134],[-11.2150245,28.9874009],[-11.2589105,28.9613295],[-11.2970149,28.9290544],[-11.6751121,28.5463954],[-12.1588791,28.3462252],[-13.0134558,28.1918405],[-13.0666508,28.1774912],[-13.1160027,28.1548817],[-13.1598737,28.1247643],[-13.196812,28.0881399],[-13.2255997,28.0462244],[-13.2827017,27.9427817],[-13.3401154,27.9088617],[-13.389096,27.8728156],[-13.4285046,27.8285642],[-13.4566284,27.7780459],[-13.8129506,26.9157049],[-14.0662286,26.7425027],[-14.2739345,26.6806663],[-14.3300329,26.6579944],[-14.3798002,26.6256221],[-14.6678482,26.3938539],[-14.7127924,26.3483599],[-14.7452046,26.2950255],[-14.7634551,26.2365652],[-14.8032044,26.0153955],[-15.0914112,25.4414697],[-15.1099405,25.3921738],[-15.1176238,25.3406037],[-15.1334456,24.9558119],[-15.1690196,24.8232051],[-15.2122253,24.7708663],[-15.346407,24.7042566],[-15.3912662,24.6768628],[-15.4299137,24.6425437],[-15.8123127,24.2331],[-15.9943676,24.1323986],[-16.0482071,24.0941664],[-16.0910119,24.0457144],[-16.2487229,23.8172352],[-16.2749109,23.7692182],[-16.2901857,23.7174447],[-16.2939558,23.6639686]],[[-15.6651734,24],[-15.6187562,24.0256344],[-15.6651734,24],[-15.6651734,24]],[[-14.5135451,25.9371039],[-14.5020766,26],[-14.4667447,26.1937677],[-14.5135451,25.9371039]],[[-12.5119251,27.9954796],[-12.4966917,28],[-12.3355234,28.0478255],[-12.5119251,27.9954796]],[[-12.0619206,28.0883514],[-12,28.113946],[-11.4859149,28.3264408],[-12.0619206,28.0883514]],[[-10.0531005,29.599628],[-10,29.6540392],[-10,29.6540392],[-10.0531005,29.599628]],[[-9.7264527,30],[-9.6534965,30.1264641],[-9.7264527,30],[-9.7264527,30]],[[-9.6678967,31.7306125],[-9.3922171,32],[-9.3654937,32.0261136],[-9.6678967,31.7306125]],[[-8.2854829,33.390484],[-8,33.4710865],[-7.9146791,33.4951758],[-8.2854829,33.390484]],[[-6.9282693,33.9443373],[-6.8668139,34],[-6.8668139,34],[-6.9282693,33.9443373]],[[-2.9646296,35.2867563],[-2.9466295,35.3289707],[-2.9142291,35.2766248],[-2.9646296,35.2867563]]]}}
