{"type":"Feature","properties":{"family":"client","name":"Kingdom of Naples under Joseph Bonaparte, 1806 – 1808"},"geometry":{"type":"Polygon","coordinates":[[[12.95,42.3],[13.05,42.15],[13.18,42.05],[13.3,41.95],[13.42,41.82],[13.55,41.7],[13.52,41.55],[13.36,41.42],[13.2786779,41.2943204],[13.2859329,41.2964028],[13.3137221,41.286808],[13.3137255,41.2868068],[13.3137367,41.286803],[13.3137367,41.286803],[13.3137382,41.2868025],[13.3109773,41.2825388],[13.3074579,41.2781905],[13.3029149,41.2744163],[13.2975101,41.2713504],[13.2914358,41.2691017],[13.2846905,41.2671657],[13.2846905,41.2671657],[13.2846905,41.2671657],[13.5301287,41.1824105],[13.5358531,41.1808531],[13.5418447,41.1800466],[13.5479312,41.1800142],[13.5767198,41.181702],[13.5836447,41.1826278],[13.5901962,41.1845529],[13.5961225,41.1874034],[13.6011954,41.1910697],[13.6052196,41.1954106],[13.6080402,41.2002593],[13.6095483,41.2054291],[13.6096856,41.2107211],[13.6084463,41.2159314],[13.6049881,41.2251388],[13.60582,41.2255288],[13.6539401,41.2255298],[13.6539623,41.2255298],[13.6539863,41.2255298],[13.6539982,41.2255298],[13.6539967,41.2255283],[13.5713494,41.1383825],[13.5249509,41.0982396],[13.46905,41.0657174],[13.4058145,41.0420699],[13.2697438,41.0030361],[13.2697445,41.0030359],[13.401766,40.9597505],[13.4641991,40.944147],[13.5293434,40.9374144],[13.572462,40.9389707],[13.581282,40.9292484],[13.5810905,40.9290978],[13.5422062,40.8821757],[13.5168608,40.8302354],[13.5060937,40.7754736],[13.5027906,40.7197424],[13.5064749,40.6670912],[13.523576,40.6159868],[13.553413,40.5683756],[13.5948266,40.5260671],[13.6462262,40.490666],[13.7056516,40.4635129],[13.7708477,40.4456349],[13.8393482,40.4377075],[13.908566,40.4400303],[13.9758881,40.4525158],[14.0198785,40.4642163],[14.0319777,40.4423313],[14.0707533,40.3986027],[14.1199133,40.3614364],[14.177578,40.3322419],[14.2415545,40.312125],[14.3094181,40.3018469],[14.3786021,40.3017963],[14.4464916,40.3119753],[14.5828273,40.3430954],[14.5638966,40.2978926],[14.5561345,40.2451133],[14.5620704,40.1921966],[14.5814431,40.1411912],[14.6134754,40.0940672],[14.6569079,40.0526409],[14.710051,40.018506],[14.7708508,39.9929736],[14.9244259,39.9426385],[15.0927189,39.8139629],[15.1426919,39.7821303],[15.1993955,39.7578829],[15.2609058,39.7420411],[15.325141,39.7351403],[15.3899306,39.7374138],[15.4530862,39.7487847],[15.4548787,39.7492448],[15.5256072,39.5056479],[15.5416154,39.4653751],[15.5655263,39.4275123],[15.6977224,39.2534178],[15.7394541,39.0366549],[15.7562778,38.984831],[15.7858804,38.9365953],[15.7903835,38.9308078],[15.734506,38.9160632],[15.6708164,38.8934013],[15.614328,38.8612099],[15.5709025,38.8238648],[15.567356,38.8208148],[15.5318139,38.7738774],[15.5091366,38.7223241],[15.500224,38.6682668],[15.5049325,38.6189074],[15.5054088,38.6139147],[15.5208235,38.5714647],[15.5244478,38.561484],[15.5480905,38.5148442],[15.5345716,38.4865879],[15.4615386,38.4536084],[15.4025116,38.4198854],[15.3539502,38.377144],[15.3180354,38.327322],[15.2963643,38.2726741],[15.2920634,38.2348509],[15.3839601,38.2578378],[15.5094305,38.3248674],[15.5152106,38.3273504],[15.5214886,38.3289226],[15.5280337,38.3295263],[15.5346053,38.3291394],[15.5409619,38.327776],[15.6597979,38.2923033],[15.665936,38.2898912],[15.6713403,38.2865697],[15.6757953,38.2824713],[15.6791234,38.2777597],[15.6811918,38.2726229],[15.6812013,38.272553],[15.6160452,38.2432059],[15.6104833,38.2400763],[15.6058219,38.2361425],[15.602246,38.2315607],[15.5998973,38.2265129],[15.5988688,38.2211994],[15.5992011,38.2158312],[15.6049616,38.1855132],[15.5303951,38.0723318],[15.527941,38.0691566],[15.3470555,37.8667069],[15.3524867,37.8587704],[15.3938659,37.8188754],[15.4910719,37.7414081],[15.5436355,37.7070766],[15.570271,37.6958183],[15.6037349,37.6816738],[15.6689851,37.6662049],[15.7368036,37.6612815],[16.0631893,37.6629646],[16.1299241,37.6684245],[16.1940364,37.6840977],[16.2530634,37.7093829],[16.3047319,37.7433091],[16.3470437,37.784572],[16.3783523,37.8315828],[16.4679992,38.0053858],[16.5420205,38.0773024],[16.7566131,38.1933026],[16.8112385,38.2298461],[16.8550603,38.2744966],[16.886156,38.3253173],[16.9031461,38.3800995],[16.9052576,38.4364569],[16.8872934,38.6225236],[16.9524618,38.6550845],[16.9861993,38.6454202],[17.0520922,38.632091],[17.120039,38.6290761],[17.1874297,38.636491],[17.2516753,38.6540508],[17.3103037,38.6810807],[17.3610522,38.7165408],[17.4019532,38.7590654],[17.5030961,38.8888225],[17.5320048,38.9353177],[17.5490226,38.9852462],[17.5535017,39.0367831],[17.5452504,39.0880405],[17.5245444,39.1371365],[17.49212,39.1822649],[17.465083,39.2071242],[17.4632227,39.2407129],[17.4967518,39.337275],[17.5081034,39.391172],[17.5051846,39.4457337],[17.488082,39.4987237],[17.4574666,39.5479648],[17.4145717,39.5914294],[17.3611455,39.6273241],[16.9825389,39.8323054],[16.9452901,39.8488899],[16.9673649,39.888326],[16.981573,39.948054],[16.9780084,40.008707],[16.9747106,40.0245789],[17.0877005,40.1574556],[17.22286,40.0974659],[17.2873376,40.0750517],[17.3563393,40.0629062],[17.6150531,40.0375497],[17.6149772,40.032805],[17.6292088,39.9778404],[17.6579213,39.9263076],[17.7627848,39.7813647],[17.8004773,39.7391274],[17.8478265,39.7031092],[17.9031257,39.6745977],[18.1688935,39.5635442],[18.2257774,39.5444765],[18.2861106,39.5334202],[18.3480172,39.5307185],[18.4095743,39.5364552],[18.4688696,39.5504518],[18.5227041,39.5672777],[18.5787965,39.5894975],[18.6288435,39.6190911],[18.6712268,39.6551064],[18.7045681,39.6963831],[18.7277747,39.7415892],[18.7400759,39.7892633],[18.7536668,39.8875962],[18.8132043,39.9584211],[18.8432143,40.0025002],[18.8621841,40.0500465],[18.869448,40.0994504],[18.8647342,40.1490359],[18.8481771,40.197117],[18.769681,40.3611267],[18.7462294,40.4000659],[18.7149473,40.4356793],[18.5172508,40.6252699],[18.4786038,40.6566727],[18.4338393,40.6830062],[18.3465909,40.7262666],[18.3288776,40.7641784],[18.2973415,40.8059636],[18.2564549,40.8428287],[18.2075146,40.8735911],[18.1520825,40.8972625],[17.6638702,41.0626493],[17.2820605,41.2930269],[17.2336548,41.3174802],[17.1805854,41.3357007],[16.742402,41.4537298],[16.4236829,41.5853192],[16.4686668,41.6183722],[16.5084161,41.6618773],[16.5361418,41.7103173],[16.5507641,41.7618542],[16.5516955,41.8145284],[16.5388674,41.8663319],[16.4891026,41.9948106],[16.4601974,42.0475422],[16.4169806,42.0945783],[16.3613616,42.1338091],[16.2958195,42.1634719],[16.223293,42.1822315],[16.1470455,42.1892424],[15.2521963,42.1973073],[15.0461873,42.2736182],[15.0384597,42.2896234],[15.0061082,42.3312614],[14.9642419,42.367985],[14.9141827,42.3986216],[14.8575217,42.4221911],[14.7749317,42.4496424],[14.3879899,42.7476831],[14.2611948,42.9792153],[14.2614107,42.9787196],[14.2649976,42.9704873],[14.2797111,42.9196721],[14.28084,42.8677344],[14.2683761,42.8166],[14.2428133,42.7681602],[14.2051238,42.7242023],[14.156719,42.6863449],[14.0993954,42.6559791],[14.0814394,42.6498864],[13.9795149,42.806709],[13.9495685,42.8952083],[13.9495772,42.8951643],[13.9495772,42.8951643],[13.9505821,42.8900967],[13.9502131,42.8848352],[13.9484558,42.8797266],[13.9453773,42.8749656],[13.9410955,42.8707336],[13.9357736,42.8671919],[13.9296146,42.8644754],[13.9228531,42.8626876],[13.922673,42.8626538],[13.9226734,42.8626526],[13.9447394,42.797548],[13.9226734,42.8626526],[13.922673,42.8626538],[13.922673,42.8626538],[13.9226729,42.8626539],[13.9137986,42.8888372],[13.76,42.86],[13.6,42.83],[13.38,42.75],[13.2,42.62],[13.05,42.48],[12.95,42.3]],[[13.9447394,42.797548],[14,42.7125891],[14.0743407,42.5982958],[14,42.7125891],[13.9447394,42.797548]],[[14.9923499,42.010671],[15.014636,42],[15.014636,42],[15.1651517,41.9279307],[15.014636,42],[15.014636,42],[14.9923499,42.010671]],[[15.3415534,40.0046412],[15.3728873,40],[15.4099541,39.9945097],[15.3728873,40],[15.3415534,40.0046412]],[[15.6367564,38.0087428],[15.647697,38],[15.647697,38],[15.6367564,38.0087428]],[[15.7339573,37.9310683],[16,37.9324395],[16.0615606,37.9327568],[16,37.9324395],[15.7339573,37.9310683]],[[15.8455585,38.6605336],[16,38.7230954],[16.00396,38.7246996],[16,38.7230954],[15.8455585,38.6605336]],[[15.899559,41.6138553],[16,41.6749255],[16,41.6749255],[16.1911619,41.7911559],[16,41.6749255],[16,41.6749255],[15.899559,41.6138553]],[[17.9551796,40.6463005],[18,40.6508054],[18.0055801,40.6513662],[18,40.6508054],[17.9551796,40.6463005]],[[17.9947799,39.9945097],[18,39.9887967],[18.0703807,39.9117694],[18,39.9887967],[17.9947799,39.9945097]]]}}
