{"type":"Feature","properties":{"family":"other","name":"Kingdom of Naples and Sicily, 1789 – 1798"},"geometry":{"type":"Polygon","coordinates":[[[11.688215,38.0054852],[11.6897291,37.9532054],[11.7039998,37.9021426],[11.7304661,37.8542116],[11.7681147,37.8112063],[11.8041465,37.7775172],[11.8510919,37.7412953],[11.9059011,37.7128263],[11.9665579,37.6931537],[12.0308376,37.682998],[12.0963871,37.6827311],[12.1157395,37.6856286],[12.1177876,37.6812203],[12.1974072,37.5497297],[12.2365813,37.4997265],[12.2884486,37.4576413],[12.443098,37.3566169],[12.4925344,37.329678],[12.547136,37.3100553],[12.6052113,37.2983556],[12.6649651,37.2949405],[12.7904949,37.2965127],[12.8001084,37.2888047],[12.8574239,37.2585174],[12.921211,37.2380366],[12.9888626,37.2281981],[13.0515189,37.2242152],[13.5135622,36.9541399],[13.5651123,36.9291224],[13.7446667,36.8584341],[13.7995869,36.8413309],[13.8573754,36.8321206],[13.9162826,36.831082],[14.0463969,36.837811],[14.208107,36.6436537],[14.2454495,36.6063124],[14.2903907,36.5748467],[14.3415172,36.5502402],[14.397227,36.5332613],[15.0001178,36.3952813],[15.0695121,36.3853776],[15.139942,36.387345],[15.2083221,36.4010974],[15.2716541,36.4260322],[15.3271544,36.4610562],[15.3703487,36.4947391],[15.4103686,36.5321956],[15.4412642,36.5748813],[15.4619896,36.6213736],[15.4718338,36.6701207],[15.4704462,36.7194921],[15.4605013,36.7576679],[15.5086341,36.7815795],[15.5620511,36.8144156],[15.6062941,36.8550898],[15.6395909,36.9019877],[15.660596,36.9532447],[15.6684467,37.0068189],[15.6628012,37.0605715],[15.6438567,37.112352],[15.637806,37.121523],[15.6370603,37.1385788],[15.6214807,37.1907082],[15.5932509,37.2393502],[15.5893644,37.2435757],[15.5902231,37.2486949],[15.5858555,37.3019111],[15.568403,37.353403],[15.5385231,37.4011529],[15.497366,37.443286],[15.4754902,37.4582942],[15.4768254,37.4601296],[15.4992015,37.5170361],[15.5328532,37.6541729],[15.5701396,37.695882],[15.6037223,37.6816815],[15.6689906,37.6662086],[15.7368276,37.6612837],[16.0632189,37.6629695],[16.129963,37.6684308],[16.1940828,37.6841054],[16.2531153,37.7093916],[16.3047871,37.7433184],[16.3471,37.7845813],[16.3784075,37.8315914],[16.4680521,38.0054001],[16.5420743,38.0773204],[16.7566631,38.1933234],[16.8112861,38.2298665],[16.8551048,38.2745143],[16.8861974,38.3253303],[16.9031847,38.3801064],[16.9052942,38.436457],[16.8873235,38.6225405],[16.9524665,38.6550902],[16.9861722,38.6454354],[17.0520759,38.6321048],[17.1200343,38.62909],[17.1874366,38.6365064],[17.2516928,38.6540691],[17.3103299,38.6811025],[17.3610845,38.7165668],[17.4019886,38.7590955],[17.5031281,38.8888541],[17.5320329,38.9353447],[17.5490478,38.9852668],[17.5535255,39.036796],[17.5452746,39.0880451],[17.5245705,39.137133],[17.4921497,39.1822542],[17.4651037,39.207121],[17.4632414,39.2407338],[17.4967703,39.3373023],[17.5081195,39.3911935],[17.5051997,39.4457483],[17.4880974,39.4987308],[17.4574839,39.5479646],[17.4145921,39.5914228],[17.36117,39.6273124],[16.982571,39.8322893],[16.9452847,39.8488911],[16.9673702,39.8883479],[16.9815764,39.9480734],[16.9780107,40.0087226],[16.9747112,40.0246007],[17.0876841,40.1574633],[17.2228373,40.0974773],[17.2873048,40.0750671],[17.3562969,40.062923],[17.6150504,40.0375624],[17.6149737,40.0327938],[17.6291996,39.9778359],[17.6579059,39.9263096],[17.7627695,39.7813633],[17.8004527,39.7391365],[17.8477909,39.7031268],[17.9030781,39.674621],[18.1688517,39.5635657],[18.2257387,39.5444985],[18.2860766,39.5334434],[18.3479892,39.5307436],[18.409553,39.5364827],[18.4688552,39.550482],[18.5226899,39.5673088],[18.5787896,39.5895322],[18.628843,39.6191294],[18.6712312,39.655148],[18.7045757,39.6964273],[18.7277836,39.741635],[18.7400843,39.7893094],[18.7536732,39.8876473],[18.8132094,39.9584737],[18.843217,40.0025502],[18.8621852,40.0500917],[18.8694488,40.0994889],[18.8647359,40.1490662],[18.8481811,40.1971381],[18.7696836,40.3611444],[18.7462372,40.4000742],[18.7149617,40.4356788],[18.5172675,40.6252648],[18.478628,40.6566617],[18.4338712,40.6829902],[18.3465955,40.7262635],[18.3288714,40.7641973],[18.2973419,40.8059722],[18.256464,40.8428276],[18.2075339,40.8735817],[18.1521128,40.8972467],[17.6638916,41.062637],[17.2820729,41.2930203],[17.2336707,41.3174727],[17.1806037,41.3356919],[16.7424122,41.4537243],[16.4236388,41.5853304],[16.4686231,41.6183857],[16.508375,41.661896],[16.5361022,41.7103413],[16.5507249,41.7618831],[16.5516556,41.814561],[16.5388258,41.8663667],[16.4890593,41.9948429],[16.4601583,42.0475671],[16.4169496,42.0945953],[16.3613419,42.1338186],[16.2958136,42.1634749],[16.2233019,42.1822293],[16.1470695,42.1892371],[15.2521999,42.1973065],[15.0461873,42.2736182],[15.0461387,42.2736362],[15.0384083,42.2896473],[15.0060594,42.3312834],[14.9641976,42.3680047],[14.9141448,42.3986385],[14.8574915,42.4222049],[14.7748808,42.4496629],[14.3879217,42.7477133],[14.2614107,42.9787196],[14.2613835,42.9787693],[14.2649995,42.9704699],[14.2797118,42.9196558],[14.2808401,42.86772],[14.2683763,42.8165881],[14.2428141,42.7681511],[14.205126,42.7241963],[14.1567232,42.686342],[14.099402,42.655979],[14.0814405,42.6498847],[14.0814365,42.6498833],[14.0814354,42.649885],[13.979508,42.8067117],[13.9495772,42.8951643],[13.9495772,42.8951643],[13.9495767,42.8951659],[13.9505821,42.8900954],[13.9502132,42.8848342],[13.948456,42.8797259],[13.9453777,42.8749651],[13.9410961,42.8707333],[13.9357744,42.8671919],[13.9296156,42.8644756],[13.9228544,42.8626879],[13.9226729,42.8626539],[13.9137986,42.8888372],[13.9049284,42.9150082],[13.9049284,42.9150082],[13.9137986,42.8888372],[13.76,42.86],[13.6,42.83],[13.38,42.75],[13.2,42.62],[13.05,42.48],[12.95,42.3],[13.05,42.15],[13.18,42.05],[13.3,41.95],[13.42,41.82],[13.55,41.7],[13.52,41.55],[13.36,41.42],[13.2786779,41.2943204],[13.2859329,41.2964028],[13.3137221,41.286808],[13.3137255,41.2868068],[13.3137367,41.286803],[13.3109746,41.2825373],[13.3074555,41.2781894],[13.302913,41.2744155],[13.2975088,41.2713499],[13.2914352,41.2691015],[13.2846905,41.2671657],[13.2846896,41.2671654],[13.2846896,41.2671654],[13.2846896,41.2671654],[13.5301334,41.1824085],[13.5358568,41.1808513],[13.5418474,41.180045],[13.5479326,41.1800127],[13.5767212,41.1817005],[13.5836455,41.1826263],[13.5901965,41.1845515],[13.5961221,41.1874021],[13.6011944,41.1910685],[13.6052181,41.1954097],[13.6080382,41.2002586],[13.6095459,41.2054286],[13.6096828,41.2107209],[13.6084435,41.2159315],[13.6049861,41.2251365],[13.6058196,41.2255273],[13.6539848,41.2255283],[13.5713244,41.1383702],[13.5249309,41.0982311],[13.4690365,41.0657126],[13.4058085,41.0420682],[13.2697356,41.0030339],[13.2697358,41.0030338],[13.4018131,40.9597303],[13.4642377,40.9441297],[13.5293717,40.9373989],[13.5724923,40.9389558],[13.5812863,40.9292621],[13.5811027,40.9291177],[13.5422214,40.8821971],[13.5168772,40.8302577],[13.5061094,40.7754958],[13.502805,40.7197641],[13.506488,40.667109],[13.5235879,40.6159999],[13.553424,40.5683836],[13.5948372,40.5260699],[13.6462364,40.4906639],[13.7056617,40.4635065],[13.7708577,40.445625],[13.8393577,40.4376952],[13.9085747,40.4400165],[13.9758953,40.4525017],[14.0198975,40.4642058],[14.0319867,40.4423369],[14.0707615,40.3986051],[14.1199207,40.3614356],[14.1775847,40.3322381],[14.2415602,40.3121187],[14.3094228,40.3018386],[14.3786054,40.3017865],[14.4464933,40.3119647],[14.5828233,40.3430839],[14.5639015,40.2979052],[14.5561379,40.2451241],[14.5620729,40.1922051],[14.5814453,40.141197],[14.613478,40.0940701],[14.6569116,40.0526411],[14.7100562,40.0185039],[14.7708579,39.9929698],[14.9244302,39.9426355],[15.0927217,39.8139609],[15.1426956,39.7821284],[15.1994,39.7578812],[15.2609109,39.7420396],[15.3251465,39.7351392],[15.3899362,39.7374129],[15.4530915,39.748784],[15.4548718,39.7492409],[15.5255951,39.5056508],[15.5416009,39.4653833],[15.5655078,39.4275251],[15.6977023,39.2534276],[15.7394308,39.0366622],[15.7562521,38.9848446],[15.7858505,38.9366137],[15.7903692,38.9308059],[15.7344835,38.9160605],[15.6707932,38.8934008],[15.614304,38.8612127],[15.5708988,38.8238923],[15.5659978,38.8636498],[15.5459895,38.9149334],[15.5133124,38.9621195],[15.4692389,39.0033357],[15.4155025,39.0369437],[15.3542305,39.0616055],[15.2878584,39.0763379],[15.2190319,39.0805531],[15.1504976,39.0740828],[15.0849901,39.0571854],[15.0251192,39.0305348],[14.9854582,39.0085144],[14.9343088,38.9737125],[14.8929167,38.9318131],[14.8628616,38.8844343],[14.8507922,38.8494135],[14.8051344,38.8467018],[14.7328727,38.8365316],[14.6969637,38.8285372],[14.6709274,38.8366823],[14.6080882,38.8511103],[14.5428713,38.8560283],[14.4776355,38.8512587],[14.4147404,38.8369739],[14.3564582,38.8136907],[14.3048891,38.7822504],[14.2618838,38.7437879],[14.228977,38.6996892],[14.2073327,38.6515408],[14.1977044,38.6010714],[14.2004115,38.5500893],[14.2153311,38.5004173],[14.2262339,38.4751197],[14.2522342,38.4293041],[14.2885704,38.3880386],[14.3339789,38.3527392],[14.3868919,38.3246154],[14.4124514,38.3159032],[14.3854158,38.3021652],[14.2752382,38.2888422],[14.077576,38.3152818],[14.013405,38.3189971],[13.94948,38.3132302],[13.8880641,38.2981855],[13.7964042,38.2680088],[13.7578941,38.298939],[13.7007089,38.3358498],[13.6347227,38.3622599],[13.6036925,38.3686156],[13.594866,38.3801046],[13.5526286,38.4172976],[13.5023433,38.4477513],[13.4457296,38.470419],[13.3873916,38.4839065],[13.4338255,38.5123449],[13.4769072,38.5510106],[13.5098995,38.5953437],[13.5315968,38.6437508],[13.5411941,38.6944888],[13.538319,38.7457265],[13.5230489,38.7956112],[13.4959118,38.8423349],[13.457871,38.8842008],[13.4102926,38.9196857],[13.3548975,38.9474967],[13.3296336,38.9576623],[13.2689545,38.9766483],[13.2047473,38.9864083],[13.139318,38.9865918],[13.0750183,38.9771924],[13.0141575,38.958548],[12.9589175,38.9313286],[12.9112723,38.8965108],[12.8729162,38.8553422],[12.8549821,38.8316565],[12.8269883,38.784946],[12.810934,38.7349382],[12.8073813,38.6834641],[12.8164328,38.6324043],[12.8377323,38.5836201],[12.8704809,38.5388865],[12.9134694,38.4998277],[12.9651244,38.4678596],[13.0125444,38.4486164],[12.9801058,38.4415338],[12.923131,38.4195914],[12.9191248,38.4172455],[12.892791,38.4310672],[12.8283074,38.4516622],[12.7598247,38.4616357],[12.6901728,38.4605758],[12.6222313,38.4485266],[12.5588066,38.4259866],[12.5025125,38.3938869],[12.4556598,38.3535522],[12.4201608,38.3066441],[12.4147196,38.2942989],[12.3339235,38.2607913],[12.2782534,38.231896],[12.252146,38.2116494],[12.2036146,38.2348625],[12.141196,38.2528845],[12.0755005,38.2610837],[12.009018,38.2591496],[11.944269,38.2471559],[11.9189908,38.2403763],[11.858364,38.21873],[11.8042345,38.188277],[11.7586458,38.1501727],[11.7233095,38.1058609],[11.6995417,38.0570173],[11.688215,38.0054852]],[[12.4651247,37.8229993],[12.4907087,38],[12.4907087,38],[12.4651247,37.8229993]],[[13.7899379,37.9732827],[13.8709493,38],[13.8709493,38],[13.7899379,37.9732827]],[[13.8709493,38],[13.9139534,38.0141826],[14,38.0425605],[14.0203402,38.0492687],[14,38.0425605],[13.9139534,38.0141826],[13.8709493,38]],[[13.9447394,42.797548],[14,42.7125891],[14.0743407,42.5982958],[14,42.7125891],[13.9447394,42.797548]],[[14.9923499,42.010671],[15.014636,42],[15.014636,42],[15.1651517,41.9279307],[15.014636,42],[15.014636,42],[14.9923499,42.010671]],[[15.3415534,40.0046412],[15.3728873,40],[15.4099541,39.9945097],[15.3728873,40],[15.3415534,40.0046412]],[[15.4242937,38],[15.499955,38.0847288],[15.4242937,38],[15.4242937,38]],[[15.4312398,38.5607383],[15.4730052,38.5880646],[15.5049065,38.6188497],[15.5053746,38.613937],[15.5207882,38.5714928],[15.5093985,38.5719247],[15.4382194,38.562863],[15.4312398,38.5607383]],[[15.6367564,38.0087428],[15.647697,38],[15.647697,38],[15.6367564,38.0087428]],[[15.7339573,37.9310683],[16,37.9324395],[16.0615606,37.9327568],[16,37.9324395],[15.7339573,37.9310683]],[[15.8455585,38.6605336],[16,38.7230954],[16.00396,38.7246996],[16,38.7230954],[15.8455585,38.6605336]],[[15.899559,41.6138553],[16,41.6749255],[16,41.6749255],[16.1911619,41.7911559],[16,41.6749255],[16,41.6749255],[15.899559,41.6138553]],[[17.9551796,40.6463005],[18,40.6508054],[18.0055801,40.6513662],[18,40.6508054],[17.9551796,40.6463005]],[[17.9947799,39.9945097],[18,39.9887967],[18.0703807,39.9117694],[18,39.9887967],[17.9947799,39.9945097]]]}}
