{"type":"Feature","properties":{"family":"other","name":"United Kingdom of the Netherlands, 1815"},"geometry":{"type":"Polygon","coordinates":[[[2.3508475,51.338604],[2.42423,51.3495294],[2.5089047,51.3564467],[2.5940943,51.3527407],[2.6764048,51.338559],[2.752563,51.3144661],[2.8195517,51.2814199],[2.8571909,51.253667],[2.8571909,51.253667],[2.8571926,51.2536657],[2.5048136,51.111966],[2.5121143,51.1130528],[2.5203006,51.1137362],[2.5285433,51.1134211],[2.536537,51.1121192],[2.5439853,51.1098788],[2.5506122,51.1067828],[2.5561723,51.1029461],[2.5578176,51.1012441],[2.5218252,51.0867738],[2.5578256,51.0006563],[2.6082261,50.9618191],[2.5758258,50.9111617],[2.5866259,50.8453072],[2.6190262,50.8166014],[2.6910269,50.8081585],[2.7666277,50.7338611],[2.8854289,50.6967124],[2.9466295,50.7490583],[3.1302313,50.7794527],[3.2454325,50.6713838],[3.2310323,50.6561866],[3.2706327,50.5261661],[3.3606336,50.4890174],[3.4758348,50.5194118],[3.497435,50.4873288],[3.6090361,50.4771974],[3.6450365,50.4451144],[3.6630366,50.3184711],[3.695437,50.2982082],[3.7566376,50.3471769],[3.897039,50.3252254],[4.0050401,50.3437998],[4.098641,50.294831],[4.1238412,50.2576823],[4.1850419,50.2661252],[4.203042,50.2407966],[4.1562416,50.2120908],[4.1274413,50.1276619],[4.1814418,50.1276619],[4.2102421,50.0601188],[4.1310413,50.0179044],[4.1310413,49.9756899],[4.35,49.9491864],[4.4658447,49.9351641],[4.5989499,49.972859],[4.62,49.9788204],[4.6566466,49.9891986],[4.6618925,50.0088832],[4.6818468,50.0837589],[4.8150482,50.1614334],[4.8726487,50.1394819],[4.8657774,50.1040295],[4.8618486,50.0837589],[4.8258483,50.063496],[4.7826478,49.9588042],[4.8618486,49.9132126],[4.8366484,49.8591781],[4.8582486,49.7865693],[4.9698497,49.7967007],[5.0814508,49.7527977],[5.1678517,49.6869432],[5.2578526,49.692009],[5.301053,49.6633031],[5.297453,49.6126458],[5.3334533,49.6261544],[5.401854,49.6025144],[5.4558546,49.5366598],[5.4558546,49.4995111],[5.5458555,49.5231512],[5.603456,49.5130198],[5.6430564,49.5434142],[5.7906579,49.5383484],[5.8410584,49.4995111],[5.9274593,49.4826254],[5.9598596,49.4420995],[6.0786608,49.452231],[6.1074611,49.4826254],[6.1938619,49.4995111],[6.3450635,49.4556081],[6.3558636,49.5771857],[6.4170642,49.6396631],[6.4170642,49.6700574],[6.4926649,49.7004518],[6.503465,49.7967007],[6.4920799,49.798894],[6.301863,49.835538],[6.2226622,49.8878839],[6.096661,50.0482988],[6.1182612,50.1209076],[6.1218612,50.1648106],[6.1650617,50.1816964],[6.1553981,50.1989204],[6.1470615,50.2137793],[6.1553981,50.1989204],[6.05,50.22],[5.92,50.42],[5.935,50.6],[5.9475959,50.7511511],[5.99586,50.7507469],[5.9670597,50.7946499],[5.99946,50.8014042],[6.0102601,50.8402415],[6.0570606,50.8520615],[6.0642606,50.9077846],[5.99946,50.9297361],[6.00306,50.9736391],[5.8778763,50.965484],[5.8734587,50.9651962],[5.8518585,51.0428708],[5.8716531,51.0401628],[5.9382594,51.0310507],[5.9814598,51.0749537],[6.1470615,51.1526283],[6.1254613,51.1644483],[6.1578616,51.1796455],[6.0606606,51.1712026],[6.0570606,51.2117285],[6.1938619,51.3451261],[6.2038735,51.45],[6.204662,51.4582608],[6.1938619,51.5089181],[6.0858609,51.5950355],[6.090202,51.609798],[6.100261,51.6440043],[6.0394944,51.6605056],[6.0318603,51.6625786],[6.0290824,51.6709176],[6.0138601,51.7166131],[5.9930692,51.7207925],[5.9382594,51.7318103],[5.9634596,51.7757133],[5.9310593,51.8162392],[5.958968,51.823096],[6.0822608,51.8533879],[6.1578616,51.8415678],[6.1279095,51.8618606],[6.0973636,51.8825557],[6.0930609,51.8854708],[6.1254613,51.8972909],[6.2511671,51.8700778],[6.2511671,51.8700778],[6.2658627,51.8668965],[6.3450635,51.8213049],[6.3810638,51.8280592],[6.3774638,51.8601422],[6.4638646,51.8483221],[6.4736345,51.85265],[6.4736345,51.85265],[6.4736345,51.85265],[6.5286653,51.8770279],[6.7158672,51.8989794],[6.8094681,51.9597682],[6.7770678,52.0019827],[6.6726667,52.0492628],[6.7482675,52.1032973],[6.8310683,52.1134288],[6.892088,52.15],[7.0254703,52.2299406],[7.0238063,52.2363793],[7.0110701,52.2856636],[7.0470705,52.3650268],[6.9750698,52.4511442],[6.899469,52.4325699],[6.7158672,52.4612757],[6.6726667,52.5423274],[6.7446674,52.5592132],[6.7050671,52.5828532],[6.701467,52.6183134],[6.7374674,52.6351991],[7.0182702,52.6267562],[7.0362704,52.6470192],[7.0614706,52.8243198],[7.1838718,52.9661603],[7.175796,53.1],[7.1730717,53.1451495],[7.1946719,53.2447755],[7.2161623,53.2684633],[7.2161623,53.2684633],[7.2161623,53.2684633],[7.2084049,53.2704729],[7.1728105,53.277262],[7.2036182,53.3112773],[7.1303245,53.315487],[7.129964,53.3166065],[7.1266635,53.3214714],[7.1218473,53.3258618],[7.1156975,53.3296115],[7.1084468,53.3325782],[7.1003702,53.3346494],[7.0917738,53.3357464],[7.0829838,53.3358278],[7.0298285,53.3332069],[6.9946326,53.3467174],[6.9768292,53.4479895],[6.9768437,53.4537035],[6.9788793,53.4592868],[7.018416,53.5302205],[7.0220998,53.5351213],[7.027345,53.5394905],[7.0339438,53.5431548],[7.0416349,53.5459689],[7.0501132,53.5478211],[7.0590423,53.5486379],[7.0680678,53.5483868],[7.0754077,53.5477429],[7.048313,53.5731208],[7.0443035,53.5778384],[7.0419184,53.5829291],[7.0412495,53.5881976],[7.0423232,53.5934418],[7.045099,53.5984606],[7.0494708,53.6030612],[7.0552712,53.6070669],[7.1319534,53.6504303],[7.0621484,53.6817902],[6.9768459,53.7055804],[6.8850282,53.7183926],[6.7906973,53.7196674],[6.622694,53.7114282],[6.6194002,53.7133019],[6.546121,53.7412985],[6.4650889,53.7604714],[6.3793138,53.7701063],[6.3120517,53.7737128],[6.2525219,53.7769048],[6.1681001,53.7767248],[6.0852032,53.7673015],[6.006718,53.748963],[5.9474747,53.7311664],[5.6930348,53.7372596],[5.6128286,53.7348837],[5.5346011,53.7241693],[5.5159456,53.7194431],[5.4775565,53.7162302],[5.3183582,53.6929957],[5.1483022,53.6697229],[5.0542526,53.6500919],[4.9697866,53.6187327],[4.8868308,53.5797045],[4.8246473,53.5441396],[4.8192658,53.5395977],[4.7907789,53.5332382],[4.7191261,53.5074128],[4.6567764,53.4741582],[4.5488486,53.4046326],[4.4977179,53.364674],[4.4599854,53.3197363],[4.4369285,53.2713925],[4.4358592,53.264381],[4.3423073,53.1862332],[4.2994469,53.1419602],[4.271375,53.093621],[4.2590579,53.0429667],[4.262885,52.9918256],[4.2748934,52.9616098],[4.0947074,52.4442561],[3.8716276,52.2419278],[3.8376163,52.2350707],[3.7608221,52.2081277],[3.6944765,52.1722827],[3.6412664,52.1290026],[3.6033225,52.0800539],[3.5821368,52.0274282],[3.5817881,52.0222273],[3.5501753,52.0060169],[3.4987119,51.9668105],[3.4734716,51.9599649],[3.4016314,51.928557],[3.3415534,51.8888853],[3.2956658,51.8425758],[3.2701819,51.7990226],[3.1953308,51.7660742],[3.1323959,51.7322335],[3.0811144,51.6915685],[3.0433495,51.6455833],[3.0204513,51.5959739],[3.0199214,51.5922151],[2.9881919,51.5855471],[2.8937483,51.5573352],[2.3508475,51.338604]],[[3.8718387,51.5494439],[4,51.5329128],[4,51.5329128],[3.8718387,51.5494439]],[[3.9402394,51.7419418],[4,51.7076824],[4,51.7076824],[4.0374404,51.6862187],[4,51.7076824],[4,51.7076824],[3.9402394,51.7419418]],[[3.9582396,51.4565722],[4,51.4430475],[4.1094411,51.4076035],[4,51.4430475],[3.9582396,51.4565722]],[[3.9834398,51.4109806],[4,51.404644],[4.0453682,51.3872842],[4.1202412,51.3586347],[4.0453682,51.3872842],[4,51.404644],[3.9834398,51.4109806]],[[3.9870399,51.5899698],[4,51.5830525],[4.0914409,51.5342468],[4,51.5830525],[3.9870399,51.5899698]],[[3.9870399,51.5899698],[4,51.5932856],[4.0662407,51.6102327],[4,51.5932856],[3.9870399,51.5899698]],[[4,51.6298781],[4,51.6298781],[4.0878409,51.6440043],[4,51.6298781]],[[6.612859,53.5982954],[6.6133382,53.6034622],[6.6154717,53.608479],[6.6191815,53.6131608],[6.6243315,53.6173354],[6.6307322,53.6208488],[6.638148,53.6235715],[6.6463056,53.6254031],[6.7723776,53.6456787],[6.7808382,53.6465366],[6.7894212,53.6464364],[6.7978204,53.6453815],[6.8057362,53.6434096],[6.8128864,53.6405911],[6.8190162,53.6370263],[6.8239074,53.6328424],[6.8382981,53.6176406],[6.8419154,53.6127306],[6.8438258,53.6074939],[6.8439542,53.6021371],[6.8422964,53.5968716],[6.8389184,53.591905],[6.8339539,53.5874331],[6.827599,53.5836322],[6.8201045,53.580652],[6.8117657,53.5786099],[6.7946849,53.5755628],[6.7975252,53.5723855],[6.8001156,53.5671282],[6.8008646,53.5616691],[6.7997418,53.5562335],[6.7967943,53.5510453],[6.7921442,53.5463183],[6.7859835,53.5422473],[6.7785664,53.5389999],[6.7701984,53.5367098],[6.7612242,53.5354713],[6.752013,53.5353353],[6.742944,53.5363074],[6.6637875,53.5498082],[6.6546846,53.5520145],[6.6465919,53.5553323],[6.6398883,53.5596065],[6.6348884,53.5646368],[6.6168702,53.5882707],[6.6140511,53.5931686],[6.612859,53.5982954]]]}}
