{"type":"Feature","properties":{"family":"sweden","name":"Kingdom of Norway, in union with Sweden, 1814 – 1815"},"geometry":{"type":"Polygon","coordinates":[[[4.086373,61.0795223],[4.0886805,61.0269059],[4.1120008,60.9755078],[4.1525071,60.9148805],[4.1972427,60.865304],[4.2612679,60.8210481],[4.2745176,60.8149534],[4.2776321,60.8108923],[4.3022307,60.7917469],[4.2996207,60.7897752],[4.2593026,60.7393297],[4.2405079,60.6859675],[4.2308577,60.6183866],[4.2348194,60.562188],[4.2623551,60.5076143],[4.3121607,60.4570234],[4.3819971,60.4125906],[4.4275823,60.3935068],[4.4261873,60.3654657],[4.4197135,60.3581101],[4.3970296,60.3064298],[4.3951767,60.2535561],[4.414126,60.2015221],[4.4530559,60.152319],[4.5103984,60.1078209],[4.5839089,60.0697159],[4.6320842,60.049154],[4.6388901,60.0051562],[4.6390419,60.0048736],[4.596208,59.9595448],[4.5704251,59.9057769],[4.5686627,59.8765463],[4.5625627,59.8696786],[4.5394003,59.8196154],[4.5355846,59.7682586],[4.5511652,59.717474],[4.5803132,59.6764065],[4.5763756,59.6535124],[4.5847402,59.6062919],[4.6092722,59.5605424],[4.6531156,59.500121],[4.6544933,59.4795971],[4.6686713,59.4200128],[4.6556388,59.3853112],[4.6462726,59.337755],[4.6478877,59.3271364],[4.6365274,59.2800417],[4.6446101,59.2264752],[4.6897347,59.0966414],[4.7164483,59.0472214],[4.7607733,59.0012883],[4.8210564,58.9604862],[4.8950957,58.9262702],[4.9802228,58.8998563],[5.0181147,58.8926789],[4.984758,58.8414888],[4.9626631,58.793158],[4.9580723,58.7435542],[4.9710664,58.6943602],[5.001133,58.6472379],[5.1726164,58.4418825],[5.2195896,58.3972662],[5.2816134,58.3580539],[5.3564596,58.3256253],[5.4414717,58.3011176],[5.5415561,58.2783364],[5.5637771,58.2515034],[5.6291555,58.2040863],[5.7122601,58.1651864],[5.8091807,58.13661],[6.026707,58.0876239],[6.0271029,58.0832798],[6.0506591,58.0326681],[6.0920665,57.9853952],[6.1497261,57.9432096],[6.2362512,57.8911306],[6.3120291,57.8538199],[6.400305,57.8254014],[6.4974605,57.8070319],[6.5995377,57.7994577],[6.6592027,57.7982654],[6.6801465,57.7868957],[6.7595419,57.7576742],[6.847791,57.7369768],[6.9417329,57.725542],[7.0380167,57.7237772],[7.1332134,57.7317455],[7.2239302,57.7491633],[7.2825869,57.7677231],[7.5031033,57.7500059],[7.6048653,57.7472437],[7.705634,57.7553612],[7.8013973,57.7740355],[7.8883294,57.8025231],[7.9042418,57.81046],[7.9708674,57.8144257],[8.0753479,57.8266285],[8.1670192,57.8487829],[8.2657059,57.8553721],[8.3634899,57.8671392],[8.4551157,57.8888526],[8.5370566,57.9196802],[8.6061356,57.9584379],[8.6546945,57.9994574],[8.6607283,58.0001496],[8.7564299,58.0227107],[8.8415459,58.0551164],[8.9125034,58.0960198],[8.9662894,58.143715],[9.0028013,58.1851801],[9.2716049,58.3130556],[9.347047,58.3575049],[9.3912623,58.3991837],[9.5444903,58.4706971],[9.6156567,58.5112537],[9.6433765,58.5354775],[9.673784,58.5483451],[9.77458,58.6003989],[9.8394748,58.6410687],[9.8880303,58.6875309],[9.8882777,58.6879436],[9.9492028,58.6908962],[10.1135803,58.7076513],[10.2092015,58.7223594],[10.29776,58.7462281],[10.3108244,58.7516042],[10.3313809,58.7541923],[10.432261,58.772715],[10.5238383,58.8014895],[10.5551271,58.816595],[10.593301,58.8296462],[10.6158809,58.8413312],[10.6442422,58.8340558],[10.6783813,58.8177352],[10.7697192,58.7892744],[10.8702046,58.7709703],[10.9238174,58.7642685],[11.0083064,58.7581088],[11.019893,58.7469954],[11.0820361,58.7074718],[11.1572492,58.6746886],[11.1616974,58.6733953],[11.1606008,58.6763716],[11.1608508,58.6820768],[11.1633726,58.692196],[11.152105,58.6952762],[11.1437942,58.6981056],[11.1366729,58.7017056],[11.1310021,58.7059446],[11.12699,58.7106673],[11.1247841,58.715701],[11.124466,58.7208612],[11.1260482,58.7259587],[11.1294735,58.7308068],[11.1615549,58.765472],[11.175126,58.8308899],[11.1721927,58.8319209],[11.1646085,58.8351678],[11.1583389,58.8390946],[11.1536078,58.8435615],[11.1505844,58.8484092],[11.1493773,58.8534649],[11.1464249,58.9073541],[11.0782091,58.9316526],[11.0703513,58.9350823],[11.0639479,58.9392398],[11.0592474,58.9439643],[11.0564326,58.9490726],[11.0556136,58.9543668],[11.056823,58.9596415],[11.0600148,58.9646922],[11.0650659,58.9693228],[11.0717809,58.9733535],[11.0809516,58.9778687],[11.0755712,58.9822156],[11.07182,58.9872229],[11.0700679,58.9925142],[11.0687715,59.0021328],[11.0687715,59.002133],[11.0738515,59.0033856],[11.0820515,59.0065449],[11.0889025,59.0104655],[11.0941426,59.0149978],[11.0975709,59.0199688],[11.1206293,59.0677174],[11.1206533,59.0677339],[11.1206533,59.0677339],[11.1206533,59.0677339],[11.1570533,59.0927554],[11.1570581,59.0927587],[11.1648916,59.0907341],[11.1753993,59.0893045],[11.2131299,59.0862466],[11.2195122,59.09063],[11.3203132,59.0990729],[11.3563136,59.0923186],[11.3923139,59.0197098],[11.4391144,58.991004],[11.4535145,58.8964436],[11.4823148,58.8863122],[11.6119161,58.8930665],[11.6659167,58.9200837],[11.6947169,58.9741182],[11.8099181,59.2713078],[11.6695167,59.5803174],[11.6947169,59.6225319],[11.8279183,59.6596806],[11.8927189,59.7052722],[11.903519,59.7846353],[11.8423184,59.8386698],[11.8495185,59.8724413],[11.9431194,59.9028357],[12.1447214,59.89777],[12.2923229,59.9585588],[12.4471245,60.0514305],[12.5119251,60.117285],[12.5227252,60.1983367],[12.4903249,60.3114714],[12.5947259,60.3942117],[12.6091261,60.4870834],[12.3499235,60.7927159],[12.2527225,61.0020995],[12.5119251,61.0493797],[12.702727,61.0460025],[12.7387274,61.1422514],[12.8395284,61.2266803],[12.8899289,61.3499464],[12.6127261,61.54751],[12.4147241,61.5829701],[12.1627216,61.7248106],[12.3175232,62.2347609],[12.3139231,62.2854182],[12.0907209,62.585985],[12.1555216,62.7109397],[12.0943209,62.9068147],[12.2239222,63.001375],[11.9935199,63.2884331],[12.2203222,63.4741766],[12.1699217,63.5974428],[12.2923229,63.656543],[12.6811268,63.9571097],[12.9835298,64.0584244],[13.2355324,64.0905073],[13.9627396,64.0094556],[14.1463415,64.1681819],[14.1607416,64.2053306],[14.095941,64.4653715],[13.6423364,64.5835719],[14.3119431,65.0833908],[14.3803438,65.2404285],[14.5135451,65.318103],[14.5099451,65.4650092],[14.5099451,65.4650092],[14.5174051,65.5],[14.5820145,65.5],[14.5820145,65.5],[14.5820845,65.5],[14.5819829,65.5031596],[14.5790895,65.5085569],[14.5736005,65.5135949],[14.5657454,65.5180616],[14.555854,65.5217687],[14.5443424,65.5245602],[14.5316951,65.5263184],[14.5191598,65.526934],[14.5191816,65.526934],[15.1609887,65.5269333],[15.1616578,65.5269333],[15.1574733,65.5489339],[15.1229889,65.5995834],[15.0651867,65.6464714],[14.9861795,65.6877882],[14.8889401,65.7219307],[14.7771936,65.7475685],[14.655273,65.7636991],[14.5279424,65.76969],[12.5663145,65.7697376],[12.4925595,65.7662261],[12.4063783,65.7697713],[12.2173862,65.7697745],[12.0982802,65.7651846],[11.983266,65.7517119],[11.8762625,65.7298161],[11.7808927,65.7002433],[11.7003534,65.6639983],[11.6373054,65.6223079],[11.5937866,65.5765774],[11.5750731,65.5499523],[11.5523765,65.5],[11.5530927,65.5],[12.2180089,65.5],[12.2059221,65.4869607],[12.2311223,65.4869607],[12.198722,65.4734521],[12.3139231,65.4954036],[12.3283233,65.4666978],[12.1591216,65.3957776],[12.2095221,65.3772032],[12.1807218,65.350186],[12.1411214,65.3636946],[12.1087211,65.3434317],[12.0799208,65.3079715],[12.1231212,65.3029058],[12.0547205,65.2201655],[12.2491225,65.2809543],[12.2095221,65.3248573],[12.3355234,65.3316116],[12.4903249,65.3873347],[12.5083251,65.3974661],[12.4507245,65.426172],[12.4435244,65.4666978],[12.4050661,65.5],[12.5758593,65.5],[12.5767258,65.4987808],[12.6559266,65.4802064],[12.6091261,65.4599435],[12.7819278,65.4599435],[12.6307263,65.4329263],[12.7135271,65.3704489],[12.601926,65.4329263],[12.5839258,65.4177291],[12.5479255,65.4464349],[12.4795248,65.4464349],[12.5479255,65.3636946],[12.6631266,65.3552517],[12.6919269,65.329923],[12.497525,65.3704489],[12.4183242,65.3349888],[12.4795248,65.3366774],[12.4507245,65.3130373],[12.3427234,65.3029058],[12.2455225,65.2336741],[12.4363244,65.2725114],[12.4579246,65.2539371],[12.7135271,65.2539371],[12.4075241,65.2471828],[12.3535235,65.2269198],[12.4399244,65.2269198],[12.497525,65.1999026],[12.3823238,65.1779511],[12.3679237,65.1509339],[12.501125,65.1441795],[12.6667267,65.1965254],[12.9331293,65.3333002],[12.9295293,65.3130373],[12.7891279,65.2134112],[12.6163262,65.1492453],[12.601926,65.1374252],[12.6379264,65.1306709],[12.2414896,65.0601912],[12.174312,65.0601934],[12.1555216,65.054685],[12.174312,65.0601934],[12.299523,65.0968994],[12.3103231,65.110408],[12.2239222,65.1239166],[12.2707227,65.1644425],[12.1663217,65.2117226],[12.0943209,65.1779511],[12.0871209,65.1441795],[12.1231212,65.1306709],[12.0439204,65.1070308],[12.0475205,65.0850793],[11.9791198,65.0833908],[12.1216605,65.0601951],[12.0586599,65.0601972],[12.0586598,65.0601972],[12.0547205,65.0648164],[12.0495623,65.0601975],[12.0151202,65.0293563],[12.0495623,65.0601975],[12,65.0601991],[11.9865298,65.0601996],[11.9791198,65.0681936],[11.9529906,65.0602007],[11.8135181,65.0175363],[11.9529906,65.0602007],[11.844107,65.0602043],[11.844107,65.0602043],[11.8440594,65.0602043],[11.844107,65.0602043],[11.844107,65.0602043],[11.9286239,65.0602015],[11.844107,65.0602043],[11.844107,65.0602043],[11.7648744,65.0602069],[11.7648083,65.0602069],[11.6945501,65.0602092],[11.6695167,65.0445535],[11.6945501,65.0602092],[11.701917,65.0648164],[11.6731167,65.0715707],[11.7667177,65.1019651],[11.7631176,65.1188509],[11.5795158,65.110408],[11.5243886,65.0602148],[11.5183152,65.054685],[11.5243886,65.0602148],[11.4559588,65.060217],[11.4559588,65.060217],[11.4558932,65.060217],[10.2361407,65.0602571],[10.2355979,65.0602571],[10.213073,65.0448914],[10.1420393,64.9838338],[10.0975765,64.9331456],[10.0779744,64.8797173],[10.0838768,64.8257045],[10.1148978,64.7732739],[10.1696609,64.7245166],[10.2458743,64.6813668],[10.2554624,64.6777399],[10.2072492,64.6694615],[10.1037327,64.6404557],[10.0156816,64.6032909],[9.9464924,64.5594295],[9.9144462,64.5339825],[9.8674165,64.4859418],[9.8489596,64.4476325],[9.7877,64.4225267],[9.7363957,64.3907614],[9.6951551,64.3735524],[9.6241664,64.3286679],[9.6162717,64.3205267],[9.6025632,64.3164751],[9.5169682,64.2785227],[9.4727826,64.2489951],[9.4554103,64.2428505],[9.3666815,64.2042682],[9.2978504,64.1586711],[9.2516747,64.1079541],[9.2299373,64.054214],[9.2329358,64.0068641],[9.2320792,64.0066323],[9.1872964,64.0258925],[9.0867442,64.0547095],[8.97516,64.0743529],[8.856882,64.0840557],[8.7365309,64.0834386],[8.6188151,64.0725258],[8.5083313,64.051744],[7.9724476,63.920639],[7.8772319,63.891463],[7.796425,63.8548691],[7.7329162,63.8121934],[7.6889324,63.7649875],[7.6659652,63.7149597],[7.6655202,63.6965828],[7.4645294,63.6425216],[7.3683366,63.6102485],[7.2886167,63.5701199],[7.2284945,63.5237464],[7.1902725,63.4729809],[7.1753519,63.4198417],[7.184194,63.3664301],[7.2095665,63.3257091],[7.184976,63.3175558],[7.1625835,63.3066315],[7.0983628,63.2934548],[6.9999326,63.2609374],[6.9993742,63.260658],[6.9390225,63.2484377],[6.6096945,63.1616292],[6.5172248,63.1312888],[6.439449,63.0934996],[6.4107609,63.0765192],[6.3688484,63.0457971],[6.3114673,63.0162703],[6.2531163,62.9705541],[6.2156556,62.9205358],[6.1948044,62.8799255],[6.1917274,62.8695988],[6.1800783,62.8599027],[6.1540071,62.8575945],[6.0444789,62.8427049],[5.9434335,62.8184024],[5.8547117,62.7856172],[5.7816524,62.7456003],[5.7269642,62.699873],[5.7157571,62.6836678],[5.7085584,62.6827816],[5.6009921,62.6577886],[5.5368128,62.6341661],[5.422485,62.6314979],[5.310065,62.6182676],[5.2056599,62.5950434],[5.1134287,62.562756],[5.037011,62.5226956],[4.9793794,62.4764569],[4.9695098,62.4628534],[4.8863746,62.4449552],[4.7814567,62.4160259],[4.6853852,62.382745],[4.6062993,62.3410012],[4.5475372,62.2925976],[4.5115223,62.2396152],[4.4996732,62.1843207],[4.5057139,62.1580438],[4.4781291,62.1390322],[4.4335194,62.0886424],[4.4121115,62.0363448],[4.3612188,62.0125181],[4.2971239,61.9667923],[4.2541693,61.9159162],[4.2340323,61.8620051],[4.237425,61.8072893],[4.2640843,61.7540206],[4.2733337,61.74461],[4.2720275,61.7423068],[4.2641545,61.6916184],[4.2764705,61.6411304],[4.3084429,61.5926301],[4.3588572,61.5478262],[4.4211721,61.5110664],[4.4152602,61.5048927],[4.3899278,61.4547584],[4.3850789,61.4032395],[4.3978852,61.3616682],[4.3966428,61.3610183],[4.3404218,61.3170013],[4.3306839,61.3044859],[4.3143126,61.2939592],[4.2869402,61.2661652],[4.2790047,61.2628889],[4.2033918,61.2248379],[4.1447514,61.1804218],[4.1052702,61.1313549],[4.086373,61.0795223]],[[12.0151202,65.0293563],[12,65.0456679],[11.9971061,65.0487899],[11.9865298,65.0601996],[11.9971061,65.0487899],[12,65.0456679],[12.0151202,65.0293563]],[[5.1210512,62.0253773],[5.1514849,62],[5.1534515,61.9983601],[5.1514849,62],[5.1210512,62.0253773]],[[5.2290523,61.9578342],[5.2794824,62],[5.2794824,62],[5.2290523,61.9578342]],[[5.603456,59.9619359],[5.6528532,60],[5.6538565,60.0007732],[5.6528532,60],[5.603456,59.9619359]],[[5.8122581,62.2448924],[6,62.3127218],[6,62.3127218],[5.8122581,62.2448924]],[[5.8518585,58.9656753],[6,58.8997086],[6,58.8997086],[5.8518585,58.9656753]],[[5.8626586,61.1186113],[6,61.1205634],[6.100261,61.1219885],[6,61.1205634],[5.8626586,61.1186113]],[[5.8878589,61.8835368],[6,61.8725652],[6.4746647,61.8261252],[6,61.8725652],[5.8878589,61.8835368]],[[5.9130591,59.0281527],[6,59.025132],[6.0102601,59.0247755],[6,59.025132],[5.9130591,59.0281527]],[[5.9490595,62.2448924],[6,62.2269723],[6.0642606,62.2043665],[6,62.2269723],[5.9490595,62.2448924]],[[5.9562596,58.4776765],[6,58.4024504],[6.0102601,58.3848047],[6,58.4024504],[5.9562596,58.4776765]],[[5.9562596,62.1402006],[6,62.1196844],[6.0426604,62.0996747],[6,62.1196844],[5.9562596,62.1402006]],[[5.9742597,58.9639867],[6,58.9754851],[6.0498605,58.9977583],[6,58.9754851],[5.9742597,58.9639867]],[[5.9778598,62.2803525],[6,62.2864479],[6.3090631,62.3715357],[6,62.2864479],[5.9778598,62.2803525]],[[5.99586,59.3405395],[6,59.3392449],[6.0390604,59.3270309],[6,59.3392449],[5.99586,59.3405395]],[[5.99586,59.3405395],[6,59.3436633],[6,59.3436633],[5.99586,59.3405395]],[[5.99586,60.2641912],[6,60.2639],[6.1398614,60.2540598],[6,60.2639],[5.99586,60.2641912]],[[5.99946,62.3664699],[6,62.3662972],[6.0786608,62.3411413],[6,62.3662972],[5.99946,62.3664699]],[[6,59.4597142],[6,59.4597142],[6.1542615,59.4773142],[6,59.4597142]],[[6,61.1849282],[6,61.1849282],[6.0354604,61.2047288],[6,61.1849282]],[[7.00027,58.0302035],[7.006124,58],[7.0074701,57.9930548],[7.006124,58],[7.00027,58.0302035]],[[7.0074701,57.9930548],[7.0253257,58],[7.1550716,58.0504664],[7.0253257,58],[7.0074701,57.9930548]],[[7.9290793,63.1786756],[8,63.1467412],[8,63.1467412],[8.0190802,63.1381498],[8,63.1467412],[8,63.1467412],[7.9290793,63.1786756]],[[7.9290793,63.1786756],[8,63.2021568],[8.1126811,63.2394644],[8,63.2021568],[7.9290793,63.1786756]],[[7.9326793,58.1095666],[8,58.1499844],[8.0226802,58.1636011],[8,58.1499844],[7.9326793,58.1095666]],[[7.9722797,62.9777349],[8,62.9700149],[8.0874809,62.9456519],[8,62.9700149],[7.9722797,62.9777349]],[[7.9938799,62.7362684],[8,62.7345327],[8.1486815,62.6923654],[8,62.7345327],[7.9938799,62.7362684]],[[7.99748,63.0925582],[8,63.093031],[8.0874809,63.1094439],[8,63.093031],[7.99748,63.0925582]],[[8,63.0189399],[8,63.0189399],[8.1486815,62.9507177],[8,63.0189399]],[[9.8442984,64.0330957],[9.8879783,64],[9.8910989,63.9976356],[9.8879783,64],[9.8442984,64.0330957]],[[9.8910989,63.9976356],[9.9005506,64],[9.9450995,64.0111442],[9.9005506,64],[9.8910989,63.9976356]],[[9.9270993,63.8845009],[10,63.9068583],[10.1143011,63.9419125],[10,63.9068583],[9.9270993,63.8845009]],[[9.9808442,64],[9.9898087,64.0086005],[10,64.0183782],[10.0171002,64.0347843],[10,64.0183782],[9.9898087,64.0086005],[9.9808442,64]],[[9.9810998,63.492751],[10,63.4956005],[10.0819008,63.5079482],[10,63.4956005],[9.9810998,63.492751]],[[9.9991,64.1090817],[10,64.1090426],[10.1935019,64.1006388],[10,64.1090426],[9.9991,64.1090817]],[[10,58.9710531],[10,58.9710531],[10.0135001,58.9724296],[10,58.9710531]],[[10,63.9319921],[10,63.9319921],[10.1431014,63.9655526],[10,63.9319921]],[[10,63.9681412],[10,63.9681412],[10.1287013,63.9875041],[10,63.9681412]],[[10.5751058,63.8085149],[11.1528762,64],[11.1528762,64],[11.1763118,64.007767],[11.1528762,64],[11.1528762,64],[10.5751058,63.8085149]],[[11.6420999,65.0602109],[11.6420999,65.0602109],[11.6587166,65.0648164],[11.6569311,65.0602104],[11.6515165,65.0462421],[11.6569311,65.0602104],[11.6420999,65.0602109]],[[11.7451175,64.8841386],[12,64.9445859],[12.0655207,64.9601246],[12,64.9445859],[11.7451175,64.8841386]]]}}
