{"type":"Feature","properties":{"family":"ottoman","name":"Ottoman Empire in Asia, 1789 – 1815"},"geometry":{"type":"Polygon","coordinates":[[[25.177625,38.5884719],[25.1865427,38.5374159],[25.2077526,38.4885986],[25.2404564,38.4438047],[25.283442,38.4046687],[25.3662033,38.3423529],[25.4184185,38.309952],[25.4775791,38.2859916],[25.5232152,38.2755488],[25.5224696,38.2213548],[25.536117,38.1671388],[25.5635675,38.1162264],[25.6036422,38.0707556],[25.6546412,38.0326327],[25.7984424,37.9450675],[25.8536973,37.9175328],[25.9145531,37.8987321],[25.9655769,37.8912819],[25.9360778,37.8837372],[25.877228,37.8576435],[25.8261129,37.8229137],[25.7847341,37.7809172],[25.6936132,37.666369],[25.7347154,37.6302082],[25.7688867,37.5845972],[25.7911137,37.5345703],[25.8005597,37.4820677],[25.7968873,37.4291217],[25.7886297,37.4036225],[25.8030956,37.4059505],[25.8736098,37.4054479],[25.9424662,37.3933275],[26.0066609,37.3701189],[26.0634002,37.3368351],[26.1102243,37.2949265],[26.1282462,37.2697671],[26.1886997,37.2829701],[26.1886707,37.281873],[26.1996473,37.2311914],[26.2225355,37.1830793],[26.256482,37.1392863],[26.2853199,37.1089582],[26.331191,37.0695361],[26.3859318,37.0381152],[26.4473724,37.015937],[26.5130853,37.0038774],[26.5215161,37.0036963],[26.5535447,36.9774985],[26.5762434,36.962241],[26.5745078,36.949028],[26.5805219,36.8966524],[26.5991673,36.8461998],[26.6034522,36.8396655],[26.6007531,36.8333065],[26.5479961,36.8614689],[26.4887558,36.8866365],[26.4244225,36.901917],[26.408497,36.9030565],[26.4093766,36.8738521],[26.398993,36.8237475],[26.3770873,36.776099],[26.3444548,36.7325902],[26.3022638,36.6947557],[26.2520134,36.6639277],[26.0677145,36.5712074],[26.1133068,36.5342146],[26.149794,36.4896702],[26.174652,36.4402251],[26.1869298,36.3878191],[26.1861734,36.3345041],[26.1724399,36.2823629],[26.171007,36.2796814],[26.1869662,36.2712941],[26.2454283,36.251946],[26.3073501,36.2417529],[26.370543,36.2410763],[26.4327743,36.2499409],[26.4918438,36.2680345],[26.5456591,36.2947182],[26.5923088,36.3290483],[26.5990586,36.3363265],[26.6371101,36.3505166],[26.6913589,36.3826727],[26.7365348,36.4228886],[26.7675577,36.4651293],[26.7787089,36.4587813],[26.8369832,36.4321674],[26.8416802,36.4309283],[26.8456254,36.424766],[26.8859519,36.3837856],[26.935326,36.3498066],[26.9918942,36.3240981],[27.0037716,36.3209264],[27.0056092,36.3177407],[27.0469926,36.2731353],[27.1298079,36.200697],[27.1801124,36.1646662],[27.1960266,36.1572306],[27.2092003,36.1192036],[27.2235438,36.0967658],[27.191491,36.0969094],[27.1284334,36.0872641],[27.0688567,36.0680384],[27.0039227,36.0409329],[26.9504745,36.0130664],[26.904596,35.9774999],[26.8679561,35.935537],[26.841879,35.8887132],[26.7526534,35.675751],[26.7396983,35.6294177],[26.7043182,35.6156665],[26.6496676,35.5888697],[26.602393,35.5540613],[26.5642457,35.5125402],[26.5478485,35.4848185],[26.5612765,35.4722795],[26.5934904,35.4266107],[26.6141975,35.3767151],[26.622629,35.3245008],[26.6213601,35.3084106],[26.623567,35.3051988],[26.6438189,35.2536873],[26.6510908,35.1999243],[26.6467079,35.1604135],[26.6674042,35.1470232],[26.7237477,35.1231859],[26.7846249,35.1085664],[26.8478015,35.1037021],[26.9109607,35.1087722],[27.068875,35.1339952],[27.0851869,35.1380358],[27.097489,35.1358087],[27.1661692,35.1352415],[27.2335256,35.1462545],[27.2966649,35.1683761],[27.3528691,35.200657],[27.4500345,35.2697105],[27.4956934,35.309369],[27.5306856,35.3556774],[27.5535719,35.4067574],[27.5633979,35.4605333],[27.5597369,35.5148153],[27.5427116,35.5673885],[27.5054249,35.6480978],[27.5276251,35.7137919],[27.5307447,35.7109469],[27.5806804,35.6738069],[27.638833,35.6456282],[27.7027962,35.6275742],[27.7699305,35.6203903],[27.8374687,35.6243736],[27.902627,35.639361],[27.9627162,35.6647356],[28.0152501,35.6994511],[28.1239143,35.7874644],[28.1276994,35.7875079],[28.19328,35.7991623],[28.2546648,35.8212132],[28.3093702,35.8527712],[28.3551749,35.8925611],[28.3902094,35.9389726],[28.4130329,35.9901241],[28.4226933,36.0439377],[28.4213269,36.062861],[28.4393073,36.0836806],[28.4651436,36.1190422],[28.4840373,36.1571583],[28.560381,36.3528581],[28.573968,36.4054365],[28.5740994,36.425834],[28.6200203,36.3903195],[28.6774629,36.361126],[28.7410106,36.3418148],[28.7705072,36.3380188],[28.7784442,36.30856],[28.8051749,36.259411],[28.8434275,36.2154856],[28.8916774,36.1785152],[29.1433725,36.0202088],[29.1949627,35.9933972],[29.2517267,35.9746457],[29.31176,35.9645834],[29.3730515,35.9635479],[29.3735215,35.9636103],[29.4039386,35.9587861],[29.4146802,35.9539115],[29.4468589,35.9247137],[29.4987896,35.8929389],[29.5573302,35.8699157],[29.6202603,35.8565164],[29.6851978,35.8532486],[29.7496868,35.8602364],[29.8112872,35.8772164],[30.0752935,35.9737367],[30.1140681,35.9712687],[30.1762758,35.9767694],[30.2069702,35.98435],[30.254901,35.961378],[30.3153813,35.9439274],[30.3788591,35.9361486],[30.4430012,35.9383281],[30.5054505,35.9503864],[30.56391,35.9718808],[30.6162249,36.0020211],[30.6450111,36.0222314],[30.7060413,36.0788712],[30.7998985,36.1951717],[30.8286369,36.2390671],[30.8469298,36.2864648],[30.8541395,36.3357627],[30.8504576,36.3798281],[30.85778,36.3896689],[30.8838184,36.4330007],[30.8998817,36.4793653],[30.905441,36.5272888],[30.9057198,36.5905257],[31.2268598,36.5496527],[31.6483173,36.3564624],[31.7294837,36.3296393],[31.8231695,36.3096433],[32.0996604,36.0158149],[32.1386005,35.980975],[32.1843875,35.9521093],[32.2356378,35.9300861],[32.6736982,35.7785731],[32.738314,35.7621285],[32.8056826,35.7566075],[32.8730374,35.7622372],[32.937612,35.7787867],[32.9967506,35.8055764],[33.0006208,35.8077743],[33.0877326,35.6489425],[32.9744677,35.6643609],[32.9073588,35.6677394],[32.840796,35.6600316],[32.7775341,35.6415569],[32.7201873,35.61308],[32.6711188,35.5757785],[32.6323412,35.5311926],[32.6054347,35.4811605],[32.5967877,35.4480594],[32.5568173,35.448407],[32.4847799,35.4425549],[32.4160506,35.424054],[32.3539408,35.393797],[32.3078015,35.3581637],[32.281788,35.3605629],[32.2189153,35.3565181],[32.1581428,35.3427879],[32.1016986,35.3198763],[32.0516474,35.2886238],[32.0098137,35.2501753],[31.9777148,35.2059374],[31.956506,35.1575259],[31.9469404,35.1067057],[31.949344,35.0553265],[31.9636072,35.0052545],[32.1015372,34.6679134],[32.1282846,34.6189719],[32.1662448,34.5753463],[32.2139075,34.5387538],[32.2693883,34.5106327],[32.5208133,34.4096102],[32.5950809,34.3883078],[32.6733519,34.3822024],[32.7070055,34.3829172],[32.7200648,34.3709416],[32.7685267,34.3404365],[32.8229792,34.3178689],[32.8815403,34.3040174],[32.9421899,34.2993595],[33.0283095,34.2993561],[33.0913942,34.3043946],[33.1521342,34.3193723],[33.2082605,34.3437305],[33.257672,34.3765599],[33.2985123,34.4166332],[33.3111858,34.4355378],[33.3323282,34.4379219],[33.3881928,34.4529511],[33.7329553,34.5741515],[33.797549,34.6042224],[33.852324,34.6454581],[33.8719682,34.6689101],[33.9216697,34.67167],[33.9906762,34.6883897],[34.0326415,34.7028079],[34.0634318,34.6976129],[34.1277866,34.6972719],[34.1909972,34.7072312],[34.2506542,34.7271116],[34.3044802,34.7561553],[34.350414,34.7932543],[34.3866892,34.8369915],[34.4119015,34.8856937],[34.4250644,34.9374946],[34.4256494,34.9904056],[34.4136097,35.0423915],[34.3893858,35.0914489],[34.3538922,35.1356837],[34.3220116,35.1679567],[34.7637729,35.4224259],[34.8188098,35.462002],[34.8618456,35.5104665],[34.8907547,35.5654517],[34.9089323,35.6143733],[34.9213272,35.6643167],[34.9219523,35.7152634],[34.9107629,35.7653966],[34.888137,35.8129252],[34.8548649,35.8561483],[34.8121232,35.893516],[34.7614345,35.9236868],[34.7046131,35.9455759],[34.6436997,35.9583957],[34.5808863,35.9616846],[34.5184355,35.9553243],[34.4585961,35.9395437],[33.5633052,35.6201278],[33.4292797,35.6024485],[33.1924559,35.6346867],[33.0948766,35.8129342],[33.1500848,35.8173288],[33.2107176,35.8318662],[33.266894,35.8554127],[33.2816801,35.8648514],[33.5392401,35.8580506],[33.5989757,35.8607543],[33.6492716,35.870521],[33.6605684,35.8688946],[33.7241408,35.8696689],[33.7863847,35.8801891],[33.8450516,35.9000755],[33.8980179,35.9286096],[33.9204385,35.9464906],[33.9711991,35.9442343],[34.0348232,35.9513663],[34.0955975,35.9682153],[34.1512833,35.9941615],[34.1998241,36.0282496],[34.2394199,36.0692227],[34.2613191,36.1040172],[34.26189,36.1042631],[34.312518,36.1377256],[34.354143,36.1785021],[34.3851631,36.2250385],[34.4043744,36.2755579],[34.4080979,36.3050257],[34.4968289,36.3805542],[34.7117467,36.498095],[34.7219958,36.4917953],[34.7780193,36.4691421],[34.8382818,36.4552377],[34.8868208,36.4516051],[35.1713618,36.3115261],[35.2300901,36.2884949],[35.2932243,36.2750609],[35.3583831,36.2717304],[35.4231112,36.2786289],[35.4580781,36.2881684],[35.4680209,36.2458424],[35.4908664,36.1989089],[35.5815054,36.0537763],[35.5419004,36.0226625],[35.5038419,35.9772378],[35.4779682,35.9265158],[35.4653297,35.8726029],[35.4664233,35.8177338],[35.4791784,35.7714326],[35.4349555,35.7068237],[35.41018,35.6610115],[35.3962661,35.6122687],[35.3936736,35.5622759],[35.4024705,35.5127533],[35.4223342,35.4654019],[35.4525648,35.4218453],[35.4921118,35.3835745],[35.6099364,35.2887295],[35.6152097,35.2622832],[35.5882008,35.2240946],[35.5686306,35.1804115],[35.5585486,35.1346294],[35.5376907,34.9488259],[35.5373747,34.9025088],[35.546718,34.8568293],[35.6029485,34.6773248],[35.5569481,34.6414325],[35.5201414,34.5987343],[35.4940807,34.5509827],[35.492711,34.5461171],[35.4471906,34.5129118],[35.4033225,34.4738533],[35.3696501,34.4284453],[35.3474727,34.378464],[35.3376351,34.3258612],[35.3256572,34.1436048],[35.3184928,34.1411896],[35.26626,34.11293],[35.2215287,34.0769285],[35.1859395,34.034514],[35.1607895,33.9872502],[35.146986,33.9368765],[35.1450155,33.8852438],[35.1482822,33.8430501],[35.0751401,33.6730709],[35.0623084,33.6640183],[35.0243939,33.6323996],[34.9932938,33.5959957],[34.9698563,33.5558106],[34.8875886,33.3783029],[34.8698644,33.3232082],[34.8671505,33.2784459],[34.8312783,33.2294973],[34.8035425,33.1815288],[34.7876343,33.1299311],[34.7708642,33.0391466],[34.760111,33.0339168],[34.7130627,32.9992472],[34.6749516,32.9575748],[34.6472165,32.9104885],[34.6308953,32.8597804],[34.528608,32.3453264],[34.4193905,32.0573315],[34.2213294,31.7393061],[34.0109303,31.538838],[33.9631748,31.4933367],[33.929272,31.4543282],[33.9041337,31.4107606],[33.8885644,31.3640512],[33.8830546,31.315717],[33.8877668,31.2673254],[33.9025324,31.220443],[33.903816,31.2174409],[34.0336438,31.2536464],[34.1777818,31.3341334],[34.1750478,31.3315354],[34.1715107,31.3274408],[34.168936,31.3228512],[34.1674152,31.3179302],[34.1670024,31.3128529],[34.1677119,31.3078],[34.1695184,31.3029512],[34.1717089,31.2985507],[34.198542,31.3135339],[34.2489425,31.2122193],[34.4793448,30.6516117],[34.504545,30.5300341],[34.5369454,30.4827539],[34.5261453,30.4101451],[34.598146,30.3442906],[34.7349473,30.0133294],[34.7421474,29.9407206],[34.8249482,29.7414685],[34.8465485,29.5692336],[34.8861489,29.4898705],[34.8678409,29.4681979],[34.868533,29.4676913],[34.8735075,29.4652453],[34.8789127,29.4636387],[34.8845644,29.4629262],[34.8902701,29.463132],[34.9032829,29.4646579],[34.7651207,29.301161],[34.7549541,29.1839207],[34.7537416,29.1782109],[34.7511571,29.1728591],[34.7399835,29.1552731],[34.7837943,29.1246114],[34.8403597,29.0995283],[34.8676315,29.0930933],[34.9077491,29.2298296],[34.9437494,29.2500925],[34.9490254,29.3243323],[34.9509495,29.3514072],[36.0453605,29.1909923],[36.4773648,29.4949362],[36.7293673,29.8529146],[37.4709747,29.9947551],[37.6473765,30.330782],[37.9821798,30.4996397],[37.4817748,31.0079015],[36.9597696,31.4908346],[38.9649896,31.9940306],[39.1449914,32.1189853],[39.2925929,32.24394],[39.2349923,32.3536975],[39.0477905,32.308106],[39.0297903,32.3283689],[38.9793898,32.4752751],[39.0585906,32.4972266],[38.7741877,33.3719096],[40.6894069,34.3310215],[40.9666097,34.4019418],[41.197012,34.768363],[41.200612,35.2428533],[41.2618126,35.4944513],[41.3590136,35.6244717],[41.3554136,35.8254124],[41.2366124,36.0601247],[41.2762128,36.3556257],[41.3842138,36.5160405],[41.7910179,36.5886493],[41.8450185,36.6173552],[42.3778238,37.061451],[42.3562236,37.1104197],[42.5614256,37.1458798],[42.7162272,37.3552634],[42.7702277,37.3755263],[42.9358294,37.3198033],[43.1158312,37.3704606],[43.2706327,37.3079833],[43.3354334,37.3198033],[43.4794348,37.2438173],[43.7458375,37.2303087],[43.8106381,37.1999143],[43.8934389,37.225243],[43.9906399,37.313049],[44.0878409,37.3113604],[44.1850419,37.2792774],[44.2354424,37.237063],[44.2498425,37.1695199],[44.1886419,37.1289941],[44.1814418,37.0867796],[44.2354424,36.9837764],[44.2858429,36.9685792],[44.3434434,37.0428766],[44.4550446,37.0766482],[44.6098461,37.1779628],[44.7322473,37.1678313],[44.7646476,37.1425027],[44.7538475,37.2151115],[44.800648,37.2927861],[44.696247,37.3805921],[44.6602466,37.3755263],[44.6386464,37.412675],[44.5666457,37.4464466],[44.5882459,37.5832213],[44.5414454,37.6321901],[44.595446,37.716619],[44.5054451,37.7790963],[44.4370444,37.7672763],[44.4334443,37.8061135],[44.404644,37.8094907],[44.3686437,37.860148],[44.2210422,37.8753452],[44.203042,37.8972967],[44.2354424,37.9935456],[44.3290433,38.0948603],[44.3254433,38.1286318],[44.3614436,38.1472062],[44.3722437,38.2502094],[44.4586446,38.3380154],[44.4082441,38.3819184],[44.3650437,38.3650326],[44.2894429,38.3819184],[44.296643,38.6216964],[44.2426424,38.6588451],[44.2750428,38.8429],[44.1922419,38.8901802],[44.1382414,38.9931834],[44.1778418,39.0353978],[44.1706417,39.0742351],[44.195842,39.1198267],[44.0770408,39.2008784],[44.0698407,39.2869958],[44.0158402,39.3748018],[44.1778418,39.4119505],[44.296643,39.3815561],[44.3866439,39.4153277],[44.4586446,39.6990087],[44.5666457,39.7665518],[44.5918459,39.7716175],[44.6458465,39.7192716],[44.8078481,39.6399085],[44.7754478,39.7023858],[44.6926469,39.793569],[44.599046,39.8307177],[44.5234452,39.9337209],[44.3254433,40.0350355],[44.1058411,40.0367241],[44.0338403,40.0080183],[43.9114391,40.0249041],[43.6666367,40.1093329],[43.6522365,40.1397273],[43.7206372,40.1701217],[43.6738367,40.2275334],[43.6918369,40.2393534],[43.6774368,40.2663706],[43.5946359,40.3457338],[43.6270363,40.4200312],[43.5586356,40.4774428],[43.6378364,40.5230344],[43.6306363,40.536543],[43.6522365,40.5297887],[43.7062371,40.612529],[43.7278373,40.668252],[43.7206372,40.7628123],[43.6594366,40.8523069],[43.6378364,40.9333587],[43.5658357,40.9873931],[43.4614346,41.0228532],[43.4398344,41.1072821],[43.4506345,41.1326108],[43.4110341,41.1748252],[43.3534335,41.1933996],[43.2310323,41.1731366],[43.1734317,41.2423683],[43.101431,41.2491226],[43.1842318,41.2997799],[43.00063,41.3825202],[42.8674287,41.5007206],[42.8314283,41.4720148],[42.7666277,41.5040978],[42.802628,41.5344922],[42.8206282,41.5716409],[42.802628,41.5783952],[42.5902259,41.5800837],[42.4642246,41.4314889],[42.1582216,41.5007206],[42.0178202,41.4855234],[41.9494195,41.5057863],[41.8126181,41.4213575],[41.7082171,41.4635719],[41.701017,41.4889006],[41.6398164,41.4787691],[41.5210152,41.5142292],[41.5421315,41.5369608],[41.7406174,41.7506301],[41.7439967,41.7571464],[41.5884196,41.7790562],[41.5206205,41.7836575],[41.4528342,41.7786429],[41.3874992,41.7641917],[41.3269633,41.7408229],[41.2733963,41.7093753],[41.2287103,41.6709769],[41.1482446,41.5868303],[40.8504208,41.4664549],[40.799466,41.46717],[40.7317565,41.4582828],[40.6675369,41.439867],[40.6091765,41.4126023],[40.4452527,41.3183044],[40.4351151,41.3183391],[40.368944,41.309102],[40.3062332,41.2907106],[40.1427032,41.2286944],[40.1368913,41.2310246],[40.0741451,41.2458815],[40.0088045,41.2518096],[39.9431006,41.2486058],[39.8826541,41.2370268],[39.7827221,41.2566532],[39.6328522,41.3345451],[39.5760758,41.3585505],[39.5144025,41.3744008],[39.4498887,41.3815666],[39.3846892,41.3798081],[39.3209826,41.3691835],[39.260896,41.3500473],[39.2435046,41.3430392],[39.2313407,41.3455579],[39.1683455,41.3499146],[39.1052942,41.3458545],[39.0441706,41.3335049],[38.6315037,41.2189898],[38.3438258,41.1912867],[38.114742,41.2251359],[38.0873866,41.2661627],[38.0466413,41.3062209],[37.9966306,41.3398381],[37.9391085,41.3658267],[37.8761023,41.3832676],[37.7821687,41.4019146],[37.7097473,41.4104222],[37.6365168,41.40766],[37.5655652,41.3937439],[37.4998817,41.3692602],[37.4953724,41.3666016],[37.485309,41.3712372],[37.4313735,41.3915823],[37.3736284,41.4048181],[37.3137236,41.4105657],[37.3068873,41.410784],[37.2907587,41.4361421],[37.2455465,41.480459],[37.189076,41.5168067],[37.1237727,41.5436141],[36.8962845,41.614791],[36.7940403,41.6340823],[36.6566988,41.6442562],[36.5803463,41.6437615],[36.5058565,41.6311909],[36.4920123,41.6263818],[36.4890881,41.6499929],[36.4695379,41.6998332],[36.4375406,41.7459328],[36.3478113,41.8491516],[36.2923845,41.8985946],[36.2227266,41.9367728],[36.1541623,41.965576],[36.0885836,41.9870125],[36.0698989,41.9900501],[36.0470109,41.996441],[35.9739706,42.0048713],[35.900146,42.0020437],[35.8286468,41.9880771],[35.5830028,41.9190938],[35.554693,41.9277785],[35.5721342,41.9695849],[35.5797492,42.0208219],[35.574137,42.0722002],[35.5554722,42.1218425],[35.5244103,42.167931],[35.4820666,42.2087744],[35.4299791,42.2428714],[35.370053,42.2689662],[35.3044907,42.2860969],[35.2685018,42.2900441],[35.2115596,42.3223407],[35.14174,42.3467022],[35.0665235,42.3595716],[34.9906192,42.3663519],[34.9148546,42.367196],[34.8405127,42.3563714],[34.7708461,42.3343519],[34.7088958,42.3021],[34.6573547,42.2610241],[34.6251371,42.2211905],[33.3464997,42.2883322],[33.270553,42.2860095],[33.1969554,42.2719962],[32.1315207,41.9719943],[32.0728368,41.9503988],[32.0203963,41.9212537],[31.9759219,41.8855215],[31.8993864,41.8114352],[31.2386246,41.5559319],[31.1771043,41.5254668],[31.1252549,41.4862022],[31.0852565,41.439803],[31.0587757,41.388233],[31.0519278,41.3567821],[30.8820349,41.3516759],[30.3912135,41.4718877],[30.3288956,41.4825112],[30.2650711,41.4846684],[30.2017789,41.478291],[30.1410401,41.4635831],[30.0847911,41.4410146],[30.0510557,41.4244024],[29.2102612,41.5015518],[29.162769,41.5023234],[29.1805731,41.4995843],[29.2485268,41.4836833],[29.31093,41.4580575],[29.3653271,41.4237194],[29.4095878,41.3820235],[29.4419919,41.3346114],[29.4612938,41.2833454],[29.4667691,41.2302346],[29.4661206,41.2262146],[29.4661201,41.2262147],[29.46612,41.2262147],[29.1746045,41.2605638],[29.1676858,41.2608486],[29.1608272,41.2601268],[29.1542854,41.2584254],[29.148305,41.255808],[29.1431097,41.2523727],[29.1390212,41.2490842],[29.1390212,41.2490842],[29.1415399,41.2453573],[29.143448,41.2401812],[29.143952,41.234824],[29.1430321,41.2294984],[29.1407254,41.2244158],[29.1371235,41.2197779],[29.1107201,41.1924384],[29.1142165,41.1905086],[29.114752,41.1900713],[29.1147501,41.1900698],[29.1147499,41.1900697],[29.090319,41.1704253],[29.075,41.15],[29.074634,41.149512],[29.074634,41.149512],[29.0684907,41.1528737],[29.074634,41.149512],[29.0900909,41.1410537],[29.0613104,41.0769318],[29.0613102,41.0769314],[29.0613102,41.0769314],[29.061309,41.0769288],[29.0612568,41.0768592],[29.0612547,41.0768574],[29.0612543,41.0768571],[29.0612543,41.0768571],[29.0072901,41.0312961],[29.0104172,41.0242069],[29.0104172,41.0242068],[29.0104184,41.0242041],[28.998182,41.021145],[28.9856899,41.0025903],[28.998182,41.021145],[28.9981845,41.0211486],[28.9981845,41.0211488],[29.0720907,41.1309222],[29.065693,41.1375907],[29.0396904,41.1646937],[29.065693,41.1375907],[29,41.05],[28.8,41],[28.7080566,40.9770142],[28.7444874,40.9806388],[28.7917794,40.9695478],[28.7917796,40.9695478],[28.7917855,40.9695464],[28.7193694,40.9514425],[28.7128103,40.9503034],[28.7128197,40.9503036],[28.7414823,40.953156],[28.8131768,40.9363389],[28.8200219,40.9352715],[28.8270075,40.9352315],[28.8338659,40.9362205],[28.8403344,40.9382006],[28.945321,40.9797515],[28.9807058,40.9759193],[28.9880754,40.9757008],[28.9938987,40.9764455],[28.9950325,40.9738759],[28.9983123,40.9684957],[29.0030655,40.9637825],[29.0090631,40.9599633],[29.2331925,40.8460005],[29.2331939,40.8459998],[29.2332161,40.8459885],[29.1704063,40.8130917],[29.1704063,40.8130917],[29.0979119,40.7907765],[28.7249726,40.7098881],[28.7249726,40.7098881],[28.6550651,40.7001646],[28.583998,40.7011157],[28.5210159,40.7116291],[28.5061012,40.700938],[28.4752062,40.6683762],[28.3708352,40.6736301],[28.3036903,40.6721388],[28.2764946,40.6695583],[28.2618816,40.6808616],[28.2029459,40.7111079],[28.1372353,40.7318433],[28.1177481,40.7363099],[28.114626,40.7346671],[28.0474919,40.7130081],[28.0106565,40.7074133],[28.015361,40.6932415],[28.0191681,40.6421911],[28.0102039,40.5915175],[27.9888188,40.5430398],[27.9783138,40.5288656],[27.9783104,40.5288661],[27.9783099,40.5288662],[27.9733001,40.5296129],[27.800285,40.5403414],[27.7917669,40.5507324],[27.787416,40.555015],[27.782029,40.5585544],[27.7758225,40.5612081],[27.7690465,40.5628694],[27.7619738,40.5634714],[27.7548892,40.5629898],[27.7480779,40.5614439],[27.7418143,40.5588962],[27.6626011,40.5183572],[27.6626011,40.5183572],[27.6594111,40.5163612],[27.6545527,40.5185946],[27.6221431,40.5304183],[27.6152132,40.5323031],[27.6079243,40.5330624],[27.6005902,40.5326636],[27.5935269,40.5311238],[27.5870384,40.5285093],[27.5814041,40.5249327],[27.5768663,40.5205481],[27.5516747,40.4901479],[27.5484785,40.4852393],[27.5466591,40.4799376],[27.5462918,40.4744626],[27.5473914,40.4690414],[27.549912,40.4638987],[27.5537488,40.4592476],[27.5587427,40.4552808],[27.5646866,40.4521626],[27.5646866,40.4521626],[27.5713341,40.4500223],[27.6361123,40.4348298],[27.643146,40.4337551],[27.650316,40.433779],[27.6573288,40.4349006],[27.6638971,40.437074],[27.6697518,40.44021],[27.6746528,40.4441803],[27.6746528,40.4441803],[27.6783993,40.4488222],[27.6808372,40.4539453],[27.6818666,40.4593398],[27.6815857,40.4629644],[27.7226096,40.4396697],[27.7541877,40.3885342],[27.7541881,40.3885335],[27.7541988,40.3885161],[27.6739466,40.3629929],[27.6436698,40.355838],[27.6435948,40.3558423],[27.6435926,40.3558424],[27.6166048,40.3573903],[27.6098353,40.3572792],[27.6032215,40.3561874],[27.547112,40.3425044],[27.5471103,40.342504],[27.5469572,40.3424667],[27.5417765,40.342032],[27.5050491,40.3443151],[27.5049504,40.344348],[27.5049502,40.3443481],[27.3577602,40.3934677],[27.3557443,40.3951238],[27.3565899,40.3957341],[27.360733,40.4002968],[27.3635557,40.4054117],[27.3649375,40.4108613],[27.3648194,40.4164138],[27.363206,40.4218331],[27.3601657,40.4268886],[27.31698,40.4826229],[27.312722,40.487025],[27.3073854,40.4906869],[27.3011895,40.4934583],[27.2943887,40.4952251],[27.2872626,40.4959149],[27.2801041,40.4954992],[27.2732073,40.4939952],[27.2084973,40.474267],[27.0975263,40.4789936],[27.0910434,40.4788147],[27.0847159,40.4777403],[27.0787561,40.4758064],[27.073364,40.4730779],[26.9799036,40.4156329],[26.7382695,40.4299818],[26.7319515,40.4299208],[26.7257521,40.4290067],[26.7198688,40.4272688],[26.7144892,40.4247625],[26.7097846,40.4215676],[26.6801904,40.3974309],[26.6334922,40.3327481],[26.6291434,40.3280036],[26.6235666,40.3240757],[26.5138925,40.2618],[26.4827744,40.2364203],[26.4618983,40.2322763],[26.3909867,40.1920109],[26.3957577,40.18417],[26.3981179,40.1789485],[26.3990361,40.1734697],[26.3984742,40.1679633],[26.3964561,40.1626603],[26.3930668,40.1577828],[26.3884486,40.1535354],[26.2762926,40.0694411],[26.2762926,40.0694411],[26.2715922,40.0664947],[26.3496796,40.1071366],[26.2869641,40.0405876],[26.2430606,40.0224161],[26.1965741,40.0275434],[26.1917769,40.0255151],[26.1855807,40.0239481],[26.1855807,40.0239481],[26.179113,40.0232828],[26.1725955,40.0235422],[26.1698427,40.0240521],[26.1686768,40.0235622],[26.1636788,40.0204257],[26.1595202,40.0166405],[26.1563419,40.012335],[26.1167676,39.9447825],[26.1148224,39.9405352],[26.1138316,39.936097],[26.105014,39.8571726],[26.1027744,39.8585084],[26.0966572,39.8608703],[26.0900615,39.8622796],[26.0832378,39.862683],[25.978797,39.860992],[25.9720479,39.8603754],[25.9655843,39.8587735],[25.9596489,39.8562463],[25.9544641,39.8528888],[25.9502244,39.8488269],[25.9489485,39.8469496],[25.9489479,39.8469487],[25.9489378,39.8469338],[25.9484714,39.8472334],[25.8823378,39.8385855],[25.8134476,39.8400151],[25.7491943,39.8461886],[25.7459485,39.8413977],[25.7044726,39.8011861],[25.7007476,39.7982049],[25.7006945,39.7878774],[25.6930972,39.7330952],[25.6787056,39.6986086],[25.6878684,39.6854935],[25.7308341,39.6451139],[25.7696257,39.6203739],[25.7443833,39.5662132],[25.7297859,39.5221419],[25.7038123,39.5096555],[25.6518985,39.4712015],[25.6114277,39.4253249],[25.5290162,39.3069333],[25.5024011,39.257179],[25.4891974,39.2043008],[25.4899057,39.150424],[25.5044669,39.0977089],[25.5322693,39.0482652],[25.5721776,39.0040675],[25.6225816,38.9668782],[25.6814618,38.9381783],[25.8803748,38.8612273],[25.7777515,38.8443422],[25.7653692,38.8411998],[25.707952,38.8634244],[25.6388784,38.8774383],[25.5675931,38.8801294],[25.4971541,38.8713839],[25.432146,38.8578176],[25.3700887,38.8397171],[25.3136794,38.8127249],[25.2649987,38.7778415],[25.2258336,38.7363571],[25.1976121,38.6898038],[25.1813516,38.639897],[25.177625,38.5884719]],[[25.9112591,38.2265693],[26.0084601,38.1573376],[26,38.1633633],[25.9112591,38.2265693]],[[25.9760598,37.5156783],[26.2316623,37.5714013],[26,37.5208974],[26,37.5208974],[25.9760598,37.5156783]],[[25.9940599,38.6048106],[26,38.6034908],[26.0624606,38.5896134],[25.9940599,38.6048106]],[[26.1090601,39.7862157],[26.1156032,39.816839],[26.1176169,39.8155172],[26.1099913,39.7861275],[26.1090601,39.7862157]],[[26.1488615,39.9337209],[26.1877208,40],[26.1884619,40.001264],[26.1488615,39.9337209]],[[26.1884619,40.001264],[26.1999149,40],[26.2496625,39.9945097],[26.1884619,40.001264]],[[26.1962976,37.9335979],[26.2232509,37.9474859],[26.2524021,37.9658546],[26.2718741,37.9566491],[26.2955688,37.9499169],[26.2892913,37.9493469],[26.1962976,37.9335979]],[[26.2496625,39.9945097],[26.2629285,40],[26.3108631,40.0198383],[26.2496625,39.9945097]],[[27.9164792,36.7406213],[28.0460805,36.7625728],[28,36.7547678],[28,36.7547678],[27.9164792,36.7406213]],[[27.9704797,40.5027714],[28,40.4896944],[28.0352804,40.4740656],[27.9704797,40.5027714]],[[27.9920799,36.0618132],[28.0892809,36.0550589],[28,36.0612629],[27.9920799,36.0618132]],[[28.8236882,40.9620645],[28.9388894,41.0076561],[28.9426133,41.007253],[28.9297369,41.0040339],[28.8236882,40.9620645]],[[29.8856989,41.1494965],[30,41.1471989],[30.1377014,41.1444308],[29.8856989,41.1494965]],[[29.9900999,36.2171623],[30.0477005,36.2593768],[30,36.2244179],[29.9900999,36.2171623]],[[31.6605166,41.3977174],[32,41.5569502],[32.0385204,41.575018],[31.6605166,41.3977174]],[[32.8766174,36.033871],[32.8766174,36.033871],[32.8772487,36.0327199],[32.8766174,36.033871]],[[33.5954038,42],[33.5954038,42],[34,41.971534],[34,41.971534],[33.5954038,42]],[[33.8925389,34.9574837],[34.0113401,34.9878781],[34,34.9849768],[33.8925389,34.9574837]],[[33.899739,35.1651787],[34,35.0741589],[34.0113401,35.0638641],[33.899739,35.1651787]],[[33.9501395,35.3120849],[34,35.3175418],[34,35.3175418],[33.9501395,35.3120849]],[[34.7133471,31.9518162],[34.7317854,32],[34.8393484,32.2810887],[34.7133471,31.9518162]],[[35.0913509,41.9279307],[35.1165512,42.0072938],[35.1142352,42],[35.0913509,41.9279307]],[[35.6133561,33.9933061],[35.641899,34],[35.6421564,34.0000604],[35.6133561,33.9933061]],[[35.804158,36.7743928],[36,36.9121807],[36,36.9121807],[35.804158,36.7743928]],[[35.9121591,35.9182842],[35.9653103,36],[35.9769598,36.0179102],[35.9121591,35.9182842]],[[35.9769598,41.7303671],[36,41.7144746],[36,41.7144746],[35.9769598,41.7303671]],[[36,36.4993355],[36,36.4993355],[36.0453605,36.537992],[36,36.4993355]],[[37.9353794,40.995836],[38,40.982729],[38.201782,40.9418015],[37.9353794,40.995836]],[[39.9982,40.9823274],[40,40.9814349],[40.1242012,40.91985],[39.9982,40.9823274]]]}}
