{"type":"Feature","properties":{"family":"ottoman","name":"Ottoman Empire in Europe, 1814 – 1815"},"geometry":{"type":"Polygon","coordinates":[[[15.7159572,44.8035778],[15.7267573,44.7698062],[15.8059581,44.6971974],[15.8059581,44.6971974],[15.8887589,44.7242146],[15.9679597,44.6397858],[16.0291603,44.6245886],[16.0435604,44.5891284],[16.0075601,44.5401597],[16.1155612,44.5215854],[16.1587616,44.4168936],[16.1371614,44.3780563],[16.2055621,44.351039],[16.1875619,44.2818074],[16.2163622,44.20751],[16.3279633,44.0825553],[16.4143641,44.055538],[16.4395644,44.0133236],[16.500765,43.9930607],[16.6771668,43.8410887],[16.6980174,43.8009913],[16.7131671,43.771857],[17.0623706,43.5270133],[17.2711727,43.4628474],[17.2855729,43.4375187],[17.2675727,43.3530899],[17.2891729,43.3041211],[17.400774,43.2163151],[17.4403744,43.1521492],[17.5879759,43.0829175],[17.6599766,42.9934229],[17.6635766,42.9664057],[17.6138401,42.9522056],[17.5807758,42.9427656],[17.614896,42.9235609],[17.6149016,42.9235578],[17.6134533,42.9231444],[17.6134434,42.9231464],[17.5555756,42.9343227],[17.6527765,42.8904197],[17.6590962,42.8940191],[17.703177,42.9191255],[17.8111781,42.9106826],[17.8579786,42.8178109],[17.8639522,42.8144191],[17.9947799,42.7401363],[18.2575826,42.6151816],[18.3734434,42.5793146],[18.4375844,42.5594586],[18.4375844,42.5227197],[18.4375844,42.493604],[18.4699829,42.4499145],[18.475,42.475],[18.499873,42.5993651],[18.5004705,42.5998432],[18.65,42.55],[18.75,42.48],[18.85,42.38],[18.95,42.27],[18.9254149,42.2109957],[18.9386866,42.1996985],[18.9492621,42.1906963],[18.9492674,42.1906917],[18.9486202,42.1902094],[18.9428074,42.187294],[18.9363478,42.1852607],[18.9294816,42.1841852],[18.9224643,42.1841072],[18.9155567,42.1850299],[18.9090156,42.1869188],[18.9030843,42.1897037],[18.8979835,42.1932811],[18.8978432,42.1934005],[18.897959,42.1932792],[18.9825408,42.1213065],[18.9873316,42.117906],[18.9928749,42.1152066],[18.9989866,42.1132981],[19.0054636,42.1122437],[19.0120909,42.1120786],[19.0339723,42.1130132],[19.0479344,42.101229],[19.0457945,42.0840857],[19.0457967,42.0790958],[19.0470378,42.0741915],[19.0494749,42.0695406],[19.0530246,42.0653024],[19.0575651,42.0616217],[19.1032695,42.0308194],[19.1032952,41.9853388],[19.1043019,41.9790415],[19.1053723,41.9768885],[19.1021944,41.9752645],[19.0390223,41.9547163],[18.9717885,41.9434065],[18.9028973,41.9417392],[18.8348103,41.9497742],[18.7699612,41.9672244],[18.7106728,41.9934664],[18.6832059,42.0116236],[18.6814832,42.0120415],[18.6907918,42.0049681],[18.7787156,41.9498816],[18.8325448,41.8435719],[18.8671424,41.7923562],[18.9154249,41.747728],[18.9752018,41.7116885],[19.0437811,41.6858515],[19.1005972,41.6698024],[19.0943445,41.6575693],[19.0824495,41.6073132],[19.0834407,41.5562831],[19.0842456,41.5533729],[19.0838146,41.552942],[19.0533676,41.5052719],[19.0359541,41.4540718],[19.032213,41.4013122],[19.0422548,41.3490189],[19.0715032,41.2596183],[19.094788,41.2099121],[19.0933016,41.2068452],[19.0837334,41.143824],[19.0842126,41.0564744],[19.0550144,41.0187008],[19.0315129,40.9641939],[19.0238242,40.9071723],[19.0322547,40.8502139],[19.0322812,40.8501236],[18.9811183,40.7644572],[18.958858,40.7146549],[18.9497939,40.6625296],[18.9542396,40.6100648],[18.9719949,40.5592524],[18.9797743,40.5471576],[18.9597345,40.5165904],[18.9415104,40.4659267],[18.9365574,40.4135417],[18.9450324,40.3614231],[18.9665838,40.3115441],[19.0003698,40.2657891],[19.1880101,40.0602666],[19.2398507,40.0149843],[19.3034616,39.9796075],[19.385309,39.9438438],[19.3853187,39.94385],[19.4265944,39.9703618],[19.4844135,39.995054],[19.7118634,40.0713121],[19.7212871,40.0735967],[19.7212872,40.0735967],[19.7391409,40.05016],[19.7432141,40.045851],[19.7432142,40.0458509],[19.7483128,40.0422376],[19.7542385,40.0394606],[19.760761,40.0376276],[19.8401028,40.0218887],[19.8997558,39.943092],[19.879165,39.923763],[19.8753093,39.9193034],[19.8726773,39.9143482],[19.8713723,39.9090924],[19.8714453,39.9037428],[19.8728931,39.89851],[19.8756585,39.8935996],[19.8796325,39.8892047],[19.8846586,39.8854982],[19.8905391,39.8826256],[19.9709972,39.8514093],[19.9614924,39.8156656],[19.9614929,39.8156654],[19.9623428,39.8153701],[19.9681633,39.8128034],[19.9732418,39.809433],[19.9773927,39.805382],[19.9804646,39.8007983],[19.9823455,39.7958496],[19.9829668,39.7907164],[19.9823063,39.7855864],[19.9696213,39.736017],[19.9678509,39.7313573],[19.9650235,39.7270171],[19.9612309,39.723137],[19.9565958,39.7198426],[19.952718,39.7179484],[19.952718,39.7179484],[19.952718,39.7179484],[19.9527167,39.7179478],[19.9489182,39.7096221],[19.9472354,39.70418],[19.9470476,39.6985885],[19.9483626,39.6930878],[19.9511234,39.6879145],[19.9552112,39.683291],[19.9604501,39.6794158],[19.9666147,39.6764555],[20.1387627,39.6116094],[20.1008458,39.5403811],[20.0988952,39.5353812],[20.09823,39.5301856],[20.0988747,39.5249889],[20.1008049,39.5199857],[20.1039481,39.5153634],[20.1081864,39.511295],[20.1133609,39.5079329],[20.119278,39.5054028],[20.125716,39.5037994],[20.1812052,39.4944208],[20.1812944,39.4914931],[20.1827016,39.486488],[20.1853091,39.4817789],[20.1890225,39.4775354],[20.2020819,39.4652975],[20.197166,39.4633671],[20.1917253,39.4600433],[20.1872423,39.4559553],[20.1838938,39.4512642],[20.1818115,39.4461551],[20.1810772,39.4408294],[20.1817196,39.4354971],[20.183713,39.4303683],[20.2053288,39.3898488],[20.2093746,39.3842572],[20.2150122,39.3795613],[20.2625772,39.3483371],[20.2917799,39.2935902],[20.2950746,39.2888272],[20.2995294,39.2846683],[20.3049655,39.2812804],[20.3049656,39.2812803],[20.311165,39.2787991],[20.3178791,39.2773241],[20.4461282,39.2595692],[20.4440289,39.22581],[20.4444819,39.2199872],[20.4465397,39.2143765],[20.4501057,39.2092403],[20.455013,39.2048185],[20.5454966,39.1389859],[20.5454966,39.1389857],[20.5294819,39.0889125],[20.5289239,39.087994],[20.5598611,39.1005066],[20.5894815,39.1069839],[20.5894819,39.1069839],[20.6569595,39.0578897],[20.7011477,38.9416379],[20.7036644,38.9367929],[20.7073345,38.9324166],[20.71202,38.9286734],[20.7175451,38.9257035],[20.7237026,38.9236183],[20.7250497,38.9233878],[20.722115,38.9126948],[20.7213523,38.9073331],[20.7219752,38.9019609],[20.7239586,38.896793],[20.7272229,38.892036],[20.7316373,38.8878799],[20.739008,38.882206],[20.7333502,38.880545],[20.7273647,38.8775872],[20.7222776,38.8737427],[20.7183017,38.8691726],[20.7160438,38.8649014],[20.7160446,38.8649003],[20.7186154,38.8616848],[20.7387959,38.8301117],[20.7387949,38.830109],[20.7339326,38.8173374],[20.7308073,38.8091284],[20.7308073,38.8091284],[20.7308073,38.8091284],[20.7543208,38.7824753],[20.7543353,38.7824589],[20.7543375,38.7824564],[20.7546078,38.7799939],[20.7545875,38.7378774],[20.7550018,38.7376169],[20.7609037,38.7351908],[20.7609037,38.7351908],[20.7672932,38.7336942],[20.7739325,38.733183],[20.7805746,38.7336762],[20.7869724,38.7351554],[20.7928878,38.7375655],[20.8425514,38.762812],[20.8818671,38.6767988],[20.885075,38.6716062],[20.8896223,38.667065],[20.8902512,38.6666573],[20.8867479,38.6654962],[20.8806147,38.6620775],[20.8755765,38.6577014],[20.8718729,38.6525764],[20.8394946,38.5934673],[20.8374096,38.5882503],[20.836712,38.5828124],[20.8374301,38.5773765],[20.8395342,38.5721658],[20.8429375,38.5673941],[20.8475004,38.5632571],[20.8530354,38.5599244],[20.8593155,38.5575326],[20.8593155,38.5575326],[20.8660832,38.5561799],[20.8660833,38.5561799],[20.873061,38.5559217],[20.8799629,38.5567685],[20.8865059,38.5586857],[20.8924218,38.5615947],[20.9644143,38.6054841],[20.9693929,38.6091944],[20.9733324,38.6136023],[20.9760763,38.6185329],[20.9769379,38.6216809],[20.9917653,38.6008212],[20.9951634,38.5111344],[20.9960428,38.5058263],[20.9982435,38.500759],[21.0016785,38.496132],[21.0062124,38.4921272],[21.0116668,38.4889024],[21.0178269,38.4865842],[21.0244505,38.485264],[21.031277,38.4849935],[21.038038,38.4857836],[21.0455884,38.4872769],[21.0455862,38.4872494],[21.0465405,38.4819039],[21.0488344,38.4768146],[21.0523757,38.4721852],[21.0570226,38.4682008],[21.0625891,38.4650209],[21.0657042,38.4639027],[21.0628937,38.4625601],[21.0579174,38.4589695],[21.0539332,38.4546863],[21.0510945,38.4498758],[21.0495108,38.4447238],[21.0459204,38.4244598],[21.0456281,38.4195387],[21.0464823,38.4146583],[21.0484542,38.4099814],[21.0514779,38.4056639],[21.0554525,38.4018496],[21.0602454,38.3986657],[21.0656967,38.3962183],[21.0724911,38.3937837],[21.0517003,38.3531139],[21.0497918,38.3479266],[21.0492379,38.3425454],[21.0500604,38.3371859],[21.0522261,38.3320626],[21.0556481,38.3273806],[21.060189,38.3233274],[21.0656672,38.3200651],[21.0718631,38.3177242],[21.0785291,38.3163984],[21.1056291,38.3132231],[21.1058394,38.3002158],[21.0972787,38.2641192],[21.1211333,38.2255481],[21.1382095,38.1735433],[21.141829,38.1199105],[21.1379212,38.0540663],[21.1286338,38.0030151],[21.1258639,37.996719],[21.1609505,37.9640905],[21.1609531,37.9640881],[21.1544094,37.9679243],[21.1489051,37.9705549],[21.1428726,37.9723247],[21.1365259,37.973171],[21.13009,37.9730638],[21.1237932,37.9720068],[21.1178588,37.9700376],[21.1124972,37.9672261],[21.1078983,37.9636718],[21.1042253,37.9595009],[21.101608,37.9548611],[21.072835,37.8873098],[21.071171,37.8809347],[21.0714885,37.874431],[21.0787048,37.8389732],[21.0804878,37.8336942],[21.08358,37.8288079],[21.0878545,37.8245147],[21.0931357,37.8209906],[21.099207,37.81838],[21.254399,37.7668388],[21.2803665,37.6331524],[21.282036,37.6279977],[21.2849495,37.6232034],[21.2889936,37.6189562],[21.2940108,37.6154211],[21.2998057,37.6127357],[21.3061531,37.6110043],[21.3061532,37.6110043],[21.3128062,37.6102943],[21.3171886,37.610516],[21.3057193,37.5852263],[21.272738,37.5411108],[21.2298656,37.5027251],[21.178654,37.4714461],[21.120947,37.4483942],[21.0840035,37.44007],[21.103126,37.4255946],[21.1563297,37.3982138],[21.2149826,37.3791503],[21.2770553,37.3690626],[21.3002119,37.3687876],[21.3185636,37.3441242],[21.2903123,37.3124636],[21.2550917,37.2624048],[21.233991,37.2075473],[21.2289216,37.1596934],[21.2289251,37.1596879],[21.5338595,36.6761496],[21.9913301,36.4727971],[21.9913551,36.472786],[22.004898,36.4758307],[22.0224956,36.4830584],[22.0274877,36.4567245],[22.4115574,36.2859998],[22.5662102,36.2859919],[22.5662365,36.2859919],[22.5667226,36.2859919],[22.6480059,36.2859878],[22.5667226,36.2859919],[22.5662365,36.2859919],[22.5641059,36.309163],[22.5651216,36.3580775],[22.5770971,36.4060379],[22.5996576,36.4514636],[22.6320764,36.4928552],[22.6732963,36.5288437],[22.7341853,36.5730929],[22.7879347,36.6049041],[22.8435975,36.6256907],[22.8435985,36.625691],[22.8447226,36.6219915],[22.8474069,36.6173014],[22.8511532,36.6131079],[22.8558242,36.6095644],[22.9032205,36.5799317],[22.9430281,36.5084042],[22.9463704,36.503717],[22.9508058,36.4996597],[22.9561561,36.496395],[22.9622069,36.4940539],[22.9687156,36.49273],[22.9754212,36.4924765],[22.9754212,36.4924765],[23.0314472,36.4948714],[23.0653578,36.4326065],[23.0687739,36.427761],[23.073352,36.4235839],[23.0788969,36.4202535],[23.085172,36.4179115],[23.0919098,36.4166578],[23.1926752,36.4065302],[23.199618,36.4064139],[23.2064411,36.4074543],[23.212851,36.4096066],[23.2185723,36.4127783],[23.2233587,36.4168329],[23.2270042,36.4215962],[23.229352,36.4268632],[23.2365617,36.4505012],[23.2375169,36.4561984],[23.2369517,36.4619295],[23.2348914,36.4674342],[23.2314293,36.4724626],[23.2267223,36.4767862],[23.1757999,36.5145186],[23.1844466,36.5307244],[23.1864661,36.5358818],[23.1871669,36.5412598],[23.1865204,36.5466423],[23.1845523,36.5518133],[23.1813416,36.5565647],[23.177017,36.5607058],[23.1717522,36.5640698],[23.1071565,36.5974065],[23.092967,36.6189238],[23.0929699,36.6189229],[23.1086137,36.6141449],[23.1650864,36.5855111],[23.2133463,36.5484565],[23.3575639,36.4128281],[23.3935829,36.371601],[23.4194167,36.3256958],[23.4341791,36.2767215],[23.4360925,36.2465868],[23.4360941,36.2465613],[23.4540635,36.2607983],[23.4915695,36.305552],[23.5173097,36.3554376],[23.5302315,36.408462],[23.5297899,36.4625023],[23.5159741,36.5153902],[23.4731917,36.6235819],[23.4456164,36.674391],[23.4301154,36.6919324],[23.4369437,36.7058034],[23.4487559,36.7543402],[23.4493327,36.803794],[23.4386326,36.8525034],[23.4169938,36.8988284],[23.3444388,37.0189067],[23.3722853,37.0334861],[23.4311819,37.0371033],[23.553151,37.0539271],[23.6141461,37.0670776],[23.6710355,37.0890443],[23.7218432,37.1190659],[23.7330452,37.1287295],[23.7503281,37.1346901],[23.8052439,37.1650172],[23.8516608,37.2033468],[23.8877665,37.2481946],[23.9121404,37.2978211],[23.9238106,37.3502976],[23.9224962,37.3965058],[23.9634526,37.3865538],[23.9935631,37.3839145],[24.0257088,37.3494355],[24.0322136,37.3448018],[24.0284901,37.3253104],[24.0310342,37.2740701],[24.0456937,37.2241334],[24.071916,37.1773],[24.0869909,37.1600933],[24.0829382,37.1176775],[24.0916283,37.0633823],[24.1138365,37.0115969],[24.1482237,36.9649888],[24.1196622,36.9463833],[24.0784559,36.9069042],[24.0474089,36.8618683],[24.0276372,36.8129228],[23.99927,36.7098322],[23.9914389,36.6563146],[23.9970092,36.6026098],[24.0157307,36.5508589],[24.0468319,36.5031204],[24.0890558,36.4612894],[24.1407116,36.4270233],[24.1997436,36.4016776],[24.2638122,36.3862538],[24.3303847,36.3813606],[24.3753154,36.3853029],[24.3753154,36.385303],[24.3751634,36.6499917],[24.3753154,36.385303],[24.3753154,36.3852989],[24.3754219,36.1999918],[24.3756458,36.1964073],[24.428848,35.7660923],[24.4288535,35.7660473],[24.4560052,35.5464368],[24.4288541,35.766043],[24.4250604,35.7700399],[24.3782133,35.8037395],[24.3243878,35.8296824],[24.2655051,35.8469391],[24.2036728,35.8548906],[24.1025157,35.8599773],[24.0338792,35.8576001],[24.0019263,35.8509669],[23.9755503,35.8773214],[23.9243095,35.9115241],[23.8656854,35.9367667],[23.8020267,35.9520347],[23.7358907,35.9567137],[23.6699373,35.9506153],[23.6467565,35.9445127],[23.625091,35.9887092],[23.5888342,36.0337345],[23.5422364,36.0720288],[23.491793,36.1058974],[23.4359972,36.1361898],[23.4150974,36.1431108],[23.4091165,36.1286748],[23.3584238,36.0359381],[23.3247297,35.988092],[23.2797714,35.946766],[23.225426,35.9136707],[23.1639501,35.890174],[23.0978872,35.8772463],[23.0368937,35.8705139],[22.9753113,35.8683521],[22.9503077,35.871239],[22.9516428,35.8542918],[22.9692064,35.8018399],[22.9993228,35.7533043],[23.0534766,35.6842097],[23.0921274,35.6438409],[23.1394051,35.6101192],[23.1936116,35.5842479],[23.2439403,35.5697132],[23.1927946,35.3427806],[23.187371,35.2931514],[23.1931988,35.243551],[23.2100583,35.1956696],[23.2373561,35.1511356],[23.2741485,35.1114607],[23.3191746,35.0779894],[23.3709008,35.0518544],[23.5361155,34.9845335],[23.5887362,34.9674821],[23.6441187,34.9580678],[23.7006369,34.9565666],[23.7495145,34.9622035],[23.7306897,34.9229804],[23.7192837,34.8691145],[23.7213274,34.8144587],[23.7367091,34.7612577],[23.7647721,34.7116916],[23.8043456,34.6677875],[23.8537961,34.6313376],[23.911095,34.6038272],[24.0008738,34.5701682],[24.0612207,34.5531291],[24.1244032,34.5460524],[24.188039,34.5492044],[24.2497294,34.5624662],[24.3071469,34.5853381],[24.3581206,34.6169572],[24.4007167,34.6561297],[24.4333109,34.7013747],[24.4546505,34.7509787],[24.4614817,34.7894343],[24.4785919,34.7669193],[24.5248858,34.7270649],[24.5799961,34.6957611],[24.6416311,34.6743036],[24.7072364,34.6635797],[24.7740982,34.6640322],[25.9576148,34.7654564],[26.0664159,34.7421425],[26.1219712,34.7343157],[26.1783135,34.7344159],[26.2337922,34.74244],[26.2867811,34.7581527],[26.3801444,34.7934992],[26.4332196,34.8187445],[26.4796664,34.8516733],[26.5178611,34.8911412],[26.546461,34.9357744],[26.6261688,35.094271],[26.6451176,35.1460395],[26.6510883,35.1998844],[26.6438141,35.2536434],[26.6235605,35.3051527],[26.6213569,35.3083597],[26.6226261,35.3244645],[26.614191,35.376677],[26.5934802,35.4265722],[26.5612624,35.472242],[26.5187522,35.5119361],[26.4675661,35.5441309],[26.4096611,35.5675882],[26.3472595,35.581405],[26.2827619,35.5850486],[26.2186523,35.5783783],[26.1573996,35.5616507],[26.1013594,35.5355097],[26.0532235,35.5013463],[26.0266545,35.5004613],[26.012943,35.5157799],[25.9641242,35.5521346],[25.9073896,35.5798428],[25.8450137,35.597789],[25.779505,35.60525],[25.7135019,35.6019248],[25.532937,35.5777056],[25.5138967,35.587055],[25.4472454,35.6056],[25.3772879,35.6122115],[25.2611231,35.6129694],[25.2152987,35.6388443],[25.1566477,35.6597388],[25.0736002,35.68177],[25.0245796,35.6914589],[24.9743211,35.6949657],[24.69975,35.6966694],[24.6112079,35.6872899],[24.5298214,35.6692661],[24.5298218,35.6692629],[24.5439987,35.5535471],[24.5298218,35.6692629],[24.5298214,35.6692661],[24.4645792,36.2017885],[24.4646922,36.3986685],[24.4646922,36.3986689],[24.4648348,36.6468292],[24.4648366,36.6499917],[24.4648348,36.6468292],[24.4646922,36.3986689],[24.4646922,36.3986688],[24.6156874,36.4242085],[24.6481978,36.432304],[24.6632464,36.4214678],[24.7142686,36.3962132],[24.8148282,36.3558256],[24.8749566,36.3371988],[24.9383673,36.3281717],[25.0027337,36.3290749],[25.0278372,36.3333857],[25.0374445,36.2878627],[25.0595164,36.2401503],[25.0922603,36.19662],[25.1344987,36.1588139],[25.1847239,36.128069],[25.241153,36.105471],[25.3017896,36.0918169],[25.4058355,36.0766796],[25.4725772,36.0724438],[25.5390097,36.0790481],[25.6024805,36.0962286],[25.6255009,36.1069843],[25.6479298,36.0994922],[25.7093615,36.0892223],[25.7720635,36.0884065],[25.879679,36.0951407],[25.9445547,36.1044345],[26.005914,36.1238386],[26.0613795,36.1526023],[26.1087957,36.1896118],[26.1463114,36.2334322],[26.1724515,36.2823622],[26.1861762,36.3344983],[26.1869245,36.3878083],[26.1746397,36.4402098],[26.1497758,36.4896513],[26.1132841,36.5341931],[26.0676855,36.5711873],[26.2520498,36.6639417],[26.302293,36.6947659],[26.3444763,36.7325955],[26.3771012,36.7760987],[26.3989997,36.8237412],[26.409377,36.8738399],[26.407842,36.9246212],[26.3944249,36.9742838],[26.3695792,37.021062],[26.3341686,37.0632895],[26.2894396,37.0994593],[26.2209865,37.1451849],[26.1719941,37.1721273],[26.1665836,37.1927805],[26.1451131,37.2461795],[26.1102183,37.2948933],[26.0633889,37.3368063],[26.0066433,37.3700946],[25.9424416,37.3933069],[25.8735785,37.4054302],[25.8030585,37.4059345],[25.7886345,37.4036135],[25.7968923,37.4291236],[25.8005567,37.4820665],[25.7911028,37.534566],[25.7688686,37.5845901],[25.7346909,37.6301985],[25.6898764,37.6696185],[25.6361536,37.7013148],[25.5756066,37.7240512],[25.5491406,37.729303],[25.5278055,37.7561022],[25.4805673,37.7951743],[25.4243884,37.825997],[25.304617,37.8783676],[25.3029074,37.8822301],[25.2957087,37.8919745],[25.2952821,37.9108689],[25.2867509,37.9661327],[25.2639994,38.0188433],[25.2279698,38.0667479],[25.1801798,38.1077946],[25.1226613,38.1402217],[25.0578743,38.1626352],[25.0512403,38.1637322],[25.0311888,38.1843328],[24.9818004,38.2187107],[24.9249213,38.2450028],[24.9092037,38.2493557],[24.8816939,38.2964763],[24.8395302,38.3412215],[24.7865181,38.3782082],[24.7249164,38.4058493],[24.6573625,38.4229571],[24.5867577,38.4287955],[24.551621,38.4288288],[24.5668075,38.4650122],[24.5708018,38.4929737],[24.5871741,38.4924695],[24.6505874,38.4997998],[24.7653821,38.5216708],[24.8295394,38.5392346],[24.8880807,38.5662797],[24.9387441,38.6017644],[24.9795628,38.6443205],[25.0089413,38.6923045],[25.0257187,38.7438596],[25.0292161,38.7969867],[25.0192676,38.8496212],[24.996231,38.8997127],[24.9609785,38.9453058],[24.7705354,39.1433357],[24.7262518,39.1811254],[24.6735369,39.2117485],[24.6142859,39.2340978],[24.5506376,39.2473643],[24.4848953,39.2510672],[24.4228841,39.2453884],[24.4324841,39.2672565],[24.4415874,39.317636],[24.4383107,39.3684457],[24.4227437,39.4178779],[24.3954155,39.4641702],[24.3572798,39.5056683],[24.3213122,39.537835],[24.2737317,39.5730041],[24.2183988,39.6006453],[24.157288,39.6197681],[24.092587,39.6296863],[24.0266167,39.6300438],[23.9617455,39.6208276],[23.9003007,39.6023685],[23.8444828,39.5753285],[23.7962843,39.5406767],[23.7574175,39.4996533],[23.7417128,39.4740513],[23.7176639,39.4559916],[23.6814413,39.4670299],[23.6151134,39.476454],[23.5544331,39.4758896],[23.5213807,39.4801496],[23.4053485,39.6341471],[23.357828,39.6831987],[23.346536,39.690553],[23.7113751,39.6620023],[23.7814266,39.6618044],[23.850143,39.6722977],[23.9117087,39.6920731],[23.9207754,39.6898849],[23.9894679,39.6842101],[24.0582741,39.6889733],[24.124552,39.7039915],[24.1857533,39.7286878],[24.2395187,39.7621126],[24.2837665,39.8029795],[24.3167724,39.849713],[24.3208616,39.8598692],[24.3518089,39.8612387],[24.4159678,39.87358],[24.5092583,39.8988143],[24.5687814,39.9198289],[24.6222302,39.9489243],[24.667758,39.9850999],[24.6825038,40.0023032],[24.6817063,39.9751062],[24.6969174,39.8181074],[24.7084096,39.766852],[24.7282462,39.7267566],[24.6960828,39.6998227],[24.6608883,39.6556602],[24.6373523,39.607124],[24.6263213,39.5560126],[24.628175,39.5042154],[24.6393215,39.4350144],[24.6537346,39.3849308],[24.6801242,39.3378538],[24.7175169,39.2954781],[24.76455,39.2593263],[24.8195223,39.2306951],[24.880456,39.2106099],[24.9451662,39.199789],[25.0113374,39.1986193],[25.076604,39.2071421],[25.1386316,39.2250527],[25.195198,39.2517102],[25.2442703,39.2861598],[25.2840769,39.3271665],[25.3454839,39.4046775],[25.3744751,39.4503859],[25.3918597,39.4994882],[25.3940572,39.5212164],[25.3979771,39.5213236],[25.4673548,39.5343986],[25.5318757,39.5580365],[25.5888704,39.5912613],[25.6359711,39.6326999],[25.6712091,39.680637],[25.6930971,39.7330847],[25.7006939,39.7878632],[25.7007471,39.7982049],[25.7044851,39.8011965],[25.7459557,39.8414032],[25.7492089,39.846205],[25.8134642,39.8400317],[25.8823572,39.8386024],[25.948482,39.8472492],[25.9489485,39.8469496],[25.9502244,39.8488269],[25.9544641,39.8528888],[25.9596489,39.8562463],[25.9655843,39.8587735],[25.9720479,39.8603754],[25.978797,39.860992],[26.0832378,39.862683],[26.0900615,39.8622796],[26.0966572,39.8608703],[26.1027744,39.8585084],[26.105014,39.8571726],[26.1138316,39.936097],[26.1148224,39.9405352],[26.1167676,39.9447825],[26.1563419,40.012335],[26.1595202,40.0166405],[26.1636788,40.0204257],[26.1686768,40.0235622],[26.1698427,40.0240521],[26.1698462,40.0240536],[26.1698462,40.0240536],[26.1725965,40.0235441],[26.1791143,40.0232847],[26.1855823,40.0239499],[26.1917787,40.0255169],[26.1974911,40.0279321],[26.1965723,40.0275436],[26.1965741,40.0275434],[26.1965741,40.0275434],[26.2430606,40.0224161],[26.2869641,40.0405876],[26.3496796,40.1071366],[26.2715922,40.0664947],[26.2715922,40.0664947],[26.2715861,40.0664916],[26.2762942,40.0694427],[26.38845,40.153537],[26.3930676,40.1577838],[26.3964565,40.1626606],[26.3984743,40.167963],[26.399036,40.1734686],[26.3981179,40.1789467],[26.3957579,40.1841676],[26.3909854,40.1920111],[26.4618956,40.2322758],[26.4618983,40.2322763],[26.4827744,40.2364203],[26.5138925,40.2618],[26.5138965,40.2618032],[26.6235683,40.3240777],[26.6291446,40.3280052],[26.633493,40.3327492],[26.6801902,40.3974307],[26.6801904,40.3974309],[26.6801904,40.3974309],[26.7097846,40.4215676],[26.7144892,40.4247625],[26.7198688,40.4272688],[26.7257521,40.4290067],[26.7319515,40.4299208],[26.7382695,40.4299818],[26.9799036,40.4156329],[27.073364,40.4730779],[27.0787561,40.4758064],[27.0847159,40.4777403],[27.0910434,40.4788147],[27.0975263,40.4789936],[27.2084973,40.474267],[27.2732073,40.4939952],[27.2801041,40.4954992],[27.2872626,40.4959149],[27.2943887,40.4952251],[27.3011895,40.4934583],[27.3073854,40.4906869],[27.312722,40.487025],[27.31698,40.4826229],[27.3601657,40.4268886],[27.363206,40.4218331],[27.3648194,40.4164138],[27.3649375,40.4108613],[27.3635557,40.4054117],[27.360733,40.4002968],[27.3565899,40.3957341],[27.3557443,40.3951238],[27.3577602,40.3934677],[27.5049502,40.3443481],[27.5417998,40.3420584],[27.5471103,40.342504],[27.547112,40.3425044],[27.6032215,40.3561874],[27.6098353,40.3572792],[27.6166048,40.3573903],[27.6435926,40.3558424],[27.6435948,40.3558423],[27.6739707,40.3630209],[27.7541881,40.3885335],[27.7541877,40.3885342],[27.7226096,40.4396697],[27.6815857,40.4629644],[27.6818666,40.4593398],[27.6808372,40.4539453],[27.6783993,40.4488222],[27.6746528,40.4441803],[27.6746528,40.4441803],[27.6697518,40.44021],[27.6638971,40.437074],[27.6573288,40.4349006],[27.650316,40.433779],[27.643146,40.4337551],[27.6361123,40.4348298],[27.5713341,40.4500223],[27.5646866,40.4521626],[27.5646866,40.4521626],[27.5587427,40.4552808],[27.5537488,40.4592476],[27.549912,40.4638987],[27.5473914,40.4690414],[27.5462918,40.4744626],[27.5466591,40.4799376],[27.5484785,40.4852393],[27.5516747,40.4901479],[27.5768663,40.5205481],[27.5814041,40.5249327],[27.5870384,40.5285093],[27.5935269,40.5311238],[27.6005902,40.5326636],[27.6079243,40.5330624],[27.6152132,40.5323031],[27.6221431,40.5304183],[27.6545527,40.5185946],[27.6594111,40.5163612],[27.6626011,40.5183572],[27.6626011,40.5183572],[27.7418143,40.5588962],[27.7480779,40.5614439],[27.7548892,40.5629898],[27.7619738,40.5634714],[27.7690465,40.5628694],[27.7758225,40.5612081],[27.782029,40.5585544],[27.787416,40.555015],[27.7917669,40.5507324],[27.800285,40.5403414],[27.9733001,40.5296129],[27.9783099,40.5288662],[27.9783104,40.5288661],[27.9888266,40.5430557],[28.0102076,40.5915278],[28.0191681,40.6421953],[28.0153579,40.6932396],[28.0106433,40.7074377],[28.0475045,40.713036],[28.1146406,40.7346944],[28.1745821,40.7662343],[28.2053086,40.7907726],[28.4283451,40.7338483],[28.4767107,40.7254164],[28.5145822,40.7127358],[28.5840131,40.7011475],[28.6550853,40.7001974],[28.7249969,40.7099221],[29.0979346,40.7908122],[29.1704266,40.8131264],[29.2331939,40.8459998],[29.2331925,40.8460005],[29.0090631,40.9599633],[29.0030655,40.9637825],[28.9983123,40.9684957],[28.9950325,40.9738759],[28.9938987,40.9764455],[28.9880754,40.9757008],[28.9807058,40.9759193],[28.945321,40.9797515],[28.8403344,40.9382006],[28.8338659,40.9362205],[28.8270075,40.9352315],[28.8200219,40.9352715],[28.8131768,40.9363389],[28.7414823,40.953156],[28.7128197,40.9503036],[28.7128103,40.9503034],[28.71279,40.9503029],[28.7127248,40.9502915],[28.7193717,40.9514459],[28.7917796,40.9695478],[28.7917794,40.9695478],[28.7444874,40.9806388],[28.7080566,40.9770142],[28.6256863,40.9688188],[28.7080566,40.9770142],[28.8,41],[29,41.05],[29.065693,41.1375907],[29.0396904,41.1646937],[29.065693,41.1375907],[29.0720907,41.1309222],[28.9981845,41.0211488],[28.9981845,41.0211486],[29.0104172,41.0242068],[29.0104172,41.0242069],[29.0072901,41.0312961],[29.0612543,41.0768571],[29.0612543,41.0768571],[29.0612547,41.0768574],[29.0613102,41.0769314],[29.061309,41.0769288],[29.0612906,41.0768877],[29.061309,41.0769288],[29.0613102,41.0769314],[29.0613102,41.0769314],[29.0613102,41.0769314],[29.0613104,41.0769318],[29.0900909,41.1410537],[29.074634,41.149512],[29.0684907,41.1528737],[29.074634,41.149512],[29.074634,41.149512],[29.075,41.15],[29.090319,41.1704253],[29.1147499,41.1900697],[29.1142147,41.1905068],[29.110717,41.1924367],[29.137125,41.2197808],[29.1407263,41.2244181],[29.1430325,41.2294999],[29.143952,41.2348247],[29.1434477,41.240181],[29.1415394,41.2453562],[29.1390201,41.2490833],[29.1390202,41.2490834],[29.1390212,41.2490842],[29.1431097,41.2523727],[29.148305,41.255808],[29.1542854,41.2584254],[29.1608272,41.2601268],[29.1676858,41.2608486],[29.1746045,41.2605638],[29.46612,41.2262147],[29.4667689,41.2302377],[29.4612915,41.2833398],[29.4419884,41.3345974],[29.4095842,41.3820021],[29.3653241,41.4236917],[29.3109284,41.4580251],[29.2485271,41.483648],[29.1805754,41.4995481],[29.0291436,41.5228464],[28.4516247,41.7392938],[28.3978054,41.7819498],[28.3865756,41.7994244],[28.3875828,41.8010232],[28.4045922,41.8518332],[28.4080994,41.9041324],[28.3979393,41.9559488],[28.3376897,42.1367934],[28.3058753,42.1983764],[28.2547433,42.2523781],[28.1482797,42.3394891],[28.1469285,42.3553604],[28.1282132,42.4069824],[28.0960255,42.4548564],[28.0729728,42.4767848],[28.0878649,42.4822688],[28.1464284,42.5162347],[28.194506,42.558212],[28.2300982,42.6064737],[28.2517082,42.6590305],[28.2584077,42.7137109],[28.2539038,42.9861687],[28.2844606,43.0486486],[28.3162456,43.0746671],[28.3481917,43.114153],[28.3622053,43.1096894],[28.4380544,43.0983448],[28.5154812,43.0987321],[28.5911288,43.1108337],[28.6617149,43.1341238],[28.7241691,43.1675908],[28.7757627,43.2097797],[28.8623562,43.2973586],[28.9088037,43.3604056],[28.952408,43.444697],[28.9727108,43.5027306],[28.9748638,43.5625715],[28.956457,43.7183308],[29.0346608,43.9291581],[29.0456413,43.972552],[29.0466452,44.0166457],[29.0267414,44.23414],[29.125818,44.3127804],[29.1622976,44.3467206],[29.1908503,44.3843435],[29.2490538,44.477848],[29.2723642,44.4965136],[29.2761242,44.5001688],[29.3366704,44.5333515],[29.5990448,44.5523739],[29.6830911,44.5653233],[29.7609532,44.5913799],[29.8286539,44.6292147],[29.8862392,44.669611],[29.9351099,44.7115231],[29.9712141,44.7595237],[29.9930589,44.81167],[30.0740975,45.1119426],[30.0752847,45.1214109],[30.0999292,45.1666687],[30.1126842,45.2178502],[30.1124198,45.2274987],[30.1124175,45.2274811],[30.1107857,45.2146773],[30.0967817,45.1625603],[30.068692,45.1133625],[30.027633,45.0689749],[29.9752093,45.0310991],[29.9134484,45.0011835],[29.8447225,44.9803698],[29.7716595,44.969451],[29.6970451,44.9688427],[29.679306,44.9711955],[29.7031874,45.1095872],[29.732407,45.1491462],[29.7350977,45.153797],[29.7365185,45.1587172],[29.73662,45.1637362],[29.7353981,45.1686797],[29.732895,45.1733762],[29.7291974,45.1776625],[29.7244333,45.1813898],[29.6983713,45.1982901],[29.7342052,45.2092096],[29.7342031,45.2092091],[29.7265283,45.2075234],[29.7184833,45.207015],[29.7104714,45.2077162],[29.7028516,45.2095955],[29.6959654,45.2125688],[29.6901217,45.2165027],[29.6825573,45.2228043],[29.7192212,45.2339823],[29.7308973,45.2375421],[29.7192212,45.2339823],[29.7,45.25],[29.6700327,45.2599891],[29.6732967,45.2730022],[29.6516965,45.3456111],[29.5688957,45.3945798],[29.4320943,45.4300399],[29.3204932,45.4435485],[29.2268923,45.4232856],[29.1280243,45.383997],[29,45.4],[28.6,45.35],[28.2,45.47],[28.1626571,45.6305747],[28.1684817,45.6326692],[28.1540815,45.7610011],[28.1191698,45.8175698],[28.1154552,45.8335428],[28.1252813,45.9180388],[28.1072707,45.9581656],[28.125,46.1],[28.1312404,46.1499231],[28.1432814,46.1831454],[28.1365731,46.1925849],[28.145291,46.2623281],[28.1792818,46.2878372],[28.1864819,46.3435602],[28.2476825,46.4279891],[28.2188822,46.5039751],[28.2440824,46.6356841],[28.1216812,46.8349362],[28.103681,46.9345623],[28.0280803,47.0324998],[27.9380794,47.0460084],[27.8443529,47.1149216],[27.7791769,47.1909603],[27.7328773,47.2756549],[27.6969529,47.2868883],[27.6,47.4],[27.5730777,47.4269223],[27.5744757,47.4597098],[27.5243297,47.4756703],[27.4389142,47.5610858],[27.4304743,47.5779102],[27.4028149,47.5971851],[27.2835246,47.7164754],[27.2936729,47.7180621],[27.2864729,47.7518337],[27.2180722,47.814311],[27.2540725,47.8278196],[27.2108721,47.8480826],[27.2108721,47.890297],[27.1604716,47.92238],[27.1784718,47.9375772],[27.1496715,47.9578401],[27.1676717,47.9831688],[27.0920709,48.0084974],[27.1100711,48.0338261],[27.0416704,48.0777291],[27.0488705,48.1216321],[26.9660697,48.1435836],[26.99847,48.1672237],[26.9372694,48.2043724],[26.9084691,48.1841094],[26.804068,48.2584068],[26.6888669,48.2752926],[26.6209341,48.2593609],[26.62,48.26],[26.3,48.4],[26.35,48.55],[26.2272727,48.5090909],[26.2,48.5],[26.3,48.25],[26.25,48.05],[26.35,47.9],[26.45,47.65],[26.2,47.5],[25.75,47.38],[25.35,47.32],[25.65,47.1],[25.85,46.8],[25.95,46.685],[26.05,46.57],[26.175,46.385],[26.3,46.2],[26.4,45.95],[26.3,45.72],[26,45.55],[25.75,45.5],[25.55,45.49],[25.35,45.48],[25,45.55],[24.5,45.55],[24.385,45.5],[24.27,45.45],[24.06,45.425],[23.85,45.4],[23.4,45.4],[23.2333333,45.3666667],[23.0666667,45.3333333],[22.9,45.3],[22.6,45.1],[22.525,44.9],[22.45,44.7],[22.2,44.5],[22.1519632,44.5080061],[22.1132224,44.5144629],[22.05,44.525],[21.9,44.55],[21.6,44.7],[21.45,44.75],[21.3,44.8],[20.95,44.7],[20.825,44.775],[20.7,44.85],[20.46,44.83],[20.355,44.755],[20.25,44.68],[20,44.68],[19.7,44.77],[19.45,44.88],[19.25,44.95],[19.1666667,45.1333333],[19.1414,45.1889199],[19.2259923,45.1615561],[19.1414,45.1889199],[19.1215912,45.1953277],[19.1359914,45.1463589],[19.0459905,45.1379161],[19.0819908,45.0855702],[19.0855909,44.9775012],[19.1323913,44.9538611],[19.0675907,44.9048924],[18.9919899,44.9150239],[19.0171902,44.8660551],[18.8911889,44.8609894],[18.8191882,44.8880066],[18.7723877,44.9420411],[18.804788,44.9741241],[18.7903879,45.006207],[18.7255873,45.02647],[18.6787868,45.0872587],[18.6499865,45.0619301],[18.6103861,45.1007674],[18.5491855,45.094013],[18.5419854,45.0551758],[18.5167852,45.0551758],[18.3943839,45.1193417],[18.2395824,45.158179],[18.1531815,45.0973902],[18.00198,45.1497361],[17.9119791,45.0805044],[17.8363784,45.0636187],[17.6851769,45.1632447],[17.4835748,45.114276],[17.497975,45.1412932],[17.4475745,45.1345389],[17.4439744,45.1615561],[17.3827738,45.1396046],[17.2675727,45.1902619],[17.2459725,45.1548018],[17.1883719,45.1480475],[17.0551706,45.2003934],[17.0371704,45.2307878],[17.0083701,45.2155906],[17.0083701,45.2442964],[16.9471695,45.2358535],[16.9255693,45.2848223],[16.8902559,45.253248],[16.8103681,45.1818191],[16.5295653,45.2223449],[16.4827648,45.1987048],[16.4359644,45.1328503],[16.3891639,45.1176531],[16.3423634,45.006207],[16.3171632,45.0011413],[16.2127621,45.0315357],[16.1227612,45.0957016],[16.0687607,45.169999],[16.0255603,45.1835076],[16.0219602,45.213902],[15.8779588,45.2172792],[15.7915579,45.1902619],[15.7555576,45.0416671],[15.7627576,44.9758126],[15.7303573,44.9268439],[15.7735577,44.8457922],[15.7159572,44.8035778]],[[19.9819998,39.7006972],[20,39.7400974],[20.0036,39.7479774],[20,39.7400974],[19.9819998,39.7006972]],[[19.9819998,39.7581089],[20,39.749666],[20.0036,39.7479774],[20,39.749666],[19.9819998,39.7581089]],[[20.7992584,39.0241793],[20.8027348,39.0258087],[20.808113,39.0289156],[20.8119552,39.0321961],[20.8120936,39.0312986],[20.8141584,39.0263384],[20.8174123,39.0217799],[20.8217337,39.0177931],[20.8269611,39.0145268],[20.8328992,39.0121029],[20.8393264,39.0106119],[20.846003,39.0101095],[20.885588,39.0101093],[20.8922427,39.0106084],[20.8986516,39.0120894],[20.9045771,39.0144975],[20.9097995,39.0177434],[20.9141252,39.0217069],[20.9173937,39.0262409],[20.9194084,39.031],[20.919715,39.0294929],[20.9213011,39.0246549],[20.9240073,39.0201271],[20.9277406,39.0160647],[20.932373,39.0126066],[20.937746,39.0098712],[20.9436755,39.0079522],[20.9725465,39.0009481],[20.9903352,38.9811873],[20.9963493,38.9702751],[20.9881462,38.9727487],[20.9811394,38.9742256],[20.9271187,38.9809824],[20.919904,38.9812901],[20.9127634,38.9804287],[20.906007,38.9784355],[20.8999279,38.9753971],[20.8947902,38.9714455],[20.8932453,38.9696208],[20.8930212,38.970298],[20.890186,38.9749458],[20.886267,38.97909],[20.8814068,38.9825798],[20.8757821,38.9852882],[20.8695977,38.9871165],[20.8630786,38.9879981],[20.8564623,38.9879011],[20.8513031,38.9870464],[20.7992584,39.0241793]],[[21.2060121,37.9462655],[21.290024,38],[21.290024,38],[21.2060121,37.9462655]],[[21.9440194,36.9939079],[22,37.0156381],[22.0484205,37.0344337],[22,37.0156381],[21.9440194,36.9939079]],[[21.9584196,38.4123128],[22,38.4029676],[22.1312213,38.3734755],[22,38.4029676],[21.9584196,38.4123128]],[[22.6486282,40],[22.6486282,40],[22.7108271,39.957361],[22.6486282,40]],[[22.6820268,38.0661544],[22.7779346,38],[22.7779346,38],[22.8656287,37.9395112],[22.7779346,38],[22.7779346,38],[22.6820268,38.0661544]],[[23.3588336,39.9607381],[23.378923,40],[23.3804338,40.0029526],[23.378923,40],[23.3588336,39.9607381]],[[23.5604356,37.9732827],[23.5807789,38],[23.5807789,38],[23.5604356,37.9732827]],[[23.6288287,40],[23.6288287,40],[23.6720367,39.9860668],[23.6288287,40]],[[23.6504365,38.4055585],[24,38.40255],[24.0428404,38.4021813],[24,38.40255],[23.6504365,38.4055585]],[[23.8160382,35.5349771],[24,35.5230756],[24.0248402,35.5214685],[24,35.5230756],[23.8160382,35.5349771]],[[23.8592386,38.6824852],[24,38.6802471],[24.0716407,38.679108],[24,38.6802471],[23.8592386,38.6824852]],[[23.8664387,40.4132769],[24,40.3868995],[24.00324,40.3862596],[24,40.3868995],[23.8664387,40.4132769]],[[23.9240392,40.3693738],[24,40.3214118],[24,40.3214118],[23.9240392,40.3693738]],[[23.9852399,40.0417899],[24,40.0556362],[24.00324,40.0586756],[24,40.0556362],[23.9852399,40.0417899]],[[23.9852399,40.732418],[24,40.7318245],[24.1112411,40.7273522],[24,40.7318245],[23.9852399,40.732418]],[[23.9888399,38.1218775],[24,38.0922148],[24,38.0922148],[24.0320403,38.0070542],[24,38.0922148],[24,38.0922148],[23.9888399,38.1218775]],[[23.9888399,38.1218775],[23.9888399,38.1218775],[24,38.1234479],[24.0608406,38.132009],[24,38.1234479],[23.9888399,38.1218775],[23.9888399,38.1218775]],[[23.9924399,39.9995754],[23.9930736,40],[23.9941862,40.0007455],[23.9930736,40],[23.9924399,39.9995754]],[[23.9924399,40.4470484],[24,40.4044963],[24.00324,40.3862596],[24,40.4044963],[23.9924399,40.4470484]],[[23.9924399,40.4470484],[24,40.4477576],[24,40.4477576],[24.0104401,40.448737],[24,40.4477576],[24,40.4477576],[23.9924399,40.4470484]],[[24.0754127,38.9324398],[24.1011774,38.9460545],[24.0956584,38.932306],[24.0954204,38.930373],[24.0754127,38.9324398]],[[24.5684457,37.9884799],[24.5723531,38],[24.5936459,38.0627773],[24.5723531,38],[24.5684457,37.9884799]],[[24.6841673,40.3035366],[24.7088266,40.3050821],[24.7775742,40.320399],[24.9139429,40.3624573],[24.9736366,40.3860448],[25.0264463,40.4177788],[25.0704743,40.4565254],[25.0901535,40.4824805],[25.0897795,40.460835],[25.1018207,40.4100298],[25.1263269,40.3618947],[25.1623786,40.3181852],[25.2086425,40.2804921],[25.2144476,40.2765852],[25.1914016,40.2766457],[24.9998406,40.2630893],[24.932808,40.2532141],[24.8695495,40.2336526],[24.8124466,40.2051426],[24.7636419,40.1687581],[24.7433239,40.1462402],[24.7440922,40.1729383],[24.7333041,40.2225285],[24.7106311,40.269728],[24.6841673,40.3035366]],[[24.6944469,37.9665284],[24.7800805,38],[24.7808478,38.0002999],[24.7800805,38],[24.6944469,37.9665284]],[[24.7808478,38.0002999],[24.7812547,38],[24.8312483,37.9631512],[24.7812547,38],[24.7808478,38.0002999]],[[25.1369355,40.6176087],[25.1406311,40.6755916],[25.1427206,40.6752597],[25.1966559,40.6750225],[25.1685569,40.6535236],[25.1369355,40.6176087]],[[25.2236522,40.0080183],[25.2327339,40],[25.2848528,39.9539838],[25.2327339,40],[25.2236522,40.0080183]],[[25.8788588,36.7946558],[26,36.8871922],[26.00486,36.8909047],[26,36.8871922],[25.8788588,36.7946558]],[[25.9832598,35.0385354],[26,35.0349508],[26.1488615,35.0030753],[26,35.0349508],[25.9832598,35.0385354]],[[26,40.1643203],[26,40.1643203],[26.0120601,40.1667446],[26,40.1643203]],[[26.1776618,40.0502327],[26.2515842,40.0886881],[26.3,40.125],[26.3637424,40.1728068],[26.3468635,40.2005161],[26.3637424,40.1728068],[26.3756638,40.153236],[26.2515842,40.0886881],[26.1776618,40.0502327]],[[27.4994646,40.6006267],[27.4997336,40.6062717],[27.5014207,40.6152645],[27.5014208,40.6152651],[27.5011243,40.6103023],[27.5021188,40.6051916],[27.5043793,40.6003182],[27.5078225,40.5958609],[27.5123219,40.5919832],[27.5177124,40.5888273],[27.523796,40.586509],[27.5303497,40.5851133],[27.5371331,40.5846913],[27.5438976,40.5852585],[27.5503951,40.5867942],[27.5647115,40.5913492],[27.5647114,40.5913493],[27.5348753,40.6023975],[27.536616,40.6116505],[27.5456755,40.6598091],[27.536616,40.6116505],[27.6638408,40.6521312],[27.6986965,40.6472265],[27.6986966,40.6472265],[27.6993782,40.6511873],[27.6989727,40.6562911],[27.6973034,40.6612454],[27.6944302,40.6658722],[27.6904562,40.6700048],[27.6855243,40.6734945],[27.6798117,40.6762157],[27.6735241,40.6780705],[27.6668879,40.678992],[27.669136,40.6786798],[27.6691364,40.6786798],[27.6691747,40.6786773],[27.6702125,40.678609],[27.7356737,40.6693986],[27.7423168,40.6679441],[27.7484662,40.6655431],[27.7538892,40.6622864],[27.7583807,40.6582973],[27.7617707,40.6537267],[27.7639314,40.6487477],[27.764781,40.6435485],[27.7642879,40.6383259],[27.762471,40.6332774],[27.7480587,40.604575],[27.7449263,40.5998154],[27.7406192,40.5956192],[27.7353059,40.5921504],[27.7291943,40.5895446],[27.6176239,40.5524098],[27.6102989,40.5506584],[27.6026445,40.5501467],[27.5950198,40.5508987],[27.5877824,40.5528793],[27.519401,40.5782],[27.5130784,40.5811967],[27.5077145,40.5851264],[27.5035452,40.5898162],[27.5007542,40.5950599],[27.4994646,40.6006267]],[[27.5120378,40.6685759],[27.5121317,40.668733],[27.5121318,40.6687333],[27.5121564,40.6688096],[27.5128773,40.6699812],[27.5128816,40.6699881],[27.5120378,40.6685759]],[[27.5148093,40.6732146],[27.5156139,40.6740789],[27.5149794,40.6733973],[27.5149805,40.6733991],[27.5150968,40.673588],[27.5166258,40.6751664],[27.5166436,40.6751848],[27.5186827,40.677375],[27.5148093,40.6732146]],[[27.5186827,40.677375],[27.5189652,40.6775813],[27.5189688,40.677585],[27.5192129,40.677837],[27.5211583,40.6791846],[27.521191,40.6792072],[27.5235201,40.6809086],[27.5186827,40.677375]],[[27.5239631,40.6811274],[27.5239709,40.6811328],[27.5243467,40.6813931],[27.5264127,40.6823392],[27.5264591,40.6823604],[27.5291488,40.6836891],[27.5257478,40.682009],[27.5239631,40.6811274]],[[27.5291488,40.6836891],[27.5298051,40.6838926],[27.5298184,40.6838987],[27.5303009,40.6841196],[27.5322652,40.6846574],[27.5323219,40.6846729],[27.5317943,40.6845094],[27.5291488,40.6836891]],[[27.5353678,40.6856173],[27.5382534,40.6860584],[27.5362816,40.685757],[27.5363008,40.6857623],[27.5368466,40.6859117],[27.5385667,40.6861087],[27.5386285,40.6861158],[27.541955,40.6866243],[27.5353678,40.6856173]],[[27.541955,40.6866243],[27.5431453,40.6866331],[27.5431695,40.6866358],[27.5437319,40.6867003],[27.5451448,40.6866505],[27.5452059,40.6866483],[27.541955,40.6866243]],[[27.9416794,40.9705074],[28,41.0279528],[28.0136801,41.0414276],[28,41.0279528],[27.9416794,40.9705074]]]}}
