{"type":"Feature","properties":{"family":"ottoman","name":"Ottoman Empire in Europe, 1789 – 1804"},"geometry":{"type":"Polygon","coordinates":[[[15.7159572,44.8035778],[15.7267573,44.7698062],[15.8059581,44.6971974],[15.8887589,44.7242146],[15.9679597,44.6397858],[16.0291603,44.6245886],[16.0435604,44.5891284],[16.0075601,44.5401597],[16.1155612,44.5215854],[16.1587616,44.4168936],[16.1371614,44.3780563],[16.2055621,44.351039],[16.1875619,44.2818074],[16.2163622,44.20751],[16.3279633,44.0825553],[16.4143641,44.055538],[16.4395644,44.0133236],[16.500765,43.9930607],[16.6771668,43.8410887],[16.6980174,43.8009913],[16.7131671,43.771857],[17.0623706,43.5270133],[17.2711727,43.4628474],[17.2855729,43.4375187],[17.2675727,43.3530899],[17.2891729,43.3041211],[17.400774,43.2163151],[17.4403744,43.1521492],[17.5879759,43.0829175],[17.6599766,42.9934229],[17.6635766,42.9664057],[17.6138401,42.9522056],[17.5807758,42.9427656],[17.6167762,42.9225027],[17.6149094,42.9235534],[17.6134672,42.9231418],[17.5555756,42.9343227],[17.6527765,42.8904197],[17.703177,42.9191255],[17.8111781,42.9106826],[17.8579786,42.8178109],[17.9947799,42.7401363],[18.2575826,42.6151816],[18.4375844,42.5594586],[18.4375844,42.493604],[18.4699829,42.4499145],[18.4699829,42.4499145],[18.475,42.475],[18.499873,42.5993651],[18.5004705,42.5998432],[18.65,42.55],[18.75,42.48],[18.85,42.38],[18.95,42.27],[18.9254149,42.2109957],[18.9359517,42.2020265],[18.9492695,42.1906899],[18.948642,42.1902225],[18.9428204,42.1873039],[18.9363508,42.1852678],[18.9294741,42.1841902],[18.9224464,42.1841111],[18.9155291,42.1850334],[18.9089798,42.1869228],[18.9030423,42.189709],[18.8980092,42.1932382],[18.8980092,42.1932382],[18.9825398,42.1213089],[18.9873308,42.1179083],[18.9928743,42.1152089],[18.9989863,42.1133003],[19.0054636,42.1122459],[19.0120913,42.1120808],[19.0339716,42.1130153],[19.0479346,42.1012305],[19.0457945,42.0840855],[19.0457945,42.0840855],[19.0457967,42.0790962],[19.0470376,42.0741925],[19.0494746,42.0695422],[19.053024,42.0653044],[19.0575641,42.0616241],[19.1032695,42.0308211],[19.1032952,41.985339],[19.1043018,41.9790426],[19.1053633,41.9769073],[19.1072587,41.9730947],[19.1053633,41.9769073],[19.1024105,41.9753981],[19.0391553,41.9548124],[18.9718295,41.9434687],[18.9254064,41.9423277],[18.9432083,41.9161223],[18.9442682,41.9144411],[19.084077,41.6744889],[19.1006095,41.6698188],[19.0943461,41.6575662],[19.0942279,41.657067],[19.2939371,41.3143083],[19.2967438,41.3078095],[19.2978637,41.3010294],[19.2972571,41.2942125],[19.1481004,40.6005216],[19.2433104,40.2186559],[19.5399138,40.0136232],[19.5399138,40.0136232],[19.7118057,40.071245],[19.7213221,40.0735507],[19.7391402,40.0501607],[19.7432131,40.045852],[19.7483113,40.0422391],[19.7542367,40.0394623],[19.760759,40.0376295],[19.8401015,40.0218903],[19.8997567,39.9430906],[19.8791648,39.9237607],[19.8753094,39.9193013],[19.8726775,39.9143465],[19.8713724,39.9090912],[19.8714453,39.9037423],[19.8728928,39.89851],[19.8756579,39.8936001],[19.8796314,39.8892058],[19.884657,39.8854996],[19.8905371,39.8826273],[19.9709979,39.8514099],[19.9614902,39.8156553],[19.9614902,39.8156553],[19.9623409,39.8153597],[19.9681619,39.8127929],[19.9732409,39.8094227],[19.9773923,39.8053723],[19.9804646,39.8007896],[19.9823458,39.795842],[19.9829676,39.7907104],[19.9823073,39.7855821],[19.969622,39.7360135],[19.9678527,39.7313567],[19.965027,39.7270193],[19.9612364,39.7231418],[19.9566036,39.7198494],[19.9527198,39.7179526],[19.9527198,39.7179525],[19.9527198,39.7179525],[19.9527198,39.7179525],[19.9527197,39.7179525],[19.9527197,39.7179525],[19.9503904,39.7128467],[19.950743,39.7136197],[19.9489182,39.7096197],[19.9472354,39.7041782],[19.9470476,39.6985873],[19.9483624,39.6930874],[19.9511229,39.6879147],[19.9552102,39.6832918],[19.9604485,39.6794171],[19.9666125,39.6764571],[20.1387641,39.6116096],[20.1387641,39.6116096],[20.1008458,39.5403787],[20.0988953,39.5353793],[20.09823,39.5301842],[20.0988746,39.524988],[20.1008046,39.5199854],[20.1039475,39.5153637],[20.1081853,39.5112958],[20.1133594,39.507934],[20.119276,39.5054042],[20.1257135,39.503801],[20.1812052,39.4944219],[20.1812942,39.4914928],[20.1827012,39.4864881],[20.1853083,39.4817793],[20.1890214,39.4775361],[20.2020833,39.4652959],[20.1971674,39.4633655],[20.1917265,39.4600418],[20.1872432,39.4559539],[20.1838944,39.4512629],[20.1818118,39.446154],[20.1810773,39.4408285],[20.1817194,39.4354965],[20.1837127,39.430368],[20.2053285,39.3898485],[20.2093737,39.3842577],[20.2150106,39.3795624],[20.2625764,39.3483376],[20.2917795,39.2935898],[20.2950739,39.2888274],[20.2995283,39.284669],[20.3049639,39.2812814],[20.3111629,39.2788005],[20.3178765,39.2773256],[20.4461285,39.2595703],[20.444029,39.225808],[20.4444819,39.2199859],[20.4465394,39.214376],[20.4501049,39.2092404],[20.4550115,39.2048192],[20.5454744,39.1390017],[20.529433,39.0888361],[20.5288824,39.0879298],[20.5597985,39.1004211],[20.5895723,39.1069178],[20.656959,39.0578897],[20.7011475,38.9416368],[20.7036641,38.936792],[20.7073341,38.9324162],[20.7120195,38.9286733],[20.7175446,38.9257038],[20.723702,38.9236189],[20.7250505,38.9233883],[20.7221151,38.9126924],[20.7213524,38.9073312],[20.7219751,38.9019596],[20.7239582,38.8967924],[20.727222,38.8920359],[20.7316358,38.8878804],[20.7390092,38.8822044],[20.7333518,38.8805436],[20.7273658,38.8775855],[20.7222781,38.8737407],[20.7183019,38.8691703],[20.7160323,38.864877],[20.7182578,38.8620929],[20.7186047,38.861659],[20.7387855,38.8300844],[20.7387855,38.8300844],[20.7339326,38.8173374],[20.7308073,38.8091284],[20.7308073,38.8091284],[20.7308073,38.8091284],[20.7543208,38.7824753],[20.7545959,38.7799691],[20.7545948,38.7778302],[20.7545934,38.7748347],[20.7545751,38.7378848],[20.7545751,38.7378848],[20.7550005,38.7376174],[20.7609023,38.7351915],[20.7672917,38.7336952],[20.773931,38.7331843],[20.7805731,38.7336776],[20.786971,38.7351569],[20.7928866,38.7375671],[20.84255,38.7628135],[20.8818669,38.6767976],[20.8850743,38.6716058],[20.889621,38.6670653],[20.8902526,38.6666557],[20.8867494,38.6654947],[20.8806156,38.6620757],[20.8755769,38.6576992],[20.8718729,38.6525737],[20.8394947,38.5934646],[20.8374097,38.5882478],[20.8367121,38.5828101],[20.8374302,38.5773746],[20.8395341,38.5721644],[20.8429373,38.5673931],[20.8475,38.5632566],[20.8530348,38.5599244],[20.8593148,38.5575331],[20.8660823,38.5561808],[20.87306,38.5559229],[20.8799618,38.55677],[20.8865048,38.5586874],[20.8924207,38.5615965],[20.9644133,38.6054858],[20.9693922,38.6091964],[20.9733321,38.6136045],[20.9760762,38.6185353],[20.9769371,38.6216806],[20.9917653,38.6008197],[20.9951635,38.5111321],[20.9960428,38.5058245],[20.9960428,38.5058245],[20.9982433,38.5007577],[21.0016779,38.4961312],[21.0062115,38.492127],[21.0116655,38.4889026],[21.0178252,38.4865849],[21.0244484,38.4852649],[21.0312746,38.4849946],[21.0380353,38.4857847],[21.0455887,38.4872786],[21.0455862,38.4872476],[21.0465403,38.4819027],[21.0488337,38.476814],[21.0523746,38.4721851],[21.0570209,38.4682012],[21.0625867,38.4650217],[21.0650379,38.4641418],[21.0657066,38.4639017],[21.0657067,38.4639017],[21.0628944,38.4625581],[21.0579178,38.4589673],[21.0539334,38.4546838],[21.0510946,38.4498732],[21.0495109,38.444721],[21.0459205,38.4244571],[21.0456282,38.4195365],[21.0464821,38.4146567],[21.0484537,38.4099805],[21.051477,38.4056635],[21.055451,38.4018498],[21.0602432,38.3986663],[21.0656939,38.3962192],[21.0724923,38.3937832],[21.0517004,38.3531112],[21.049792,38.3479242],[21.049238,38.3425435],[21.0500602,38.3371845],[21.0522256,38.3320617],[21.055647,38.3273804],[21.0601874,38.3233276],[21.0656649,38.3200657],[21.0656649,38.3200657],[21.0718603,38.3177251],[21.0785257,38.3163994],[21.1054515,38.3132446],[21.1056662,38.2999566],[21.0970917,38.2637835],[21.1209351,38.2252238],[21.1380135,38.1732061],[21.1416284,38.1195731],[21.1377137,38.0537365],[21.1284392,38.0027605],[21.1256365,37.9963898],[21.1593515,37.9650279],[21.1544116,37.9679239],[21.1489074,37.9705543],[21.1428748,37.972324],[21.1365279,37.9731701],[21.1300917,37.9730626],[21.1237946,37.9720053],[21.1178598,37.9700358],[21.1124978,37.9672239],[21.1078987,37.9636693],[21.1042254,37.959498],[21.101608,37.954858],[21.0728351,37.8873068],[21.0711711,37.8809318],[21.0714885,37.8744285],[21.0787048,37.8389707],[21.0804875,37.8336925],[21.0835792,37.8288071],[21.0878529,37.8245146],[21.0931333,37.8209911],[21.0992037,37.8183809],[21.2543986,37.7668386],[21.2803666,37.6331498],[21.2820359,37.6279954],[21.2849493,37.6232016],[21.2849493,37.6232016],[21.2889933,37.6189548],[21.2940103,37.6154203],[21.2998052,37.6127354],[21.3061525,37.6110046],[21.3128055,37.6102951],[21.3170841,37.6105119],[21.3195054,37.6106346],[21.3170841,37.6105119],[21.3056138,37.5851657],[21.2727169,37.5411072],[21.2299367,37.5027747],[21.1788204,37.4715421],[21.1212067,37.4485274],[21.0839086,37.4401273],[21.1031114,37.4255919],[21.1563098,37.3982158],[21.2149576,37.379156],[21.2770258,37.3690708],[21.3001887,37.3687962],[21.3185679,37.3440957],[21.2903188,37.3124375],[21.2550957,37.2623762],[21.2339931,37.2075173],[21.2289251,37.1596879],[21.5338595,36.6761496],[21.9913301,36.4727971],[22.0048767,36.4758433],[22.0224855,36.4830762],[22.0274793,36.4567282],[22.4115574,36.2859998],[22.5667226,36.2859919],[22.5645278,36.3098292],[22.5655285,36.3586138],[22.5774448,36.4064301],[22.5999054,36.4517065],[22.6321889,36.4929523],[22.6732454,36.5288069],[22.7341437,36.5730619],[22.7877915,36.6047921],[22.8436254,36.6255987],[22.8431986,36.6270036],[22.8436254,36.6255987],[22.8447221,36.6219891],[22.8474059,36.6172995],[22.8511515,36.6131066],[22.8558218,36.6095636],[22.9032195,36.5799299],[22.9430278,36.5084013],[22.9463695,36.5037148],[22.9508041,36.4996582],[22.9561537,36.4963942],[22.9622036,36.4940535],[22.9687114,36.4927299],[22.9754163,36.4924765],[23.0314453,36.4948714],[23.0653574,36.4326034],[23.0687729,36.4277587],[23.0733502,36.4235825],[23.0788941,36.4202527],[23.0851681,36.4179111],[23.0919049,36.4166577],[23.1926703,36.40653],[23.1996138,36.4064138],[23.2064376,36.4074545],[23.2128484,36.4096072],[23.2185705,36.4127795],[23.2233577,36.4168349],[23.2270038,36.421599],[23.2293519,36.4268668],[23.2365617,36.4505048],[23.2375169,36.4562017],[23.236952,36.4619324],[23.2348921,36.4674367],[23.2314305,36.4724645],[23.2267243,36.4767876],[23.1757997,36.5145216],[23.1844463,36.5307274],[23.1864659,36.5358847],[23.1871669,36.5412624],[23.1865208,36.5466447],[23.1845532,36.5518153],[23.1813431,36.5565663],[23.1770192,36.5607069],[23.1770192,36.5607069],[23.1717551,36.5640706],[23.1071578,36.597408],[23.0934668,36.6181695],[23.1081282,36.6136759],[23.1645744,36.5850038],[23.212824,36.5479289],[23.3570156,36.4122866],[23.3930584,36.3710358],[23.4189204,36.3251215],[23.4337138,36.2761553],[23.4356351,36.2462244],[23.4540454,36.2608104],[23.4915585,36.3055697],[23.5173045,36.3554609],[23.5302305,36.4084904],[23.5297912,36.4625349],[23.5159757,36.5154255],[23.4731927,36.6236179],[23.4456221,36.674418],[23.4301156,36.6919656],[23.4369385,36.7058239],[23.4487544,36.7543637],[23.4493342,36.8038198],[23.438636,36.8525306],[23.4169981,36.8988558],[23.3444465,37.018928],[23.3444465,37.018928],[23.3722465,37.0334838],[23.4311388,37.0371005],[23.5531081,37.0539236],[23.6141112,37.0670758],[23.6710092,37.0890459],[23.7218251,37.1190726],[23.7330202,37.1287302],[23.7502925,37.134687],[23.8052131,37.1650146],[23.8516359,37.2033449],[23.8877486,37.2481936],[23.91213,37.2978211],[23.923808,37.3502986],[23.9225009,37.3964896],[23.9634225,37.3865462],[23.9935419,37.3839067],[24.0257006,37.3494135],[24.0322136,37.3447741],[24.0284904,37.3252882],[24.0310317,37.2740475],[24.045688,37.2241111],[24.071907,37.1772788],[24.0869921,37.1600595],[24.0829368,37.1176691],[24.0916197,37.0633738],[24.1138204,37.0115885],[24.1482121,36.9649645],[24.1196661,36.9463661],[24.0784582,36.906881],[24.0474099,36.8618398],[24.0276373,36.81289],[23.9992705,36.7098001],[23.9914385,36.6562839],[23.9970061,36.6025818],[24.015723,36.5508344],[24.0468183,36.5030997],[24.0890353,36.4612725],[24.1406838,36.4270099],[24.1997086,36.401667],[24.2637709,36.386245],[24.3303384,36.3813525],[24.3753154,36.3852989],[24.3751634,36.6499917],[24.3754219,36.1999918],[24.3756458,36.1964073],[24.428848,35.7660923],[24.4250791,35.7700633],[24.3782406,35.803757],[24.3244245,35.8296949],[24.265551,35.8469482],[24.203727,35.854898],[24.1025698,35.8599841],[24.0339266,35.8576056],[24.0019633,35.8509693],[23.9755523,35.8773559],[23.9243112,35.9115527],[23.8656865,35.936788],[23.8020274,35.9520477],[23.7358909,35.9567178],[23.6699372,35.9506103],[23.6467787,35.9445102],[23.6250981,35.9887393],[23.5888484,36.0337566],[23.5422594,36.0720436],[23.4918156,36.1059121],[23.4360216,36.1362019],[23.4149386,36.1431824],[23.4087548,36.128251],[23.3580641,36.0355286],[23.3245237,35.9878983],[23.2797763,35.9467682],[23.2256817,35.9138331],[23.1644761,35.8904485],[23.0986806,35.8775761],[23.0376943,35.8708405],[22.9761285,35.8686824],[22.9502694,35.8716737],[22.95164,35.8542613],[22.9692006,35.80181],[22.9993146,35.7532762],[23.0534677,35.6841819],[23.0921165,35.643816],[23.1393928,35.6100982],[23.1935986,35.5842317],[23.2439469,35.5696961],[23.1927954,35.3427372],[23.1873708,35.2931117],[23.1931954,35.2435163],[23.2100495,35.1956407],[23.2373403,35.1511129],[23.2741241,35.1114439],[23.319141,35.0779779],[23.3708578,35.051847],[23.5360714,34.9845254],[23.5886862,34.967476],[23.6440639,34.9580629],[23.700579,34.9565623],[23.7495415,34.962209],[23.7307045,34.9229767],[23.7192872,34.8691088],[23.7213196,34.8144512],[23.7366906,34.7612487],[23.7647439,34.7116816],[23.8043092,34.667777],[23.8537531,34.631327],[23.9110475,34.6038173],[24.0008258,34.5701579],[24.0611738,34.5531193],[24.1243596,34.5460447],[24.1880005,34.5492007],[24.2496973,34.5624681],[24.3071219,34.5853468],[24.3581028,34.6169737],[24.4007056,34.6561546],[24.4333054,34.701408],[24.454649,34.7510199],[24.4614679,34.7894015],[24.478571,34.7668932],[24.5248549,34.7270446],[24.5799546,34.6957455],[24.6415795,34.6742914],[24.7071762,34.6635691],[24.7740317,34.6640214],[25.9575533,34.7654392],[26.0663605,34.7421233],[26.121913,34.734297],[26.1782543,34.7343978],[26.2337338,34.7424226],[26.2867255,34.7581362],[26.3800894,34.7934825],[26.4331793,34.8187347],[26.4796401,34.8516736],[26.5178469,34.8911538],[26.546456,34.9358009],[26.626165,35.0942984],[26.6451172,35.1460738],[26.6510908,35.1999243],[26.6438189,35.2536873],[26.623567,35.3051988],[26.6213601,35.3084106],[26.622629,35.3245008],[26.6141975,35.3767151],[26.5934904,35.4266107],[26.5612765,35.4722795],[26.5187702,35.5119716],[26.4675876,35.5441631],[26.4096857,35.5676164],[26.3472866,35.5814285],[26.2827907,35.5850671],[26.2186817,35.5783916],[26.1574285,35.5616589],[26.1013864,35.5355132],[26.0532737,35.5013642],[26.0266864,35.5004776],[26.0129662,35.5158076],[25.9641555,35.5521587],[25.907429,35.5798636],[25.8450608,35.5978072],[25.7795583,35.6052665],[25.7135595,35.6019407],[25.5329863,35.5777193],[25.5139317,35.5870753],[25.4472921,35.6056159],[25.3773453,35.6122256],[25.2611671,35.6129829],[25.2153324,35.6388635],[25.1566933,35.6597534],[25.0736454,35.6817841],[25.0246309,35.6914715],[24.9743776,35.6949775],[24.6998064,35.6966796],[24.6112604,35.6872989],[24.5298218,35.6692629],[24.5439987,35.5535471],[24.4645792,36.2017885],[24.4646923,36.3986685],[24.6156388,36.4241991],[24.648159,36.432297],[24.6632243,36.4214486],[24.7142366,36.3961986],[24.8147955,36.3558106],[24.8749222,36.3371847],[24.9383326,36.3281591],[25.0027002,36.3290646],[25.0278318,36.3333813],[25.0374312,36.287856],[25.0594947,36.2401416],[25.0922308,36.1966096],[25.1344623,36.1588021],[25.184682,36.1280561],[25.241107,36.1054573],[25.3017413,36.0918029],[25.4057869,36.0766649],[25.4725333,36.0724294],[25.5389725,36.0790362],[25.6024511,36.0962214],[25.6254524,36.1069694],[25.6478913,36.099474],[25.7093143,36.0892059],[25.772009,36.0883902],[25.8796246,36.0951238],[25.9445041,36.104418],[26.005869,36.1238237],[26.0613417,36.1525901],[26.1087662,36.1896032],[26.1462908,36.2334281],[26.1724399,36.2823629],[26.1861734,36.3345041],[26.1869298,36.3878191],[26.174652,36.4402251],[26.149794,36.4896702],[26.1133068,36.5342146],[26.0677145,36.5712074],[26.2520134,36.6639277],[26.3022638,36.6947557],[26.3444548,36.7325902],[26.3770873,36.776099],[26.398993,36.8237475],[26.4093766,36.8738521],[26.4078469,36.9246391],[26.3944339,36.9743065],[26.3695908,37.0210885],[26.3341817,37.0633185],[26.2894528,37.099489],[26.220999,37.1452145],[26.1719967,37.1721614],[26.1665846,37.1928209],[26.1451156,37.2462167],[26.1102243,37.2949265],[26.0634002,37.3368351],[26.0066609,37.3701189],[25.9424662,37.3933275],[25.8736098,37.4054479],[25.8030956,37.4059505],[25.7886297,37.4036225],[25.7968873,37.4291217],[25.8005597,37.4820677],[25.7911137,37.5345703],[25.7688867,37.5845972],[25.7347154,37.6302082],[25.6899064,37.6696301],[25.6361879,37.701328],[25.5756439,37.7240654],[25.5491526,37.7293225],[25.5278195,37.7561221],[25.4805846,37.7951938],[25.4244087,37.8260154],[25.3046233,37.8783914],[25.302916,37.8822493],[25.2957097,37.8920051],[25.295283,37.9108996],[25.2867525,37.9661614],[25.2640036,38.0188691],[25.2279781,38.0667703],[25.1801935,38.1078135],[25.1226813,38.1402374],[25.0579008,38.1626485],[25.0512542,38.1637476],[25.0311924,38.1843584],[24.9818061,38.218733],[24.9249295,38.2450216],[24.9092096,38.2493743],[24.8817003,38.2964969],[24.839541,38.3412391],[24.7865342,38.3782229],[24.724938,38.4058616],[24.6573896,38.4229676],[24.5867896,38.4288051],[24.5516167,38.4288382],[24.5668062,38.4650274],[24.5707976,38.4929635],[24.5871455,38.4924601],[24.6505559,38.4997899],[24.765351,38.5216603],[24.8295127,38.5392252],[24.8880593,38.5662723],[24.9387281,38.6017601],[24.9795521,38.64432],[24.9795521,38.64432],[25.0089355,38.6923083],[25.0257169,38.7438679],[25.0292174,38.7969993],[25.0192708,38.8496376],[24.9962348,38.899732],[24.9609818,38.9453268],[24.7705363,39.1433572],[24.7262529,39.1811456],[24.6735381,39.2117666],[24.6142873,39.2341132],[24.5506393,39.2473764],[24.4848973,39.2510758],[24.4228799,39.2453929],[24.4324821,39.2672647],[24.4415874,39.3176467],[24.4383123,39.3684585],[24.4227462,39.4178923],[24.3954186,39.4641854],[24.357283,39.5056837],[24.321315,39.5378505],[24.2737346,39.5730186],[24.2184018,39.6006582],[24.1572908,39.6197788],[24.0925897,39.6296944],[24.0266194,39.630049],[23.961748,39.6208296],[23.9003031,39.6023673],[23.8444851,39.5753243],[23.7962864,39.5406697],[23.7574193,39.4996439],[23.7417184,39.4740475],[23.717682,39.4559966],[23.6814539,39.467036],[23.6151251,39.4764586],[23.5544648,39.4758927],[23.5213908,39.4801543],[23.4053488,39.6341617],[23.3578327,39.6832078],[23.3465639,39.6905469],[23.7113557,39.6619977],[23.7814077,39.6617996],[23.8501254,39.6722929],[23.8501254,39.6722929],[23.9116899,39.6920678],[23.9207618,39.6898783],[23.989455,39.6842039],[24.0582626,39.6889681],[24.1245423,39.7039878],[24.1857458,39.7286861],[24.2395133,39.7621134],[24.2837631,39.8029831],[24.3167708,39.8497195],[24.3208544,39.8598616],[24.3517914,39.8612307],[24.4159492,39.8735715],[24.5092401,39.8988053],[24.5687662,39.9198208],[24.6222184,39.9489178],[24.6677495,39.9850955],[24.6825041,40.0023087],[24.6817061,39.9750904],[24.696917,39.8180927],[24.7084083,39.7668376],[24.7282406,39.726748],[24.696088,39.6998221],[24.6608907,39.6556548],[24.6373528,39.6071137],[24.6263209,39.5559975],[24.6281748,39.504196],[24.6393211,39.4349956],[24.6537338,39.3849117],[24.6801226,39.3378348],[24.7175139,39.2954598],[24.7645453,39.259309],[24.8195159,39.2306791],[24.880448,39.2105953],[24.9451567,39.1997761],[25.0113269,39.1986081],[25.076593,39.2071329],[25.1386207,39.2250455],[25.1951877,39.2517049],[25.2442613,39.2861567],[25.2840697,39.3271655],[25.3454775,39.4046767],[25.3744708,39.4503875],[25.3918578,39.4994919],[25.3940548,39.5212041],[25.3979717,39.5213113],[25.4673502,39.5343893],[25.531872,39.5580306],[25.5888677,39.5912593],[25.6359696,39.632702],[25.6712086,39.6806434],[25.6930972,39.7330952],[25.7006945,39.7878774],[25.7007476,39.7982049],[25.7044726,39.8011861],[25.7459485,39.8413977],[25.7491943,39.8461886],[25.8134476,39.8400151],[25.8134476,39.8400151],[25.8823378,39.8385855],[25.9484714,39.8472334],[25.9489378,39.8469338],[25.9502244,39.8488269],[25.9544641,39.8528888],[25.9596489,39.8562463],[25.9655843,39.8587735],[25.9720479,39.8603754],[25.978797,39.860992],[26.0832378,39.862683],[26.0900615,39.8622796],[26.0966572,39.8608703],[26.1027744,39.8585084],[26.105014,39.8571726],[26.1138316,39.936097],[26.1148224,39.9405352],[26.1167676,39.9447825],[26.1563419,40.012335],[26.1595202,40.0166405],[26.1636788,40.0204257],[26.1636788,40.0204257],[26.1686768,40.0235622],[26.1698427,40.0240521],[26.1725955,40.0235422],[26.1725955,40.0235422],[26.179113,40.0232828],[26.1855807,40.0239481],[26.1917769,40.0255151],[26.1974891,40.0279303],[26.1965741,40.0275434],[26.2430606,40.0224161],[26.2869641,40.0405876],[26.3496796,40.1071366],[26.2715922,40.0664947],[26.2713979,40.066373],[26.2762926,40.0694411],[26.3884486,40.1535354],[26.3930668,40.1577828],[26.3964561,40.1626603],[26.3984742,40.1679633],[26.3990361,40.1734697],[26.3990361,40.1734697],[26.3981179,40.1789485],[26.3957577,40.18417],[26.3909867,40.1920109],[26.4618983,40.2322763],[26.4827744,40.2364203],[26.5138923,40.2617998],[26.6235666,40.3240757],[26.6291434,40.3280036],[26.6334922,40.3327481],[26.6801905,40.397431],[26.7097846,40.4215676],[26.7144892,40.4247625],[26.7198688,40.4272688],[26.7257521,40.4290067],[26.7319515,40.4299208],[26.7382695,40.4299818],[26.7382695,40.4299818],[26.9799036,40.4156329],[27.073364,40.4730779],[27.0787561,40.4758064],[27.0847159,40.4777403],[27.0910434,40.4788147],[27.0975263,40.4789936],[27.2084973,40.474267],[27.2732073,40.4939952],[27.2801041,40.4954992],[27.2872626,40.4959149],[27.2943887,40.4952251],[27.3011895,40.4934583],[27.3073854,40.4906869],[27.312722,40.487025],[27.31698,40.4826229],[27.3601657,40.4268886],[27.363206,40.4218331],[27.3648194,40.4164138],[27.3649375,40.4108613],[27.3635557,40.4054117],[27.360733,40.4002968],[27.3565899,40.3957341],[27.3557443,40.3951238],[27.3577602,40.3934677],[27.5050491,40.3443151],[27.5417765,40.342032],[27.5469572,40.3424667],[27.6032215,40.3561874],[27.6098353,40.3572792],[27.6166048,40.3573903],[27.6436698,40.355838],[27.6739466,40.3629929],[27.7541988,40.3885161],[27.7226096,40.4396697],[27.7226096,40.4396697],[27.6815857,40.4629644],[27.6818666,40.4593398],[27.6808372,40.4539453],[27.6783993,40.4488222],[27.6746528,40.4441803],[27.6697518,40.44021],[27.6638971,40.437074],[27.6573288,40.4349006],[27.650316,40.433779],[27.643146,40.4337551],[27.6361123,40.4348298],[27.5713341,40.4500223],[27.5646866,40.4521626],[27.5587427,40.4552808],[27.5537488,40.4592476],[27.549912,40.4638987],[27.5473914,40.4690414],[27.5462918,40.4744626],[27.5466591,40.4799376],[27.5484785,40.4852393],[27.5516747,40.4901479],[27.5768663,40.5205481],[27.5814041,40.5249327],[27.5870384,40.5285093],[27.5935269,40.5311238],[27.6005902,40.5326636],[27.6079243,40.5330624],[27.6152132,40.5323031],[27.6221431,40.5304183],[27.6545527,40.5185946],[27.6594111,40.5163612],[27.6626011,40.5183572],[27.7418143,40.5588962],[27.7480779,40.5614439],[27.7548892,40.5629898],[27.7619738,40.5634714],[27.7690465,40.5628694],[27.7758225,40.5612081],[27.782029,40.5585544],[27.787416,40.555015],[27.7917669,40.5507324],[27.800285,40.5403414],[27.9733001,40.5296129],[27.9783138,40.5288656],[27.9888188,40.5430398],[28.0102039,40.5915175],[28.0191681,40.6421911],[28.015361,40.6932415],[28.0106565,40.7074133],[28.0474919,40.7130081],[28.114626,40.7346671],[28.1745668,40.7662077],[28.2052922,40.7907453],[28.4283444,40.7338155],[28.4767097,40.7253837],[28.5145726,40.7127047],[28.583998,40.7011157],[28.6550651,40.7001646],[28.7249726,40.7098881],[29.0979119,40.7907765],[29.1704063,40.8130917],[29.2332161,40.8459885],[29.2332161,40.8459885],[29.2331939,40.8459998],[29.2331925,40.8460005],[29.0090631,40.9599633],[29.0030655,40.9637825],[28.9983123,40.9684957],[28.9950325,40.9738759],[28.9938987,40.9764455],[28.9880754,40.9757008],[28.9807058,40.9759193],[28.945321,40.9797515],[28.945321,40.9797515],[28.8403344,40.9382006],[28.8338659,40.9362205],[28.8270075,40.9352315],[28.8200219,40.9352715],[28.8131768,40.9363389],[28.7414823,40.953156],[28.7128197,40.9503036],[28.7128107,40.9503034],[28.7193694,40.9514425],[28.7917855,40.9695464],[28.7444874,40.9806388],[28.6256863,40.9688188],[28.7080566,40.9770142],[28.8,41],[29,41.05],[29.065693,41.1375907],[29.0720907,41.1309222],[28.998182,41.021145],[29.0104184,41.0242041],[29.0072901,41.0312961],[29.0612568,41.0768592],[29.061309,41.0769288],[29.0900909,41.1410537],[29.0684907,41.1528737],[29.074634,41.149512],[29.075,41.15],[29.090319,41.1704253],[29.114752,41.1900713],[29.1142165,41.1905086],[29.1107201,41.1924384],[29.1371235,41.2197779],[29.1407254,41.2244158],[29.1407254,41.2244158],[29.1430321,41.2294984],[29.143952,41.234824],[29.143448,41.2401812],[29.1415399,41.2453573],[29.1383032,41.2501466],[29.1390212,41.2490842],[29.1390212,41.2490842],[29.1431097,41.2523727],[29.148305,41.255808],[29.1542854,41.2584254],[29.1608272,41.2601268],[29.1676858,41.2608486],[29.1746045,41.2605638],[29.4661206,41.2262146],[29.4667691,41.2302346],[29.4612938,41.2833454],[29.4419919,41.3346114],[29.4095878,41.3820235],[29.3653271,41.4237194],[29.31093,41.4580575],[29.2485268,41.4836833],[29.1805731,41.4995843],[29.0291368,41.5228825],[28.4516104,41.7393287],[28.397796,41.7819803],[28.3865833,41.7994283],[28.3875837,41.8010165],[28.4045928,41.8518335],[28.408099,41.9041397],[28.3979373,41.9559628],[28.3376867,42.1368086],[28.3058678,42.1984],[28.25473,42.252408],[28.1482775,42.3395094],[28.1469279,42.3553637],[28.1282106,42.4069946],[28.096019,42.4548766],[28.0730043,42.4767696],[28.0878665,42.4822431],[28.1464288,42.5162114],[28.1945056,42.5581919],[28.2300973,42.6064576],[28.2517073,42.6590188],[28.2584072,42.7137043],[28.2539037,42.9861529],[28.2844527,43.0486166],[28.3162369,43.0746349],[28.3481894,43.1141286],[28.362224,43.109658],[28.438067,43.0983134],[28.515487,43.0987002],[28.5911281,43.1108006],[28.6617085,43.1340893],[28.7241587,43.1675547],[28.7757506,43.2097423],[28.8623451,43.2973215],[28.9087973,43.3603749],[28.9524022,43.4446668],[28.9727087,43.5027119],[28.9748624,43.5625655],[28.9564569,43.7183131],[29.0346571,43.9291305],[29.0456393,43.972532],[29.0466436,44.016634],[29.0267423,44.2341067],[29.1258074,44.3127377],[29.1622876,44.3466786],[29.1908416,44.3843031],[29.2490437,44.4778046],[29.2723526,44.4964688],[29.2761123,44.5001238],[29.3366722,44.5333135],[29.5990634,44.5523358],[29.6830968,44.565283],[29.7609476,44.591336],[29.8286402,44.6291662],[29.886226,44.6695625],[29.9350993,44.7114772],[29.9712063,44.7594824],[29.9930538,44.8116351],[30.0740933,45.11191],[30.0754212,45.1225012],[30.0811808,45.129628],[30.1053093,45.1820896],[30.1310242,45.2664274],[30.1390855,45.3093446],[30.1372732,45.3526031],[30.1189839,45.4688857],[30.1202626,45.4695574],[30.170118,45.5082129],[30.1795227,45.5191494],[30.2122213,45.5388163],[30.2122213,45.5388163],[30.235672,45.5600314],[30.2988591,45.5755262],[30.3620257,45.6011567],[30.417237,45.6346169],[30.7547926,45.8800935],[30.7576372,45.88259],[30.70082,45.8476026],[30.6340099,45.8206481],[30.5609475,45.8034629],[30.4845135,45.7967228],[30.4077153,45.8006926],[30.3335739,45.8152158],[30.2650099,45.8397209],[30.238352,45.8545464],[30.1657344,45.8015805],[30.5032619,46.047767],[30.5034166,46.0479051],[30.5032228,46.0477638],[30.4976698,46.044413],[30.4913113,46.0418507],[30.4843757,46.0401689],[30.4771118,46.0394279],[30.4697802,46.0396542],[30.4626439,46.0408399],[30.455959,46.0429422],[30.4499654,46.0458858],[30.4485538,46.0469068],[30.3842647,46],[30.3968669,46.0091949],[30.4485538,46.0469068],[30.4485537,46.0469069],[30.472477,46.0643619],[30.4752249,46.0663668],[30.4752249,46.0663668],[30.45,46.1],[29.95,46.6],[29.9411575,46.6063161],[29.6,46.85],[29.45,47.05],[29.31,47.16],[29.17,47.27],[29.15,47.45],[29,47.77],[28.65,47.95],[28.4810979,48.0706444],[28.475,48.075],[28.4477197,48.0944859],[28.3748286,48.146551],[28.3748286,48.146551],[28.3748286,48.146551],[28.3441005,48.1684996],[28.3,48.2],[28.2639544,48.2180228],[28.2639544,48.2180228],[28.1333333,48.2833333],[28.0771046,48.3114477],[28.0771046,48.3114477],[28.0771046,48.3114477],[28.0700991,48.3149504],[27.9666667,48.3666667],[27.8,48.45],[27.2,48.45],[26.8,48.5],[26.575,48.525],[26.35,48.55],[26.2272727,48.5090909],[26.2,48.5],[26.3,48.25],[26.25,48.05],[26.35,47.9],[26.45,47.65],[26.2,47.5],[25.75,47.38],[25.35,47.32],[25.65,47.1],[25.85,46.8],[25.95,46.685],[26.05,46.57],[26.175,46.385],[26.3,46.2],[26.4,45.95],[26.3,45.72],[26,45.55],[25.75,45.5],[25.55,45.49],[25.35,45.48],[25,45.55],[24.5,45.55],[24.385,45.5],[24.27,45.45],[24.06,45.425],[23.85,45.4],[23.4,45.4],[23.2333333,45.3666667],[23.0666667,45.3333333],[22.9,45.3],[22.6,45.1],[22.525,44.9],[22.45,44.7],[22.2,44.5],[22.1519632,44.5080061],[22.1132224,44.5144629],[22.05,44.525],[21.9,44.55],[21.6,44.7],[21.45,44.75],[21.3,44.8],[20.95,44.7],[20.825,44.775],[20.7,44.85],[20.46,44.83],[20.355,44.755],[20.25,44.68],[20,44.68],[19.7,44.77],[19.45,44.88],[19.25,44.95],[19.1666667,45.1333333],[19.1414,45.1889199],[19.2259923,45.1615561],[19.1215912,45.1953277],[19.1359914,45.1463589],[19.0459905,45.1379161],[19.0819908,45.0855702],[19.0855909,44.9775012],[19.1323913,44.9538611],[19.0675907,44.9048924],[18.9919899,44.9150239],[19.0171902,44.8660551],[18.8911889,44.8609894],[18.8191882,44.8880066],[18.7723877,44.9420411],[18.804788,44.9741241],[18.7903879,45.006207],[18.7255873,45.02647],[18.6787868,45.0872587],[18.6499865,45.0619301],[18.6103861,45.1007674],[18.5491855,45.094013],[18.5419854,45.0551758],[18.5167852,45.0551758],[18.3943839,45.1193417],[18.2395824,45.158179],[18.1531815,45.0973902],[18.00198,45.1497361],[17.9119791,45.0805044],[17.8363784,45.0636187],[17.6851769,45.1632447],[17.4835748,45.114276],[17.497975,45.1412932],[17.4475745,45.1345389],[17.4439744,45.1615561],[17.3827738,45.1396046],[17.2675727,45.1902619],[17.2459725,45.1548018],[17.1883719,45.1480475],[17.0551706,45.2003934],[17.0371704,45.2307878],[17.0083701,45.2155906],[17.0083701,45.2442964],[16.9471695,45.2358535],[16.9255693,45.2848223],[16.8902559,45.253248],[16.8103681,45.1818191],[16.5295653,45.2223449],[16.4827648,45.1987048],[16.4359644,45.1328503],[16.3891639,45.1176531],[16.3423634,45.006207],[16.3171632,45.0011413],[16.2127621,45.0315357],[16.1227612,45.0957016],[16.0687607,45.169999],[16.0255603,45.1835076],[16.0219602,45.213902],[15.8779588,45.2172792],[15.7915579,45.1902619],[15.7555576,45.0416671],[15.7627576,44.9758126],[15.7303573,44.9268439],[15.7735577,44.8457922],[15.7159572,44.8035778]],[[19.9819998,39.7006972],[19.9819998,39.7006972],[20.0036,39.7479774],[20,39.7400974],[19.9819998,39.7006972],[19.9819998,39.7006972]],[[19.9819998,39.7581089],[20,39.749666],[20.0036,39.7479774],[19.9819998,39.7581089]],[[20.799257,39.0241808],[20.8027337,39.0258103],[20.8081122,39.0289173],[20.8119546,39.032198],[20.8120935,39.0312973],[20.8141581,39.0263377],[20.8174117,39.0217797],[20.8217326,39.0177933],[20.8269595,39.0145274],[20.826961,39.0145268],[20.8328972,39.0121038],[20.8393241,39.010613],[20.8460003,39.0101106],[20.8855853,39.0101105],[20.8922401,39.0106095],[20.8986492,39.0120905],[20.9045749,39.0144985],[20.9097977,39.0177444],[20.9141238,39.0217077],[20.9173927,39.0262416],[20.9194079,39.0310008],[20.919715,39.0294913],[20.9213009,39.0246539],[20.9240067,39.0201267],[20.9277396,39.0160648],[20.9323715,39.0126071],[20.9377439,39.0098721],[20.9436729,39.0079533],[20.9721142,39.0010534],[20.9902585,38.9808858],[20.9960545,38.9703638],[20.9881487,38.9727477],[20.9811422,38.9742245],[20.9271215,38.9809812],[20.9199064,38.981289],[20.9127653,38.9804274],[20.9060082,38.978434],[20.8999287,38.9753954],[20.8947905,38.9714434],[20.8932462,38.9696195],[20.8930212,38.9702994],[20.8901861,38.9749468],[20.8862672,38.9790907],[20.881407,38.9825801],[20.8757823,38.985288],[20.8695979,38.9871159],[20.8630789,38.9879971],[20.8564626,38.9878997],[20.8513056,38.9870451],[20.799257,39.0241808]],[[21.9440194,36.9939079],[22.0484205,37.0344337],[22,37.0156381],[21.9440194,36.9939079]],[[21.9584196,38.4123128],[22,38.4029676],[22.1312213,38.3734755],[21.9584196,38.4123128]],[[22.6820268,38.0661544],[22.8656287,37.9395112],[22.7779346,38],[22.6820268,38.0661544]],[[23.3588336,39.9607381],[23.378923,40],[23.3804338,40.0029526],[23.3588336,39.9607381]],[[23.6504365,38.4055585],[24.0428404,38.4021813],[24,38.40255],[23.6504365,38.4055585]],[[23.8160382,35.5349771],[24,35.5230756],[24.0248402,35.5214685],[23.8160382,35.5349771]],[[23.8592386,38.6824852],[24,38.6802471],[24.0716407,38.679108],[23.8592386,38.6824852]],[[23.8664387,40.4132769],[24,40.3868995],[24.00324,40.3862596],[23.8664387,40.4132769]],[[23.9852399,40.0417899],[24,40.0556362],[24.00324,40.0586756],[23.9852399,40.0417899]],[[23.9852399,40.732418],[24.1112411,40.7273522],[24,40.7318245],[23.9852399,40.732418]],[[23.9888399,38.1218775],[24,38.0922148],[24,38.0922148],[24.0320403,38.0070542],[24,38.0922148],[23.9888399,38.1218775]],[[23.9888399,38.1218775],[24,38.1234479],[24.0608406,38.132009],[23.9888399,38.1218775]],[[23.9924399,39.9995754],[23.9941862,40.0007455],[23.9930736,40],[23.9924399,39.9995754]],[[23.9924399,40.4470484],[24,40.4044963],[24.00324,40.3862596],[23.9924399,40.4470484]],[[23.9924399,40.4470484],[24.0104401,40.448737],[24,40.4477576],[24,40.4477576],[23.9924399,40.4470484]],[[24.0754175,38.9324487],[24.1011889,38.9460669],[24.1011889,38.9460669],[24.0956601,38.9322945],[24.0954245,38.9303821],[24.0754175,38.9324487]],[[24.5684457,37.9884799],[24.5936459,38.0627773],[24.5723531,38],[24.5684457,37.9884799]],[[24.6841853,40.3035285],[24.7088121,40.3050719],[24.7775583,40.3203883],[24.9139278,40.3624459],[24.9736249,40.3860346],[25.0264379,40.4177708],[25.0704691,40.4565204],[25.0901534,40.4824824],[25.0897788,40.4608278],[25.1018195,40.410019],[25.1263257,40.361881],[25.162378,40.3181692],[25.2086429,40.2804745],[25.2144019,40.2765985],[25.1914174,40.2766587],[24.9998567,40.2631012],[24.9328209,40.2532248],[24.8695591,40.2336611],[24.8124532,40.2051479],[24.7636457,40.1687596],[24.7433236,40.1462361],[24.744093,40.172946],[24.7333054,40.2225391],[24.7106323,40.2697408],[24.6841853,40.3035285]],[[24.6944469,37.9665284],[24.7800805,38],[24.7808478,38.0002999],[24.6944469,37.9665284]],[[24.7808478,38.0002999],[24.7812547,38],[24.8312483,37.9631512],[24.7808478,38.0002999]],[[25.1369353,40.6176084],[25.1406302,40.6755775],[25.1427106,40.6752471],[25.1966344,40.6750095],[25.1685631,40.6535313],[25.1369353,40.6176084]],[[25.2236522,40.0080183],[25.2327339,40],[25.2848528,39.9539838],[25.2236522,40.0080183]],[[25.8788588,36.7946558],[26.00486,36.8909047],[26,36.8871922],[25.8788588,36.7946558]],[[25.9832598,35.0385354],[26.1488615,35.0030753],[26,35.0349508],[25.9832598,35.0385354]],[[26.1776618,40.0502327],[26.2515843,40.0886882],[26.2515842,40.0886881],[26.1776618,40.0502327]],[[26.2515843,40.0886882],[26.3,40.125],[26.3637424,40.1728068],[26.3637424,40.1728068],[26.3468635,40.2005161],[26.3756638,40.153236],[26.2515843,40.0886882]],[[27.4994646,40.6006267],[27.4997336,40.6062717],[27.5014208,40.6152653],[27.5014326,40.6154624],[27.5011242,40.6103016],[27.5021185,40.6051906],[27.5043788,40.6003169],[27.5078217,40.5958593],[27.5123209,40.5919813],[27.517711,40.5888252],[27.5237943,40.5865067],[27.5303478,40.5851108],[27.537131,40.5846887],[27.5438954,40.5852558],[27.5503928,40.5867914],[27.5647145,40.5913481],[27.5348753,40.6023975],[27.5456755,40.6598091],[27.536616,40.6116505],[27.6638408,40.6521312],[27.6986965,40.6472265],[27.6993782,40.6511868],[27.698973,40.6562912],[27.697304,40.6612462],[27.694431,40.6658734],[27.6904572,40.6700065],[27.6855253,40.6734966],[27.6798128,40.6762182],[27.6735252,40.6780731],[27.6691747,40.6786773],[27.6702125,40.678609],[27.7356737,40.6693986],[27.7423168,40.6679441],[27.7484662,40.6655431],[27.7538892,40.6622864],[27.7583807,40.6582973],[27.7617707,40.6537267],[27.7639314,40.6487477],[27.764781,40.6435485],[27.7642879,40.6383259],[27.762471,40.6332774],[27.7480587,40.604575],[27.7449263,40.5998154],[27.7406192,40.5956192],[27.7353059,40.5921504],[27.7291943,40.5895446],[27.6176239,40.5524098],[27.6102989,40.5506584],[27.6026445,40.5501467],[27.5950198,40.5508987],[27.5877824,40.5528793],[27.519401,40.5782],[27.5130784,40.5811967],[27.5077145,40.5851264],[27.5035452,40.5898162],[27.5007542,40.5950599],[27.4994646,40.6006267]],[[27.5121319,40.6687335],[27.5121564,40.6688096],[27.512877,40.6699806],[27.5121319,40.6687335]],[[27.5149805,40.6733991],[27.5150968,40.673588],[27.5166244,40.6751649],[27.5152252,40.6736619],[27.5149805,40.6733991]],[[27.5189692,40.6775854],[27.5192129,40.677837],[27.5211573,40.6791839],[27.5189692,40.6775854]],[[27.5239712,40.681133],[27.5243467,40.6813931],[27.5264124,40.682339],[27.5239712,40.681133]],[[27.5298185,40.6838987],[27.5303009,40.6841196],[27.532265,40.6846573],[27.5298185,40.6838987]],[[27.5363008,40.6857623],[27.5368466,40.6859117],[27.5385667,40.6861087],[27.5419559,40.6866269],[27.5374157,40.6859327],[27.5363008,40.6857623]],[[27.5431704,40.6866359],[27.5437319,40.6867003],[27.5451441,40.6866505],[27.5431704,40.6866359]],[[27.9416794,40.9705074],[28,41.0279528],[28.0136801,41.0414276],[27.9416794,40.9705074]],[[29.9900999,45.8471185],[30,45.8440762],[30.0945009,45.8150355],[29.9900999,45.8471185]]]}}
