{"type":"Feature","properties":{"family":"client","name":"Roman Republic, 1798 – 1799"},"geometry":{"type":"Polygon","coordinates":[[[11.0889171,42.3676657],[11.0948492,42.3209742],[11.1170512,42.2678627],[11.1534474,42.2192357],[11.2024714,42.1771454],[11.2620358,42.1433645],[11.3814099,42.088961],[11.5050916,41.9110839],[11.5456956,41.8648039],[11.5980545,41.8256353],[11.6599703,41.795208],[11.7288591,41.7747864],[11.8273334,41.7539228],[11.8559212,41.7322754],[11.898079,41.6447101],[11.9315867,41.5930291],[11.9789035,41.5478052],[12.0378752,41.5110723],[12.1970258,41.4314661],[12.3484531,41.2831282],[12.4050985,41.2389155],[12.4734989,41.2054363],[12.5501343,41.1844061],[12.6719539,41.1622733],[12.7458045,41.0784528],[12.789388,41.0379825],[12.8424244,41.0045668],[12.902939,40.9794418],[12.9686888,40.9635356],[13.0372442,40.9574352],[13.1060757,40.9613655],[13.1726438,40.9751817],[13.2697358,41.0030338],[13.2697438,41.0030361],[13.4058145,41.0420699],[13.46905,41.0657174],[13.5249509,41.0982396],[13.5713494,41.1383825],[13.6539967,41.2255283],[13.6539848,41.2255283],[13.6539848,41.2255283],[13.6058196,41.2255273],[13.6049861,41.2251365],[13.6084435,41.2159315],[13.6096828,41.2107209],[13.6095459,41.2054286],[13.6080382,41.2002586],[13.6052181,41.1954097],[13.6011944,41.1910685],[13.5961221,41.1874021],[13.5901965,41.1845515],[13.5836455,41.1826263],[13.5767212,41.1817005],[13.5479326,41.1800127],[13.5418474,41.180045],[13.5358568,41.1808513],[13.5301334,41.1824085],[13.2846896,41.2671654],[13.2846905,41.2671657],[13.2914358,41.2691017],[13.2975101,41.2713504],[13.3029149,41.2744163],[13.3074579,41.2781905],[13.3109773,41.2825388],[13.3137382,41.2868025],[13.3137367,41.286803],[13.3137367,41.286803],[13.3137255,41.2868068],[13.3137221,41.286808],[13.2859329,41.2964028],[13.2786779,41.2943204],[13.0447304,41.2271711],[13.2786779,41.2943204],[13.36,41.42],[13.52,41.55],[13.55,41.7],[13.42,41.82],[13.3,41.95],[13.18,42.05],[13.05,42.15],[12.95,42.3],[13.05,42.48],[13.2,42.62],[13.38,42.75],[13.6,42.83],[13.76,42.86],[13.9137986,42.8888372],[13.9226729,42.8626539],[13.922673,42.8626538],[13.9228531,42.8626876],[13.9296146,42.8644754],[13.9357736,42.8671919],[13.9410955,42.8707336],[13.9453773,42.8749656],[13.9484558,42.8797266],[13.9502131,42.8848352],[13.9505821,42.8900967],[13.9495772,42.8951643],[13.9495772,42.8951643],[13.9495685,42.8952083],[13.9495483,42.8953103],[13.9495685,42.8952083],[13.9495772,42.8951643],[13.979508,42.8067117],[14.0814354,42.649885],[14.0814394,42.6498864],[14.0993954,42.6559791],[14.156719,42.6863449],[14.2051238,42.7242023],[14.2428133,42.7681602],[14.2683761,42.8166],[14.28084,42.8677344],[14.2797111,42.9196721],[14.2649976,42.9704873],[14.2614107,42.9787196],[14.2611948,42.9792153],[13.9718365,43.6433199],[13.9439734,43.69046],[13.9042317,43.7329236],[13.8540339,43.7691658],[13.7951926,43.7978656],[13.4716768,43.9243047],[13.1818722,44.1150191],[13.092198,44.158519],[12.9678901,44.2013155],[13.0115066,44.1715731],[13.058098,44.1329136],[13.0936378,44.0886329],[13.1168684,44.0403308],[13.1269837,43.9897484],[13.123654,43.9387039],[13.1070329,43.8890279],[13.0831133,43.8510232],[13.0831105,43.851025],[12.9546877,43.935374],[12.9457365,43.9397097],[12.768736,44.0005973],[12.6824118,44.0302926],[12.6824133,44.0302914],[12.7687246,44.0005963],[12.7748153,43.9979601],[12.7801048,43.9945443],[12.7844029,43.990472],[12.7875555,43.9858895],[12.7894495,43.9809614],[12.7900172,43.9758649],[12.7892384,43.9707831],[12.7871416,43.9658984],[12.7862357,43.9646742],[12.7862354,43.9646743],[12.7525334,43.9762667],[12.6835344,44],[12.6835344,44],[12.6595266,44.0082579],[12.6835344,44],[12.6835344,44],[12.7525334,43.9762667],[12.74,43.97],[12.5,43.95],[12.3,43.9],[12.05,43.82],[12.18,43.68],[12.15,43.55],[12.1,43.38],[11.97,43.25],[12,43.12],[11.93,43],[11.78,42.88],[11.8,42.72],[11.62,42.55],[11.4529963,42.3731726],[11.450568,42.3742823],[11.4446913,42.3769681],[11.444096,42.3772402],[11.4220623,42.38731],[11.4220623,42.38731],[11.4220614,42.3873104],[11.3779138,42.4074866],[11.4220614,42.3873104],[11.4220623,42.38731],[11.4220623,42.38731],[11.444096,42.3772402],[11.4446913,42.3769681],[11.450568,42.3742823],[11.4529963,42.3731726],[11.4529963,42.3731726],[11.450568,42.3742823],[11.4446913,42.3769681],[11.444096,42.3772402],[11.4220623,42.38731],[11.4220623,42.38731],[11.4220614,42.3873104],[11.4194157,42.3837803],[11.4172096,42.3785549],[11.416477,42.3731082],[11.4172475,42.3676644],[11.4194892,42.3624475],[11.4231093,42.3576722],[11.4279588,42.3535349],[11.4338091,42.3502222],[11.4338091,42.3502222],[11.433838,42.3502058],[11.4338091,42.3502222],[11.4338091,42.3502222],[11.4338066,42.3502231],[11.4337749,42.3502347],[11.3652907,42.3815322],[11.2461853,42.3935123],[11.2151976,42.3535565],[11.2107826,42.3490226],[11.2051996,42.3452576],[11.1986879,42.3424227],[11.1915263,42.3406393],[11.1840216,42.3399838],[11.1764951,42.3404842],[11.169269,42.3421191],[11.0936929,42.3657498],[11.0889252,42.3676625],[11.0889171,42.3676657]],[[11.9179192,42.0376882],[12,42.0019386],[12,42.0019386],[11.9179192,42.0376882]]]}}
