{"type":"Feature","properties":{"family":"other","name":"Papal States, 1789 – 1796"},"geometry":{"type":"Polygon","coordinates":[[[11,44.15],[11.2,44.18],[11.45,44.15],[11.65,44.1],[11.85,43.97],[12.05,43.82],[12.18,43.68],[12.15,43.55],[12.1,43.38],[11.97,43.25],[12,43.12],[11.93,43],[11.78,42.88],[11.8,42.72],[11.62,42.55],[11.4529963,42.3731726],[11.450568,42.3742823],[11.4446913,42.3769681],[11.444096,42.3772402],[11.4220623,42.38731],[11.4194168,42.38378],[11.4172106,42.3785545],[11.4164778,42.3731076],[11.4172483,42.3676637],[11.4194899,42.3624467],[11.42311,42.3576713],[11.4279594,42.353534],[11.4338066,42.3502231],[11.4337749,42.3502347],[11.3652907,42.3815322],[11.2461853,42.3935123],[11.2151976,42.3535565],[11.2107826,42.3490226],[11.2051996,42.3452576],[11.1986879,42.3424227],[11.1915263,42.3406393],[11.1840216,42.3399838],[11.1764951,42.3404842],[11.169269,42.3421191],[11.0936929,42.3657498],[11.0889252,42.3676625],[11.0948585,42.3209628],[11.1170608,42.2678508],[11.153457,42.2192241],[11.2024805,42.1771347],[11.2620439,42.1433551],[11.3183942,42.1176749],[11.3814232,42.0889509],[11.5051097,41.9110727],[11.5457133,41.864794],[11.5980706,41.8256271],[11.6599836,41.7952017],[11.7288687,41.7747819],[11.8273504,41.7539176],[11.855943,41.732267],[11.8981019,41.6447031],[11.9316112,41.5930211],[11.9789292,41.5477971],[12.0379012,41.511065],[12.1970543,41.4314597],[12.3484844,41.2831227],[12.4051295,41.2389108],[12.473528,41.205433],[12.5501599,41.1844044],[12.6719875,41.1622713],[12.7458402,41.0784505],[12.7894223,41.0379817],[12.8424555,41.0045673],[12.9029653,40.9794432],[12.9687089,40.9635374],[13.0372571,40.9574368],[13.1060808,40.9613663],[13.1726411,40.975181],[13.2697356,41.0030339],[13.4058085,41.0420682],[13.4690365,41.0657126],[13.5249309,41.0982311],[13.5713244,41.1383702],[13.6539848,41.2255283],[13.6058196,41.2255273],[13.6049861,41.2251365],[13.6084435,41.2159315],[13.6096828,41.2107209],[13.6095459,41.2054286],[13.6080382,41.2002586],[13.6052181,41.1954097],[13.6011944,41.1910685],[13.5961221,41.1874021],[13.5901965,41.1845515],[13.5836455,41.1826263],[13.5767212,41.1817005],[13.5479326,41.1800127],[13.5418474,41.180045],[13.5358568,41.1808513],[13.5301334,41.1824085],[13.2846896,41.2671654],[13.2846896,41.2671654],[13.2846896,41.2671654],[13.2846905,41.2671657],[13.2914352,41.2691015],[13.2975088,41.2713499],[13.302913,41.2744155],[13.3074555,41.2781894],[13.3109746,41.2825373],[13.3137367,41.286803],[13.3137255,41.2868068],[13.3137221,41.286808],[13.2859329,41.2964028],[13.2786779,41.2943204],[13.0447304,41.2271711],[13.2786779,41.2943204],[13.36,41.42],[13.52,41.55],[13.55,41.7],[13.42,41.82],[13.3,41.95],[13.18,42.05],[13.05,42.15],[12.95,42.3],[13.05,42.48],[13.2,42.62],[13.38,42.75],[13.6,42.83],[13.76,42.86],[13.9137986,42.8888372],[13.9049284,42.9150082],[13.9049284,42.9150082],[13.8331383,43.1268205],[13.9049284,42.9150082],[13.9049284,42.9150082],[13.9137986,42.8888372],[13.9226729,42.8626539],[13.9228544,42.8626879],[13.9296156,42.8644756],[13.9357744,42.8671919],[13.9410961,42.8707333],[13.9453777,42.8749651],[13.948456,42.8797259],[13.9502132,42.8848342],[13.9505821,42.8900954],[13.9495767,42.8951659],[13.9495772,42.8951643],[13.9495772,42.8951643],[13.979508,42.8067117],[14.0814354,42.649885],[14.0814365,42.6498833],[14.0814405,42.6498847],[14.099402,42.655979],[14.1567232,42.686342],[14.205126,42.7241963],[14.2428141,42.7681511],[14.2683763,42.8165881],[14.2808401,42.86772],[14.2797118,42.9196558],[14.2649995,42.9704699],[14.2613835,42.9787693],[13.9718516,43.6433054],[13.943989,43.6904461],[13.9042471,43.732911],[13.8540483,43.7691549],[13.7952053,43.7978567],[13.4716941,43.9242975],[13.181895,44.1150127],[13.0922212,44.1585134],[12.8890272,44.2285569],[12.7178977,44.3649814],[12.6855426,44.4279027],[12.6523495,44.5953898],[12.7072045,44.626349],[12.754613,44.6656941],[12.7906327,44.7107501],[12.8722671,44.8400446],[12.8768156,44.8497292],[12.8499806,44.8100162],[12.8041803,44.7669849],[12.7472907,44.7312698],[12.681584,44.7042861],[12.6096702,44.6871013],[12.5343949,44.6803942],[12.2999794,44.6753378],[12.284752,44.7130601],[12.3147167,44.8028471],[12.3479784,44.7854389],[12.3741547,44.7717391],[12.3805038,44.7690474],[12.3874664,44.7672794],[12.3947791,44.766502],[12.4021654,44.7667446],[12.4093459,44.767998],[12.416049,44.7702148],[12.422021,44.7733112],[12.422021,44.7733112],[12.422021,44.7733112],[12.427036,44.77717],[12.4309907,44.7808789],[12.4445616,44.7936064],[12.447217,44.7937245],[12.4495973,44.7938303],[12.4567787,44.7951763],[12.4634547,44.7974873],[12.4693707,44.8006752],[12.4666111,44.7991882],[12.4693707,44.8006752],[12.4743009,44.8046185],[12.5175119,44.8468216],[12.5185576,44.8480425],[12.5175119,44.8468216],[12.5207732,44.8506294],[12.5218976,44.8526224],[12.5231068,44.8547657],[12.5504594,44.9178358],[12.5231068,44.8547657],[12.5609721,44.942076],[12.5609833,44.9421162],[12.5609833,44.9421161],[12.560963,44.9420694],[12.5583329,44.9375266],[12.5545827,44.9333976],[12.5498371,44.9298191],[12.5442534,44.9269098],[12.5380168,44.924766],[12.5313338,44.9234587],[12.5244258,44.9230312],[12.5128616,44.9230314],[12.5128639,44.9230368],[12.5245407,44.95],[12.5335253,44.9707469],[12.5245407,44.95],[12.5128639,44.9230368],[12.5128616,44.9230314],[12.4867249,44.862678],[12.5128616,44.9230314],[12.5128639,44.9230368],[12.5245407,44.95],[11.85,44.95],[11.6,44.93],[11.45,44.95],[11.3,44.98],[11.2,44.92],[11.3,44.82],[11.2,44.7],[11.05,44.55],[11.05,44.35],[11,44.15]],[[11.9179192,42.0376882],[12,42.0019386],[12,42.0019386],[11.9179192,42.0376882]]]}}
