{"type":"Feature","properties":{"family":"other","name":"Polish–Lithuanian Commonwealth, 1789 – 1792"},"geometry":{"type":"Polygon","coordinates":[[[15.6,52.3],[15.75,52.05],[15.95,51.9],[16.075,51.85],[16.2,51.8],[16.5,51.75],[16.9,51.68],[17.075,51.615],[17.25,51.55],[17.425,51.475],[17.6,51.4],[17.85,51.25],[18.1,51.15],[18.35,50.95],[18.6,50.8],[18.8,50.65],[19.1,50.35],[19.15,50.2],[19.2,50.04],[19.4,50],[19.5363636,50.0090909],[19.5363636,50.0090909],[19.55,50.01],[19.7,50.02],[19.94,50.04],[20.0886364,50.0647727],[20.3,50.1],[20.5,50.15],[20.7,50.2],[20.85,50.275],[21,50.35],[21.2,50.4],[21.4,50.45],[21.75,50.66],[21.85,50.7],[22.2,50.75],[22.6,50.85],[23.4,50.95],[23.8,50.9],[23.95,50.89],[24.1,50.88],[24.15,50.7],[24.27,50.48],[24.435,50.365],[24.6,50.25],[24.7833333,50.2066667],[24.9666667,50.1633333],[25.15,50.12],[25.3,50.0466667],[25.45,49.9733333],[25.6,49.9],[26,49.7],[26.15,49.53],[26.25,49.2],[26.225,49.025],[26.2,48.85],[26.35,48.55],[26.575,48.525],[26.8,48.5],[27.2,48.45],[27.8,48.45],[27.9666667,48.3666667],[28.0700991,48.3149504],[28.0700991,48.3149504],[28.0771046,48.3114477],[28.0771046,48.3114477],[28.0771046,48.3114477],[28.1333333,48.2833333],[28.2639544,48.2180228],[28.2639544,48.2180228],[28.3,48.2],[28.3441005,48.1684996],[28.3748286,48.146551],[28.3748286,48.146551],[28.3748286,48.146551],[28.4477197,48.0944859],[28.4477197,48.0944859],[28.475,48.075],[28.4810979,48.0706444],[28.65,47.95],[29,47.77],[29.15,47.45],[29.17,47.27],[29.4,47.45],[29.8,47.7],[29.9666667,47.7833333],[30.1333333,47.8666667],[30.3,47.95],[30.4833333,47.9833333],[30.6666667,48.0166667],[30.85,48.05],[31,48.15],[31.1666667,48.2666667],[31.3333333,48.3833333],[31.5,48.5],[31.6666667,48.5733333],[31.8333333,48.6466667],[32,48.72],[32.1666667,48.78],[32.3333333,48.84],[32.5,48.9],[32.85,49.12],[32.4,49.25],[32.23,49.345],[32.06,49.44],[31.93,49.52],[31.8,49.6],[31.45,49.75],[31.3,49.85],[31.15,49.95],[30.75,50.15],[30.3,50.45],[30.5,50.8],[30.5333333,50.9666667],[30.5666667,51.1333333],[30.6,51.3],[30.6666667,51.5133333],[30.7333333,51.7266667],[30.8,51.94],[30.6666667,52.08],[30.5333333,52.22],[30.4,52.36],[30.2766667,52.54],[30.1533333,52.72],[30.03,52.9],[30.05,53.1],[29.95,53.5],[29.8,53.9],[29.7,54.05],[29.6,54.2],[29.45,54.35],[29.3,54.5],[29,54.8],[28.9,55.2],[28.6,55.5],[28.38,55.5933333],[28.16,55.6866667],[27.94,55.78],[27.45,55.82],[27.31,55.86],[27.17,55.9],[26.9533333,55.8933333],[26.7366667,55.8866667],[26.52,55.88],[26.4033333,56.0366667],[26.2866667,56.1933333],[26.17,56.35],[25.85,56.5],[25.65,56.5333333],[25.45,56.5666667],[25.25,56.6],[25.0333333,56.6733333],[24.8166667,56.7466667],[24.6,56.82],[24.4333333,56.8633333],[24.2666667,56.9066667],[24.1,56.95],[24.0251186,57.0623221],[24,57.0454179],[23.9887304,57.0378337],[23.9785027,57.053147],[23.9760216,57.0585025],[23.9756028,57.0640189],[23.9772648,57.0694643],[23.9809387,57.07461],[23.986369,57.0791544],[23.923623,57.0369084],[23.6910352,56.9959941],[23.6067228,57.0058826],[23.5494392,57.0469116],[23.542485,57.050948],[23.5341634,57.0541265],[23.5314777,57.0547554],[23.5314771,57.0547614],[23.5293564,57.0735995],[23.542491,57.1259055],[23.5742652,57.1757988],[23.623522,57.221349],[23.6884088,57.2607867],[23.766443,57.2925744],[23.7847553,57.2985872],[23.784979,57.2986607],[23.6917637,57.2722459],[23.6122183,57.4384755],[23.5815354,57.4845284],[23.5358166,57.5268282],[23.5035465,57.5470455],[23.4133348,57.5272682],[23.3140329,57.5171453],[23.2129416,57.5178137],[23.1140694,57.5292456],[23.0213416,57.5509862],[22.9711694,57.56609],[22.8877223,57.5974643],[22.8176205,57.6371396],[22.7637428,57.6835122],[22.7283377,57.7347013],[22.7129253,57.7886233],[22.718224,57.843074],[22.7251047,57.8667372],[22.748687,57.9161023],[22.7868113,57.9591945],[22.7833822,57.9587879],[22.7137412,57.9581244],[22.6901118,57.9169493],[22.6513316,57.8675391],[22.5949931,57.8231787],[22.5233604,57.7856034],[22.4205451,57.741269],[22.0608546,57.646305],[21.9845253,57.6451181],[21.8912626,57.6530031],[21.8022861,57.6699683],[21.7206598,57.6954298],[21.64921,57.7285105],[21.5904304,57.7680689],[21.5635511,57.7953352],[21.5635451,57.7953413],[21.4569877,57.7684186],[21.3713928,57.7403816],[21.2980368,57.7038003],[21.2398273,57.6601445],[20.9882508,57.4229533],[20.9445248,57.367852],[20.9245338,57.3088856],[20.9014583,57.1291797],[20.7019951,57.020544],[20.6385735,56.9778665],[20.5924722,56.9290418],[20.5655525,56.8761149],[20.5588563,56.821294],[20.5654455,56.718859],[20.5187898,56.6150653],[20.5053907,56.5663527],[20.508304,56.5171021],[20.5149833,56.5002506],[20.4844301,56.2751406],[20.4853307,56.2289622],[20.5003628,56.1835383],[20.5701959,56.0412106],[20.5634988,55.8813253],[20.5705245,55.8285949],[20.5857865,55.7976781],[20.5679577,55.9360276],[20.5701859,55.9879349],[20.5901806,56.0386464],[20.6272644,56.0862745],[20.6801109,56.1290398],[20.7467867,56.1653392],[20.8248189,56.1938083],[20.9112872,56.2133741],[20.936268,56.2160791],[20.9362903,56.2160815],[21.0063138,56.0700322],[21.0002535,55.9556243],[21.0014952,55.9609475],[21.0046177,55.9660494],[21.0094914,55.9707023],[21.0159219,55.9747201],[21.0236521,55.9779419],[21.0323731,55.9802388],[21.0417356,55.9815188],[21.0498539,55.9816974],[21.0498539,55.9816961],[21.0498536,55.9816911],[21.0483966,55.9548103],[21.0440104,55.8738903],[21.0483966,55.9548103],[21.05,55.95],[21.3,55.7],[22.1,55.3],[22.3,55.21],[22.5,55.12],[22.85,55.07],[22.85,54.85],[22.75,54.6],[22.65,54.3],[22.75,54],[22.65,53.75],[22.35,53.6],[22.125,53.525],[21.9,53.45],[21.5,53.33],[21.3333333,53.3033333],[21.1666667,53.2766667],[21,53.25],[20.6,53.2],[20.2,53.2],[20.0333333,53.2266667],[19.8666667,53.2533333],[19.7,53.28],[19.35,53.2],[19.175,53.15],[19,53.1],[18.8,53],[18.7777778,52.9666667],[18.7,52.85],[18.6653465,52.8371287],[18.6653465,52.8371287],[18.525,52.785],[18.35,52.72],[18,52.75],[17.6,52.78],[17.4333333,52.7933333],[17.2666667,52.8066667],[17.1,52.82],[16.7,52.85],[16.3,52.82],[15.9,52.82],[15.75,52.6],[15.6,52.3]],[[21.4220142,57.2889181],[21.6754652,57.5252791],[21.7280173,57.5742876],[21.7625443,57.5775266],[21.99802,57.5996163],[21.7625443,57.5775266],[21.6754652,57.5252791],[21.4220142,57.2889181]]]}}
