{"type":"Feature","properties":{"family":"russia","name":"Kingdom of Poland, under the Russian tsar, 1814 – 1815"},"geometry":{"type":"Polygon","coordinates":[[[17.8,52.3],[17.825,52.175],[17.85,52.05],[17.95,51.8],[17.95,51.55],[18,51.28],[18.1,51.15],[18.35,50.95],[18.6,50.8],[18.8,50.65],[19.1,50.35],[19.15,50.2],[19.2,50.04],[19.4,50],[19.5363636,50.0090909],[19.25,50.05],[19.3,50.25],[19.45,50.265],[19.6,50.28],[19.9,50.2],[20.15,50.12],[20.0886364,50.0647727],[20.05,50.03],[20.0886364,50.0647727],[20.3,50.1],[20.5,50.15],[20.7,50.2],[20.85,50.275],[21,50.35],[21.2,50.4],[21.4,50.45],[21.75,50.66],[21.85,50.7],[21.95,50.625],[22.05,50.55],[22.2,50.475],[22.35,50.4],[22.5666667,50.3933333],[22.7833333,50.3866667],[23,50.38],[23.6,50.38],[23.8233333,50.4133333],[24.0466667,50.4466667],[24.27,50.48],[24.15,50.7],[24.1,50.88],[23.95,51.025],[23.8,51.17],[23.7,51.36],[23.6,51.55],[23.64,51.725],[23.68,51.9],[23.6,52.15],[23.2,52.4],[23.05,52.39],[22.9,52.38],[22.75,52.4],[22.6418398,52.4144214],[22.6,52.42],[22.5625995,52.4773475],[22.45,52.65],[22.35,52.95],[22.42,53.2],[22.56,53.275],[22.7,53.35],[23.05,53.6],[23.4,53.72],[23.83,53.68],[23.97,54.02],[24.01,54.21],[24.05,54.4],[23.95,54.63],[23.925,54.765],[23.9,54.9],[23.7,54.95],[23.5,55],[23.3,55.05],[23.075,55.06],[22.85,55.07],[22.85,54.85],[22.75,54.6],[22.65,54.3],[22.75,54],[22.65,53.75],[22.35,53.6],[22.125,53.525],[21.9,53.45],[21.5,53.33],[21.3333333,53.3033333],[21.1666667,53.2766667],[21,53.25],[20.6,53.2],[20.2,53.2],[20.0333333,53.2266667],[19.8666667,53.2533333],[19.7,53.28],[19.35,53.2],[19.175,53.15],[19,53.1],[18.875,53.025],[18.7777778,52.9666667],[18.7,52.85],[18.6653465,52.8371287],[18.6,52.75],[18.45,52.675],[18.3,52.6],[18,52.5],[17.8,52.3]]]}}
