{"type":"Feature","properties":{"family":"portugal","name":"Kingdom of Portugal, 1789 – 1800"},"geometry":{"type":"Polygon","coordinates":[[[-9.8443094,38.7936472],[-9.8366185,38.6923586],[-9.8250648,38.6373476],[-9.799309,38.5853625],[-9.7604759,38.5386141],[-9.7102371,38.4990865],[-9.6507378,38.4684546],[-9.584505,38.4480142],[-9.5741215,38.4457432],[-9.5758302,38.4378325],[-9.5736496,38.3841513],[-9.5579595,38.3318728],[-9.5294084,38.2830636],[-9.4891474,38.2396492],[-9.4387809,38.203339],[-9.3803024,38.1755605],[-9.3160157,38.1574044],[-9.2484457,38.1495831],[-9.1802422,38.1524032],[-9.1609018,38.1547291],[-9.2122099,38.0522665],[-9.2301678,38.0030733],[-9.235997,37.9520946],[-9.229513,37.9011671],[-9.2109741,37.8521219],[-9.1810689,37.8067186],[-9.1566573,37.7823416],[-9.1586528,37.7585887],[-9.1560552,37.7030019],[-9.1486811,37.6795051],[-9.1604931,37.6486495],[-9.1655123,37.5868828],[-9.1573607,37.459305],[-9.3157577,37.1134837],[-9.3324836,37.0606701],[-9.3355652,37.0062549],[-9.3249062,36.9524575],[-9.3009694,36.9014669],[-9.2647525,36.8553538],[-9.2177444,36.8159873],[-9.1618623,36.7849601],[-9.0993739,36.7635261],[-9.0328061,36.7525504],[-8.9648458,36.752476],[-8.8982341,36.763306],[-8.5481222,36.8497422],[-8.2915503,36.8271867],[-8.1555011,36.7588325],[-8.0891156,36.7330333],[-8.083266,36.7319245],[-8.072979,36.7278843],[-8.0227242,36.7127392],[-7.9528059,36.6982648],[-7.8806566,36.6960477],[-7.809566,36.706189],[-7.7427774,36.7282264],[-7.6924892,36.7501071],[-7.6912775,36.7507636],[-7.6781708,36.7546101],[-7.6280546,36.7777478],[-7.4157195,36.8958715],[-7.3654996,36.8967073],[-7.2982064,36.9090403],[-7.2354289,36.9320405],[-7.2214918,36.9402331],[-7.2213207,36.9403336],[-7.2213084,36.9403409],[-7.2212378,36.9403824],[-7.1797775,36.9647536],[-7.1335747,37.0058208],[-7.0987594,37.0535338],[-7.0768056,37.1059042],[-7.0686575,37.1607453],[-7.0710751,37.1828057],[-7.0710762,37.1828158],[-7.0710763,37.1828165],[-7.0710767,37.1828204],[-7.0718498,37.1824388],[-7.0782615,37.1805578],[-7.0850153,37.1797397],[-7.3735802,37.1678431],[-7.3736329,37.168615],[-7.3787445,37.1946251],[-7.4142741,37.19316],[-7.4682747,37.4751524],[-7.5294753,37.5562041],[-7.5150752,37.6017957],[-7.4718747,37.6372558],[-7.4430744,37.7301276],[-7.3062731,37.8500166],[-7.2738727,37.9766599],[-7.1586716,37.9969228],[-7.1226712,38.0408258],[-7.0254703,38.0222514],[-6.9462695,38.1961749],[-7.104671,38.1742234],[-7.1658717,38.2721609],[-7.3602736,38.4460843],[-7.3154474,38.5318684],[-7.32,38.5],[-7.15,38.45],[-6.95,38.6],[-7,38.85],[-7.0703296,38.85],[-7.0578706,38.85472],[-7.0650707,38.9053774],[-6.9750698,39.0235778],[-7.0146701,39.0961866],[-7.0650707,39.1147609],[-7.1586716,39.1046295],[-7.1694717,39.170484],[-7.2594726,39.2110098],[-7.2522725,39.27011],[-7.3278733,39.3410303],[-7.3134731,39.4575421],[-7.4682747,39.5504139],[-7.5582756,39.6804343],[-7.0218702,39.6939429],[-7.00027,39.8020119],[-6.9282693,39.8611121],[-6.8814688,40.0097069],[-6.9570696,40.1025786],[-7.0290703,40.132973],[-7.0434704,40.1819418],[-7.0146701,40.2258448],[-6.8778688,40.2646821],[-6.8706687,40.2950764],[-6.795068,40.3558652],[-6.8526685,40.4098997],[-6.8562686,40.4419827],[-6.8130681,40.5145915],[-6.8490685,40.5652488],[-6.8130681,40.6479891],[-6.8382684,40.7425494],[-6.8382684,40.8404869],[-6.8166682,40.8573727],[-6.9426694,41.0160989],[-6.9066691,41.0566248],[-6.8166682,41.0549362],[-6.7662677,41.1089707],[-6.7554676,41.159628],[-6.6474665,41.267697],[-6.496265,41.2947142],[-6.3774638,41.3774545],[-6.3774638,41.3977174],[-6.3198632,41.411226],[-6.2802628,41.4973435],[-6.204662,41.5699523],[-6.2730627,41.6290525],[-6.3666637,41.662824],[-6.4602646,41.6763327],[-6.5430654,41.6594469],[-6.5790658,41.7404986],[-6.5250653,41.8671419],[-6.5754658,41.8823391],[-6.5718657,41.9431279],[-6.6078661,41.9617022],[-6.6222662,41.9414393],[-6.7266673,41.9313078],[-6.8238682,41.9836537],[-6.8562686,41.9431279],[-6.9462695,41.9431279],[-6.9930699,41.9667679],[-7.0506705,41.9414393],[-7.1586716,41.9853423],[-7.198272,41.9633908],[-7.198272,41.9009134],[-7.2198722,41.8789619],[-7.3926739,41.8418132],[-7.4430744,41.8063531],[-7.4826748,41.8570104],[-7.5150752,41.8654533],[-7.5474755,41.8316818],[-7.6050761,41.8249275],[-7.6230762,41.8316818],[-7.6086761,41.8738962],[-7.7202772,41.8992249],[-7.896679,41.858699],[-7.9074791,41.914422],[-7.9434794,41.8671419],[-7.9938799,41.8637647],[-8.0478805,41.8164846],[-8.1810818,41.8114188],[-8.1774818,41.8502561],[-8.2206822,41.8688305],[-8.2314823,41.9042906],[-8.0946809,42.0410653],[-8.1378814,42.0731483],[-8.202682,42.0697712],[-8.2206822,42.1542],[-8.3466835,42.1018541],[-8.6274863,42.0511968],[-8.6706867,42.0005395],[-8.7498875,41.9684565],[-8.82857,41.9223245],[-8.9000004,41.8704267],[-8.903548,41.8723387],[-8.9084368,41.8762842],[-8.9121798,41.8808708],[-8.9146284,41.885917],[-8.9156855,41.8912229],[-8.9302123,42.1174848],[-8.9298433,42.1228107],[-8.9280655,42.1279774],[-8.9249485,42.1327823],[-8.9206139,42.1370372],[-8.9152317,42.1405753],[-8.9090125,42.1432579],[-8.9022002,42.1449797],[-8.8795448,42.1488998],[-8.8819325,42.1532178],[-8.883297,42.1583085],[-8.8833192,42.1634975],[-8.8819976,42.1685924],[-8.8793812,42.1734043],[-8.8755666,42.1777545],[-8.8706952,42.1814818],[-8.7880525,42.2335034],[-8.8666264,42.230298],[-8.8740884,42.2305584],[-8.8813236,42.2319386],[-8.8880281,42.2343808],[-8.8926089,42.2370253],[-8.8926121,42.2370231],[-8.8926127,42.2370227],[-8.8926216,42.2370167],[-8.9949366,42.1676776],[-9.0346473,42.1359855],[-9.1604488,42.0174846],[-9.2018115,41.9683099],[-9.2280277,41.9136891],[-9.2373082,41.8597152],[-9.2373093,41.8597089],[-9.2373095,41.8597076],[-9.2373131,41.8596866],[-9.23792,41.856157],[-9.2408909,41.7430152],[-9.2358472,41.6925028],[-9.218268,41.6435804],[-9.1887981,41.5979673],[-9.1754572,41.584501],[-9.0892195,41.204544],[-9.068264,41.1487711],[-9.0320193,41.0976436],[-9.0240594,41.0888342],[-9.0994972,40.7041659],[-9.2499495,40.2695063],[-9.2606469,40.2199792],[-9.2591364,40.1697961],[-9.2454968,40.1206939],[-9.2423398,40.1149107],[-9.4153842,39.6865388],[-9.4458541,39.6446907],[-9.4835468,39.6383235],[-9.5504141,39.6214203],[-9.6115005,39.5945316],[-9.6643241,39.5587537],[-9.7067491,39.5155432],[-9.7370723,39.4666563],[-9.7540903,39.4140757],[-9.7571452,39.3599295],[-9.7461458,39.306404],[-9.7215664,39.2556555],[-9.7030039,39.2265701],[-9.8311698,38.8848363],[-9.8427582,38.8396797],[-9.8443094,38.7936472]],[[-8.8938889,37.9530198],[-8.8599881,38],[-8.8599881,38],[-8.8938889,37.9530198]],[[-8.0334803,37.0378109],[-8,37.0083663],[-7.9758798,36.9871536],[-8,37.0083663],[-8.0334803,37.0378109]]]}}
