{"type":"Feature","properties":{"family":"prussia","name":"Prussian Westphalia, Cleves and Mark, 1803 – 1805"},"geometry":{"type":"Polygon","coordinates":[[[6.1709091,51.8647273],[6.22,51.85],[6.35,51.8],[6.48,51.73],[6.6,51.66],[6.62,51.6],[6.7,51.52],[6.74,51.45],[6.7065574,51.3914754],[6.85,51.38],[6.99,51.38],[7.1,51.38],[7.35,51.25],[7.55,51.12],[7.8,51.2],[7.95,51.4],[8.2,51.5],[8.2647059,51.5970588],[8.3,51.65],[8.4090909,51.5681818],[8.5,51.5],[8.5272727,51.4954545],[8.8,51.45],[8.975,51.475],[9.15,51.5],[9.2,51.75],[9.0333333,51.8166667],[8.8666667,51.8833333],[8.7,51.95],[8.825,52.025],[8.95,52.1],[9.0357143,52.1642857],[9.15,52.25],[9.1,52.45],[9.0272727,52.4590909],[8.9,52.475],[8.7,52.5],[8.45,52.4],[8.4133333,52.3083333],[8.4,52.275],[8.35,52.15],[8.314,52.006],[8.3113636,51.9954545],[8.3,52],[8.26,52.015],[8.1,52.075],[7.9,52.15],[7.9,52.3],[7.8538462,52.3346154],[7.8538462,52.3346154],[7.6333333,52.5],[7.5,52.6],[7.2,52.6],[7.25,52.4],[7.4894737,52.2631579],[7.45,52.25],[7.3,52.2],[7.45,51.95],[7.4417582,51.9318681],[7.3,51.62],[6.95,51.65],[6.85,51.7],[6.75,51.75],[6.575,51.815],[6.4736345,51.85265],[6.4638646,51.8483221],[6.3774638,51.8601422],[6.3810638,51.8280592],[6.3450635,51.8213049],[6.2658627,51.8668965],[6.2511671,51.8700778],[6.175,51.865],[6.1709091,51.8647273]]]}}
