{"type":"Feature","properties":{"family":"prussia","name":"Kingdom of Prussia, 1814 – 1815"},"geometry":{"type":"Polygon","coordinates":[[[10,51.45],[10.05,51.3],[10.175,51.225],[10.3,51.15],[10.7,51.1],[11,51.1],[11.4,51.075],[11.6,51.0625],[11.8,51.05],[12.25,50.95],[12.2,51.15],[12.28,51.32],[12.42,51.45],[12.6,51.42],[12.9,51.4],[13.2,51.45],[13.5,51.4],[13.9,51.38],[14.2,51.35],[14.5,51.3],[14.625,51.225],[14.75,51.15],[14.8,51.015],[14.8411148,50.9039899],[14.9563496,51.0648223],[14.8411148,50.9039899],[14.8087481,50.8588158],[14.9815498,50.8588158],[14.99595,50.9584419],[14.9599496,50.9922134],[15.00315,51.0209193],[15.1075511,50.9803934],[15.1435514,51.0107878],[15.1687517,50.9787048],[15.25,50.9582893],[15.2695527,50.9533762],[15.2551526,50.8993417],[15.3415534,50.8317986],[15.3559536,50.7760756],[15.4423544,50.7997156],[15.6727567,50.7338611],[15.7915579,50.742304],[15.8491585,50.6747609],[15.9715597,50.6781381],[16.00036,50.6359236],[15.9823598,50.6038407],[16.0867609,50.6460551],[16.1767618,50.6241036],[16.2307623,50.6612523],[16.3315633,50.6443665],[16.4251643,50.5683806],[16.3927639,50.5599377],[16.3927639,50.5211004],[16.3531635,50.4923946],[16.2883629,50.4923946],[16.2127621,50.4518687],[16.198362,50.4062771],[16.2631626,50.3640627],[16.3423634,50.3691284],[16.3711637,50.3184711],[16.4395644,50.2982082],[16.5367654,50.207025],[16.5655657,50.1428591],[16.6591666,50.0922018],[16.702367,50.0955789],[16.8175682,50.1867621],[16.9543695,50.2137793],[16.9615696,50.2323537],[17.0155702,50.2188451],[16.9867699,50.2846996],[16.9255693,50.3184711],[16.8643686,50.4079657],[16.8931689,50.4332944],[17.1883719,50.3792599],[17.2099721,50.3370455],[17.3359734,50.3134054],[17.3179732,50.3083397],[17.3539735,50.2526166],[17.3863739,50.2728795],[17.4295743,50.239108],[17.4691747,50.2661252],[17.6311763,50.2627481],[17.7067771,50.3117168],[17.7355774,50.2897653],[17.7175772,50.2526166],[17.7463775,50.2171565],[17.6743767,50.1749421],[17.5879759,50.163122],[17.6311763,50.1057104],[17.7319773,50.0955789],[17.7211772,50.075316],[17.7643776,50.0246587],[17.8399784,49.9740014],[18.0307803,50.0027072],[18.00198,50.0466102],[18.0919809,50.0179044],[18.099181,49.9891986],[18.2575826,49.9452955],[18.289534,49.9123249],[18.3,49.92],[18.3314892,49.92],[18.3691837,49.9317869],[18.4062798,49.92],[18.55,49.92],[19,49.95],[19.2,50.04],[19.15,50.2],[19.1,50.35],[18.8,50.65],[18.6,50.8],[18.35,50.95],[18.1,51.15],[18,51.28],[17.95,51.55],[17.95,51.8],[17.85,52.05],[17.825,52.175],[17.8,52.3],[18,52.5],[18.3,52.6],[18.45,52.675],[18.6,52.75],[18.6653465,52.8371287],[18.7,52.85],[18.7777778,52.9666667],[18.875,53.025],[19,53.1],[19.175,53.15],[19.35,53.2],[19.7,53.28],[19.8666667,53.2533333],[20.0333333,53.2266667],[20.2,53.2],[20.6,53.2],[21,53.25],[21.1666667,53.2766667],[21.3333333,53.3033333],[21.5,53.33],[21.9,53.45],[22.125,53.525],[22.35,53.6],[22.65,53.75],[22.75,54],[22.65,54.3],[22.75,54.6],[22.85,54.85],[22.85,55.07],[22.5,55.12],[22.3,55.21],[22.1,55.3],[21.3,55.7],[21.05,55.95],[21.0483966,55.9548103],[21.0440104,55.8738903],[21.0483966,55.9548103],[21.0498536,55.9816911],[21.0498539,55.9816961],[21.0417366,55.9815174],[21.0323738,55.9802372],[21.0236527,55.9779402],[21.0159222,55.9747184],[21.0094916,55.9707006],[21.0046177,55.9660478],[21.0022659,55.9622054],[21.002266,55.9622078],[21.0022661,55.9622089],[21.0022661,55.96221],[21.0063403,56.0699353],[20.9363028,56.2160105],[20.936277,56.2160644],[20.9112997,56.2133596],[20.824829,56.1937933],[20.7467943,56.1653241],[20.6801159,56.1290248],[20.627267,56.0862599],[20.5901812,56.0386327],[20.570185,55.9879224],[20.5686359,55.9518482],[20.567956,55.9360167],[20.5949114,55.7268474],[20.6051347,55.6899828],[20.6069379,55.5403311],[20.5704576,55.4773692],[20.2941938,55.2430794],[20.2296677,55.2185059],[19.9658256,55.2216139],[19.8768032,55.2177276],[19.7906881,55.2043045],[19.7106049,55.1818322],[19.6394477,55.1511256],[19.5797707,55.1132967],[19.5336951,55.0697118],[19.5028346,55.0219408],[19.4676204,54.9458207],[19.4520242,54.8813416],[19.4637395,54.8165983],[19.471015,54.7982487],[19.4319423,54.7444857],[19.3143331,54.66902],[19.2736156,54.655205],[19.2487515,54.7022773],[19.1811597,54.7953833],[19.1338637,54.844952],[19.0695314,54.8877156],[18.9909792,54.9217695],[18.5537769,55.0712139],[18.4699899,55.0935294],[18.3801363,55.10599],[18.2877346,55.1081069],[17.8564823,55.0928163],[17.7813082,55.086483],[17.2271179,55.0117129],[17.1549023,54.998145],[17.0874998,54.9780455],[16.7582996,54.8586355],[16.4639799,54.8196533],[16.3753716,54.8022232],[16.2946553,54.7749222],[16.2250958,54.738861],[15.9805157,54.5828275],[15.9250196,54.5390122],[15.9110027,54.5251958],[15.9025087,54.5218518],[15.82544,54.5185244],[15.6978377,54.5022099],[14.4017035,54.2111478],[14.3304236,54.2542681],[14.2601318,54.2889695],[14.2363024,54.2965882],[14.2363235,54.2965723],[14.2363366,54.2965624],[14.2363534,54.2965497],[14.2363707,54.2965366],[14.36345,54.2007016],[14.412335,54.1547957],[14.4445039,54.1040946],[14.4587179,54.0506499],[14.4544735,53.9966162],[14.439845,53.9624558],[14.4398447,53.9624551],[14.762805,54.059104],[14.3977359,53.9498537],[14.2336339,53.9641083],[14.0502027,54.0788541],[14.0405134,54.0834467],[14.0238846,54.0893409],[14.0238949,54.0893363],[14.0239013,54.0893335],[14.0239095,54.0893298],[14.0239179,54.0893261],[14.0313461,54.0860305],[14.0375446,54.081867],[14.0421653,54.0770496],[14.0450146,54.0717808],[14.0459736,54.0662818],[14.0459468,54.0420927],[14.0167402,54.0603583],[14,54.0662909],[14,54.0351451],[14.0327071,54.0162244],[14.0325444,54.0161076],[14.0256195,54.0127533],[14.0177174,54.0102542],[14.0091396,54.0087054],[14.0058647,54.0085076],[14.010999,54.0050274],[14.0154616,54.0004179],[14.018303,53.9953842],[14.019414,53.9901211],[14.0187522,53.984832],[14.0161539,53.9760286],[14.0139549,53.9712412],[14.010304,53.9667714],[14.0053248,53.9627699],[13.9975108,53.9575634],[14,53.9567393],[14,53.9567393],[13.9975108,53.9575634],[13.9975108,53.9575634],[13.9879399,53.9607323],[13.9591396,53.9404694],[13.9709507,53.9806338],[13.9183875,53.9455917],[13.9161476,53.9541468],[13.914971,53.9586406],[13.9147191,53.9596028],[13.914719,53.9596031],[13.9138761,53.9628224],[13.9125412,53.9679208],[13.9118675,53.9704941],[13.9100335,53.9774987],[13.9085975,53.9829832],[13.9085378,53.9832114],[13.9077396,53.9862598],[13.9076578,53.9865724],[13.9054065,53.9951707],[13.9053629,53.9953373],[13.9051407,53.9961862],[13.9051407,53.9961863],[13.9051406,53.9961863],[13.9051391,53.9961924],[13.9051406,53.9961863],[13.9051407,53.9961863],[13.9051407,53.9961862],[13.9053629,53.9953373],[13.9054065,53.9951707],[13.9076578,53.9865724],[13.9077396,53.9862598],[13.9085378,53.9832114],[13.9085975,53.9829832],[13.9100335,53.9774987],[13.9118675,53.9704941],[13.9125412,53.9679208],[13.9138761,53.9628224],[13.914719,53.9596031],[13.9147191,53.9596028],[13.914971,53.9586406],[13.9161476,53.9541468],[13.9183875,53.9455917],[13.920012,53.9393872],[13.9209367,53.9358554],[13.9209367,53.9358553],[13.9228239,53.9286477],[13.9274716,53.9108963],[13.9303393,53.8999435],[13.9274716,53.9108963],[13.9228239,53.9286477],[13.9209367,53.9358553],[13.9209367,53.9358554],[13.920012,53.9393872],[13.9183875,53.9455917],[13.9161476,53.9541468],[13.914971,53.9586406],[13.9147191,53.9596028],[13.914719,53.9596031],[13.9138761,53.9628224],[13.9125412,53.9679208],[13.9118675,53.9704941],[13.9100335,53.9774987],[13.9085975,53.9829832],[13.9085378,53.9832114],[13.9077396,53.9862598],[13.9076578,53.9865724],[13.9054065,53.9951707],[13.9053629,53.9953373],[13.9051407,53.9961862],[13.9051407,53.9961863],[13.9051407,53.9961863],[13.9051407,53.9961863],[13.9051407,53.9961862],[13.9053629,53.9953373],[13.9054065,53.9951707],[13.9076578,53.9865724],[13.9077396,53.9862598],[13.9085378,53.9832114],[13.9085975,53.9829832],[13.9100335,53.9774987],[13.9118675,53.9704941],[13.9125412,53.9679208],[13.9138761,53.9628224],[13.914719,53.9596031],[13.9147191,53.9596028],[13.914971,53.9586406],[13.9161476,53.9541468],[13.9183875,53.9455917],[13.920012,53.9393872],[13.9209367,53.9358554],[13.9209367,53.9358553],[13.9228239,53.9286477],[13.9274716,53.9108963],[13.8922783,53.8874469],[13.8223382,53.8644834],[13.8237845,53.863398],[13.8187382,53.8620524],[13.8187382,53.877992],[13.9087391,53.9337151],[13.9045591,53.9363727],[13.8367524,53.9794853],[13.8044873,54],[13.8044873,54],[13.8367524,53.9794853],[13.9045591,53.9363727],[13.85,53.9],[13.7,53.86],[13.55,53.87],[13.4,53.88],[13.225,53.9],[13.05,53.92],[13.3,53.75],[13.6,53.6],[13.7,53.4],[13.2,53.15],[12.8,53.15],[12.6333333,53.2],[12.4666667,53.25],[12.3,53.3],[12.1,53.25],[11.9,53.2],[11.75,53.15],[11.6,53.1],[11.38,53.1],[11.3136364,53.1],[11.3,53.1],[11.15,52.98],[11,52.85],[10.85,52.7],[10.85,52.5],[10.95,52.35],[10.75,52.1],[10.6,51.95],[10.55,51.65],[10.3666667,51.5833333],[10.1833333,51.5166667],[10,51.45]],[[18.6653465,52.8371287],[18.525,52.785],[18.6653465,52.8371287],[18.6653465,52.8371287]],[[13.8187382,53.8526633],[14,53.7718248],[14.0383404,53.7547259],[14,53.7718248],[13.8187382,53.8526633]],[[13.8403384,53.8509748],[14,53.8629569],[14.200342,53.877992],[14,53.8629569],[13.8403384,53.8509748]],[[13.9421693,53.8315303],[14.1869549,53.8498199],[14.3006138,53.7965092],[14.3006122,53.7965079],[14.2855791,53.7846394],[14.2794067,53.7806412],[14.2794048,53.78064],[14.274021,53.7829961],[14.265572,53.7853048],[14.2565056,53.7865527],[14.2471992,53.7866877],[14.2380404,53.7857043],[14.2294104,53.7836434],[14.1784053,53.7676962],[14.0570611,53.7801875],[13.9421693,53.8315303]],[[14.0491405,53.9404694],[14.0524805,54],[14.0527405,54.0046353],[14.0524805,54],[14.0491405,53.9404694]],[[14.1132529,54],[14.1132529,54],[14.2111421,53.9387808],[14.1132529,54]],[[14.4055441,53.921895],[14.6665072,54],[14.6665072,54],[14.4055441,53.921895]],[[15.8599586,54.249479],[16,54.2669952],[16,54.2669952],[16.1299613,54.2832505],[16,54.2669952],[16,54.2669952],[15.8599586,54.249479]],[[17.8867789,54.8235953],[18,54.8276117],[18.3151832,54.8387925],[18,54.8276117],[17.8867789,54.8235953]]]}}
