{"type":"Feature","properties":{"family":"prussia","name":"Kingdom of Prussia, 1795 – 1802"},"geometry":{"type":"Polygon","coordinates":[[[10.6,51.8],[10.75,51.75],[11,51.7],[11.2,51.62],[11.45,51.6],[11.6,51.45],[11.85,51.42],[12.05,51.4],[12.15,51.5],[12.05,51.6],[11.85,51.6],[11.7,51.72],[11.8,51.85],[11.9273973,51.960411],[11.95,51.98],[12.1,52.05],[12.25,52.1],[12.4,52.2],[12.6,52.2],[12.9,52.12],[13.1,52.05],[13.3,52.1],[13.6,52.15],[14.3,52.15],[14.6,52.1],[14.75,52],[15.1,51.95],[15.25,51.7],[15.3,51.45],[15.25,51.15],[15.25,50.9582893],[15.2695527,50.9533762],[15.2551526,50.8993417],[15.3415534,50.8317986],[15.3559536,50.7760756],[15.4423544,50.7997156],[15.6727567,50.7338611],[15.7915579,50.742304],[15.8491585,50.6747609],[15.9715597,50.6781381],[16.00036,50.6359236],[15.9823598,50.6038407],[16.0867609,50.6460551],[16.1767618,50.6241036],[16.2307623,50.6612523],[16.3315633,50.6443665],[16.4251643,50.5683806],[16.3927639,50.5599377],[16.3927639,50.5211004],[16.3531635,50.4923946],[16.2883629,50.4923946],[16.2127621,50.4518687],[16.198362,50.4062771],[16.2631626,50.3640627],[16.3423634,50.3691284],[16.3711637,50.3184711],[16.4395644,50.2982082],[16.5367654,50.207025],[16.5655657,50.1428591],[16.6591666,50.0922018],[16.702367,50.0955789],[16.8175682,50.1867621],[16.9543695,50.2137793],[16.9615696,50.2323537],[17.0155702,50.2188451],[16.9867699,50.2846996],[16.9255693,50.3184711],[16.8643686,50.4079657],[16.8931689,50.4332944],[17.1883719,50.3792599],[17.2099721,50.3370455],[17.3359734,50.3134054],[17.3179732,50.3083397],[17.3539735,50.2526166],[17.3863739,50.2728795],[17.4295743,50.239108],[17.4691747,50.2661252],[17.6311763,50.2627481],[17.7067771,50.3117168],[17.7355774,50.2897653],[17.7175772,50.2526166],[17.7463775,50.2171565],[17.6743767,50.1749421],[17.5879759,50.163122],[17.6311763,50.1057104],[17.7319773,50.0955789],[17.7211772,50.075316],[17.7643776,50.0246587],[17.8399784,49.9740014],[18.0307803,50.0027072],[18.00198,50.0466102],[18.0919809,50.0179044],[18.099181,49.9891986],[18.2575826,49.9452955],[18.289534,49.9123249],[18.3,49.92],[18.3314892,49.92],[18.3691837,49.9317869],[18.4062798,49.92],[18.55,49.92],[18.6,49.92],[19,49.95],[19.2,50.04],[19.3,50.3],[19.5,50.45],[19.66,50.54],[19.82,50.63],[19.88,51.09],[19.88,51.35],[19.9916667,51.5175],[20.0055556,51.53],[20.22,51.53],[20.58,51.62],[20.7833333,51.6733333],[20.9866667,51.7266667],[21.19,51.78],[21.3,51.87],[21.15,52.05],[21.05,52.25],[21,52.45],[21.05,52.52],[21.45,52.6],[21.65,52.65],[21.85,52.7],[22.32,52.67],[22.49,52.535],[22.5625995,52.4773475],[22.6418398,52.4144214],[22.66,52.4],[23.15,52.35],[23.2,52.4],[23.3,52.575],[23.4,52.75],[23.55,53.1],[23.7,53.4],[23.83,53.68],[23.97,54.02],[24.01,54.21],[24.05,54.4],[23.95,54.63],[23.925,54.765],[23.9,54.9],[23.7,54.95],[23.5,55],[23.3,55.05],[23.075,55.06],[22.85,55.07],[22.5,55.12],[22.3,55.21],[22.1,55.3],[21.3,55.7],[21.05,55.95],[21.0483966,55.9548103],[21.0440104,55.8738903],[21.0483966,55.9548103],[21.0498536,55.9816911],[21.0498539,55.9816961],[21.0498539,55.9816974],[21.049854,55.9816982],[21.049854,55.981699],[21.0498541,55.9816998],[21.0417337,55.9815214],[21.0323716,55.9802416],[21.0236511,55.977945],[21.0159212,55.9747233],[21.0094912,55.9707056],[21.0046178,55.9660526],[21.0022661,55.96221],[21.0063403,56.0699353],[20.9363028,56.2160105],[20.936277,56.2160644],[20.9362658,56.2160877],[20.936261,56.2160976],[20.9362566,56.2161069],[20.9112631,56.2134009],[20.8247993,56.1938363],[20.7467721,56.1653681],[20.6801013,56.1290688],[20.6272593,56.0863031],[20.5901793,56.0386738],[20.5701874,55.9879604],[20.5686378,55.9518332],[20.5679609,55.9360503],[20.5949152,55.726884],[20.6051392,55.6900145],[20.6069421,55.5403764],[20.5704653,55.4774198],[20.2941985,55.2431235],[20.2296362,55.2185355],[19.9657684,55.2216416],[19.8767555,55.2177548],[19.7906512,55.2043322],[19.7105793,55.181861],[19.6394326,55.1511564],[19.5797644,55.1133298],[19.5336952,55.0697474],[19.5028379,55.0219784],[19.4676246,54.9458594],[19.452026,54.8813683],[19.4637443,54.8166112],[19.4710138,54.7982769],[19.4319473,54.7445221],[19.31433,54.6690498],[19.2735934,54.6552279],[19.2487432,54.7022718],[19.1811495,54.7953787],[19.1338445,54.8449558],[19.0695012,54.8877264],[18.9909371,54.9217852],[18.5537279,55.0712273],[18.4699367,55.093543],[18.3800812,55.1060033],[18.28768,55.1081195],[17.8564285,55.0928251],[17.7812581,55.0864915],[17.2270717,55.0117168],[17.1548619,54.9981494],[17.0874659,54.978051],[16.7582618,54.8586358],[16.4639347,54.8196501],[16.375334,54.8022208],[16.2946262,54.7749219],[16.2250752,54.738864],[15.9805005,54.5828307],[15.9250098,54.5390192],[15.9109857,54.5251953],[15.9024715,54.5218432],[15.8253991,54.518515],[15.6977918,54.5021981],[14.4016895,54.2111289],[14.3304255,54.2542385],[14.260133,54.2889394],[14.2363707,54.2965366],[14.36345,54.2007016],[14.412335,54.1547957],[14.4445039,54.1040946],[14.4587179,54.0506499],[14.4544735,53.9966162],[14.439845,53.9624558],[14.4398447,53.9624551],[14.4398445,53.9624547],[14.4398444,53.9624544],[14.4398442,53.962454],[14.4398441,53.9624536],[14.3977333,53.9498515],[14.2336339,53.9641058],[14.0502033,54.0788509],[14.0405135,54.0834437],[14.0239179,54.0893261],[14.0313461,54.0860305],[14.0375446,54.081867],[14.0421653,54.0770496],[14.0450146,54.0717808],[14.0459736,54.0662818],[14.0459468,54.0420927],[14.0167402,54.0603583],[14,54.0662909],[14,54.0351451],[14.0327071,54.0162244],[14.0325444,54.0161076],[14.0256195,54.0127533],[14.0177174,54.0102542],[14.0091396,54.0087054],[14.0058647,54.0085076],[14.010999,54.0050274],[14.0154616,54.0004179],[14.018303,53.9953842],[14.019414,53.9901211],[14.0187522,53.984832],[14.0161539,53.9760286],[14.0139549,53.9712412],[14.010304,53.9667714],[14.0053248,53.9627699],[13.9975108,53.9575634],[14,53.9567393],[14,53.9567393],[13.9975108,53.9575634],[13.9975108,53.9575634],[13.9879399,53.9607323],[13.9591396,53.9404694],[13.9709507,53.9806338],[13.9183875,53.9455917],[13.9161476,53.9541468],[13.914971,53.9586406],[13.9147191,53.9596028],[13.914719,53.9596031],[13.9138761,53.9628224],[13.9125412,53.9679208],[13.9118675,53.9704941],[13.9100335,53.9774987],[13.9085975,53.9829832],[13.9077396,53.9862598],[13.9076578,53.9865724],[13.9054065,53.9951707],[13.9053629,53.9953373],[13.9051407,53.9961862],[13.9053629,53.9953373],[13.9054065,53.9951707],[13.9076578,53.9865724],[13.9077396,53.9862598],[13.9085378,53.9832114],[13.9085975,53.9829832],[13.9100335,53.9774987],[13.9118675,53.9704941],[13.9125412,53.9679208],[13.9138761,53.9628224],[13.914719,53.9596031],[13.9147191,53.9596028],[13.914971,53.9586406],[13.9161476,53.9541468],[13.9183875,53.9455917],[13.920012,53.9393872],[13.9209367,53.9358554],[13.9209367,53.9358553],[13.9228239,53.9286477],[13.9274716,53.9108963],[13.8922783,53.8874469],[13.8223382,53.8644834],[13.8237845,53.863398],[13.8187382,53.8620524],[13.8187382,53.877992],[13.9087391,53.9337151],[13.9045591,53.9363727],[13.8367524,53.9794853],[13.9045591,53.9363727],[13.85,53.9],[13.7,53.86],[13.55,53.87],[13.4,53.88],[13.225,53.9],[13.05,53.92],[13.3,53.75],[13.6,53.6],[13.7,53.4],[13.2,53.15],[12.8,53.15],[12.6333333,53.2],[12.4666667,53.25],[12.3,53.3],[12.1,53.25],[11.9,53.2],[11.75,53.15],[11.6,53.1],[11.38,53.1],[11.3136364,53.1],[11.3,53.1],[11.15,52.98],[11,52.85],[10.85,52.7],[10.85,52.5],[10.95,52.35],[10.75,52.1],[10.6,51.95],[10.6,51.8]],[[13.8187382,53.8526633],[14,53.7718248],[14.0383404,53.7547259],[14,53.7718248],[13.8187382,53.8526633]],[[13.8403384,53.8509748],[14,53.8629569],[14.200342,53.877992],[14,53.8629569],[13.8403384,53.8509748]],[[13.9421599,53.831532],[14.1869557,53.8498222],[14.3006158,53.7965108],[14.3006153,53.7965104],[14.3006148,53.79651],[14.3006145,53.7965097],[14.3006138,53.7965092],[14.3006122,53.7965079],[14.2855791,53.7846394],[14.2794067,53.7806412],[14.2794048,53.78064],[14.2794041,53.7806395],[14.2794036,53.7806392],[14.2794031,53.7806389],[14.2794025,53.7806385],[14.2740206,53.7829937],[14.265571,53.7853024],[14.256504,53.7865503],[14.2471971,53.7866853],[14.2380378,53.7857019],[14.2294076,53.783641],[14.178403,53.7676939],[14.0570612,53.7801848],[13.9421599,53.831532]],[[14.0491405,53.9404694],[14.0524805,54],[14.0527405,54.0046353],[14.0524805,54],[14.0491405,53.9404694]],[[14.1132529,54],[14.1132529,54],[14.2111421,53.9387808],[14.1132529,54]],[[14.4055441,53.921895],[14.6665072,54],[14.6665072,54],[14.4055441,53.921895]],[[15.8599586,54.249479],[16,54.2669952],[16,54.2669952],[16.1299613,54.2832505],[16,54.2669952],[16,54.2669952],[15.8599586,54.249479]],[[17.8867789,54.8235953],[18,54.8276117],[18.3151832,54.8387925],[18,54.8276117],[17.8867789,54.8235953]]]}}
