{"type":"Feature","properties":{"family":"prussia","name":"Kingdom of Prussia, 1815"},"geometry":{"type":"Polygon","coordinates":[[[10,51.45],[10.05,51.3],[10.175,51.225],[10.3,51.15],[10.7,51.1],[11,51.1],[11.4,51.075],[11.6,51.0625],[11.8,51.05],[12.25,50.95],[12.2,51.15],[12.28,51.32],[12.42,51.45],[12.6,51.42],[12.9,51.4],[13.2,51.45],[13.5,51.4],[13.9,51.38],[14.2,51.35],[14.5,51.3],[14.625,51.225],[14.75,51.15],[14.8,51.015],[14.8411148,50.9039899],[14.9563496,51.0648223],[14.8411148,50.9039899],[14.8087481,50.8588158],[14.9815498,50.8588158],[14.99595,50.9584419],[14.9599496,50.9922134],[15.00315,51.0209193],[15.1075511,50.9803934],[15.1435514,51.0107878],[15.1687517,50.9787048],[15.25,50.9582893],[15.2695527,50.9533762],[15.2551526,50.8993417],[15.3415534,50.8317986],[15.3559536,50.7760756],[15.4423544,50.7997156],[15.6727567,50.7338611],[15.7915579,50.742304],[15.8491585,50.6747609],[15.9715597,50.6781381],[16.00036,50.6359236],[15.9823598,50.6038407],[16.0867609,50.6460551],[16.1767618,50.6241036],[16.2307623,50.6612523],[16.3315633,50.6443665],[16.4251643,50.5683806],[16.3927639,50.5599377],[16.3927639,50.5211004],[16.3531635,50.4923946],[16.2883629,50.4923946],[16.2127621,50.4518687],[16.198362,50.4062771],[16.2631626,50.3640627],[16.3423634,50.3691284],[16.3711637,50.3184711],[16.4395644,50.2982082],[16.5367654,50.207025],[16.5655657,50.1428591],[16.6591666,50.0922018],[16.702367,50.0955789],[16.8175682,50.1867621],[16.9543695,50.2137793],[16.9615696,50.2323537],[17.0155702,50.2188451],[16.9867699,50.2846996],[16.9255693,50.3184711],[16.8643686,50.4079657],[16.8931689,50.4332944],[17.1883719,50.3792599],[17.2099721,50.3370455],[17.3359734,50.3134054],[17.3179732,50.3083397],[17.3539735,50.2526166],[17.3863739,50.2728795],[17.4295743,50.239108],[17.4691747,50.2661252],[17.6311763,50.2627481],[17.7067771,50.3117168],[17.7355774,50.2897653],[17.7175772,50.2526166],[17.7463775,50.2171565],[17.6743767,50.1749421],[17.5879759,50.163122],[17.6311763,50.1057104],[17.7319773,50.0955789],[17.7211772,50.075316],[17.7643776,50.0246587],[17.8399784,49.9740014],[18.0307803,50.0027072],[18.00198,50.0466102],[18.0919809,50.0179044],[18.099181,49.9891986],[18.2575826,49.9452955],[18.289534,49.9123249],[18.3,49.92],[18.3314892,49.92],[18.3691837,49.9317869],[18.4062798,49.92],[18.55,49.92],[19,49.95],[19.2,50.04],[19.15,50.2],[19.1,50.35],[18.8,50.65],[18.6,50.8],[18.35,50.95],[18.1,51.15],[18,51.28],[17.95,51.55],[17.95,51.8],[17.85,52.05],[17.825,52.175],[17.8,52.3],[18,52.5],[18.3,52.6],[18.45,52.675],[18.6,52.75],[18.6653465,52.8371287],[18.7,52.85],[18.7777778,52.9666667],[18.875,53.025],[19,53.1],[19.175,53.15],[19.35,53.2],[19.7,53.28],[19.8666667,53.2533333],[20.0333333,53.2266667],[20.2,53.2],[20.6,53.2],[21,53.25],[21.1666667,53.2766667],[21.3333333,53.3033333],[21.5,53.33],[21.9,53.45],[22.125,53.525],[22.35,53.6],[22.65,53.75],[22.75,54],[22.65,54.3],[22.75,54.6],[22.85,54.85],[22.85,55.07],[22.5,55.12],[22.3,55.21],[22.1,55.3],[21.3,55.7],[21.05,55.95],[21.0483966,55.9548103],[21.0440104,55.8738903],[21.0483966,55.9548103],[21.0498536,55.9816911],[21.0498539,55.9816961],[21.0417366,55.9815174],[21.0323738,55.9802372],[21.0236527,55.9779402],[21.0159222,55.9747184],[21.0094916,55.9707006],[21.0046177,55.9660478],[21.0022659,55.9622054],[21.002266,55.9622078],[21.0022661,55.9622089],[21.0022661,55.96221],[21.0063403,56.0699353],[20.9363028,56.2160105],[20.936277,56.2160644],[20.9112997,56.2133596],[20.824829,56.1937933],[20.7467943,56.1653241],[20.6801159,56.1290248],[20.627267,56.0862599],[20.5901812,56.0386327],[20.570185,55.9879224],[20.5686359,55.9518482],[20.567956,55.9360167],[20.5949114,55.7268474],[20.6051347,55.6899828],[20.6069379,55.5403311],[20.5704576,55.4773692],[20.2941938,55.2430794],[20.2296677,55.2185059],[19.9658256,55.2216139],[19.8768032,55.2177276],[19.7906881,55.2043045],[19.7106049,55.1818322],[19.6394477,55.1511256],[19.5797707,55.1132967],[19.5336951,55.0697118],[19.5028346,55.0219408],[19.4676204,54.9458207],[19.4520242,54.8813416],[19.4637395,54.8165983],[19.471015,54.7982487],[19.4319423,54.7444857],[19.3143331,54.66902],[19.2806762,54.6576023],[19.2700723,54.7038602],[19.2431447,54.7512349],[19.2014932,54.7949241],[19.1465098,54.833421],[19.0800615,54.8653938],[18.5782029,55.0623426],[18.501678,55.0864328],[18.4186271,55.1019669],[18.3319522,55.1084011],[18.244689,55.1055098],[17.2591816,55.0154432],[17.1700887,55.0016288],[17.0874998,54.9780455],[16.7380259,54.8512299],[16.3139634,54.7681851],[16.2246486,54.7441216],[16.1461889,54.7097307],[16.0820954,54.6665651],[15.9171062,54.5274649],[15.9153578,54.5269099],[15.9025087,54.5218518],[15.82544,54.5185244],[15.6978377,54.5022099],[14.4002086,54.2108018],[14.2231201,54.3161134],[14.2265295,54.3644752],[14.2092783,54.4215412],[14.1714084,54.4751399],[14.1252657,54.513849],[14.1312539,54.5275547],[14.135903,54.5807515],[14.1224141,54.6334428],[14.0912465,54.6835685],[14.0435617,54.7291613],[13.981186,54.7684259],[13.9065453,54.7998114],[13.8476826,54.8154259],[13.7994157,54.8555213],[13.7323838,54.8925679],[13.6538581,54.9212345],[13.566955,54.9403764],[13.5126321,54.9488716],[13.4151042,54.9578771],[13.3164603,54.9548944],[13.2211475,54.9400583],[13.0619196,54.9043762],[12.9974739,54.8855781],[12.9918385,54.8706209],[12.9564183,54.8230607],[12.9059805,54.7802517],[12.8424046,54.7437515],[12.768029,54.7148841],[12.6855653,54.6946945],[12.5980024,54.6839122],[12.5496005,54.6833872],[12.5285034,54.6656916],[12.4325451,54.5995372],[12.4335292,54.5785069],[12.4267812,54.5248202],[12.4018441,54.4729762],[12.359772,54.4250279],[12.3022816,54.3828671],[12.2316771,54.3481517],[12.1507571,54.3222433],[12.0627043,54.3061557],[11.9709656,54.3005175],[11.9477524,54.3017891],[11.9559367,54.276483],[11.9752853,54.2486612],[11.9899452,54.2082819],[11.9913244,54.206358],[11.9914079,54.2063714],[12.0750345,54.2197878],[12.084165,54.2206779],[12.0934148,54.2204828],[12.0985325,54.219759],[12.151617,54.2593721],[12.1564941,54.262474],[12.1621384,54.2650944],[12.3084659,54.3225782],[12.3601614,54.3724836],[12.3601615,54.3724837],[12.3566793,54.3682941],[12.354451,54.3636081],[12.3537039,54.3587649],[12.3537118,54.3517142],[12.354623,54.346406],[12.3573085,54.3413057],[12.3616628,54.3366128],[12.3675151,54.3325106],[12.3710561,54.3308443],[12.385221,54.3445083],[12.3894203,54.3485591],[12.4,54.3587647],[12.4,54.3517139],[12.396724,54.3524822],[12.3935457,54.3241582],[12.4082596,54.3207077],[12.4114367,54.320165],[12.392059,54.3024365],[12.3876886,54.2973012],[12.3852788,54.2917426],[12.3849376,54.2860119],[12.3866798,54.2803683],[12.3939626,54.2658336],[12.4459875,54.258025],[12.4489416,54.2575816],[12.4489416,54.2575816],[12.4579246,54.2562333],[12.4489416,54.2575816],[12.4489416,54.2575816],[12.4459875,54.258025],[12.4459875,54.258025],[12.45,54.25],[12.6,54.1],[13.05,53.92],[13.3,53.75],[13.6,53.6],[13.7,53.4],[13.2,53.15],[12.8,53.15],[12.6333333,53.2],[12.4666667,53.25],[12.3,53.3],[12.1,53.25],[11.9,53.2],[11.75,53.15],[11.6,53.1],[11.38,53.1],[11.3136364,53.1],[11.3,53.1],[11.15,52.98],[11,52.85],[10.85,52.7],[10.85,52.5],[10.95,52.35],[10.75,52.1],[10.6,51.95],[10.55,51.65],[10.3666667,51.5833333],[10.1833333,51.5166667],[10,51.45]],[[18.6653465,52.8371287],[18.525,52.785],[18.6653465,52.8371287],[18.6653465,52.8371287]],[[12.4579246,54.2562333],[12.4450211,54.2599578],[12.4111241,54.2697419],[12.4310355,54.287929],[12.4450211,54.2599578],[12.4579246,54.2562333]],[[13.8044873,54],[13.8367524,53.9794853],[13.9045591,53.9363727],[13.9087391,53.9337151],[13.9045591,53.9363727],[13.8367524,53.9794853],[13.8044873,54]],[[13.8187382,53.8526633],[14,53.7718248],[14.0383404,53.7547259],[14,53.7718248],[13.8187382,53.8526633]],[[13.8403384,53.8509748],[14,53.8629569],[14.200342,53.877992],[14,53.8629569],[13.8403384,53.8509748]],[[13.9879399,53.9607323],[13.9975108,53.9575634],[13.9975108,53.9575634],[14,53.9567393],[14,53.9567393],[13.9975108,53.9575634],[13.9975108,53.9575634],[13.9879399,53.9607323]],[[14.0491405,53.9404694],[14.0524805,54],[14.0527405,54.0046353],[14.0524805,54],[14.0491405,53.9404694]],[[14.1132529,54],[14.1132529,54],[14.2111421,53.9387808],[14.1132529,54]],[[14.4055441,53.921895],[14.6665072,54],[14.6665072,54],[14.4055441,53.921895]],[[15.8599586,54.249479],[16,54.2669952],[16,54.2669952],[16.1299613,54.2832505],[16,54.2669952],[16,54.2669952],[15.8599586,54.249479]],[[17.8867789,54.8235953],[18,54.8276117],[18.3151832,54.8387925],[18,54.8276117],[17.8867789,54.8235953]]]}}
