{"type":"Feature","properties":{"family":"prussia","name":"Prussian East Frisia, 1789 – 1807"},"geometry":{"type":"Polygon","coordinates":[[[6.3120518,53.7737162],[6.3792777,53.7701118],[6.4650646,53.7604762],[6.5461095,53.7413022],[6.6194015,53.7133041],[6.6226791,53.71144],[6.7906483,53.7196759],[6.8849983,53.7183994],[6.9768361,53.7055831],[7.0621579,53.6817865],[7.131953,53.6504305],[7.0552648,53.6070636],[7.049461,53.6030557],[7.0450861,53.5984532],[7.0423077,53.593433],[7.0412317,53.5881875],[7.0418988,53.5829182],[7.0442829,53.5778271],[7.0482919,53.5731095],[7.0753615,53.5477555],[7.068097,53.5483928],[7.0590647,53.5486439],[7.0501279,53.547826],[7.0416418,53.5459717],[7.0339432,53.5431545],[7.0273377,53.5394865],[7.0220874,53.5351132],[7.0184001,53.5302082],[6.9788637,53.4592737],[6.9768276,53.4536889],[6.9768129,53.4479741],[6.9946137,53.3467247],[6.9946137,53.3467247],[6.9946137,53.3467247],[7.0298256,53.333208],[7.0829778,53.3358287],[7.0917692,53.3357473],[7.1003672,53.3346501],[7.1084455,53.3325785],[7.1156978,53.3296114],[7.1218491,53.3258611],[7.1266665,53.3214699],[7.1299678,53.3166044],[7.1303299,53.3154802],[7.2036085,53.3112723],[7.172807,53.2772628],[7.2084022,53.2704736],[7.2161623,53.2684633],[7.1946719,53.2447755],[7.1730717,53.1451495],[7.175796,53.1],[7.3,53.1],[7.45,53.125],[7.6,53.15],[7.75,53.3],[7.7666667,53.4666667],[7.7833333,53.6333333],[7.7906908,53.7069083],[7.8,53.7078239],[7.8273499,53.7105137],[7.8355572,53.7113208],[7.8355572,53.7113208],[7.9506795,53.7226429],[7.8355572,53.7113208],[7.8336896,53.7158665],[7.8298451,53.7207266],[7.8244502,53.7250402],[7.8177179,53.7286362],[7.8099148,53.7313724],[7.8013498,53.7331402],[7.7923624,53.7338696],[7.7833708,53.7335341],[7.7833453,53.7335331],[7.7833408,53.733533],[7.9432326,53.7492586],[7.9540609,53.7495434],[7.9646979,53.7483077],[8.0439416,53.7331017],[8.052896,53.7307223],[8.0607821,53.7272636],[8.0672339,53.7228862],[8.0719527,53.7177932],[8.0747202,53.7122208],[8.0941367,53.648261],[8.2017052,53.5709448],[8.2041632,53.5687973],[8.227167,53.6198756],[8.2302459,53.6247554],[8.23485,53.6291923],[8.2390745,53.631907],[8.2390745,53.6319072],[8.2454984,53.6899525],[8.2434493,53.7291843],[8.2440195,53.7311329],[8.2380765,53.7372516],[8.2379688,53.7373624],[8.2383032,53.736951],[8.240532,53.7318158],[8.2410205,53.7265223],[8.2397505,53.7212748],[8.2367717,53.7162762],[8.2321997,53.7117191],[8.2262112,53.7077796],[8.2190377,53.7046094],[8.210956,53.702331],[8.2022777,53.701032],[8.1267231,53.694282],[8.1179123,53.6940038],[8.1091752,53.6947363],[8.1008392,53.6964523],[8.0932166,53.6990873],[8.0865932,53.7025427],[8.0812176,53.706689],[8.0772915,53.7113707],[8.0749627,53.7164122],[8.0743192,53.7216245],[8.0753857,53.726812],[8.0781228,53.7317798],[8.0824283,53.7363416],[8.0881409,53.7403259],[8.1205419,53.7589086],[8.1276941,53.7622559],[8.1358313,53.7646938],[8.1446276,53.7661246],[8.1537306,53.766491],[8.1627756,53.7657784],[8.1714,53.7640153],[8.2146202,53.7521886],[8.2223451,53.7494985],[8.229031,53.7459666],[8.2314887,53.7440341],[8.2314317,53.7440928],[8.2071938,53.7690474],[8.1788433,53.817895],[8.1667094,53.8690467],[8.1712967,53.9206323],[8.1766984,53.9334029],[8.128617,53.9699727],[8.0565841,54.0059997],[7.9734079,54.032526],[7.8826626,54.048406],[7.7882671,54.0529527],[7.6771076,54.0514636],[7.5938415,54.0457912],[7.5137634,54.031279],[7.5132755,54.0311289],[7.4294585,54.0261036],[7.385995,54.0210059],[7.3024926,54.0061993],[7.2253435,53.98233],[7.1573659,53.9502739],[7.125889,53.9284587],[7.0761883,53.92157],[6.9885233,53.8969707],[6.9160713,53.8639547],[6.8598951,53.871796],[6.7713394,53.8737531],[6.6300402,53.8686542],[6.5430066,53.860413],[6.460331,53.8424241],[6.3851296,53.8153675],[6.3202224,53.7802637],[6.3120518,53.7737162]],[[7.6626766,53.7614802],[7.7981143,53.7811431],[7.7983223,53.7832232],[7.8,53.7832457],[7.8138781,53.7834317],[7.8,53.7814168],[7.7981143,53.7811431],[7.6626766,53.7614802]],[[7.7906908,53.7069083],[7.7906908,53.7069083],[7.8,53.7078239],[7.8273499,53.7105137],[7.8355572,53.7113208],[7.8273499,53.7105137],[7.8,53.7078239],[7.7906908,53.7069083]],[[7.8237997,53.8055246],[7.8250705,53.8062466],[7.8466746,53.816383],[7.8536768,53.8190883],[7.8613988,53.8209929],[7.8695809,53.8220328],[7.877948,53.8221731],[7.8862185,53.8214091],[7.9654651,53.8095821],[7.9738938,53.8077853],[7.9815663,53.8050508],[7.988187,53.801484],[7.9935012,53.7972224],[7.9973044,53.79243],[7.9994508,53.7872915],[7.9998583,53.7820048],[7.9985117,53.7767734],[7.9954637,53.7717984],[7.9908319,53.7672713],[7.984795,53.7633661],[7.9775853,53.7602329],[7.9694802,53.7579922],[7.960791,53.75673],[7.8816388,53.7499801],[7.873357,53.7497215],[7.865132,53.7503538],[7.8572353,53.7518561],[7.8499278,53.7541789],[7.8283341,53.7626174],[7.8279124,53.7628182],[7.832426,53.7652875],[7.8376224,53.7694925],[7.8413561,53.774209],[7.8434879,53.7792615],[7.8439376,53.7844619],[7.842688,53.7896165],[7.8397849,53.7945331],[7.8353361,53.7990286],[7.829507,53.8029354],[7.8237997,53.8055246]]]}}
