{"type":"Feature","properties":{"family":"prussia","name":"Prussian Cleves and Mark, 1797 – 1802"},"geometry":{"type":"Polygon","coordinates":[[[6.1709091,51.8647273],[6.22,51.85],[6.35,51.8],[6.48,51.73],[6.6,51.66],[6.62,51.6],[6.7,51.52],[6.74,51.45],[6.7065574,51.3914754],[6.85,51.38],[6.99,51.38],[7.1,51.38],[7.35,51.25],[7.55,51.12],[7.8,51.2],[7.95,51.4],[8.2,51.5],[8.2647059,51.5970588],[8.3,51.65],[8,51.7],[7.7,51.68],[7.3,51.62],[6.95,51.65],[6.85,51.7],[6.75,51.75],[6.575,51.815],[6.4736345,51.85265],[6.4638646,51.8483221],[6.3774638,51.8601422],[6.3810638,51.8280592],[6.3450635,51.8213049],[6.2658627,51.8668965],[6.2511671,51.8700778],[6.175,51.865],[6.1709091,51.8647273]]]}}
