{"type":"Feature","properties":{"family":"prussia","name":"Kingdom of Prussia, 1806 – 1807"},"geometry":{"type":"Polygon","coordinates":[[[6.85,51.7],[6.95,51.5],[6.99,51.38],[7.1,51.38],[7.35,51.25],[7.55,51.12],[7.8,51.2],[7.95,51.4],[8.2,51.5],[8.2647059,51.5970588],[8.3,51.65],[8.4090909,51.5681818],[8.5,51.5],[8.5272727,51.4954545],[8.8,51.45],[8.975,51.475],[9.15,51.5],[9.2,51.75],[9.0333333,51.8166667],[8.8666667,51.8833333],[8.7,51.95],[8.825,52.025],[8.95,52.1],[9.0357143,52.1642857],[9.05,52.15],[9.15,52.05],[9.35,51.95],[9.4,51.825],[9.45,51.7],[9.55,51.55],[9.7,51.35],[9.9806452,51.3967742],[10,51.3],[10.175,51.225],[10.35,51.15],[10.475,51.1],[10.6,51.05],[10.9,50.88],[11.15,50.9],[11.2,51.05],[10.75,51.2],[10.95,51.4],[11,51.7],[11.2,51.62],[11.45,51.6],[11.6,51.45],[11.85,51.42],[12.05,51.4],[12.15,51.5],[12.05,51.6],[11.85,51.6],[11.7,51.72],[11.8,51.85],[11.9273973,51.960411],[11.95,51.98],[12.1,52.05],[12.25,52.1],[12.4,52.2],[12.6,52.2],[12.9,52.12],[13.1,52.05],[13.3,52.1],[13.6,52.15],[14.3,52.15],[14.6,52.1],[14.75,52],[15.1,51.95],[15.25,51.7],[15.3,51.45],[15.25,51.15],[15.25,50.9582893],[15.2695527,50.9533762],[15.2551526,50.8993417],[15.3415534,50.8317986],[15.3559536,50.7760756],[15.4423544,50.7997156],[15.6727567,50.7338611],[15.7915579,50.742304],[15.8491585,50.6747609],[15.9715597,50.6781381],[16.00036,50.6359236],[15.9823598,50.6038407],[16.0867609,50.6460551],[16.1767618,50.6241036],[16.2307623,50.6612523],[16.3315633,50.6443665],[16.4251643,50.5683806],[16.3927639,50.5599377],[16.3927639,50.5211004],[16.3531635,50.4923946],[16.2883629,50.4923946],[16.2127621,50.4518687],[16.198362,50.4062771],[16.2631626,50.3640627],[16.3423634,50.3691284],[16.3711637,50.3184711],[16.4395644,50.2982082],[16.5367654,50.207025],[16.5655657,50.1428591],[16.6591666,50.0922018],[16.702367,50.0955789],[16.8175682,50.1867621],[16.9543695,50.2137793],[16.9615696,50.2323537],[17.0155702,50.2188451],[16.9867699,50.2846996],[16.9255693,50.3184711],[16.8643686,50.4079657],[16.8931689,50.4332944],[17.1883719,50.3792599],[17.2099721,50.3370455],[17.3359734,50.3134054],[17.3179732,50.3083397],[17.3539735,50.2526166],[17.3863739,50.2728795],[17.4295743,50.239108],[17.4691747,50.2661252],[17.6311763,50.2627481],[17.7067771,50.3117168],[17.7355774,50.2897653],[17.7175772,50.2526166],[17.7463775,50.2171565],[17.6743767,50.1749421],[17.5879759,50.163122],[17.6311763,50.1057104],[17.7319773,50.0955789],[17.7211772,50.075316],[17.7643776,50.0246587],[17.8399784,49.9740014],[18.0307803,50.0027072],[18.00198,50.0466102],[18.0919809,50.0179044],[18.099181,49.9891986],[18.2575826,49.9452955],[18.289534,49.9123249],[18.3,49.92],[18.3314892,49.92],[18.3691837,49.9317869],[18.4062798,49.92],[18.55,49.92],[18.6,49.92],[19,49.95],[19.2,50.04],[19.3,50.3],[19.5,50.45],[19.66,50.54],[19.82,50.63],[19.88,51.09],[19.88,51.35],[19.9916667,51.5175],[20.0055556,51.53],[20.22,51.53],[20.58,51.62],[20.7833333,51.6733333],[20.9866667,51.7266667],[21.19,51.78],[21.3,51.87],[21.15,52.05],[21.05,52.25],[21,52.45],[21.05,52.52],[21.45,52.6],[21.65,52.65],[21.85,52.7],[22.32,52.67],[22.49,52.535],[22.5625995,52.4773475],[22.6418398,52.4144214],[22.66,52.4],[23.15,52.35],[23.2,52.4],[23.3,52.575],[23.4,52.75],[23.55,53.1],[23.7,53.4],[23.83,53.68],[23.97,54.02],[24.01,54.21],[24.05,54.4],[23.95,54.63],[23.925,54.765],[23.9,54.9],[23.7,54.95],[23.5,55],[23.3,55.05],[23.075,55.06],[22.85,55.07],[22.5,55.12],[22.3,55.21],[22.1,55.3],[21.3,55.7],[21.05,55.95],[21.0483966,55.9548103],[21.0440104,55.8738903],[21.0483966,55.9548103],[21.0498539,55.9816961],[21.0498539,55.9816974],[21.049854,55.9816982],[21.049854,55.981699],[21.0498541,55.9816998],[21.050846,56],[21.0498541,55.9816998],[21.049854,55.981699],[21.049854,55.9816982],[21.0498539,55.9816974],[21.0498539,55.9816961],[21.0498536,55.9816911],[21.04174,55.9815121],[21.0323765,55.9802317],[21.0236546,55.9779345],[21.0159233,55.9747126],[21.009492,55.9706949],[21.0046176,55.9660423],[21.0022658,55.9622006],[21.0022659,55.9622054],[21.002266,55.9622078],[21.0022661,55.9622089],[21.0022661,55.96221],[21.0063403,56.0699353],[20.9363028,56.2160105],[20.9113428,56.2133073],[20.8248638,56.1937404],[20.74682,56.1652716],[20.6801327,56.1289737],[20.6272755,56.0862114],[20.5901828,56.0385879],[20.5701816,55.9878826],[20.5679495,55.9359834],[20.5949062,55.7268107],[20.6051289,55.6899514],[20.6069324,55.5402808],[20.5704456,55.4773082],[20.2941816,55.2430224],[20.2296953,55.2184647],[19.9658853,55.2215749],[19.8768523,55.2176892],[19.7907251,55.2042661],[19.7106297,55.181793],[19.6394611,55.1510851],[19.5797747,55.1132547],[19.5336926,55.0696684],[19.5028293,55.0218965],[19.4676141,54.9457753],[19.4520216,54.8813136],[19.4637328,54.8165894],[19.4710172,54.7982176],[19.4319325,54.7444386],[19.3143291,54.6689781],[19.2736417,54.6551737],[19.2487631,54.7022759],[19.1811734,54.7953808],[19.1338883,54.844939],[19.0695689,54.8876942],[18.9910304,54.9217423],[18.5538356,55.0711893],[18.470051,55.0935052],[18.3801967,55.1059664],[18.2877915,55.108084],[17.8565383,55.0927976],[17.7813579,55.0864646],[17.2271634,55.0116993],[17.1549402,54.9981306],[17.0875296,54.9780296],[16.7583348,54.8586256],[16.464025,54.8196476],[16.3754073,54.8022163],[16.2946811,54.7749129],[16.2251122,54.7388481],[15.9805263,54.5828143],[15.925026,54.5389964],[15.9110157,54.5251867],[15.9025446,54.5218518],[15.8254833,54.5185255],[15.6978829,54.502213],[14.4017222,54.2111604],[14.3304279,54.2542909],[14.2601376,54.2889924],[14.2362455,54.296631],[14.2363024,54.2965882],[14.2363235,54.2965723],[14.2363366,54.2965624],[14.2363534,54.2965497],[14.2363707,54.2965366],[14.36345,54.2007016],[14.412335,54.1547957],[14.4445039,54.1040946],[14.4587179,54.0506499],[14.4544735,53.9966162],[14.439845,53.9624558],[14.3977385,53.9498551],[14.2336344,53.9641101],[14.0502028,54.0788565],[14.0405141,54.0834489],[14.0238566,54.0893533],[14.0238846,54.0893409],[14.0238949,54.0893363],[14.0239013,54.0893335],[14.0239095,54.0893298],[14.0239179,54.0893261],[14.0313461,54.0860305],[14.0375446,54.081867],[14.0421653,54.0770496],[14.0450146,54.0717808],[14.0459736,54.0662818],[14.0459468,54.0420927],[14.0167402,54.0603583],[14,54.0662909],[14,54.0351451],[14.0327071,54.0162244],[14.0325444,54.0161076],[14.0256195,54.0127533],[14.0177174,54.0102542],[14.0091396,54.0087054],[14.0058647,54.0085076],[14.010999,54.0050274],[14.0154616,54.0004179],[14.018303,53.9953842],[14.019414,53.9901211],[14.0187522,53.984832],[14.0161539,53.9760286],[14.0139549,53.9712412],[14.010304,53.9667714],[14.0053248,53.9627699],[13.9975108,53.9575634],[14,53.9567393],[14,53.9567393],[13.9975108,53.9575634],[13.9975108,53.9575634],[13.9879399,53.9607323],[13.9591396,53.9404694],[13.9709507,53.9806338],[13.9183875,53.9455917],[13.9161476,53.9541468],[13.914971,53.9586406],[13.9147191,53.9596028],[13.914719,53.9596031],[13.9138761,53.9628224],[13.9118675,53.9704941],[13.9100335,53.9774987],[13.9085975,53.9829832],[13.9085378,53.9832114],[13.9076578,53.9865724],[13.9051407,53.9961862],[13.9051407,53.9961863],[13.9051407,53.9961863],[13.9051406,53.9961863],[13.9051407,53.9961863],[13.9051407,53.9961863],[13.9051407,53.9961862],[13.9053629,53.9953373],[13.9051407,53.9961862],[13.9051407,53.9961863],[13.9051407,53.9961863],[13.9051391,53.9961924],[13.9051407,53.9961863],[13.9051407,53.9961863],[13.9051407,53.9961862],[13.9076578,53.9865724],[13.9077396,53.9862598],[13.9076578,53.9865724],[13.9054065,53.9951707],[13.9076578,53.9865724],[13.9085378,53.9832114],[13.9100335,53.9774987],[13.9118675,53.9704941],[13.9125412,53.9679208],[13.9138761,53.9628224],[13.914719,53.9596031],[13.9147191,53.9596028],[13.914971,53.9586406],[13.9161476,53.9541468],[13.9183875,53.9455917],[13.920012,53.9393872],[13.9209367,53.9358554],[13.9209367,53.9358553],[13.9228239,53.9286477],[13.9274716,53.9108963],[13.8922783,53.8874469],[13.8223382,53.8644834],[13.8237845,53.863398],[13.8187382,53.8620524],[13.8187382,53.877992],[13.9087391,53.9337151],[13.9045591,53.9363727],[13.8367524,53.9794853],[13.9045591,53.9363727],[13.85,53.9],[13.7,53.86],[13.55,53.87],[13.4,53.88],[13.225,53.9],[13.05,53.92],[13.3,53.75],[13.6,53.6],[13.7,53.4],[13.2,53.15],[12.8,53.15],[12.6333333,53.2],[12.4666667,53.25],[12.3,53.3],[12.1,53.25],[11.9,53.2],[11.75,53.15],[11.6,53.1],[11.38,53.1],[11.3136364,53.1],[11.2856015,53.1065614],[11.1,53.15],[10.9,53.3],[10.72,53.38],[10.95,53.45],[10.95,53.72],[10.7493631,53.8484076],[10.7,53.88],[10.62,53.82],[10.5,53.72],[10.35,53.6],[10.202381,53.4819048],[10.2,53.48],[10,53.515],[9.8246543,53.5456855],[9.8334983,53.5436537],[9.7131637,53.5662306],[9.6917584,53.5762165],[9.6916653,53.5762379],[9.6570966,53.5841796],[9.6916653,53.5762379],[9.6917584,53.5762165],[9.7959948,53.5522696],[9.7,53.6066667],[9.65,53.63],[9.5378425,53.6823402],[9.5469826,53.6437564],[9.5098345,53.6610865],[9.5035203,53.6646439],[9.4984638,53.6688505],[9.4948505,53.673552],[9.4928136,53.6785762],[9.4888771,53.6951218],[9.4458568,53.7121875],[9.4410405,53.716493],[9.4046156,53.7490548],[9.4046156,53.7490548],[9.3614641,53.7876299],[9.3547552,53.7936272],[9.3522937,53.7958277],[9.3333548,53.812758],[9.3267975,53.8186198],[9.3333548,53.812758],[9.3522937,53.7958277],[9.3547552,53.7936272],[9.3614641,53.7876299],[9.3687195,53.7811439],[9.4046156,53.7490548],[9.325,53.79],[9.1932207,53.8577722],[9.243115,53.8618422],[9.2495851,53.86237],[9.2532832,53.8626717],[9.2532853,53.8626719],[9.2533316,53.8626756],[9.2533316,53.8626756],[9.2532853,53.8626719],[9.2532832,53.8626717],[9.2495851,53.86237],[9.243115,53.8618422],[9.1932207,53.8577722],[9.1932207,53.8577722],[9.1890569,53.8574326],[9.1817917,53.8568399],[9.1481252,53.8540936],[9.1477522,53.8552435],[9.1477645,53.8603836],[9.1494272,53.8654293],[9.1498722,53.8660816],[8.9999234,53.8692328],[8.8693906,53.8585918],[8.717653,53.9039876],[8.7248195,53.901305],[8.7311568,53.8977762],[8.7362429,53.8936014],[8.739893,53.8889324],[8.7419751,53.883939],[8.7424139,53.8788028],[8.7411942,53.8737105],[8.7383608,53.8688469],[8.7373853,53.8678458],[8.6967654,53.88],[8.6967654,53.88],[8.6232282,53.88],[8.598865,53.869092],[8.575,53.85],[8.5636937,53.8409549],[8.4906849,53.7158886],[8.5636937,53.8409549],[8.5734857,53.8577291],[8.5868887,53.8637299],[8.5869185,53.8637432],[8.5858453,53.8644826],[8.5815234,53.8689725],[8.5787292,53.8738669],[8.5775656,53.8789863],[8.5780758,53.8841433],[8.5802418,53.8891486],[8.5839848,53.8938188],[8.5891678,53.8979825],[8.5956012,53.9014868],[8.5956552,53.9015109],[8.5955182,53.9014624],[8.57115,53.8905488],[8.5620155,53.8850837],[8.5268561,53.8569361],[8.523197,53.8534854],[8.5204617,53.8497491],[8.4475676,53.7246579],[8.4451376,53.717058],[8.4415904,53.6680885],[8.4421734,53.6624843],[8.4447044,53.6570729],[8.464119,53.6277535],[8.4641113,53.6277548],[8.4641109,53.6277549],[8.4533489,53.62963],[8.3760452,53.6532912],[8.3076558,53.6852263],[8.2506728,53.7242829],[8.2440195,53.7311329],[8.2380765,53.7372516],[8.2383223,53.7369491],[8.2405494,53.7318143],[8.2410357,53.7265212],[8.2397632,53.7212743],[8.2367817,53.7162762],[8.2322067,53.7117196],[8.2262152,53.7077804],[8.2190386,53.7046105],[8.210954,53.7023321],[8.202273,53.7010331],[8.1267187,53.6942832],[8.1179055,53.6940046],[8.1091664,53.6947365],[8.1008286,53.6964517],[8.0932045,53.6990858],[8.0865799,53.7025402],[8.0812032,53.7066854],[8.0772764,53.7113661],[8.0749472,53.7164067],[8.0743035,53.7216183],[8.0753701,53.7268052],[8.0781076,53.7317729],[8.0824137,53.7363348],[8.0881272,53.7403196],[8.1205282,53.7589024],[8.127685,53.7622518],[8.1358278,53.7646914],[8.1446303,53.7661233],[8.1537396,53.7664902],[8.1627904,53.7657773],[8.1714199,53.7640133],[8.2146402,53.7521865],[8.2223658,53.7494962],[8.2290518,53.7459643],[8.23444,53.7417273],[8.2314317,53.7440928],[8.2071938,53.7690474],[8.1788433,53.817895],[8.1667094,53.8690467],[8.1712967,53.9206323],[8.1766984,53.9334029],[8.1924993,53.9707591],[8.2295957,54.0175806],[8.2566743,54.0394784],[8.2070489,54.0102379],[8.1544309,53.9619355],[8.1204993,53.9081718],[8.0456183,53.733878],[8.0453396,53.7327336],[8.0529147,53.7307208],[8.0608002,53.727263],[8.0672513,53.7228868],[8.0719693,53.7177954],[8.0747361,53.7122247],[8.0941532,53.6482618],[8.2017243,53.570943],[8.2041597,53.5688152],[8.2271517,53.619868],[8.2302317,53.624749],[8.2348379,53.6291873],[8.2407988,53.633017],[8.2478917,53.6360949],[8.2558517,53.6383061],[8.2643814,53.6395677],[8.3220173,53.6446368],[8.3312449,53.644884],[8.3403669,53.6440209],[8.3490066,53.6420831],[8.3568075,53.6391506],[8.3634481,53.6353444],[8.4129189,53.600525],[8.4929616,53.584196],[8.5029207,53.5691559],[8.4971823,53.5660652],[8.4919298,53.561875],[8.4881387,53.5571622],[8.4879366,53.556695],[8.5308202,53.5479496],[8.5437187,53.5453192],[8.5437187,53.5453192],[8.5518855,53.5436537],[8.5437187,53.5453192],[8.5437187,53.5453192],[8.5308202,53.5479496],[8.5308202,53.5479496],[8.5378174,53.5304566],[8.5378174,53.5304565],[8.506965,53.5015143],[8.5039168,53.4986548],[8.5058779,53.4937647],[8.5094327,53.4879539],[8.5099963,53.4872785],[8.5156194,53.4932475],[8.5288503,53.5072924],[8.5402012,53.5193417],[8.5416487,53.5208782],[8.55,53.5],[8.8,53.2],[8.75,53.05],[8.55,52.95],[8.25,52.75],[7.8,52.75],[7.75,52.5],[7.85,52.35],[7.8538462,52.3346154],[7.6333333,52.5],[7.5,52.6],[7.2,52.6],[7.25,52.4],[7.4894737,52.2631579],[7.45,52.25],[7.3,52.2],[7.45,51.95],[7.4417582,51.9318681],[7.3,51.62],[6.95,51.65],[6.85,51.7]],[[8.26,52.015],[8.314,52.006],[8.3113636,51.9954545],[8.3,52],[8.26,52.015]],[[8.3,52.45],[8.4,52.45],[8.45,52.45],[8.7,52.5],[8.45,52.4],[8.4133333,52.3083333],[8.3,52.45]],[[8.7,52.5],[8.95,52.5],[9,52.5],[9.0272727,52.4590909],[8.9,52.475],[8.7,52.5]],[[9.75,52.05],[9.7722222,52.0833333],[9.95,51.95],[10.0052632,51.8763158],[9.95,51.9],[9.75,52.05]],[[10.1615385,52.3403846],[10.8,52.5],[10.85,52.7],[10.85,52.5],[10.95,52.35],[10.75,52.1],[10.6,51.95],[10.45,52.1],[10.1615385,52.3403846]],[[13.8187382,53.8526633],[14,53.7718248],[14.0383404,53.7547259],[14,53.7718248],[13.8187382,53.8526633]],[[13.8403384,53.8509748],[14,53.8629569],[14.200342,53.877992],[14,53.8629569],[13.8403384,53.8509748]],[[13.9421764,53.8315291],[14.1869535,53.8498183],[14.3006122,53.7965079],[14.2855791,53.7846394],[14.2794067,53.7806412],[14.2740216,53.7829979],[14.2655731,53.7853065],[14.2565072,53.7865543],[14.2472013,53.7866893],[14.2380429,53.7857059],[14.2294131,53.7836451],[14.1784077,53.7676978],[14.0570615,53.7801894],[13.9421764,53.8315291]],[[14.0491405,53.9404694],[14.0524805,54],[14.0527405,54.0046353],[14.0524805,54],[14.0491405,53.9404694]],[[14.1132529,54],[14.1132529,54],[14.2111421,53.9387808],[14.1132529,54]],[[14.4055441,53.921895],[14.6665072,54],[14.6665072,54],[14.4055441,53.921895]],[[15.8599586,54.249479],[16,54.2669952],[16,54.2669952],[16.1299613,54.2832505],[16,54.2669952],[16,54.2669952],[15.8599586,54.249479]],[[17.8867789,54.8235953],[18,54.8276117],[18.3151832,54.8387925],[18,54.8276117],[17.8867789,54.8235953]]]}}
