{"type":"Feature","properties":{"family":"prussia","name":"Kingdom of Prussia, 1807 – 1813"},"geometry":{"type":"Polygon","coordinates":[[[11.38,53.1],[11.5,53.07],[11.75,53],[11.9,52.95],[12.07,52.83],[12.05,52.7],[11.97,52.54],[11.85,52.45],[11.7,52.3],[11.65,52.13],[11.75,52.05],[11.9,51.97],[11.9273973,51.960411],[11.95,51.98],[12.1,52.05],[12.25,52.1],[12.4,52.2],[12.6,52.2],[12.9,52.12],[13.1,52.05],[13.3,52.1],[13.6,52.15],[14.3,52.15],[14.6,52.1],[14.75,52],[15.1,51.95],[15.25,51.7],[15.3,51.45],[15.25,51.15],[15.25,50.9582893],[15.2695527,50.9533762],[15.2551526,50.8993417],[15.3415534,50.8317986],[15.3559536,50.7760756],[15.4423544,50.7997156],[15.6727567,50.7338611],[15.7915579,50.742304],[15.8491585,50.6747609],[15.9715597,50.6781381],[16.00036,50.6359236],[15.9823598,50.6038407],[16.0867609,50.6460551],[16.1767618,50.6241036],[16.2307623,50.6612523],[16.3315633,50.6443665],[16.4251643,50.5683806],[16.3927639,50.5599377],[16.3927639,50.5211004],[16.3531635,50.4923946],[16.2883629,50.4923946],[16.2127621,50.4518687],[16.198362,50.4062771],[16.2631626,50.3640627],[16.3423634,50.3691284],[16.3711637,50.3184711],[16.4395644,50.2982082],[16.5367654,50.207025],[16.5655657,50.1428591],[16.6591666,50.0922018],[16.702367,50.0955789],[16.8175682,50.1867621],[16.9543695,50.2137793],[16.9615696,50.2323537],[17.0155702,50.2188451],[16.9867699,50.2846996],[16.9255693,50.3184711],[16.8643686,50.4079657],[16.8931689,50.4332944],[17.1883719,50.3792599],[17.2099721,50.3370455],[17.3359734,50.3134054],[17.3179732,50.3083397],[17.3539735,50.2526166],[17.3863739,50.2728795],[17.4295743,50.239108],[17.4691747,50.2661252],[17.6311763,50.2627481],[17.7067771,50.3117168],[17.7355774,50.2897653],[17.7175772,50.2526166],[17.7463775,50.2171565],[17.6743767,50.1749421],[17.5879759,50.163122],[17.6311763,50.1057104],[17.7319773,50.0955789],[17.7211772,50.075316],[17.7643776,50.0246587],[17.8399784,49.9740014],[18.0307803,50.0027072],[18.00198,50.0466102],[18.0919809,50.0179044],[18.099181,49.9891986],[18.2575826,49.9452955],[18.289534,49.9123249],[18.3,49.92],[18.3314892,49.92],[18.3691837,49.9317869],[18.4062798,49.92],[18.55,49.92],[18.6,49.92],[19,49.95],[19.2,50.04],[19.15,50.2],[19.1,50.35],[18.8,50.65],[18.6,50.8],[18.35,50.95],[18.1,51.15],[17.85,51.25],[17.6,51.4],[17.425,51.475],[17.25,51.55],[17.075,51.615],[16.9,51.68],[16.5,51.75],[16.2,51.8],[16.075,51.85],[15.95,51.9],[15.75,52.05],[15.6,52.3],[15.75,52.6],[15.9,52.82],[16.1,53.05],[16.3,53.085],[16.5,53.12],[16.9,53.2],[17.0666667,53.2166667],[17.2333333,53.2333333],[17.4,53.25],[17.8,53.25],[18.2,53.35],[18.325,53.385],[18.45,53.42],[18.7,53.45],[19,53.45],[19.35,53.4],[19.475,53.35],[19.6,53.3],[19.7,53.28],[19.8666667,53.2533333],[20.0333333,53.2266667],[20.2,53.2],[20.6,53.2],[21,53.25],[21.1666667,53.2766667],[21.3333333,53.3033333],[21.5,53.33],[21.9,53.45],[22.125,53.525],[22.35,53.6],[22.65,53.75],[22.75,54],[22.65,54.3],[22.75,54.6],[22.85,54.85],[22.85,55.07],[22.5,55.12],[22.3,55.21],[22.1,55.3],[21.3,55.7],[21.05,55.95],[21.0483966,55.9548103],[21.0440104,55.8738903],[21.0483966,55.9548103],[21.0498536,55.9816911],[21.0498539,55.9816961],[21.0498539,55.9816974],[21.049854,55.9816982],[21.049854,55.981699],[21.0417343,55.9815205],[21.0323721,55.9802407],[21.0236514,55.9779439],[21.0159215,55.9747222],[21.0094913,55.9707045],[21.0046178,55.9660515],[21.0022661,55.9622089],[21.0022661,55.96221],[21.0063403,56.0699353],[20.9363028,56.2160105],[20.936277,56.2160644],[20.9362658,56.2160877],[20.936261,56.2160976],[20.9112714,56.2133918],[20.8248061,56.1938268],[20.7467771,56.1653582],[20.6801046,56.1290588],[20.6272611,56.0862932],[20.5901798,56.0386643],[20.570187,55.9879514],[20.5686375,55.9518362],[20.5679598,55.9360422],[20.5949144,55.7268752],[20.6051382,55.6900069],[20.6069412,55.5403659],[20.5704638,55.4774084],[20.2941979,55.243114],[20.229644,55.2185293],[19.9657819,55.2216358],[19.8767668,55.2177492],[19.79066,55.2043264],[19.7105855,55.1818549],[19.6394363,55.1511498],[19.5797661,55.1133226],[19.5336953,55.0697395],[19.5028373,55.0219699],[19.4676237,54.9458507],[19.4520256,54.881362],[19.4637433,54.8166078],[19.4732606,54.7926011],[19.2996463,54.6640637],[19.2735984,54.6552231],[19.2487449,54.7022736],[19.1811517,54.7953804],[19.1338487,54.8449556],[19.0695079,54.8877247],[18.9909464,54.9217823],[18.5537388,55.071225],[18.4562597,55.0961474],[18.3514023,55.107782],[18.2446487,55.1055199],[17.2591449,55.0154469],[17.1700572,55.0016329],[17.0874744,54.9780505],[16.7379987,54.8512313],[16.3139328,54.7681829],[16.2246248,54.7441207],[16.146172,54.7097323],[16.082085,54.6665701],[15.9170909,54.5274636],[15.9153337,54.5269058],[15.9024805,54.521846],[15.8254087,54.5185179],[15.6978028,54.5022016],[14.4016925,54.2111339],[14.3304246,54.2542461],[14.2601322,54.2889472],[14.2363534,54.2965497],[14.2363707,54.2965366],[14.36345,54.2007016],[14.412335,54.1547957],[14.4445039,54.1040946],[14.4587179,54.0506499],[14.4544735,53.9966162],[14.439845,53.9624558],[14.4398447,53.9624551],[14.4398445,53.9624547],[14.4398444,53.9624544],[14.4398442,53.962454],[14.3977339,53.9498521],[14.2336339,53.9641064],[14.0502031,54.0788517],[14.0405134,54.0834444],[14.0239095,54.0893298],[14.0239179,54.0893261],[14.0313461,54.0860305],[14.0375446,54.081867],[14.0421653,54.0770496],[14.0450146,54.0717808],[14.0459736,54.0662818],[14.0459468,54.0420927],[14.0167402,54.0603583],[14,54.0662909],[14,54.0351451],[14.0327071,54.0162244],[14.0325444,54.0161076],[14.0256195,54.0127533],[14.0177174,54.0102542],[14.0091396,54.0087054],[14.0058647,54.0085076],[14.010999,54.0050274],[14.0154616,54.0004179],[14.018303,53.9953842],[14.019414,53.9901211],[14.0187522,53.984832],[14.0161539,53.9760286],[14.0139549,53.9712412],[14.010304,53.9667714],[14.0053248,53.9627699],[13.9975108,53.9575634],[14,53.9567393],[14,53.9567393],[13.9975108,53.9575634],[13.9975108,53.9575634],[13.9879399,53.9607323],[13.9591396,53.9404694],[13.9709507,53.9806338],[13.9183875,53.9455917],[13.9161476,53.9541468],[13.914971,53.9586406],[13.9138761,53.9628224],[13.9125412,53.9679208],[13.9118675,53.9704941],[13.9100335,53.9774987],[13.9085975,53.9829832],[13.9085378,53.9832114],[13.9077396,53.9862598],[13.9076578,53.9865724],[13.9054065,53.9951707],[13.9053629,53.9953373],[13.9051407,53.9961862],[13.9051407,53.9961863],[13.9051407,53.9961863],[13.9051406,53.9961863],[13.9051391,53.9961924],[13.9051406,53.9961863],[13.9051407,53.9961863],[13.9051407,53.9961863],[13.9051407,53.9961862],[13.9053629,53.9953373],[13.9054065,53.9951707],[13.9077396,53.9862598],[13.9085378,53.9832114],[13.9085975,53.9829832],[13.9118675,53.9704941],[13.9125412,53.9679208],[13.9138761,53.9628224],[13.9147191,53.9596028],[13.914971,53.9586406],[13.9161476,53.9541468],[13.9183875,53.9455917],[13.920012,53.9393872],[13.9209367,53.9358554],[13.9209367,53.9358553],[13.9228239,53.9286477],[13.9274716,53.9108963],[13.8922783,53.8874469],[13.8223382,53.8644834],[13.8237845,53.863398],[13.8187382,53.8620524],[13.8187382,53.877992],[13.9087391,53.9337151],[13.9045591,53.9363727],[13.8367524,53.9794853],[13.9045591,53.9363727],[13.85,53.9],[13.7,53.86],[13.55,53.87],[13.4,53.88],[13.225,53.9],[13.05,53.92],[13.3,53.75],[13.6,53.6],[13.7,53.4],[13.2,53.15],[12.8,53.15],[12.6333333,53.2],[12.4666667,53.25],[12.3,53.3],[12.1,53.25],[11.9,53.2],[11.75,53.15],[11.6,53.1],[11.38,53.1]],[[13.9051391,53.9961924],[13.9051406,53.9961863],[13.9051407,53.9961863],[13.9051407,53.9961863],[13.9051407,53.9961862],[13.9053629,53.9953373],[13.9054065,53.9951707],[13.9077396,53.9862598],[13.9085378,53.9832114],[13.9085975,53.9829832],[13.9118675,53.9704941],[13.9125412,53.9679208],[13.9138761,53.9628224],[13.914971,53.9586406],[13.9161476,53.9541468],[13.9183875,53.9455917],[13.920012,53.9393872],[13.9209367,53.9358554],[13.9209367,53.9358553],[13.9228239,53.9286477],[13.9274716,53.9108963],[13.9228239,53.9286477],[13.9209367,53.9358553],[13.9209367,53.9358554],[13.920012,53.9393872],[13.9183875,53.9455917],[13.9161476,53.9541468],[13.914971,53.9586406],[13.914719,53.9596031],[13.9138761,53.9628224],[13.9125412,53.9679208],[13.9118675,53.9704941],[13.9085975,53.9829832],[13.9085378,53.9832114],[13.9077396,53.9862598],[13.9054065,53.9951707],[13.9053629,53.9953373],[13.9051407,53.9961862],[13.9051407,53.9961863],[13.9051407,53.9961863],[13.9051406,53.9961863],[13.9051391,53.9961924]],[[13.8187382,53.8526633],[14,53.7718248],[14.0383404,53.7547259],[14,53.7718248],[13.8187382,53.8526633]],[[13.8403384,53.8509748],[14,53.8629569],[14.200342,53.877992],[14,53.8629569],[13.8403384,53.8509748]],[[13.9421623,53.8315315],[14.1869556,53.8498216],[14.3006153,53.7965104],[14.3006148,53.79651],[14.3006145,53.7965097],[14.3006138,53.7965092],[14.3006122,53.7965079],[14.2855791,53.7846394],[14.2794067,53.7806412],[14.2794048,53.78064],[14.2794041,53.7806395],[14.2794036,53.7806392],[14.2794031,53.7806389],[14.2740206,53.7829943],[14.2655712,53.785303],[14.2565043,53.7865509],[14.2471976,53.786686],[14.2380384,53.7857025],[14.2294083,53.7836416],[14.1784036,53.7676945],[14.0570611,53.7801855],[13.9421623,53.8315315]],[[14.0491405,53.9404694],[14.0524805,54],[14.0527405,54.0046353],[14.0524805,54],[14.0491405,53.9404694]],[[14.1132529,54],[14.1132529,54],[14.2111421,53.9387808],[14.1132529,54]],[[14.4055441,53.921895],[14.6665072,54],[14.6665072,54],[14.4055441,53.921895]],[[15.8599586,54.249479],[16,54.2669952],[16,54.2669952],[16.1299613,54.2832505],[16,54.2669952],[16,54.2669952],[15.8599586,54.249479]],[[17.8867789,54.8235953],[18,54.8276117],[18.3151832,54.8387925],[18,54.8276117],[17.8867789,54.8235953]],[[18.4,54.5],[18.5666667,54.4833333],[18.5732201,54.482678],[18.5722272,54.5101539],[18.5811611,54.5092605],[18.5899629,54.5078444],[18.5981169,54.5054555],[18.6053074,54.5021863],[18.6112566,54.4981632],[18.6157347,54.493542],[18.6185692,54.4885012],[18.6196445,54.4832674],[18.6172872,54.5506069],[18.6155665,54.5573481],[18.5688631,54.6536139],[18.565618,54.6584464],[18.5608339,54.6628303],[18.5546873,54.6666035],[18.5474051,54.6696263],[18.5392564,54.6717871],[18.5305428,54.6730058],[18.5215864,54.6732374],[18.5213175,54.6732142],[18.5202075,54.6880033],[18.519243,54.692411],[18.5170397,54.6966674],[18.5136571,54.7006568],[18.4653061,54.7474093],[18.4688129,54.7516821],[18.6739546,54.6821554],[18.7795498,54.5831714],[18.7850988,54.5789494],[18.7919656,54.5754386],[18.7998845,54.5727748],[18.8085493,54.5710607],[18.8176251,54.5703628],[18.8267613,54.5707079],[18.835605,54.5720828],[18.8438143,54.5744342],[18.8510719,54.5776714],[18.8570971,54.5816691],[18.8616565,54.5862729],[18.8760719,54.6048423],[18.8789968,54.6098864],[18.8801563,54.6151647],[18.8795044,54.6204719],[18.877066,54.6256017],[18.8590904,54.6526252],[18.8560795,54.6562963],[18.852149,54.6596639],[18.7873644,54.7069633],[18.7815279,54.710504],[18.7746799,54.7133774],[18.6872664,54.7432021],[18.7324673,54.7362209],[18.8068249,54.7160813],[18.8738397,54.6886945],[18.931424,54.6549204],[18.9734988,54.6253938],[19.0739949,54.6127884],[19.1577393,54.5972962],[19.2348807,54.572915],[19.3026382,54.5405284],[19.3585871,54.5013074],[19.4007459,54.4566665],[19.4241829,54.4249802],[19.3616144,54.4037566],[19.0043074,54.3731382],[18.8854775,54.3879505],[18.9854435,54.3754811],[18.9937757,54.3739405],[19.0014617,54.3715151],[19.0082275,54.3682911],[19.0138318,54.3643838],[19.0180752,54.3599324],[19.0271505,54.3478154],[19.00279,54.3457279],[18.9756678,54.3491096],[18.7183872,54.381188],[18.9756678,54.3491096],[19.05,54.25],[18.75,54.15],[18.45,54.2],[18.425,54.35],[18.4,54.5]]]}}
