{"type":"Feature","properties":{"family":"prussia","name":"Prussian Ansbach and Bayreuth, 1789 – 1805"},"geometry":{"type":"Polygon","coordinates":[[[9.95,49.15],[10.15,49],[10.45,48.95],[10.75,48.95],[10.95,49.1],[11,49.3],[11.15,49.4],[11.2666667,49.5166667],[11.3,49.55],[11.55,49.7],[11.8,49.75],[12.05,49.9],[12.2283274,50.0783274],[12.1879219,50.1023332],[12.1843218,50.1715649],[12.0799208,50.2424851],[12.1123211,50.2762567],[12.0763208,50.315094],[12.1377783,50.307333],[12.05,50.36],[11.95,50.42],[11.8,50.41],[11.65,50.4],[11.45,50.2],[11.25,50.1],[11.35,49.95],[11.15,49.75],[11,49.715],[10.85,49.68],[10.55,49.68],[10.35,49.55],[10.175,49.475],[10,49.4],[9.95,49.15]]]}}
