{"type":"Feature","properties":{"family":"prussia","name":"Prussian Rhine Province and Westphalia, 1814 – 1815"},"geometry":{"type":"Polygon","coordinates":[[[5.8716531,51.0401628],[5.8778763,50.965484],[6.00306,50.9736391],[5.99946,50.9297361],[6.0642606,50.9077846],[6.0570606,50.8520615],[6.0102601,50.8402415],[5.99946,50.8014042],[5.9670597,50.7946499],[5.99586,50.7507469],[5.9475959,50.7511511],[5.935,50.6],[5.92,50.42],[6.05,50.22],[6.1553981,50.1989204],[6.1470615,50.2137793],[6.1553981,50.1989204],[6.1650617,50.1816964],[6.1218612,50.1648106],[6.1182612,50.1209076],[6.096661,50.0482988],[6.2226622,49.8878839],[6.301863,49.835538],[6.4920799,49.798894],[6.503465,49.7967007],[6.4926649,49.7004518],[6.4170642,49.6700574],[6.4170642,49.6396631],[6.3558636,49.5771857],[6.3450635,49.4556081],[6.402664,49.4657396],[6.4446099,49.45],[6.5106651,49.4252137],[6.4446099,49.45],[6.9,49.45],[7.0981132,49.3311321],[7.1,49.35],[7.15,49.55],[7.35,49.65],[7.85,49.85],[7.9,49.97],[7.8,50.03],[7.73,50.12],[7.65,50.2],[7.6,50.27],[7.6,50.35],[7.7,50.6],[8,50.65],[8.35,50.75],[8.4,50.95],[8.6,51.1],[8.9,51.35],[9.1,51.45],[9.275,51.5],[9.45,51.55],[9.4,51.75],[9.2,51.95],[9.05,52.15],[9.1,52.4],[8.95,52.5],[8.775,52.475],[8.6,52.45],[8.4,52.15],[8.1,52.12],[7.85,52.35],[7.6,52.4],[7.35,52.35],[7.2,52.3],[7.05,52.25],[7.0238063,52.2363793],[7.0254703,52.2299406],[6.892088,52.15],[6.8310683,52.1134288],[6.7482675,52.1032973],[6.6726667,52.0492628],[6.7770678,52.0019827],[6.8094681,51.9597682],[6.7158672,51.8989794],[6.5286653,51.8770279],[6.4736345,51.85265],[6.4736345,51.85265],[6.4736345,51.85265],[6.4638646,51.8483221],[6.3774638,51.8601422],[6.3810638,51.8280592],[6.3450635,51.8213049],[6.2658627,51.8668965],[6.2511671,51.8700778],[6.2511671,51.8700778],[6.1254613,51.8972909],[6.0930609,51.8854708],[6.0973636,51.8825557],[6.1279095,51.8618606],[6.1578616,51.8415678],[6.0822608,51.8533879],[5.958968,51.823096],[5.9310593,51.8162392],[5.9634596,51.7757133],[5.9382594,51.7318103],[5.9930692,51.7207925],[6.0138601,51.7166131],[6.0290824,51.6709176],[6.0318603,51.6625786],[6.0394944,51.6605056],[6.100261,51.6440043],[6.090202,51.609798],[6.0858609,51.5950355],[6.1938619,51.5089181],[6.204662,51.4582608],[6.2038735,51.45],[6.1938619,51.3451261],[6.0570606,51.2117285],[6.0606606,51.1712026],[6.1578616,51.1796455],[6.1254613,51.1644483],[6.1470615,51.1526283],[5.9814598,51.0749537],[5.9382594,51.0310507],[5.8716531,51.0401628]]]}}
