{"type":"Feature","properties":{"family":"prussia","name":"Kingdom of Prussia, 1793 – 1794"},"geometry":{"type":"Polygon","coordinates":[[[10.6,51.8],[10.75,51.75],[11,51.7],[11.2,51.62],[11.45,51.6],[11.6,51.45],[11.85,51.42],[12.05,51.4],[12.15,51.5],[12.05,51.6],[11.85,51.6],[11.7,51.72],[11.8,51.85],[11.9273973,51.960411],[11.95,51.98],[12.1,52.05],[12.25,52.1],[12.4,52.2],[12.6,52.2],[12.9,52.12],[13.1,52.05],[13.3,52.1],[13.6,52.15],[14.3,52.15],[14.6,52.1],[14.75,52],[15.1,51.95],[15.25,51.7],[15.3,51.45],[15.25,51.15],[15.25,50.9582893],[15.2695527,50.9533762],[15.2551526,50.8993417],[15.3415534,50.8317986],[15.3559536,50.7760756],[15.4423544,50.7997156],[15.6727567,50.7338611],[15.7915579,50.742304],[15.8491585,50.6747609],[15.9715597,50.6781381],[16.00036,50.6359236],[15.9823598,50.6038407],[16.0867609,50.6460551],[16.1767618,50.6241036],[16.2307623,50.6612523],[16.3315633,50.6443665],[16.4251643,50.5683806],[16.3927639,50.5599377],[16.3927639,50.5211004],[16.3531635,50.4923946],[16.2883629,50.4923946],[16.2127621,50.4518687],[16.198362,50.4062771],[16.2631626,50.3640627],[16.3423634,50.3691284],[16.3711637,50.3184711],[16.4395644,50.2982082],[16.5367654,50.207025],[16.5655657,50.1428591],[16.6591666,50.0922018],[16.702367,50.0955789],[16.8175682,50.1867621],[16.9543695,50.2137793],[16.9615696,50.2323537],[17.0155702,50.2188451],[16.9867699,50.2846996],[16.9255693,50.3184711],[16.8643686,50.4079657],[16.8931689,50.4332944],[17.1883719,50.3792599],[17.2099721,50.3370455],[17.3359734,50.3134054],[17.3179732,50.3083397],[17.3539735,50.2526166],[17.3863739,50.2728795],[17.4295743,50.239108],[17.4691747,50.2661252],[17.6311763,50.2627481],[17.7067771,50.3117168],[17.7355774,50.2897653],[17.7175772,50.2526166],[17.7463775,50.2171565],[17.6743767,50.1749421],[17.5879759,50.163122],[17.6311763,50.1057104],[17.7319773,50.0955789],[17.7211772,50.075316],[17.7643776,50.0246587],[17.8399784,49.9740014],[18.0307803,50.0027072],[18.00198,50.0466102],[18.0919809,50.0179044],[18.099181,49.9891986],[18.2575826,49.9452955],[18.289534,49.9123249],[18.3,49.92],[18.3314892,49.92],[18.3691837,49.9317869],[18.4062798,49.92],[18.55,49.92],[18.6,49.92],[19,49.95],[19.2,50.04],[19.15,50.2],[19.1,50.35],[19.2,50.4],[19.3,50.5],[19.4,50.6],[19.475,50.775],[19.55,50.95],[19.75,51.3],[19.95,51.48],[19.9916667,51.5175],[19.9916667,51.5175],[20.0055556,51.53],[20.1,51.615],[20.25,51.75],[20.35,51.95],[20.35,52.25],[20.325,52.375],[20.3,52.5],[20.25,52.8],[20.2,53.2],[20.6,53.2],[21,53.25],[21.1666667,53.2766667],[21.3333333,53.3033333],[21.5,53.33],[21.9,53.45],[22.125,53.525],[22.35,53.6],[22.65,53.75],[22.75,54],[22.65,54.3],[22.75,54.6],[22.85,54.85],[22.85,55.07],[22.5,55.12],[22.3,55.21],[22.1,55.3],[21.3,55.7],[21.05,55.95],[21.0483966,55.9548103],[21.0440104,55.8738903],[21.0483966,55.9548103],[21.0498536,55.9816911],[21.0498539,55.9816961],[21.0498539,55.9816974],[21.0417356,55.9815188],[21.0323731,55.9802388],[21.0236521,55.9779419],[21.0159219,55.9747201],[21.0094914,55.9707023],[21.0046177,55.9660494],[21.0014952,55.9609475],[21.0002535,55.9556243],[21.000248,55.9556006],[20.9959609,55.8746784],[20.9959749,55.8745167],[20.9959519,55.8747039],[21.0062967,56.0700211],[20.936268,56.2160791],[20.9112872,56.2133741],[20.8248189,56.1938083],[20.7467867,56.1653392],[20.6801109,56.1290398],[20.6272644,56.0862745],[20.5901806,56.0386464],[20.5701859,55.9879349],[20.5679577,55.9360276],[20.5857865,55.7976781],[20.5858595,55.7971116],[20.5949128,55.7268593],[20.6051363,55.6899931],[20.6069394,55.5403463],[20.5704605,55.4773866],[20.294196,55.243095],[20.2296578,55.2185166],[19.9658067,55.221624],[19.8767875,55.2177375],[19.790676,55.2043146],[19.7105967,55.1818426],[19.6394429,55.1511366],[19.5797689,55.1133083],[19.5336954,55.0697242],[19.5028359,55.0219537],[19.4676219,54.9458339],[19.4520249,54.8813505],[19.4637412,54.8166021],[19.4710146,54.7982581],[19.4319444,54.7444986],[19.3143328,54.6690309],[19.273608,54.6552133],[19.2487484,54.7022762],[19.181156,54.7953825],[19.1338569,54.8449541],[19.0695209,54.8877201],[18.9909646,54.9217757],[18.55376,55.0712193],[18.4699718,55.0935349],[18.3801178,55.1059953],[18.2877166,55.108112],[17.8564645,55.0928201],[17.7812919,55.0864868],[17.2271029,55.0117151],[17.1548894,54.9981474],[17.0874892,54.9780483],[16.7582876,54.8586365],[16.4639651,54.8196532],[16.3753595,54.8022233],[16.2946461,54.7749231],[16.2250895,54.7388629],[15.9805112,54.5828295],[15.9250167,54.5390154],[15.9109976,54.5251966],[15.9024968,54.5218499],[15.8254264,54.5185222],[15.6978228,54.5022069],[14.4016984,54.2111423],[14.3304236,54.2542592],[14.2601315,54.2889604],[14.2363235,54.2965723],[14.2363366,54.2965624],[14.2363534,54.2965497],[14.2363707,54.2965366],[14.36345,54.2007016],[14.412335,54.1547957],[14.4445039,54.1040946],[14.4587179,54.0506499],[14.4544735,53.9966162],[14.439845,53.9624558],[14.4398447,53.9624551],[14.4398445,53.9624547],[14.397735,53.949853],[14.2336338,53.9641076],[14.0502029,54.0788531],[14.0405134,54.0834458],[14.0238949,54.0893363],[14.0239013,54.0893335],[14.0239095,54.0893298],[14.0239179,54.0893261],[14.0313461,54.0860305],[14.0375446,54.081867],[14.0421653,54.0770496],[14.0450146,54.0717808],[14.0459736,54.0662818],[14.0459468,54.0420927],[14.0167402,54.0603583],[14,54.0662909],[14,54.0351451],[14.0327071,54.0162244],[14.0325444,54.0161076],[14.0256195,54.0127533],[14.0177174,54.0102542],[14.0091396,54.0087054],[14.0058647,54.0085076],[14.010999,54.0050274],[14.0154616,54.0004179],[14.018303,53.9953842],[14.019414,53.9901211],[14.0187522,53.984832],[14.0161539,53.9760286],[14.0139549,53.9712412],[14.010304,53.9667714],[14.0053248,53.9627699],[13.9975108,53.9575634],[14,53.9567393],[14,53.9567393],[13.9975108,53.9575634],[13.9975108,53.9575634],[13.9879399,53.9607323],[13.9591396,53.9404694],[13.9709507,53.9806338],[13.9183875,53.9455917],[13.9161476,53.9541468],[13.914971,53.9586406],[13.9147191,53.9596028],[13.914719,53.9596031],[13.9138761,53.9628224],[13.9125412,53.9679208],[13.9118675,53.9704941],[13.9100335,53.9774987],[13.9085975,53.9829832],[13.9085378,53.9832114],[13.9077396,53.9862598],[13.9076578,53.9865724],[13.9054065,53.9951707],[13.9053629,53.9953373],[13.9051407,53.9961862],[13.9051407,53.9961863],[13.9051407,53.9961862],[13.9053629,53.9953373],[13.9054065,53.9951707],[13.9076578,53.9865724],[13.9077396,53.9862598],[13.9085378,53.9832114],[13.9085975,53.9829832],[13.9100335,53.9774987],[13.9118675,53.9704941],[13.9125412,53.9679208],[13.9138761,53.9628224],[13.9125412,53.9679208],[13.9118675,53.9704941],[13.9100335,53.9774987],[13.9085975,53.9829832],[13.9085378,53.9832114],[13.9077396,53.9862598],[13.9076578,53.9865724],[13.9054065,53.9951707],[13.9053629,53.9953373],[13.9051407,53.9961862],[13.9051407,53.9961863],[13.9051407,53.9961863],[13.9051406,53.9961863],[13.9051391,53.9961924],[13.9051406,53.9961863],[13.9051407,53.9961863],[13.9051407,53.9961863],[13.9051407,53.9961862],[13.9053629,53.9953373],[13.9054065,53.9951707],[13.9076578,53.9865724],[13.9077396,53.9862598],[13.9085378,53.9832114],[13.9085975,53.9829832],[13.9100335,53.9774987],[13.9118675,53.9704941],[13.9125412,53.9679208],[13.9138761,53.9628224],[13.914719,53.9596031],[13.9147191,53.9596028],[13.914971,53.9586406],[13.9161476,53.9541468],[13.9183875,53.9455917],[13.920012,53.9393872],[13.9209367,53.9358554],[13.9209367,53.9358553],[13.9228239,53.9286477],[13.9274716,53.9108963],[13.8922783,53.8874469],[13.8223382,53.8644834],[13.8237845,53.863398],[13.8187382,53.8620524],[13.8187382,53.877992],[13.9087391,53.9337151],[13.9045591,53.9363727],[13.8367524,53.9794853],[13.9045591,53.9363727],[13.85,53.9],[13.7,53.86],[13.55,53.87],[13.4,53.88],[13.225,53.9],[13.05,53.92],[13.3,53.75],[13.6,53.6],[13.7,53.4],[13.2,53.15],[12.8,53.15],[12.6333333,53.2],[12.4666667,53.25],[12.3,53.3],[12.1,53.25],[11.9,53.2],[11.75,53.15],[11.6,53.1],[11.38,53.1],[11.3136364,53.1],[11.3,53.1],[11.15,52.98],[11,52.85],[10.85,52.7],[10.85,52.5],[10.95,52.35],[10.75,52.1],[10.6,51.95],[10.6,51.8]],[[13.8187382,53.8526633],[14,53.7718248],[14.0383404,53.7547259],[14,53.7718248],[13.8187382,53.8526633]],[[13.8403384,53.8509748],[14,53.8629569],[14.200342,53.877992],[14,53.8629569],[13.8403384,53.8509748]],[[13.9421664,53.8315308],[14.1869552,53.8498206],[14.3006145,53.7965097],[14.3006138,53.7965092],[14.3006122,53.7965079],[14.2855791,53.7846394],[14.2794067,53.7806412],[14.2794048,53.78064],[14.2794041,53.7806395],[14.2740208,53.7829954],[14.2655716,53.7853041],[14.256505,53.786552],[14.2471985,53.786687],[14.2380396,53.7857036],[14.2294095,53.7836427],[14.1784046,53.7676955],[14.0570611,53.7801867],[13.9421664,53.8315308]],[[14.0491405,53.9404694],[14.0524805,54],[14.0527405,54.0046353],[14.0524805,54],[14.0491405,53.9404694]],[[14.1132529,54],[14.1132529,54],[14.2111421,53.9387808],[14.1132529,54]],[[14.4055441,53.921895],[14.6665072,54],[14.6665072,54],[14.4055441,53.921895]],[[15.8599586,54.249479],[16,54.2669952],[16,54.2669952],[16.1299613,54.2832505],[16,54.2669952],[16,54.2669952],[15.8599586,54.249479]],[[17.8867789,54.8235953],[18,54.8276117],[18.3151832,54.8387925],[18,54.8276117],[17.8867789,54.8235953]]]}}
