{"type":"Feature","properties":{"family":"prussia","name":"Prussian Bayreuth, 1806 – 1807"},"geometry":{"type":"Polygon","coordinates":[[[11,49.65],[11.15,49.575],[11.2666667,49.5166667],[11.3,49.55],[11.55,49.7],[11.8,49.75],[12.05,49.9],[12.2283274,50.0783274],[12.1879219,50.1023332],[12.1843218,50.1715649],[12.0799208,50.2424851],[12.1123211,50.2762567],[12.0763208,50.315094],[12.1377783,50.307333],[12.05,50.36],[11.95,50.42],[11.8,50.41],[11.65,50.4],[11.45,50.2],[11.25,50.1],[11.35,49.95],[11.15,49.75],[11,49.715],[11,49.65]]]}}
