{"type":"Feature","properties":{"family":"other","name":"Republic of Ragusa, 1789 – 1808"},"geometry":{"type":"Polygon","coordinates":[[[16.65335,42.7993005],[16.7360859,42.6501863],[17.8056935,42.4361702],[17.8561556,42.4374964],[17.8567001,42.4375108],[17.8753695,42.4410458],[17.8843744,42.4442267],[17.8935777,42.4384799],[17.89825,42.4386027],[18.1048277,42.4440319],[18.1048277,42.4440319],[18.1400416,42.4449573],[18.1851907,42.4461439],[18.2630442,42.44819],[18.2841307,42.4487442],[18.3722431,42.4510599],[18.4299237,42.4525758],[18.495185,42.4159295],[18.4699829,42.4499145],[18.4375844,42.493604],[18.4375844,42.5227197],[18.3734434,42.5793146],[18.2575826,42.6151816],[17.9947799,42.7401363],[17.8639522,42.8144191],[17.85,42.82],[17.7091572,42.8669476],[17.7103771,42.8566482],[17.7091572,42.8669476],[17.7067771,42.8870426],[17.662362,42.8898202],[17.6590962,42.8940191],[17.6527765,42.8904197],[17.5555756,42.9343227],[17.6134434,42.9231464],[17.6134533,42.9231444],[17.6134567,42.9231438],[17.6134672,42.9231418],[17.6149094,42.9235534],[17.6149094,42.9235534],[17.6149035,42.9235567],[17.6149016,42.9235578],[17.614896,42.9235609],[17.5807758,42.9427656],[17.6138401,42.9522056],[17.6,42.97],[17.4785588,43.0185765],[17.4691747,43.0136858],[17.4785588,43.0185765],[17.501575,43.0305716],[17.4660907,43.0235637],[17.4331743,43.017063],[17.4558052,43.0276779],[17.4619746,43.0305716],[17.4380511,43.0347796],[17.4328696,43.0368521],[17.4301486,43.0477007],[17.413237,43.0397673],[17.4073977,43.0363714],[17.4026127,43.0321864],[17.3990777,43.0273833],[17.3978655,43.0244249],[17.3978606,43.0244128],[17.3940535,43.0249311],[17.3872766,43.0269235],[17.3811689,43.0298524],[17.3759696,43.0336035],[17.293343,43.106246],[17.226187,43.1368997],[17.2281482,43.132359],[17.2289315,43.1270607],[17.2282726,43.1217532],[17.2261977,43.1166436],[17.222788,43.1119312],[17.2181768,43.1077998],[17.212544,43.1044105],[17.2061094,43.1018953],[17.1991238,43.1003524],[17.1918595,43.0998417],[16.8101181,43.0998413],[16.8101181,43.0998413],[16.8101181,43.0998413],[16.8375055,42.9899446],[16.8375059,42.9899431],[16.8375062,42.9899416],[16.8375069,42.9899391],[16.8375073,42.9899375],[16.8379252,42.9882605],[16.8399676,42.9800652],[16.8399676,42.9800652],[16.8406791,42.9772098],[16.842312,42.9706577],[16.842312,42.9706577],[16.8441257,42.9633798],[16.842312,42.9706577],[16.842312,42.9706577],[16.8406791,42.9772098],[16.8399676,42.9800652],[16.8399676,42.9800652],[16.8379252,42.9882605],[16.8375073,42.9899375],[16.8375069,42.9899391],[16.8375062,42.9899416],[16.8375059,42.9899431],[16.985724,43.0055191],[16.9857247,43.0055178],[16.9857272,43.005513],[16.991999,42.9937584],[16.9955618,42.9887175],[17.0004865,42.9843331],[17.0065553,42.9807988],[17.007296,42.9805292],[17.0335703,42.9832915],[17.1307713,42.9697828],[17.1367531,42.9643364],[17.1903986,42.9585312],[17.190403,42.9585307],[17.1904244,42.9585284],[17.2206945,42.930956],[17.2246559,42.9265082],[17.2273503,42.9215782],[17.2286735,42.9163571],[17.2285745,42.9110472],[17.2270577,42.9058542],[17.224182,42.9009793],[17.2200591,42.8966113],[17.2148489,42.8929192],[17.2087533,42.890046],[17.2020082,42.8881029],[17.1948748,42.8871651],[17.187629,42.8872688],[17.0177223,42.901911],[16.8584785,42.8743028],[16.8510001,42.8735825],[16.8434784,42.873994],[16.7100907,42.8913728],[16.7100907,42.8913728],[16.65335,42.7993005]],[[17.00117,43.0508345],[17.0033941,43.05],[17.0016148,43.05],[17.00117,43.0508345]]]}}
