{"type":"Feature","properties":{"family":"rhine","name":"Confederation of the Rhine, 1809 – 1813"},"geometry":{"type":"Polygon","coordinates":[[[6.6,51.66],[6.62,51.6],[6.7,51.52],[6.74,51.45],[6.7065574,51.3914754],[6.7065574,51.3914754],[6.7,51.38],[6.73,51.3],[6.78,51.2],[6.9,51.1],[6.98,51.02],[6.97,50.93],[7.03,50.83],[7.1,50.74],[7.15,50.68],[7.22,50.6],[7.3,50.53],[7.4,50.45],[7.5,50.42],[7.6,50.36],[7.6,50.35],[7.6,50.27],[7.65,50.2],[7.73,50.12],[7.8,50.03],[7.9,49.97],[8.05,50],[8.18,50.03],[8.28,50.01],[8.33,49.97],[8.35,49.9],[8.4,49.84],[8.47,49.76],[8.42,49.7],[8.37,49.63],[8.42,49.56],[8.46,49.49],[8.46,49.4],[8.45,49.32],[8.4,49.25],[8.37,49.17],[8.3,49.05],[8.23,48.95],[8.1920741,48.9493054],[8.199082,48.9591664],[8.1920741,48.9493054],[8.1653716,48.9117314],[8.0910809,48.8071945],[7.9686797,48.7565371],[7.9578796,48.721077],[7.8102781,48.6146967],[7.8138781,48.5201363],[7.7706777,48.4897419],[7.7382774,48.4070016],[7.7490775,48.3411471],[7.702277,48.3107527],[7.6878769,48.2533411],[7.6852708,48.25],[7.5798758,48.1148778],[7.5762758,48.054089],[7.6194762,47.9713487],[7.5582756,47.8835427],[7.5654757,47.8497711],[7.55,47.8240355],[7.5258753,47.7839166],[7.5366754,47.7315707],[7.5114751,47.7079307],[7.5875536,47.6122322],[7.5906759,47.6083046],[7.5896657,47.6016713],[7.5870759,47.5846645],[7.5928766,47.5856168],[7.6590766,47.5964846],[7.6482765,47.5711559],[7.6086761,47.5644016],[7.6842768,47.5441387],[7.7670777,47.5559587],[7.8210782,47.594796],[7.896679,47.5880417],[7.9110791,47.5610244],[8.0406804,47.5610244],[8.2314823,47.6218132],[8.3067848,47.5923797],[8.3067848,47.5923797],[8.3178832,47.5880417],[8.4222842,47.5812874],[8.5230852,47.6218132],[8.5590856,47.5897303],[8.6058861,47.6555848],[8.4582846,47.6403876],[8.3898839,47.6657162],[8.3898839,47.6927335],[8.4618846,47.7636537],[8.5842858,47.8008024],[8.6166862,47.7568994],[8.6454865,47.7906709],[8.7138871,47.7568994],[8.699487,47.7231279],[8.7174872,47.694422],[8.7714877,47.694422],[8.7714877,47.7214393],[8.796688,47.7197507],[8.904689,47.6522076],[9.0162902,47.6792248],[9.1818918,47.670782],[9.5490955,47.5340072],[9.5850959,47.4799727],[9.6498965,47.4512669],[9.6498965,47.4090525],[9.5202952,47.2621463],[9.5634956,47.1979803],[9.5526955,47.1675859],[9.6174962,47.1067972],[9.5814958,47.0561398],[9.8586986,47.015614],[9.8766988,46.927808],[10.1107011,46.8467563],[10.200702,46.8670192],[10.2367024,46.9227422],[10.2943029,46.9227422],[10.3123031,46.9649567],[10.3735037,46.9970396],[10.4599046,46.9362508],[10.4527045,46.863642],[10.5283053,46.8433791],[10.5283053,46.8433791],[10.6471065,46.863642],[10.7407074,46.8298705],[10.7227072,46.7859675],[10.99631,46.7690817],[11.0539105,46.8146733],[11.0827108,46.9007907],[11.1727117,46.9632681],[11.3131131,46.9869082],[11.4103141,46.9700224],[11.4715147,47.0071711],[11.7343173,46.9700224],[12.05,47.0512216],[12.1807218,47.0848456],[12.05,47.0512216],[12.05,47.1],[12.225,47.11],[12.4,47.12],[12.7,47.1],[13,47.07],[13.3,47.05],[13.6,47.05],[13.8,47.25],[13.75,47.45],[13.45,47.75],[13.3,47.95],[13.6,47.95],[13.75,48.025],[13.9,48.1],[13.85,48.35],[13.7190255,48.5246326],[13.7323373,48.5589736],[13.797138,48.5978109],[13.8151382,48.6957484],[13.7827378,48.7160113],[13.8151382,48.7666686],[13.7251373,48.8679832],[13.6207362,48.9085091],[13.6099361,48.9456578],[13.5163352,48.9709865],[13.4839348,48.9372149],[13.4587346,48.9456578],[13.397534,48.9777408],[13.3723337,49.0385295],[13.300333,49.0942526],[13.1779318,49.1178927],[13.00153,49.2951933],[12.8863289,49.3390963],[12.8575286,49.3222105],[12.7783278,49.332342],[12.7099271,49.4049508],[12.6451265,49.4302795],[12.6235262,49.5096426],[12.5839258,49.5231512],[12.5479255,49.59576],[12.501125,49.6194001],[12.497525,49.6700574],[12.4183242,49.7004518],[12.3823238,49.7426663],[12.4543245,49.779815],[12.4615246,49.8304723],[12.4831248,49.8270951],[12.5191252,49.911524],[12.4615246,49.9317869],[12.4723247,49.955427],[12.4507245,49.9807557],[12.2455225,50.0449216],[12.2419224,50.0702503],[12.2283274,50.0783274],[12.1879219,50.1023332],[12.1843218,50.1715649],[12.0799208,50.2424851],[12.1123211,50.2762567],[12.0763208,50.315094],[12.1377783,50.307333],[12.1699217,50.3032739],[12.1771218,50.2695024],[12.2419224,50.2526166],[12.2275223,50.2374194],[12.299523,50.1614334],[12.3355234,50.2593709],[12.3468474,50.2677175],[12.5119251,50.3893914],[12.6919269,50.3944571],[12.7387274,50.4316058],[12.8179282,50.4434258],[12.9511295,50.4045886],[12.99793,50.4332944],[13.0087301,50.4923946],[13.1599316,50.4974603],[13.2319323,50.5818892],[13.2859329,50.5683806],[13.3687337,50.6291693],[13.4479345,50.5970864],[13.5235352,50.6629409],[13.5163352,50.6916467],[13.5559356,50.7068439],[13.8331383,50.7237297],[13.8835388,50.742304],[13.8907389,50.7811413],[14.0347403,50.8030928],[14.2327423,50.8790788],[14.3479435,50.8807673],[14.3803438,50.9212932],[14.2399424,50.982082],[14.2867429,51.0361165],[14.398344,51.0124764],[14.4811448,51.037805],[14.5747457,50.9753277],[14.5495455,50.9128503],[14.6287463,50.9212932],[14.6143461,50.8453072],[14.7583476,50.8098471],[14.8087481,50.8588158],[14.9815498,50.8588158],[14.99595,50.9584419],[14.9599496,50.9922134],[15.00315,51.0209193],[15.1075511,50.9803934],[15.1435514,51.0107878],[15.1687517,50.9787048],[15.25,50.9582893],[15.25,51.15],[15.3,51.45],[15.25,51.7],[15.1,51.95],[14.75,52],[14.6,52.1],[14.3,52.15],[13.6,52.15],[13.3,52.1],[13.1,52.05],[12.9,52.12],[12.6,52.2],[12.4,52.2],[12.25,52.1],[12.1,52.05],[11.95,51.98],[11.9273973,51.960411],[11.9,51.97],[11.9273973,51.960411],[12.1,51.9],[12.15,51.6],[12.15,51.5],[12.15,51.45],[11.9,51.3],[11.3,51.4],[11,51.35],[10.8,51.3],[10.6,51.225],[10.4,51.15],[10,50.85],[9.9,50.65],[9.5,50.6],[9.2,50.65],[9,50.7],[8.8,50.75],[8.6,50.75],[8.45,50.9],[8.525,51],[8.6,51.1],[8.55,51.3],[8.6,51.5],[8.4,51.65],[8.3,51.85],[8.3,51.95],[8.3,52],[8.1847826,52.046087],[8,51.95],[7.875,51.9],[7.75,51.85],[7.45,51.82],[7.2,51.78],[7.05,51.75],[6.9,51.72],[6.6,51.66]],[[12.7387274,48.1131892],[12.8611286,48.1959295],[12.8887371,48.2067208],[12.75,48.1],[12.8891566,48.0620482],[12.8622374,47.9678309],[12.9907299,47.846394],[12.8622374,47.9678309],[12.7495275,48.0743519],[12.7387274,48.1131892]],[[13.4551346,48.5741708],[13.5976399,48.56706],[13.6243362,48.5657279],[13.6346455,48.5608924],[13.7179372,48.5218249],[13.6346455,48.5608924],[13.5976399,48.56706],[13.4551346,48.5741708]]]}}
