{"type":"Feature","properties":{"family":"rhine","name":"Confederation of the Rhine, 1806 – 1807"},"geometry":{"type":"Polygon","coordinates":[[[6.0930609,51.8854708],[6.0973636,51.8825557],[6.1279095,51.8618606],[6.1578616,51.8415678],[6.1279095,51.8618606],[6.0973636,51.8825557],[6.12,51.88],[6.1709091,51.8647273],[6.22,51.85],[6.35,51.8],[6.48,51.73],[6.6,51.66],[6.62,51.6],[6.7,51.52],[6.74,51.45],[6.7065574,51.3914754],[6.7065574,51.3914754],[6.7,51.38],[6.73,51.3],[6.78,51.2],[6.9,51.1],[6.98,51.02],[6.97,50.93],[7.03,50.83],[7.1,50.74],[7.15,50.68],[7.22,50.6],[7.3,50.53],[7.4,50.45],[7.5,50.42],[7.6,50.36],[7.6,50.35],[7.6,50.27],[7.65,50.2],[7.73,50.12],[7.8,50.03],[7.9,49.97],[8.05,50],[8.18,50.03],[8.28,50.01],[8.33,49.97],[8.35,49.9],[8.4,49.84],[8.47,49.76],[8.42,49.7],[8.37,49.63],[8.42,49.56],[8.46,49.49],[8.46,49.4],[8.45,49.32],[8.4,49.25],[8.37,49.17],[8.3,49.05],[8.23,48.95],[8.1920741,48.9493054],[8.199082,48.9591664],[8.1920741,48.9493054],[8.1653716,48.9117314],[8.0910809,48.8071945],[7.9686797,48.7565371],[7.9578796,48.721077],[7.8102781,48.6146967],[7.8138781,48.5201363],[7.7706777,48.4897419],[7.7382774,48.4070016],[7.7490775,48.3411471],[7.702277,48.3107527],[7.6878769,48.2533411],[7.6852708,48.25],[7.5798758,48.1148778],[7.5762758,48.054089],[7.6194762,47.9713487],[7.5582756,47.8835427],[7.5654757,47.8497711],[7.55,47.8240355],[7.5258753,47.7839166],[7.5366754,47.7315707],[7.5114751,47.7079307],[7.5875536,47.6122322],[7.5906759,47.6083046],[7.5896657,47.6016713],[7.5870759,47.5846645],[7.5928766,47.5856168],[7.6590766,47.5964846],[7.6482765,47.5711559],[7.6086761,47.5644016],[7.6842768,47.5441387],[7.7670777,47.5559587],[7.8210782,47.594796],[7.896679,47.5880417],[7.9110791,47.5610244],[8.0406804,47.5610244],[8.2314823,47.6218132],[8.3067848,47.5923797],[8.3067848,47.5923797],[8.3178832,47.5880417],[8.4222842,47.5812874],[8.5230852,47.6218132],[8.5590856,47.5897303],[8.6058861,47.6555848],[8.4582846,47.6403876],[8.3898839,47.6657162],[8.3898839,47.6927335],[8.4618846,47.7636537],[8.5842858,47.8008024],[8.6166862,47.7568994],[8.6454865,47.7906709],[8.7138871,47.7568994],[8.699487,47.7231279],[8.7174872,47.694422],[8.7714877,47.694422],[8.7714877,47.7214393],[8.796688,47.7197507],[8.904689,47.6522076],[9.0162902,47.6792248],[9.1818918,47.670782],[9.5490955,47.5340072],[9.5850959,47.4799727],[9.6498965,47.4512669],[9.6498965,47.4090525],[9.5202952,47.2621463],[9.5634956,47.1979803],[9.5526955,47.1675859],[9.6174962,47.1067972],[9.5814958,47.0561398],[9.8586986,47.015614],[9.8766988,46.927808],[10.1107011,46.8467563],[10.200702,46.8670192],[10.2367024,46.9227422],[10.2943029,46.9227422],[10.3123031,46.9649567],[10.3735037,46.9970396],[10.4599046,46.9362508],[10.4527045,46.863642],[10.4167042,46.7994761],[10.4275043,46.7555731],[10.3699037,46.6728328],[10.3869415,46.65],[10.395104,46.6390612],[10.3869415,46.65],[10.4,46.65],[10.4055817,46.636604],[10.4599046,46.6238641],[10.4458675,46.5399179],[10.4455045,46.5377466],[10.4458675,46.5399179],[10.45,46.53],[10.5,46.34],[10.58,46.26],[10.54,46.13],[10.5,46],[10.5,45.85],[10.65,45.82],[10.8120253,45.8443038],[10.85,45.85],[10.9,45.7],[11,45.75],[11.15,45.8],[11.35,45.9],[11.6,45.95],[11.7,46.05],[11.775,46.175],[11.85,46.3],[12,46.45],[12.25,46.45],[12.325,46.575],[12.39814,46.6969],[12.39814,46.6969],[12.403924,46.6897186],[12.5479255,46.6525699],[12.7495275,46.6407498],[12.8287283,46.6103554],[12.9005129,46.6046162],[12.9005129,46.6046162],[12.9501299,46.6006493],[12.975,46.725],[13,46.85],[12.95,47.05],[12.7,47.1],[12.4,47.12],[12.1,47.1],[12.3,47.25],[12.5,47.35],[12.65,47.6],[12.720517,47.670517],[12.7603276,47.6674048],[12.7531275,47.6488305],[12.8143281,47.6116818],[12.7855279,47.6032389],[12.7783278,47.5542701],[12.9331293,47.4732184],[13.00153,47.4664641],[13.0375304,47.4934813],[13.0267303,47.5424501],[13.0735307,47.6589619],[13.0195302,47.7129964],[12.8935289,47.7231279],[12.9907299,47.846394],[12.8622374,47.9678309],[12.7495275,48.0743519],[12.7387274,48.1131892],[12.8611286,48.1959295],[12.8887371,48.2067208],[13.0339303,48.2634726],[13.2751328,48.3073756],[13.404734,48.3766073],[13.4371344,48.4306417],[13.4551346,48.5741708],[13.5976399,48.56706],[13.6243362,48.5657279],[13.6346455,48.5608924],[13.7179372,48.5218249],[13.7190255,48.5246326],[13.7323373,48.5589736],[13.797138,48.5978109],[13.8151382,48.6957484],[13.7827378,48.7160113],[13.8151382,48.7666686],[13.7251373,48.8679832],[13.6207362,48.9085091],[13.6099361,48.9456578],[13.5163352,48.9709865],[13.4839348,48.9372149],[13.4587346,48.9456578],[13.397534,48.9777408],[13.3723337,49.0385295],[13.300333,49.0942526],[13.1779318,49.1178927],[13.00153,49.2951933],[12.8863289,49.3390963],[12.8575286,49.3222105],[12.7783278,49.332342],[12.7099271,49.4049508],[12.6451265,49.4302795],[12.6235262,49.5096426],[12.5839258,49.5231512],[12.5479255,49.59576],[12.501125,49.6194001],[12.497525,49.6700574],[12.4183242,49.7004518],[12.3823238,49.7426663],[12.4543245,49.779815],[12.4615246,49.8304723],[12.4831248,49.8270951],[12.5191252,49.911524],[12.4615246,49.9317869],[12.4723247,49.955427],[12.4507245,49.9807557],[12.2455225,50.0449216],[12.2419224,50.0702503],[12.2283274,50.0783274],[12.1879219,50.1023332],[12.2283274,50.0783274],[12.05,49.9],[11.8,49.75],[11.55,49.7],[11.3,49.55],[11.2666667,49.5166667],[11.15,49.575],[11,49.65],[11,49.715],[11.15,49.75],[11.35,49.95],[11.25,50.1],[11.45,50.2],[11.65,50.4],[11.8,50.41],[11.7666667,50.4166667],[11.6,50.45],[11.3,50.25],[11.1,50.2],[10.9,50.15],[10.6,50.35],[10.45,50.4],[10.3,50.45],[9.9,50.45],[9.725,50.425],[9.55,50.4],[9.3,50.6],[9.15,50.65],[9,50.7],[8.8,50.85],[8.65,50.9],[8.5,50.95],[8.55,51.1],[8.65,51.25],[8.5272727,51.4954545],[8.5,51.5],[8.4090909,51.5681818],[8.3333333,51.5833333],[8.2647059,51.5970588],[8.2,51.5],[7.95,51.4],[7.8,51.2],[7.55,51.12],[7.35,51.25],[7.1,51.38],[6.99,51.38],[6.95,51.5],[6.85,51.7],[6.95,51.65],[7.3,51.62],[7.4417582,51.9318681],[7.3,52.05],[7.15,52.1],[7,52.15],[6.892088,52.15],[6.8310683,52.1134288],[6.7482675,52.1032973],[6.6726667,52.0492628],[6.7770678,52.0019827],[6.8094681,51.9597682],[6.7158672,51.8989794],[6.5286653,51.8770279],[6.4736345,51.85265],[6.4736345,51.85265],[6.4736345,51.85265],[6.4638646,51.8483221],[6.3774638,51.8601422],[6.3810638,51.8280592],[6.3450635,51.8213049],[6.2658627,51.8668965],[6.2511671,51.8700778],[6.2511671,51.8700778],[6.1254613,51.8972909],[6.0930609,51.8854708]]]}}
