{"type":"Feature","properties":{"family":"rhine","name":"Mecklenburg, in the Confederation of the Rhine, 1807 – 1813"},"geometry":{"type":"Polygon","coordinates":[[[10.7,53.88],[10.7493631,53.8484076],[10.95,53.72],[10.95,53.45],[10.72,53.38],[10.9,53.3],[11.1,53.15],[11.2856015,53.1065614],[11.15,52.98],[11.2856015,53.1065614],[11.2856015,53.1065614],[11.3,53.12],[11.38,53.1],[11.6,53.1],[11.75,53.15],[11.9,53.2],[12.1,53.25],[12.3,53.3],[12.4666667,53.25],[12.6333333,53.2],[12.8,53.15],[13.2,53.15],[13.7,53.4],[13.6,53.6],[13.3,53.75],[13.05,53.92],[12.6,54.1],[12.45,54.25],[12.4459875,54.258025],[12.4579246,54.2562333],[12.4489416,54.2575816],[12.4579246,54.2562333],[12.4489416,54.2575816],[12.3939532,54.2658351],[12.3767577,54.268416],[12.3679237,54.2697419],[12.366965,54.2805338],[12.3684216,54.2811044],[12.3761242,54.2848898],[12.3822426,54.2895594],[12.3858304,54.2930172],[12.3876869,54.297299],[12.3920599,54.3024373],[12.4114272,54.3201566],[12.4082491,54.3206994],[12.3935445,54.3241476],[12.3935457,54.3241582],[12.396724,54.3524822],[12.4,54.3517139],[12.4,54.3587647],[12.3894203,54.3485591],[12.385221,54.3445083],[12.3710561,54.3308443],[12.3710472,54.3308357],[12.3675077,54.3325014],[12.3616567,54.3366034],[12.3573034,54.3412962],[12.3546185,54.3463966],[12.3537076,54.3517052],[12.3536996,54.3587559],[12.3540797,54.36122],[12.3544472,54.3636019],[12.3541295,54.3615426],[12.3541295,54.3615426],[12.3539908,54.3615509],[12.3495377,54.3365601],[12.3404702,54.3333685],[12.3337652,54.3304982],[12.3280499,54.3269735],[12.3235093,54.3229084],[12.3202898,54.3184345],[12.3184954,54.3136967],[12.3181836,54.3088482],[12.3194841,54.2943877],[12.1928666,54.2446664],[12.1879219,54.2427247],[12.1409449,54.2076701],[12.116804,54.2101865],[12.1167041,54.2098585],[12.1255966,54.1962171],[12.1087211,54.1836245],[12.135634,54.1808193],[12.1376431,54.1777373],[12.1411214,54.1802473],[12.0943209,54.1464758],[12.1159212,54.097507],[12.0907209,54.1143928],[12.0871209,54.193756],[12.0092914,54.1812672],[11.9892915,54.2093423],[11.9758289,54.247711],[11.9558796,54.2764107],[11.9476685,54.3018212],[11.971168,54.300532],[11.8794619,54.3055632],[11.7912224,54.3210603],[11.7425539,54.3362471],[11.7132027,54.2922742],[11.6655983,54.2483127],[11.6045531,54.2104895],[11.5323421,54.1801928],[11.528055,54.1790443],[11.5198147,54.1316726],[11.5023362,54.09748],[11.5587646,54.1217481],[11.5019322,54.0973062],[11.4947677,54.0934756],[11.4891315,54.0888485],[11.4852739,54.0836307],[11.4833659,54.0780543],[11.4834914,54.0723672],[11.4838066,54.0715552],[11.4841417,54.070692],[11.4659261,54.0501892],[11.4953328,54.0501893],[11.4953329,54.0501893],[11.4283016,54.050189],[11.4198551,54.049726],[11.4116979,54.0483575],[11.4041088,54.0461303],[11.3973471,54.0431205],[11.3916438,54.039431],[11.337659,53.9972006],[11.3329437,53.9926228],[11.3298579,53.9875874],[11.3285226,53.9822928],[11.3289898,53.9769475],[11.3312403,53.9717619],[11.3351851,53.9669398],[11.3406683,53.962671],[11.3474741,53.9591232],[11.3553347,53.956436],[11.4057121,53.9429351],[11.4143854,53.9412007],[11.4207815,53.9407195],[11.4143854,53.9412007],[11.4057121,53.9429351],[11.3553347,53.956436],[11.3493393,53.9584856],[11.3488757,53.9544803],[11.3379971,53.9592827],[11.3347133,53.9607323],[11.3347133,53.9607323],[11.3347133,53.9607323],[11.3347133,53.9607323],[11.2555126,53.9404694],[11.2411124,53.9826838],[11.2094684,54],[11.2094684,54],[11.1763118,54.0181439],[11.0539105,54.0080125],[11.0282868,54],[11.0282868,54],[10.9398058,53.9723323],[10.9397434,53.9723128],[10.902709,53.9607323],[10.8940597,53.9713817],[10.88,53.96],[10.80875,53.9283333],[10.7,53.88]],[[11.3743137,53.9809952],[11.3986246,54],[11.3986246,54],[11.3743137,53.9809952]],[[11.4479849,53.9343109],[11.448275,53.9342591],[11.448275,53.9342591],[11.4479849,53.9343109]],[[11.4646543,53.9342136],[11.4665772,53.934336],[11.4665772,53.934336],[11.4646543,53.9342136]],[[11.4666418,53.9343481],[11.470468,53.935067],[11.5010319,54],[11.4704679,53.935067],[11.4666418,53.9343481]],[[11.4820039,54],[11.496715,54.0232096],[11.4820039,54],[11.4820039,54]],[[11.5929486,54.1360745],[11.595926,54.1371118],[11.604217,54.1388553],[11.6129227,54.1396401],[11.6150969,54.13959],[11.6129227,54.1396401],[11.604217,54.1388553],[11.595926,54.1371118],[11.5929486,54.1360745]],[[11.6304827,54.1382058],[11.6383273,54.1361357],[11.6455208,54.1331577],[11.6502747,54.1302491],[11.6455208,54.1331577],[11.6383273,54.1361357],[11.6304827,54.1382058]],[[11.6533928,54.1278105],[11.6563821,54.1250897],[11.6581136,54.1225513],[11.6911169,54.1549187],[11.733843,54.1531504],[11.6911169,54.1549187],[11.6581136,54.1225513],[11.6563821,54.1250897],[11.6533928,54.1278105]],[[12.1945174,54.2453147],[12.3194841,54.2943877],[12.3194841,54.2943877],[12.1945174,54.2453147]]]}}
