{"type":"Feature","properties":{"family":"russia","name":"Russian Empire, 1814 – 1815"},"geometry":{"type":"Polygon","coordinates":[[[20.4841099,56.2750175],[20.4850065,56.2290803],[20.4999711,56.1838907],[20.5704749,56.0402278],[20.5682075,55.9550703],[20.5686359,55.9518482],[20.570185,55.9879224],[20.5901812,56.0386327],[20.627267,56.0862599],[20.6801159,56.1290248],[20.7467943,56.1653241],[20.824829,56.1937933],[20.9112997,56.2133596],[20.936277,56.2160644],[20.9363028,56.2160105],[21.0063403,56.0699353],[21.0022661,55.96221],[21.0022661,55.9622089],[21.002266,55.9622078],[21.0022659,55.9622054],[21.0046177,55.9660478],[21.0094916,55.9707006],[21.0159222,55.9747184],[21.0236527,55.9779402],[21.0323738,55.9802372],[21.0417366,55.9815174],[21.0498539,55.9816961],[21.0498539,55.9816974],[21.049854,55.9816982],[21.049854,55.981699],[21.0498541,55.9816998],[21.050846,56],[21.050846,56],[21.0548105,56.0731425],[21.050846,56],[21.050846,56],[21.0498541,55.9816998],[21.049854,55.981699],[21.049854,55.9816982],[21.0498539,55.9816974],[21.0498539,55.9816961],[21.0498536,55.9816911],[21.0483966,55.9548103],[21.05,55.95],[21.3,55.7],[22.1,55.3],[22.3,55.21],[22.5,55.12],[22.85,55.07],[23.075,55.06],[23.3,55.05],[23.5,55],[23.7,54.95],[23.9,54.9],[23.925,54.765],[23.95,54.63],[24.05,54.4],[24.01,54.21],[23.97,54.02],[23.83,53.68],[23.4,53.72],[23.05,53.6],[22.7,53.35],[22.56,53.275],[22.42,53.2],[22.35,52.95],[22.45,52.65],[22.5625995,52.4773475],[22.6,52.42],[22.6418398,52.4144214],[22.75,52.4],[22.9,52.38],[23.05,52.39],[23.2,52.4],[23.6,52.15],[23.68,51.9],[23.64,51.725],[23.6,51.55],[23.7,51.36],[23.8,51.17],[23.95,51.025],[24.1,50.88],[24.15,50.7],[24.27,50.48],[24.435,50.365],[24.6,50.25],[24.7833333,50.2066667],[24.9666667,50.1633333],[25.15,50.12],[25.3,50.0466667],[25.45,49.9733333],[25.6,49.9],[26,49.7],[26.15,49.53],[26.25,49.2],[26.225,49.025],[26.2,48.85],[26.35,48.55],[26.3,48.4],[26.62,48.26],[26.6209341,48.2593609],[26.6888669,48.2752926],[26.804068,48.2584068],[26.9084691,48.1841094],[26.9372694,48.2043724],[26.99847,48.1672237],[26.9660697,48.1435836],[27.0488705,48.1216321],[27.0416704,48.0777291],[27.1100711,48.0338261],[27.0920709,48.0084974],[27.1676717,47.9831688],[27.1496715,47.9578401],[27.1784718,47.9375772],[27.1604716,47.92238],[27.2108721,47.890297],[27.2108721,47.8480826],[27.2540725,47.8278196],[27.2180722,47.814311],[27.2864729,47.7518337],[27.2936729,47.7180621],[27.2835246,47.7164754],[27.4028149,47.5971851],[27.4304743,47.5779102],[27.4389142,47.5610858],[27.5243297,47.4756703],[27.5744757,47.4597098],[27.5730777,47.4269223],[27.6,47.4],[27.6969529,47.2868883],[27.7328773,47.2756549],[27.7791769,47.1909603],[27.8443529,47.1149216],[27.9380794,47.0460084],[28.0280803,47.0324998],[28.103681,46.9345623],[28.1216812,46.8349362],[28.2440824,46.6356841],[28.2188822,46.5039751],[28.2476825,46.4279891],[28.1864819,46.3435602],[28.1792818,46.2878372],[28.145291,46.2623281],[28.1365731,46.1925849],[28.1432814,46.1831454],[28.1312404,46.1499231],[28.125,46.1],[28.1072707,45.9581656],[28.1252813,45.9180388],[28.1154552,45.8335428],[28.1191698,45.8175698],[28.1540815,45.7610011],[28.1684817,45.6326692],[28.1626571,45.6305747],[28.2,45.47],[28.6,45.35],[29,45.4],[29.1280243,45.383997],[29.2268923,45.4232856],[29.3204932,45.4435485],[29.4320943,45.4300399],[29.5688957,45.3945798],[29.6516965,45.3456111],[29.6732967,45.2730022],[29.6700327,45.2599891],[29.7,45.25],[29.7192212,45.2339823],[29.6825573,45.2228043],[29.6901217,45.2165027],[29.6959654,45.2125688],[29.7028516,45.2095955],[29.7104714,45.2077162],[29.7184833,45.207015],[29.7265283,45.2075234],[29.7342031,45.2092091],[29.7342052,45.2092096],[29.6983713,45.1982901],[29.7244333,45.1813898],[29.7291974,45.1776625],[29.732895,45.1733762],[29.7353981,45.1686797],[29.73662,45.1637362],[29.7365185,45.1587172],[29.7350977,45.153797],[29.732407,45.1491462],[29.7031874,45.1095872],[29.679306,44.9711955],[29.6970451,44.9688427],[29.7716595,44.969451],[29.8447225,44.9803698],[29.9134484,45.0011835],[29.9752093,45.0310991],[30.027633,45.0689749],[30.068692,45.1133625],[30.0967817,45.1625603],[30.1107857,45.2146773],[30.1124175,45.2274811],[30.1124198,45.2274987],[30.1374607,45.4239788],[30.1369219,45.4762924],[30.135307,45.4818541],[30.1686967,45.5077577],[30.177899,45.5184744],[30.2113711,45.5387134],[30.2342125,45.5594802],[30.2977198,45.575035],[30.3606797,45.6005786],[30.4157543,45.633957],[30.7722938,45.8930478],[30.8274326,45.9434814],[31.0228002,46.1725131],[31.0480773,46.2096056],[31.0918104,46.2446197],[31.12838,46.2880729],[31.133373,46.297791],[31.1538776,46.2582303],[31.2300521,46.1470418],[31.2736194,46.0977216],[31.3312407,46.0559937],[31.4002578,46.023761],[31.4775112,46.0024905],[32.0365608,45.8932838],[32.0874175,45.8868488],[32.1505155,45.8689543],[32.3906439,45.8185506],[32.4673466,45.8081057],[32.4803546,45.8081991],[32.48666,45.8061172],[32.5576619,45.7933856],[32.562484,45.7928545],[32.5529631,45.7840578],[32.5277215,45.7784593],[32.4445878,45.7520234],[32.372755,45.7125829],[32.2107535,45.5990261],[32.1652755,45.5604381],[32.1307809,45.5166012],[32.1084387,45.4690373],[32.0989892,45.4193935],[32.1027228,45.3693839],[32.1194748,45.3207305],[32.1522745,45.2533028],[32.180152,45.2091962],[32.218658,45.1693115],[32.2665452,45.1349175],[32.3222765,45.1071063],[32.3840741,45.0867594],[32.4629505,45.0665947],[32.5293544,45.0542404],[32.597802,45.05052],[32.6660933,45.0555532],[32.7320329,45.0691782],[32.7853486,45.083976],[33.0160736,44.9488534],[33.080975,44.9180477],[33.1533132,44.8972973],[33.1701849,44.8951418],[33.1510571,44.8602297],[33.1380721,44.8118992],[33.1378647,44.7890084],[33.1303147,44.785375],[33.0782527,44.7479085],[33.0374652,44.7039163],[33.0094948,44.6550939],[32.9953813,44.6033182],[32.9956259,44.5505736],[33.0101786,44.4988761],[33.0384457,44.4501954],[33.0793185,44.4063815],[33.1312196,44.3690949],[33.1921656,44.3397456],[33.317526,44.291233],[33.3305932,44.2770038],[33.3770865,44.2357937],[33.4338222,44.2019147],[33.4986097,44.1766644],[33.5689614,44.1610082],[33.862818,44.1173235],[33.9310163,44.1117038],[33.9994914,44.1151388],[34.0659657,44.1275145],[34.1282255,44.1484193],[34.5195296,44.3114892],[34.57652,44.3404141],[34.6251374,44.3764054],[34.6636994,44.4182312],[34.7274755,44.5035118],[34.9286776,44.5467591],[34.9940639,44.5308727],[35.0657541,44.5238699],[35.1379825,44.526771],[35.2081203,44.5394703],[35.2736115,44.5615056],[35.3320628,44.5920744],[35.3813276,44.6300615],[35.4327578,44.6781894],[35.4387157,44.6785787],[35.506866,44.6925186],[35.5702048,44.715278],[35.6265204,44.7460652],[35.6488394,44.7638775],[35.7100396,44.7413655],[35.7868874,44.7264236],[35.8663807,44.7232444],[36.0132549,44.7282867],[36.0947628,44.7374334],[36.1312807,44.7476648],[36.175426,44.7405212],[36.2434675,44.7384146],[36.3109292,44.7450128],[36.3756517,44.7601046],[36.601605,44.8290112],[36.6514794,44.8484296],[36.7171898,44.8484683],[36.7906153,44.858964],[37.240571,44.9555507],[37.2405684,44.9555525],[37.1901719,44.9910098],[36.8409684,45.1092102],[36.7610829,45.1063279],[36.700567,45.1041445],[36.6788261,45.1168913],[36.5853659,45.1716876],[36.6788261,45.1168913],[36.8333333,45.15],[37.0666667,45.2],[37.3,45.25],[37.5333333,45.2166667],[37.7666667,45.1833333],[38,45.15],[38.245,45.1225],[38.49,45.095],[38.735,45.0675],[38.98,45.04],[39.22,45.0766667],[39.46,45.1133333],[39.7,45.15],[39.92,45.12],[40.14,45.09],[40.36,45.06],[40.8,45],[41.0333333,44.9666667],[41.2666667,44.9333333],[41.5,44.9],[41.7,44.84],[41.9,44.78],[42.1,44.72],[42.3,44.66],[42.5,44.6],[42.7,44.48],[42.9,44.36],[43.5,44],[43.94,43.9],[44.16,43.85],[44.38,43.8],[44.6,43.75],[45.05,43.725],[45.275,43.7125],[45.5,43.7],[45.74,43.72],[45.98,43.74],[46.22,43.76],[46.7,43.8],[47,43.8],[47,43.5296428],[47.0333098,43.5318665],[47.1005099,43.5404344],[47.1643181,43.5578322],[47.222579,43.5834729],[47.2733177,43.616491],[47.3148048,43.6557701],[47.3456155,43.6999803],[47.3646782,43.7476211],[47.3713143,43.7970718],[47.3751384,44.3653773],[47.3680867,44.4187656],[47.3463917,44.4701814],[47.3108772,44.5175762],[47.2629272,44.5590562],[47.2129083,44.5880523],[47.2358945,44.6010218],[47.2853299,44.6345537],[47.325435,44.6739489],[47.3548767,44.7179184],[47.3726635,44.7650206],[47.3781803,44.813707],[47.6366143,65.0556088],[47.6280879,65.1067334],[47.5966241,65.1561676],[47.5432536,65.2021019],[47.4698347,65.2428462],[47.3789981,65.276894],[47.2740573,65.302981],[47.158887,65.3201345],[47.0377737,65.3277129],[40.5179994,65.3364296],[40.3786316,65.4370847],[40.370744,65.5139313],[40.3546506,65.5631421],[40.3170095,65.6102452],[40.2590013,65.6536265],[40.1825308,65.6917919],[40.0901715,65.7234211],[39.9850818,65.7474155],[39.8708957,65.762939],[39.7515903,65.7694491],[34.6335405,65.7696008],[34.5088374,65.762581],[34.3898297,65.7457236],[34.2810466,65.7196717],[34.1980425,65.6895755],[34.1578427,65.6808966],[34.0572664,65.6471284],[34.0215209,65.6291493],[34.0006237,65.6257097],[33.8934375,65.5968225],[33.8021896,65.5597186],[33.7304151,65.515864],[33.6808378,65.4669835],[33.6552748,65.4149903],[33.6545819,65.3619085],[33.6613892,65.3471841],[30.374916,65.3477858],[30.409078,65.3250207],[30.4548924,65.2730521],[30.474229,65.2182581],[30.4697988,65.1868675],[30.4866148,65.1546706],[30.4884592,65.1004317],[30.482838,65.0879062],[30.482253,65.0879063],[29.8848605,65.0879869],[29.8798784,65.0830319],[29.8741481,65.078555],[29.8665282,65.0746102],[29.8572898,65.0713373],[29.846761,65.0688525],[29.8353154,65.0672438],[29.7575427,65.0596159],[29.757228,65.0596159],[29.6369541,65.0596199],[29.6660967,65.078325],[29.6369541,65.0596199],[29.597696,65.034422],[29.5868959,64.9922076],[29.6336963,64.9077787],[29.698497,64.8385471],[29.7812978,64.7963326],[30.1197012,64.7676268],[30.1053011,64.7254124],[30.1881019,64.662935],[30.1809018,64.6426721],[29.9540995,64.5683747],[29.9900999,64.5042088],[30.0693007,64.4721258],[30.0333003,64.3961398],[30.1629016,64.3421053],[30.3213032,64.3184653],[30.5,64.2448081],[30.5589056,64.2205278],[30.5337053,64.1631162],[30.5877059,64.0854416],[30.5517055,64.0212757],[30.5,63.9923295],[30.5,63.9923295],[30.3285033,63.8963209],[30.202502,63.7933177],[29.9792998,63.7409718],[30.4611434,63.4728004],[30.4617046,63.4724881],[30.8217082,63.3762391],[30.9765098,63.2884331],[31.1781118,63.2259558],[31.2249122,63.1955614],[31.2645126,63.1010011],[31.4805148,62.9861778],[31.5705157,62.9051261],[31.4409144,62.7886143],[31.2429124,62.5032447],[31.1529115,62.4677846],[30.9261093,62.302304],[30.6345063,62.1841036],[29.9792998,61.7281877],[29.8424984,61.6606446],[29.7776978,61.5931015],[29.6336963,61.5103613],[29.5184952,61.4749011],[29.4644946,61.4141124],[29.3168932,61.3381264],[29.201692,61.2452546],[28.798488,61.0966598],[28.6148861,60.9615737],[28.4816848,60.9328678],[27.8084781,60.552938],[27.7940779,60.532675],[27.8156782,60.5276093],[27.8624786,60.5681351],[27.8791739,60.5517616],[27.8501189,60.535373],[27.8419418,60.5315591],[27.8323541,60.5286477],[27.8217603,60.5267615],[27.8106069,60.5259799],[27.8079543,60.526064],[27.8088556,60.5225479],[27.8091776,60.5174715],[27.8075613,60.5124556],[27.8074465,60.5122988],[27.8079315,60.5115754],[27.8092462,60.5063413],[27.8084678,60.5010814],[27.8084227,60.5010007],[27.811935,60.5007142],[27.8221569,60.5008302],[27.832153,60.5018812],[27.8415747,60.5038305],[27.8500934,60.5066104],[27.8574117,60.5101237],[27.8601982,60.5120842],[27.8668815,60.5086868],[27.8760687,60.5056017],[27.8863257,60.5034927],[27.8972304,60.5024463],[27.9083344,60.5025057],[28.21769,60.5193764],[28.2287806,60.5205513],[28.2391377,60.5228276],[28.2483168,60.5261076],[28.2559235,60.5302504],[28.3150081,60.5700009],[28.3272732,60.5679443],[28.3373581,60.5667612],[28.3477114,60.566532],[28.3579638,60.5672649],[28.3677498,60.5689337],[28.37672,60.5714788],[28.3845544,60.5748096],[28.3909728,60.5788071],[28.3957457,60.5833287],[28.398702,60.5882128],[28.399735,60.5932849],[28.3988932,60.5978926],[28.4005844,60.5980642],[28.4099352,60.5999436],[28.4184236,60.6026345],[28.4257619,60.6060457],[28.4317008,60.6100617],[28.4360384,60.6145462],[28.438627,60.6193471],[28.446797,60.6431951],[28.5293601,60.6511039],[28.526599,60.6500233],[28.5184721,60.646097],[28.5121787,60.6414294],[28.5079898,60.6362222],[28.5060854,60.6307004],[28.5065466,60.6251023],[28.5180931,60.5860691],[28.517923,60.5860955],[28.5068088,60.5866581],[28.4383522,60.5866577],[28.4272283,60.5860936],[28.4165737,60.5844304],[28.4068326,60.5817375],[28.3984108,60.5781271],[28.3916588,60.5737497],[28.386857,60.5687875],[28.3842047,60.5634474],[28.3838109,60.5579514],[28.3856912,60.5525283],[28.3897661,60.5474035],[28.4401913,60.4988383],[28.2476633,60.3908268],[28.2400029,60.3815035],[28.1829331,60.3381645],[28.1103521,60.3009764],[28.0249309,60.2712831],[27.9444577,60.2534206],[27.913763,60.2419303],[27.8178978,60.2188912],[27.7149169,60.2055078],[27.7024804,60.2051347],[27.7003501,60.2046129],[27.6011122,60.191031],[27.4985368,60.1869307],[27.3962253,60.1924559],[27.2977712,60.2074128],[27.2496526,60.2172538],[27.1520214,60.1936135],[27.0469354,60.1800255],[26.9385464,60.1770295],[26.9315623,60.1775336],[26.872389,60.1638496],[26.774771,60.1514375],[26.702822,60.1490977],[26.6496607,60.1420488],[26.5936135,60.1375616],[26.5378777,60.1237201],[26.4354296,60.1097475],[26.4243498,60.1093522],[26.407011,60.1019709],[26.4054885,60.0744796],[26.4234623,60.0220764],[26.4641188,59.947939],[26.4997093,59.9006649],[26.5521177,59.8575103],[26.6079186,59.8264172],[26.319268,59.8434818],[26.2651192,59.8642089],[26.1682827,59.8876889],[26.0640194,59.9009524],[25.9629345,59.9033116],[25.9040143,59.919431],[25.8063319,59.9349973],[25.7220516,59.9399088],[25.6523722,59.9353949],[25.6056956,59.9371373],[25.6023788,59.93701],[25.5811171,59.9340814],[25.4948115,59.939234],[25.3878321,59.9347897],[25.3368596,59.9273231],[25.3368136,59.9273164],[25.3043524,59.9155377],[25.2122855,59.8938752],[25.1775226,59.8894073],[25.1074233,59.8605025],[25.0400702,59.8187827],[25.0326351,59.8116115],[24.9901304,59.8221806],[24.899675,59.8345332],[24.8995704,59.8345475],[24.8084338,59.793055],[24.7257921,59.7619926],[24.6330004,59.7394145],[24.5334393,59.726139],[24.4307176,59.7226465],[24.3438775,59.7281058],[24.2396381,59.7301155],[24.2155276,59.7330185],[24.1964549,59.7254748],[24.0972843,59.700758],[24.0133497,59.6897929],[24.0133486,59.6897916],[24.007195,59.6826177],[24.0067262,59.681879],[23.9791045,59.6715356],[23.9316691,59.6455316],[23.9178054,59.641518],[23.8309014,59.6293851],[23.7402225,59.6065728],[23.6599219,59.575431],[23.5971051,59.5395012],[23.5898726,59.5386619],[23.4955945,59.5172645],[23.4899291,59.5152267],[23.3992069,59.4970778],[23.2255542,59.4511621],[23.1329968,59.419832],[23.055599,59.3793048],[22.9967711,59.3313978],[22.9762774,59.3025375],[22.965814,59.3070254],[22.8797847,59.3316795],[22.7862111,59.347707],[22.6884164,59.3545383],[22.6085976,59.3562317],[22.511776,59.3536939],[22.4175929,59.3421321],[22.329281,59.3219447],[22.2498579,59.2938252],[22.182018,59.2587372],[22.1393024,59.2264142],[22.0060665,59.2201776],[21.9060777,59.2103515],[21.8118095,59.1908009],[21.7268494,59.1622736],[21.6544084,59.1258575],[21.5971955,59.0829373],[21.5573172,59.0351388],[21.5362036,58.9842652],[21.534565,58.9322277],[21.5523766,58.8809726],[21.5888928,58.8324087],[21.6426862,58.7883373],[21.6803416,58.767649],[21.6283012,58.7590498],[21.5419271,58.7346005],[21.4661937,58.7020922],[21.4038364,58.6627141],[21.3570793,58.617902],[21.3275584,58.5692838],[21.3162687,58.5186183],[21.3235389,58.4677308],[21.3490302,58.4184469],[21.3697672,58.3961792],[21.3451347,58.359807],[21.3306827,58.3079769],[21.3356806,58.2556397],[21.3598555,58.204777],[21.4022181,58.1573063],[21.4611109,58.1150102],[21.4992269,58.0965109],[21.4671801,58.0485196],[21.4534632,57.9930085],[21.4617748,57.9371759],[21.4916566,57.8834345],[21.5380825,57.8234898],[21.5332457,57.8227304],[21.4372415,57.7944737],[21.3551663,57.7558116],[21.2908931,57.7085935],[20.987273,57.4222237],[20.9438749,57.3674555],[20.9240502,57.3088749],[20.9009574,57.1286489],[20.7010234,57.0197221],[20.6378352,56.9772053],[20.5919181,56.9285987],[20.5651154,56.8759289],[20.5584579,56.821383],[20.5650802,56.718719],[20.5183446,56.6147031],[20.5050237,56.566244],[20.5079412,56.517254],[20.5146616,56.5003265],[20.4841099,56.2750175]],[[21.9944199,58.5131366],[22,58.5077007],[22.0880209,58.4219534],[22,58.5077007],[21.9944199,58.5131366]],[[21.99802,57.5996163],[22,57.6001391],[22.599226,57.7583426],[22,57.6001391],[21.99802,57.5996163]],[[21.99802,57.9846119],[22,57.9868563],[22.0024611,57.9896461],[22,57.9868563],[21.99802,57.9846119]],[[23.1975703,58.0924609],[23.2686599,58.1240815],[23.2874087,58.1363084],[23.3437301,58.1532848],[23.3624929,58.1621669],[23.3719906,58.155804],[23.434675,58.1281217],[23.4320448,58.1024148],[23.4417908,58.0667143],[23.3741476,58.0815779],[23.279567,58.0918959],[23.1975703,58.0924609]],[[23.5029966,57.5469164],[23.5069092,57.5477725],[23.5910152,57.5778654],[23.6622826,57.6163378],[23.7178214,57.6616543],[23.7553442,57.7119998],[23.7732648,57.7653495],[23.7707729,57.819549],[23.7639599,57.8482866],[23.7579176,57.8625978],[23.7678764,57.860054],[23.7833677,57.85794],[23.7809381,57.8432724],[23.7914875,57.7911122],[23.8728629,57.580948],[23.8912373,57.3646115],[23.7124551,57.2659404],[23.6957,57.2645052],[23.6127274,57.4379149],[23.5779856,57.4884965],[23.5250682,57.5343462],[23.5029966,57.5469164]],[[23.7584376,59.2831278],[24,59.2918435],[24,59.2918435],[24.0392404,59.2932593],[24,59.2918435],[24,59.2918435],[23.7584376,59.2831278]],[[23.9420394,58.1129438],[24,58.1081462],[24.00324,58.1078781],[24,58.1081462],[23.9420394,58.1129438]],[[23.9528395,57.01368],[23.9887304,57.0378337],[24,57.0454179],[24.0251186,57.0623221],[24.0356404,57.069403],[24.0251186,57.0623221],[24,57.0454179],[23.9887304,57.0378337],[23.9528395,57.01368]],[[24,58.3079463],[24,58.3079463],[24.1112411,58.2412757],[24,58.3079463]],[[24.3056431,57.8681001],[24.3851154,58],[24.399244,58.0234492],[24.3851154,58],[24.3056431,57.8681001]],[[25.9868599,59.6343519],[26,59.6281886],[26,59.6281886],[26.0912609,59.5853832],[26,59.6281886],[26,59.6281886],[25.9868599,59.6343519]],[[27.0332457,59.7486614],[27.12058,59.752742],[27.2167159,59.7665921],[27.3061274,59.7891627],[27.3857367,59.8196811],[27.3935362,59.82404],[27.3951122,59.8229247],[27.4717261,59.7864976],[27.4824671,59.7830979],[27.4752862,59.7732405],[27.4590174,59.7223779],[27.4605411,59.698143],[27.130394,59.7126261],[27.0332457,59.7486614]],[[27.801278,59.9990846],[27.8017916,60],[27.8192782,60.0311676],[27.8017916,60],[27.801278,59.9990846]],[[27.902079,60.5292979],[28,60.5346385],[28.2116821,60.5461836],[28,60.5346385],[27.902079,60.5292979]],[[27.9524795,59.4283455],[28,59.4679708],[28.0172802,59.48238],[28,59.4679708],[27.9524795,59.4283455]],[[29.6588966,60.0261018],[29.7256753,60],[29.7256753,60],[29.6588966,60.0261018]],[[29.7459424,45.2127862],[29.7459445,45.212787],[29.7460412,45.2128246],[29.7523166,45.2152634],[29.7460412,45.2128246],[29.7460219,45.2128171],[29.7460412,45.2128246],[29.7460416,45.2128248],[29.7460459,45.2128177],[29.7459424,45.2127862]],[[29.7672656,60],[29.7672656,60],[29.7920979,59.9940189],[29.7672656,60]],[[29.9900999,45.8471185],[30,45.8440762],[30.0945009,45.8150355],[30,45.8440762],[29.9900999,45.8471185]],[[30,60.0236789],[30,60.0236789],[30.2097021,60.0007732],[30,60.0236789]],[[30.3842647,46],[30.3842647,46],[30.3968669,46.0091949],[30.4485537,46.0469069],[30.4485544,46.0469074],[30.4526576,46.0499011],[30.462445,46.0570423],[30.4752249,46.0663668],[30.4941049,46.0801422],[30.4752249,46.0663668],[30.462445,46.0570423],[30.4526576,46.0499011],[30.4485544,46.0469074],[30.4485537,46.0469069],[30.3968669,46.0091949],[30.3842647,46],[30.3842647,46],[30.3842647,46]],[[31.5813158,46.2625085],[32,46.1806829],[32.1429214,46.152751],[32,46.1806829],[31.5813158,46.2625085]],[[31.8621186,46.5191723],[32,46.5154231],[32,46.5154231],[31.8621186,46.5191723]],[[31.9413194,46.2050969],[32,46.1898605],[32,46.1898605],[32.1429214,46.152751],[32,46.1898605],[32,46.1898605],[31.9413194,46.2050969]],[[33.6297363,45.9957133],[33.6305523,46],[33.6477365,46.0902736],[33.6305523,46],[33.6297363,45.9957133]],[[34.8105481,46.1763911],[34.8562857,46],[34.8753488,45.9264816],[34.8562857,46],[34.8105481,46.1763911]],[[35.3257421,45.8824443],[35.3300023,45.8838589],[35.3866977,45.9069797],[35.4370142,45.9364544],[35.4795019,45.9714407],[35.7709665,46.2554269],[36.0419892,46.3901377],[36.0485323,46.3905235],[36.0603996,46.3837373],[36.1263159,46.3588996],[36.1978239,46.3432151],[36.272308,46.337256],[36.3470489,46.3412396],[36.4193185,46.3550205],[36.4864748,46.3780955],[36.546055,46.4096214],[36.5513802,46.4137761],[36.6174673,46.3888498],[36.6929529,46.3728365],[36.7715081,46.367616],[36.8499599,46.3733986],[36.9251392,46.3899507],[36.9940033,46.4166035],[37.0537547,46.4522789],[37.1019508,46.4955314],[37.1366033,46.5446044],[37.1722192,46.6113609],[37.214443,46.6267419],[37.2421945,46.6200784],[37.3183267,46.612709],[37.3482995,46.6138733],[37.3509385,46.6025317],[37.3766839,46.5539785],[37.5544615,46.2962094],[37.5932837,46.2513493],[37.6437686,46.2124892],[37.6565425,46.2043807],[37.6327245,46.1868323],[37.5927923,46.1427075],[37.5658994,46.0940413],[37.4977469,45.9219447],[37.4852379,45.9194775],[37.4185565,45.8958102],[37.359757,45.8635608],[37.311058,45.8239552],[37.2787501,45.7917737],[37.2415862,45.7456061],[37.218105,45.6952164],[37.209179,45.6425623],[37.2083454,45.6130064],[37.0048685,45.6848193],[36.9344269,45.7037541],[36.8600613,45.7126446],[36.7846696,45.7111438],[36.7111915,45.6993099],[36.6680948,45.6857016],[36.6394497,45.6898747],[36.4949715,45.7004813],[36.4502936,45.7199821],[36.3754154,45.7390772],[36.2965208,45.7469117],[36.2170362,45.7431446],[36.050631,45.7227795],[35.9988457,45.7123767],[35.96098,45.7248193],[35.8889943,45.737419],[35.8148964,45.74006],[35.7414788,45.7326426],[35.671507,45.7154463],[35.6076115,45.6891189],[35.5521848,45.6546511],[35.5393055,45.6428078],[35.3412729,45.8577651],[35.3257421,45.8824443]],[[35.6175701,64.679628],[35.6248322,64.6979997],[35.7025822,64.692566],[35.8268013,64.6944637],[35.9238249,64.7043151],[35.9418966,64.6687554],[35.8952708,64.672119],[35.7683464,64.6700508],[35.7572489,64.6688747],[35.7088544,64.6754567],[35.6175701,64.679628]],[[35.9877599,45.3624968],[36,45.3642192],[36,45.3642192],[36.0237602,45.3675626],[36,45.3642192],[36,45.3642192],[35.9877599,45.3624968]],[[36,64.2042147],[36,64.2042147],[36.0597606,64.2188392],[36,64.2042147]],[[36,65.0594109],[36,65.0594109],[36.852656,65.0593829],[36,65.0594109]],[[36.2937629,64.0094556],[36.3601207,64],[36.5781658,63.9689298],[36.3601207,64],[36.2937629,64.0094556]],[[37.5718457,65.0593593],[38,65.0593452],[40,65.0592795],[40.1593481,65.0592743],[40,65.0592795],[38,65.0593452],[37.5718457,65.0593593]],[[37.8597786,47.1017314],[38,47.084574],[38.0253803,47.0814685],[38,47.084574],[37.8597786,47.1017314]],[[37.902979,64.2391021],[38,64.1776675],[38,64.1776675],[37.902979,64.2391021]],[[37.902979,64.2391021],[38,64.2732325],[38.00378,64.2745623],[38,64.2732325],[37.902979,64.2391021]],[[37.9101791,64.3437939],[38,64.3152542],[38.0217802,64.3083338],[38,64.3152542],[37.9101791,64.3437939]],[[37.9389794,46.021042],[38,46.0353527],[38.097381,46.0581907],[38,46.0353527],[37.9389794,46.021042]],[[37.9893799,46.4026604],[38,46.400641],[38.1225812,46.3773318],[38,46.400641],[37.9893799,46.4026604]],[[38,46.6242144],[38,46.6242144],[38.2701827,46.731933],[38,46.6242144]],[[38.0433804,45.9602532],[38.0634504,46],[38.0757808,46.0244191],[38.0634504,46],[38.0433804,45.9602532]],[[39.8253983,64.6798208],[40,64.6593468],[40,64.6593468],[39.8253983,64.6798208]],[[39.8505985,64.6764436],[40,64.6384363],[40.0630006,64.6224092],[40,64.6384363],[39.8505985,64.6764436]],[[39.8721987,65.2775772],[40,65.1702139],[40.1134011,65.0749479],[40,65.1702139],[39.8721987,65.2775772]],[[39.9837998,64.7186581],[40,64.7137413],[40.0450005,64.7000837],[40,64.7137413],[39.9837998,64.7186581]],[[40.1593481,65.0592743],[42,65.0592139],[43.3507497,65.0591695],[44,65.0591482],[43.3507497,65.0591695],[42,65.0592139],[40.1593481,65.0592743]]]}}
