{"type":"Feature","properties":{"family":"other","name":"Kingdom of Sardinia, 1814 – 1815"},"geometry":{"type":"Polygon","coordinates":[[[6.08,45.4],[6.1091667,45.35],[6.15,45.28],[6.2,45.17],[6.35,45.1],[6.42,45.06],[6.58,45.1],[6.6070677,45.1],[6.6510665,45.0349128],[6.7230672,45.0129613],[6.7446674,44.9082695],[6.8454685,44.8593008],[6.9822698,44.8474808],[7.0074701,44.8221521],[6.99667,44.7934463],[7.0542705,44.6853773],[6.9606696,44.6836888],[6.9354694,44.6465401],[6.9462695,44.6262771],[6.8346683,44.5334054],[6.8598686,44.4743052],[6.9174692,44.4354679],[6.8778688,44.415205],[6.8706687,44.3628591],[6.8893633,44.3424933],[6.9822698,44.2412815],[6.8893633,44.3424933],[6.78,44.28],[6.72,44.2],[6.75,44.05],[6.84,43.96],[6.95,43.9],[7.1,43.86],[7.18,43.8],[7.2,43.66],[7.2,43.6447229],[7.2054721,43.6435252],[7.2335322,43.6751126],[7.2371113,43.6471882],[7.2370708,43.6419207],[7.2356156,43.6367603],[7.2328016,43.6319039],[7.2287364,43.627537],[7.2235754,43.6238259],[7.2175155,43.6209122],[7.2107878,43.618907],[7.203649,43.6178867],[7.196371,43.6178903],[7.1892313,43.6189175],[7.1889315,43.6189832],[7.189214,43.6188986],[7.1946839,43.6177013],[7.2014216,43.616706],[7.208297,43.6166236],[7.2150764,43.6174567],[7.2215291,43.6191771],[7.2274358,43.6217264],[7.2325953,43.6250177],[7.2368321,43.6289391],[7.2621744,43.6574571],[7.3324225,43.6587691],[7.3393324,43.6593658],[7.345969,43.6608806],[7.3521015,43.6632608],[7.3575163,43.6664236],[7.362025,43.670259],[7.398035,43.7073983],[7.4016369,43.7120174],[7.4067223,43.7203619],[7.4067218,43.7203615],[7.4067216,43.7203614],[7.4067181,43.7203586],[7.4067181,43.7203586],[7.4067173,43.720358],[7.4067173,43.720358],[7.4067162,43.7203571],[7.4067162,43.7203571],[7.4067161,43.720357],[7.4067161,43.720357],[7.4067021,43.7203461],[7.4067021,43.7203461],[7.4066956,43.720341],[7.4066956,43.720341],[7.403474,43.7178226],[7.3674737,43.7228883],[7.3890739,43.7583484],[7.4358744,43.7431512],[7.409178,43.7222816],[7.409178,43.7222816],[7.409177,43.7222808],[7.409177,43.7222808],[7.4091711,43.7222762],[7.4091711,43.7222762],[7.4091677,43.7222736],[7.4091677,43.7222736],[7.4091618,43.7222689],[7.4091618,43.7222689],[7.409161,43.7222683],[7.409161,43.7222683],[7.4091447,43.7222555],[7.4205622,43.7185459],[7.4278199,43.7168075],[7.4354151,43.716174],[7.4430296,43.7166718],[7.4503443,43.7182801],[7.4570525,43.7209315],[7.4628732,43.724515],[7.5164729,43.7650138],[7.5595136,43.764637],[7.5595136,43.7646368],[7.5595147,43.7646284],[7.5712501,43.6688155],[7.5711438,43.6608458],[7.5705479,43.616146],[7.5624097,43.5878385],[7.5557258,43.5645895],[7.5273832,43.5161078],[7.4866272,43.4725412],[7.480161,43.4679085],[7.4748136,43.4537545],[7.4748132,43.4537536],[7.6127562,43.5213714],[7.6901784,43.5206596],[7.7624853,43.5250796],[7.8322614,43.5395496],[8.2053498,43.6454905],[8.2603726,43.6648808],[8.3103114,43.6904995],[8.4074147,43.7493987],[8.4525241,43.7817958],[8.4894154,43.8192377],[8.5170109,43.8606468],[8.5618413,43.9456218],[8.6020766,43.9630888],[8.668129,43.9994577],[8.7214978,44.045383],[8.7595477,44.0986238],[8.7716445,44.1214537],[8.8244925,44.1444047],[8.9231162,44.1278272],[8.9597655,44.1043683],[9.0203086,44.0727371],[9.0754218,44.0545766],[9.0754211,44.0545778],[8.9033207,44.3665685],[9.0754211,44.0545778],[9.5155549,43.2566849],[9.5538732,43.1872198],[9.7008979,42.8936407],[9.7019469,41.525335],[9.7020102,41.4428329],[9.7021963,41.1999898],[9.7020102,41.4428329],[9.7020102,41.442841],[9.6931591,41.4490862],[9.6659589,41.4619552],[9.6659544,41.4619497],[9.6659524,41.461947],[9.6444462,41.4349348],[9.6056202,41.3955978],[9.6039527,41.3801485],[9.5848613,41.3296017],[9.5558179,41.273974],[9.525362,41.2286719],[9.5080499,41.2117801],[9.5080499,41.2117801],[9.5080499,41.2117801],[9.5093353,41.2344656],[9.5088602,41.2401382],[9.506815,41.2456101],[9.5032902,41.2506385],[9.498442,41.2550001],[9.4924856,41.258501],[9.4780824,41.2652578],[9.4714877,41.267685],[9.4643738,41.2690523],[9.4570386,41.2693023],[9.4509736,41.2685681],[9.4503516,41.2701741],[9.4478719,41.2748784],[9.4442667,41.2791519],[9.4396627,41.2828443],[9.4342219,41.2858256],[9.4281357,41.2879908],[9.4216185,41.2892636],[9.4148996,41.2895992],[9.4082157,41.2889858],[9.4018023,41.287445],[9.3958851,41.2850311],[9.3906724,41.281829],[9.3474715,41.2497364],[9.3427152,41.2453696],[9.3392722,41.2403538],[9.3387315,41.2388663],[9.3325214,41.2387696],[9.3258178,41.2376833],[9.3195122,41.2356573],[9.3177674,41.2347686],[9.3161273,41.2370798],[9.3116719,41.2411686],[9.3062414,41.2445255],[9.3019687,41.2462465],[9.3013456,41.2477909],[9.2977237,41.2527295],[9.292815,41.2569941],[9.2568134,41.2823305],[9.251287,41.285521],[9.2450441,41.2878488],[9.2383202,41.2892261],[9.2313689,41.289601],[9.2244525,41.2889592],[9.2178318,41.287325],[9.1566122,41.2670544],[9.150862,41.2646527],[9.1457922,41.2615021],[9.1415732,41.2577086],[9.1383465,41.2533996],[9.1362206,41.2487202],[9.112324,41.1743574],[8.9953232,41.1483494],[8.9881203,41.1460749],[8.987844,41.1459276],[8.9878438,41.1459277],[8.9878438,41.1459277],[8.9870459,41.14612],[8.9216098,41.1674194],[8.8629855,41.1980143],[8.8134839,41.2367057],[8.801436,41.2509108],[8.7177511,41.2836316],[8.656735,41.2251602],[8.6488778,41.2415715],[8.6137468,41.2858922],[8.5679829,41.3243598],[8.5132561,41.355556],[8.4515757,41.3783287],[8.385216,41.3918358],[8.3166304,41.3955774],[8.2483577,41.3894148],[8.1829246,41.3735764],[8.1227491,41.348648],[8.070048,41.3155512],[8.026754,41.2755078],[7.9118854,41.1451847],[7.8783972,41.0971988],[7.8624465,41.055768],[7.8597706,41.051832],[7.8329089,40.9994875],[7.8210097,40.9440804],[7.8245508,40.8880135],[7.828712,40.8759956],[7.8046401,40.8313213],[7.7853439,40.7828864],[7.7783458,40.7325754],[7.7838642,40.6821595],[7.8016768,40.6334094],[7.8051977,40.6279893],[7.7987621,40.6033296],[7.7990919,40.5494005],[7.8135158,40.4965982],[7.8414265,40.447027],[7.8816855,40.4026583],[7.9326722,40.3652525],[7.9923508,40.3362913],[8.0359594,40.3234976],[8.0434246,40.2860496],[8.0676495,40.2354875],[8.0975204,40.1982878],[8.063924,40.1596498],[8.0372646,40.1092265],[8.0243965,40.0557362],[8.0258105,40.0013576],[8.0414151,39.9483001],[8.0440034,39.9438976],[8.0435471,39.940328],[8.0442,39.8829894],[8.0606089,39.8270505],[8.0919968,39.7750313],[8.0950835,39.7710764],[8.0942495,39.7350385],[8.1074025,39.6107312],[8.0442239,39.4632512],[8.0285711,39.4070814],[8.028601,39.3900686],[7.987125,39.3644238],[7.9410338,39.3209551],[7.9076387,39.2710263],[7.888369,39.2168177],[7.8840301,39.1606913],[7.8947743,39.1050865],[7.9166756,39.0392977],[7.9380977,38.9928617],[7.9699999,38.9502274],[8.0113036,38.9128118],[8.0606241,38.8818564],[8.1163176,38.8583866],[8.1193727,38.8576159],[8.131802,38.8397415],[8.1688367,38.7968327],[8.2156426,38.7602046],[8.2704996,38.7311923],[8.3314021,38.7108514],[8.3554521,38.7067952],[8.397258,38.6742056],[8.4521438,38.6393528],[8.5149155,38.613938],[8.5829583,38.5990165],[8.6534458,38.5952074],[8.7234537,38.6026687],[8.7743247,38.6167396],[8.8284395,38.6093288],[8.8964416,38.6105749],[8.9628232,38.6221914],[9.0250309,38.6437317],[9.0806666,38.6743674],[9.2533347,38.790528],[9.2964144,38.8250847],[9.3309589,38.8650581],[9.3372624,38.8762344],[9.387254,38.8555261],[9.4505162,38.840388],[9.516299,38.8348685],[9.5822257,38.8391669],[9.6459148,38.8531278],[9.705063,38.8762466],[9.7575257,38.9076874],[9.8013936,38.9463119],[9.8350605,38.99072],[9.9509453,39.1828864],[9.974041,39.2337073],[9.9836645,39.2870765],[9.979401,39.3408679],[9.9613884,39.3929336],[9.9610913,39.3933954],[10.0816613,40.0462804],[10.0848905,40.0958586],[10.0761889,40.1450537],[10.0558258,40.1921974],[10.0359125,40.2198238],[10.0556669,40.2410928],[10.0814124,40.2818638],[10.1576561,40.4336079],[10.1763523,40.4858995],[10.1809482,40.5399826],[10.171224,40.5936764],[10.1475388,40.6448101],[10.0684306,40.7724322],[10.080655,40.8218886],[10.0802606,40.8733],[10.0669657,40.9237231],[10.0412255,40.9713224],[10.0206274,40.9951153],[10.0189706,41.0366221],[10.0042792,41.086335],[9.9774248,41.1330775],[9.9393442,41.1751754],[9.903515,41.202032],[9.8774471,41.2509799],[9.8383671,41.2957881],[9.816198,41.3126412],[9.8121113,41.3251417],[9.7979173,41.3482386],[9.7989001,42.6304635],[9.7991067,42.8999878],[9.7983643,42.906242],[9.7961484,42.9123064],[9.7890456,42.9265334],[9.6463445,43.2123663],[9.6459349,43.2131536],[9.1925984,44.0372852],[9.0140528,44.3618676],[9.1925984,44.0372852],[9.1926006,44.0372813],[9.2033604,44.037033],[9.6129634,43.8239325],[9.6738601,43.7979702],[9.7404029,43.7807143],[9.8102354,43.7727749],[9.8808892,43.7744324],[9.9470444,43.7851706],[10.0063483,43.7792989],[10.0811475,43.7827508],[10.153518,43.7968645],[10.2181476,43.8201999],[10.2181461,43.8202079],[10.2181349,43.8202688],[10.2180592,43.8206797],[10.2146012,43.8394501],[10.1785528,43.9070099],[10.171634,43.9133851],[10.1716251,43.9133952],[10.1675872,43.9180131],[10.1716251,43.9133952],[10.171625,43.9133953],[10.1377608,43.9446011],[10.1377568,43.9446057],[10.1426065,43.9409121],[10.1377568,43.9446057],[10.1377387,43.9446195],[10.0826144,43.9954213],[10.0028641,44.024886],[10.0028439,44.0248952],[10.0099681,44.0228926],[10.0175228,44.0219707],[10.0251807,44.0221713],[10.0326227,44.0234861],[10.0395388,44.0258602],[10.0456406,44.0291948],[10.0506738,44.0333509],[10.0532221,44.0366117],[10.0532216,44.0366119],[10.02,44.048889],[10.02,44.048889],[10,44.05628],[10,44.05628],[10.02,44.048889],[10.02,44.1],[9.85,44.25],[9.7,44.4],[9.45,44.47],[9.3174419,44.5848837],[9.4,44.75],[9.35,45.1],[9.27,45.13],[9.16,45.18],[9.05,45.24],[8.88,45.35],[8.78,45.45],[8.7,45.58],[8.62,45.72],[8.58,45.8],[8.56,45.9],[8.62,45.98],[8.6777026,46.0954052],[8.602286,46.1223566],[8.5086851,46.208474],[8.45,46.2304948],[8.4366844,46.2354913],[8.4222842,46.2760171],[8.4471949,46.4112203],[8.4474845,46.4127919],[8.4461398,46.415441],[8.4461398,46.415441],[8.4294843,46.448252],[8.400684,46.4516292],[8.3178832,46.4330548],[8.2818828,46.3705775],[8.0766808,46.2625085],[8.1306813,46.196654],[8.1090811,46.1274223],[8.0262803,46.0919622],[7.9866799,45.9990905],[7.896679,45.9822047],[7.86,45.9439734],[7.8318783,45.9146616],[7.695077,45.9281702],[7.6446764,45.9670075],[7.5402754,45.9838933],[7.3926739,45.9163502],[7.1550716,45.8758243],[7.0902709,45.8808901],[7.0218702,45.9247931],[6.9858699,45.9923362],[6.9138691,46.0480592],[6.8490685,46.0531249],[6.8706687,46.1122251],[6.7734677,46.1341766],[6.7734677,46.1865225],[6.8274683,46.2692628],[6.7518675,46.3452488],[6.7878679,46.3959061],[6.7698891,46.42],[6.7626676,46.4296777],[6.5466655,46.4566949],[6.301863,46.3942175],[6.2154622,46.3148544],[6.2366531,46.2905578],[6.2802628,46.240557],[6.1311559,46.1531348],[6.25,46.08],[6.38,45.95],[6.45,45.75],[6.35,45.6],[6.22,45.45],[6.12,45.35],[6.1091667,45.35],[6.08,45.4]],[[9.6858969,39.9607381],[9.7008034,40],[9.7008034,40],[9.7326973,40.0840043],[9.7008034,40],[9.7008034,40],[9.6858969,39.9607381]]]}}
