{"type":"Feature","properties":{"family":"other","name":"Kingdom of Sardinia, 1815"},"geometry":{"type":"Polygon","coordinates":[[[5.64,45.62],[5.7,45.52],[5.75,45.44],[5.88,45.42],[5.98,45.47],[6.08,45.4],[6.1091667,45.35],[6.15,45.28],[6.2,45.17],[6.35,45.1],[6.42,45.06],[6.58,45.1],[6.6070677,45.1],[6.6510665,45.0349128],[6.7230672,45.0129613],[6.7446674,44.9082695],[6.8454685,44.8593008],[6.9822698,44.8474808],[7.0074701,44.8221521],[6.99667,44.7934463],[7.0542705,44.6853773],[6.9606696,44.6836888],[6.9354694,44.6465401],[6.9462695,44.6262771],[6.8346683,44.5334054],[6.8598686,44.4743052],[6.9174692,44.4354679],[6.8778688,44.415205],[6.8706687,44.3628591],[6.8893633,44.3424933],[6.9822698,44.2412815],[6.8893633,44.3424933],[6.78,44.28],[6.72,44.2],[6.75,44.05],[6.84,43.96],[6.95,43.9],[7.1,43.86],[7.18,43.8],[7.2,43.66],[7.2,43.6447229],[7.2054721,43.6435252],[7.2335322,43.6751126],[7.2371113,43.6471882],[7.2370708,43.6419207],[7.2356156,43.6367603],[7.2328016,43.6319039],[7.2287364,43.627537],[7.2235754,43.6238259],[7.2175155,43.6209122],[7.2107878,43.618907],[7.203649,43.6178867],[7.196371,43.6178903],[7.1892313,43.6189175],[7.1889315,43.6189832],[7.1889267,43.6189843],[7.1892136,43.6188983],[7.1946835,43.6177011],[7.2014212,43.6167058],[7.2082967,43.6166233],[7.215076,43.6174565],[7.2215288,43.619177],[7.2274355,43.6217263],[7.2325951,43.6250176],[7.236832,43.6289391],[7.262174,43.6574569],[7.3324218,43.6587689],[7.3393319,43.6593656],[7.3459686,43.6608804],[7.3521011,43.6632607],[7.357516,43.6664236],[7.3620248,43.6702591],[7.3980348,43.7073984],[7.4016368,43.7120177],[7.4067218,43.7203615],[7.4067216,43.7203614],[7.4067181,43.7203586],[7.4067181,43.7203586],[7.4067173,43.720358],[7.4067173,43.720358],[7.4067162,43.7203571],[7.4067162,43.7203571],[7.4067161,43.720357],[7.4067161,43.720357],[7.4067021,43.7203461],[7.4067021,43.7203461],[7.4066956,43.720341],[7.4066956,43.720341],[7.403474,43.7178226],[7.3674737,43.7228883],[7.3890739,43.7583484],[7.4358744,43.7431512],[7.409178,43.7222816],[7.409178,43.7222816],[7.409177,43.7222808],[7.409177,43.7222808],[7.4091711,43.7222762],[7.4091711,43.7222762],[7.4091677,43.7222736],[7.4091677,43.7222736],[7.4091618,43.7222689],[7.4091618,43.7222689],[7.409161,43.7222683],[7.409161,43.7222683],[7.4091447,43.7222555],[7.4091443,43.7222553],[7.4205618,43.7185457],[7.4278195,43.7168073],[7.4354147,43.7161738],[7.4430292,43.7166716],[7.4503439,43.71828],[7.4570522,43.7209315],[7.462873,43.724515],[7.5164723,43.7650137],[7.5595136,43.7646368],[7.5595147,43.7646284],[7.5712501,43.6688155],[7.5711438,43.6608458],[7.5705479,43.616146],[7.5624097,43.5878385],[7.5557258,43.5645895],[7.5273832,43.5161078],[7.4866272,43.4725412],[7.480161,43.4679085],[7.4748136,43.4537545],[7.6127512,43.5213703],[7.6901732,43.5206588],[7.7624807,43.5250791],[7.8322575,43.5395496],[8.2053447,43.6454914],[8.2603692,43.6648825],[8.3103095,43.6905022],[8.4074122,43.7494015],[8.4525229,43.7817997],[8.4894152,43.8192427],[8.5170113,43.8606531],[8.5618402,43.945626],[8.6020725,43.9630918],[8.6681269,43.999462],[8.7214973,44.0453889],[8.759548,44.0986312],[8.7716437,44.1214591],[8.8244846,44.1444073],[8.9231086,44.12783],[8.9597603,44.1043699],[9.0203036,44.0727391],[9.0754211,44.0545778],[9.0754218,44.0545766],[9.5155549,43.2566849],[9.5538732,43.1872198],[9.7008979,42.8936407],[9.7019469,41.525335],[9.7020102,41.442841],[9.7021963,41.1999898],[9.7020102,41.4428329],[9.6931588,41.4490784],[9.6659544,41.4619497],[9.6659524,41.461947],[9.6444462,41.4349348],[9.6056202,41.3955978],[9.6039527,41.3801485],[9.5848613,41.3296017],[9.5558179,41.273974],[9.525362,41.2286719],[9.5080499,41.2117801],[9.5080499,41.2117801],[9.5093353,41.234465],[9.5088601,41.2401375],[9.5068149,41.2456094],[9.5032901,41.2506378],[9.4984419,41.2549994],[9.4924853,41.2585004],[9.4780821,41.2652571],[9.4714874,41.2676844],[9.4643735,41.2690517],[9.4570384,41.2693019],[9.4509735,41.2685677],[9.4503516,41.2701733],[9.4478719,41.2748776],[9.4442666,41.2791511],[9.4396626,41.2828436],[9.4342218,41.2858249],[9.4281355,41.2879902],[9.4216181,41.289263],[9.4148992,41.2895987],[9.4082152,41.2889854],[9.4018018,41.2874447],[9.3958846,41.2850308],[9.3906719,41.2818287],[9.347471,41.2497362],[9.3427149,41.2453694],[9.339272,41.2403539],[9.3387311,41.2388658],[9.3325211,41.2387692],[9.3258176,41.237683],[9.319512,41.2356571],[9.317767,41.2347684],[9.3161273,41.237079],[9.3116719,41.2411678],[9.3062414,41.2445248],[9.3019686,41.2462458],[9.3013456,41.2477901],[9.2977237,41.2527288],[9.2928148,41.2569934],[9.2568133,41.2823299],[9.2512867,41.2855204],[9.2450437,41.2878483],[9.2383197,41.2892257],[9.2313683,41.2896005],[9.2244517,41.2889588],[9.217831,41.2873247],[9.1566114,41.267054],[9.1508614,41.2646524],[9.1457918,41.261502],[9.1415729,41.2577086],[9.1383464,41.2533999],[9.1362206,41.2487206],[9.1123237,41.1743572],[8.9953223,41.1483491],[8.9881196,41.1460746],[8.9878438,41.1459277],[8.9878438,41.1459277],[8.9870459,41.14612],[8.9216098,41.1674194],[8.8629855,41.1980143],[8.8134839,41.2367057],[8.801436,41.2509108],[8.7177511,41.2836316],[8.7177487,41.2836326],[8.6567315,41.2251606],[8.648878,41.2415644],[8.6137471,41.2858856],[8.5679833,41.324354],[8.5132565,41.3555512],[8.451576,41.378325],[8.3852162,41.3918334],[8.3166304,41.3955763],[8.2483575,41.389415],[8.1829241,41.3735777],[8.1227483,41.3486503],[8.070047,41.3155544],[8.026753,41.2755116],[7.9118836,41.1451882],[7.8783958,41.0972026],[7.8624467,41.0557747],[7.8597696,41.0518371],[7.8329083,40.9994931],[7.8210095,40.9440861],[7.8245511,40.8880192],[7.8287119,40.8760031],[7.8046392,40.8313274],[7.7853432,40.7828924],[7.7783458,40.732581],[7.783865,40.6821645],[7.8016787,40.6334138],[7.8051975,40.6279972],[7.7987619,40.6033372],[7.7990921,40.5494079],[7.8135167,40.496605],[7.8414283,40.4470331],[7.8816881,40.4026634],[7.9326757,40.3652567],[7.9923551,40.3362944],[8.0359608,40.323501],[8.0434252,40.2860581],[8.0676513,40.2354945],[8.0975207,40.1982973],[8.0639193,40.1596526],[8.0372617,40.1092296],[8.0243956,40.0557394],[8.0258119,40.0013608],[8.0414188,39.9483031],[8.0440031,39.9439077],[8.043547,39.9403394],[8.0442002,39.8830003],[8.0606098,39.8270604],[8.0919987,39.77504],[8.0950835,39.7710877],[8.0942494,39.7350522],[8.1074024,39.6107441],[8.044223,39.4632623],[8.0285708,39.4070931],[8.0286009,39.3900775],[7.9871165,39.3644275],[7.9410284,39.3209612],[7.907636,39.2710349],[7.8883681,39.2168288],[7.8840302,39.1607044],[7.8947745,39.105101],[7.916676,39.039312],[7.9380997,38.9928732],[7.9700043,38.9502361],[8.0113111,38.9128179],[8.0606352,38.8818602],[8.1163325,38.8583888],[8.1193804,38.85762],[8.1318046,38.839753],[8.1688403,38.7968431],[8.215647,38.7602136],[8.2705046,38.7311994],[8.3314076,38.7108565],[8.3554654,38.7067982],[8.3972656,38.6742133],[8.4521531,38.6393593],[8.5149261,38.6139431],[8.5829698,38.5990201],[8.6534577,38.5952095],[8.7234653,38.6026691],[8.7743483,38.6167423],[8.8284565,38.6093321],[8.8964583,38.6105774],[8.9628389,38.622193],[9.0250449,38.6437323],[9.0806785,38.6743667],[9.2533456,38.7905274],[9.2964216,38.8250814],[9.3309631,38.8650517],[9.3372741,38.8762416],[9.387266,38.8555331],[9.4505284,38.8403943],[9.5163109,38.8348738],[9.5822368,38.8391707],[9.6459247,38.8531298],[9.7050712,38.8762466],[9.7575322,38.9076852],[9.8013983,38.9463074],[9.8350634,38.9907132],[9.9509473,39.1828789],[9.9740417,39.2336975],[9.9836643,39.2870648],[9.9794,39.3408547],[9.9613871,39.3929195],[9.9610896,39.3933818],[10.0816605,40.0462676],[10.0848902,40.0958454],[10.0761887,40.1450407],[10.0558252,40.1921849],[10.0359089,40.2198152],[10.0556705,40.2410919],[10.0814141,40.2818603],[10.1576572,40.4336038],[10.1763525,40.4858931],[10.1809478,40.5399742],[10.1712234,40.5936663],[10.1475384,40.6447988],[10.06843,40.7724212],[10.0806555,40.8218869],[10.0802596,40.8732967],[10.0669636,40.9237183],[10.0412225,40.9713163],[10.0206279,40.9951045],[10.0189692,41.0366209],[10.0042762,41.0863325],[9.9774204,41.1330738],[9.9393387,41.1751709],[9.9035166,41.2020211],[9.8774452,41.2509738],[9.8383645,41.2957817],[9.8161982,41.3126323],[9.8121111,41.325134],[9.7979173,41.3482304],[9.7979173,41.3482386],[9.7989001,42.6304635],[9.7991067,42.8999878],[9.7983643,42.906242],[9.7961484,42.9123064],[9.7890456,42.9265334],[9.6463445,43.2123663],[9.6459349,43.2131536],[9.1926006,44.0372813],[9.0140528,44.3618676],[8.9972709,44.3923759],[9.0140528,44.3618676],[9.1925984,44.0372852],[9.2033505,44.0370372],[9.6129582,43.8239367],[9.6738552,43.7979749],[9.7403986,43.7807196],[9.8102318,43.7727809],[9.8808865,43.774439],[9.9470378,43.785177],[10.0063419,43.7793057],[10.0811423,43.7827579],[10.1535141,43.7968719],[10.2181461,43.8202079],[10.2181349,43.8202688],[10.2180592,43.8206797],[10.2146012,43.8394501],[10.1785528,43.9070099],[10.171634,43.9133851],[10.1716251,43.9133952],[10.1675872,43.9180131],[10.1716251,43.9133952],[10.171625,43.9133953],[10.1377608,43.9446011],[10.1377568,43.9446057],[10.1426065,43.9409121],[10.1377568,43.9446057],[10.1377387,43.9446195],[10.0826144,43.9954213],[10.0028641,44.024886],[10.0028439,44.0248952],[10.0028425,44.0248958],[10.0028415,44.0248963],[10.0099673,44.0228933],[10.017522,44.0219714],[10.02518,44.022172],[10.0326222,44.0234868],[10.0395384,44.0258609],[10.0456404,44.0291955],[10.0506737,44.0333516],[10.0532216,44.0366119],[10.02,44.048889],[10.02,44.048889],[10,44.05628],[10,44.05628],[10.02,44.048889],[10.02,44.1],[9.85,44.25],[9.7,44.4],[9.45,44.47],[9.3174419,44.5848837],[9.4,44.75],[9.35,45.1],[9.27,45.13],[9.16,45.18],[9.05,45.24],[8.88,45.35],[8.78,45.45],[8.7,45.58],[8.62,45.72],[8.58,45.8],[8.56,45.9],[8.62,45.98],[8.6777026,46.0954052],[8.602286,46.1223566],[8.5086851,46.208474],[8.45,46.2304948],[8.4366844,46.2354913],[8.4222842,46.2760171],[8.4471949,46.4112203],[8.4474845,46.4127919],[8.4461398,46.415441],[8.4461398,46.415441],[8.4294843,46.448252],[8.400684,46.4516292],[8.3178832,46.4330548],[8.2818828,46.3705775],[8.0766808,46.2625085],[8.1306813,46.196654],[8.1090811,46.1274223],[8.0262803,46.0919622],[7.9866799,45.9990905],[7.896679,45.9822047],[7.86,45.9439734],[7.8318783,45.9146616],[7.695077,45.9281702],[7.6446764,45.9670075],[7.5402754,45.9838933],[7.3926739,45.9163502],[7.1550716,45.8758243],[7.0902709,45.8808901],[7.0218702,45.9247931],[6.9858699,45.9923362],[6.9138691,46.0480592],[6.8490685,46.0531249],[6.8706687,46.1122251],[6.7734677,46.1341766],[6.7734677,46.1865225],[6.8274683,46.2692628],[6.7518675,46.3452488],[6.7878679,46.3959061],[6.7698891,46.42],[6.7626676,46.4296777],[6.5466655,46.4566949],[6.301863,46.3942175],[6.2154622,46.3148544],[6.2366531,46.2905578],[6.2802628,46.240557],[6.1311559,46.1531348],[6.1311559,46.1531348],[6.1074611,46.1392424],[5.9783597,46.1318577],[5.97,46.13],[5.95,46.05],[5.83,45.95],[5.79,45.85],[5.73,45.72],[5.64,45.62]],[[9.6858969,39.9607381],[9.7008034,40],[9.7008034,40],[9.7326973,40.0840043],[9.7008034,40],[9.7008034,40],[9.6858969,39.9607381]]]}}
