{"type":"Feature","properties":{"family":"france","name":"Piedmont, occupied by France, 1799"},"geometry":{"type":"Polygon","coordinates":[[[6.604266,45.1041445],[6.6070677,45.1],[6.6510665,45.0349128],[6.7230672,45.0129613],[6.7446674,44.9082695],[6.8454685,44.8593008],[6.9822698,44.8474808],[7.0074701,44.8221521],[6.99667,44.7934463],[7.0542705,44.6853773],[6.9606696,44.6836888],[6.9354694,44.6465401],[6.9462695,44.6262771],[6.8346683,44.5334054],[6.8598686,44.4743052],[6.9174692,44.4354679],[6.8778688,44.415205],[6.8706687,44.3628591],[6.8893633,44.3424933],[6.9822698,44.2412815],[7.0470705,44.2395929],[7.3422734,44.1230811],[7.6554766,44.175427],[7.6410764,44.143344],[7.6914769,44.0673581],[7.6390664,44.0195332],[7.5917131,43.9763231],[7.4934749,43.8866803],[7.4790748,43.8647288],[7.500675,43.79212],[7.5287814,43.7918758],[7.5379431,43.7917963],[7.5379454,43.7917962],[7.5379461,43.7917962],[7.695077,43.7904314],[7.5379461,43.7917962],[7.5379454,43.7917962],[7.5379431,43.7917963],[7.5287814,43.7918758],[7.53,43.8],[7.5917131,43.9763231],[7.6390664,44.0195332],[8,44.2],[8.25,44.4],[8.375,44.475],[8.5,44.55],[8.6,44.65],[8.8,44.78],[9,44.7],[9.2,44.6],[9.3,44.6],[9.35,44.75],[9.35,45.1],[9.27,45.13],[9.16,45.18],[9.05,45.24],[8.88,45.35],[8.78,45.45],[8.7,45.58],[8.62,45.72],[8.58,45.8],[8.56,45.9],[8.62,45.98],[8.6777026,46.0954052],[8.602286,46.1223566],[8.5086851,46.208474],[8.45,46.2304948],[8.4366844,46.2354913],[8.4222842,46.2760171],[8.4471949,46.4112203],[8.4474845,46.4127919],[8.4461398,46.415441],[8.4461398,46.415441],[8.4294843,46.448252],[8.400684,46.4516292],[8.3178832,46.4330548],[8.2818828,46.3705775],[8.0766808,46.2625085],[8.1306813,46.196654],[8.1090811,46.1274223],[8.0262803,46.0919622],[7.9866799,45.9990905],[7.896679,45.9822047],[7.86,45.9439734],[7.8318783,45.9146616],[7.695077,45.9281702],[7.6446764,45.9670075],[7.5402754,45.9838933],[7.3926739,45.9163502],[7.1550716,45.8758243],[7.0902709,45.8808901],[7.0218702,45.9247931],[6.9498695,45.85725],[6.802268,45.8268556],[6.7806678,45.7778868],[6.8166682,45.6968351],[6.9642696,45.6411121],[6.9534695,45.585389],[6.9822698,45.5110916],[7.1622716,45.4114656],[7.0938709,45.3236596],[7.1082711,45.2594936],[7.0542705,45.213902],[6.9570696,45.2105249],[6.8454685,45.1294732],[6.7374674,45.158179],[6.604266,45.1041445]]]}}
