{"type":"Feature","properties":{"family":"other","name":"Kingdom of Sardinia, 1789 – 1792"},"geometry":{"type":"Polygon","coordinates":[[[5.64,45.62],[5.7,45.52],[5.75,45.44],[5.88,45.42],[5.98,45.47],[6.08,45.4],[6.1091667,45.35],[6.15,45.28],[6.2,45.17],[6.35,45.1],[6.42,45.06],[6.58,45.1],[6.6070677,45.1],[6.6510665,45.0349128],[6.7230672,45.0129613],[6.7446674,44.9082695],[6.8454685,44.8593008],[6.9822698,44.8474808],[7.0074701,44.8221521],[6.99667,44.7934463],[7.0542705,44.6853773],[6.9606696,44.6836888],[6.9354694,44.6465401],[6.9462695,44.6262771],[6.8346683,44.5334054],[6.8598686,44.4743052],[6.9174692,44.4354679],[6.8778688,44.415205],[6.8706687,44.3628591],[6.8893633,44.3424933],[6.9822698,44.2412815],[6.8893633,44.3424933],[6.78,44.28],[6.72,44.2],[6.75,44.05],[6.84,43.96],[6.95,43.9],[7.1,43.86],[7.18,43.8],[7.2,43.66],[7.2,43.6447229],[7.2054721,43.6435252],[7.2335322,43.6751126],[7.2371113,43.6471882],[7.2370708,43.6419207],[7.2356156,43.6367603],[7.2328016,43.6319039],[7.2287364,43.627537],[7.2235754,43.6238259],[7.2175155,43.6209122],[7.2107878,43.618907],[7.203649,43.6178867],[7.196371,43.6178903],[7.1892313,43.6189175],[7.1889315,43.6189832],[7.1889267,43.6189843],[7.1889267,43.6189843],[7.1889248,43.6189847],[7.1892134,43.6188982],[7.1946833,43.617701],[7.201421,43.6167057],[7.2082965,43.6166233],[7.2150759,43.6174565],[7.2215287,43.619177],[7.2274354,43.6217263],[7.232595,43.6250177],[7.2368319,43.6289392],[7.2618242,43.6570634],[7.256833,43.6621438],[7.2618242,43.6570634],[7.26248,43.6563959],[7.2695673,43.6515549],[7.2778223,43.6478067],[7.2869284,43.645295],[7.5624097,43.5878385],[7.6060957,43.578727],[9.1928217,43.2477869],[9.5621581,43.1707552],[9.7008974,42.8936412],[9.7019449,41.5253307],[9.7020081,41.4428307],[9.6931586,41.4490749],[9.6659524,41.461947],[9.6444462,41.4349348],[9.6056202,41.3955978],[9.6039527,41.3801485],[9.5848613,41.3296017],[9.5558179,41.273974],[9.525362,41.2286719],[9.5080499,41.2117801],[9.5093353,41.2344647],[9.5088601,41.2401372],[9.5068149,41.2456091],[9.5032901,41.2506375],[9.4984418,41.2549991],[9.4924852,41.2585001],[9.478082,41.2652568],[9.4714873,41.2676841],[9.4643734,41.2690515],[9.4570383,41.2693017],[9.4509734,41.2685675],[9.4503516,41.2701729],[9.4478719,41.2748772],[9.4442666,41.2791508],[9.4396626,41.2828433],[9.4342217,41.2858246],[9.4281354,41.2879899],[9.421618,41.2892628],[9.414899,41.2895985],[9.408215,41.2889852],[9.4018015,41.2874445],[9.3958843,41.2850306],[9.3906717,41.2818286],[9.3474708,41.249736],[9.3427147,41.2453694],[9.339272,41.2403539],[9.338731,41.2388656],[9.3325209,41.238769],[9.3258175,41.2376829],[9.3195119,41.235657],[9.3177668,41.2347683],[9.3161273,41.2370786],[9.3116719,41.2411675],[9.3062414,41.2445244],[9.3019686,41.2462455],[9.3013456,41.2477898],[9.2977237,41.2527285],[9.2928148,41.2569931],[9.2568132,41.2823296],[9.2512866,41.2855202],[9.2450436,41.2878481],[9.2383195,41.2892254],[9.231368,41.2896003],[9.2244514,41.2889586],[9.2178306,41.2873245],[9.156611,41.2670538],[9.1508612,41.2646523],[9.1457916,41.2615019],[9.1415728,41.2577086],[9.1383464,41.2534],[9.1362206,41.2487208],[9.1123236,41.174357],[8.9953219,41.1483489],[8.9881193,41.1460745],[8.9878438,41.1459277],[8.9870459,41.14612],[8.9216098,41.1674194],[8.8629855,41.1980143],[8.8134839,41.2367057],[8.801436,41.2509108],[8.7177511,41.2836316],[8.7177487,41.2836326],[8.7177478,41.2836329],[8.65673,41.2251607],[8.6488781,41.2415612],[8.6137472,41.2858826],[8.5679835,41.3243512],[8.5132567,41.3555488],[8.4515762,41.3783232],[8.3852163,41.3918321],[8.3166304,41.3955756],[8.2483573,41.3894149],[8.1829238,41.3735781],[8.1227478,41.3486512],[8.0700465,41.3155555],[8.0267524,41.275513],[7.9118826,41.1451895],[7.8783951,41.0972041],[7.8624467,41.0557775],[7.8597691,41.0518391],[7.832908,40.9994954],[7.8210094,40.9440886],[7.8245513,40.8880218],[7.8287118,40.8760064],[7.8046388,40.83133],[7.785343,40.7828949],[7.7783458,40.7325834],[7.7838653,40.6821668],[7.8016796,40.6334158],[7.8051974,40.6280007],[7.7987618,40.6033404],[7.7990922,40.549411],[7.8135172,40.496608],[7.8414291,40.4470358],[7.8816893,40.4026658],[7.9326773,40.3652586],[7.9923571,40.3362959],[8.0359614,40.3235028],[8.0434255,40.2860619],[8.067652,40.2354978],[8.0975209,40.1983015],[8.0639172,40.1596537],[8.0372604,40.1092308],[8.0243953,40.0557408],[8.0258125,40.0013622],[8.0414205,39.9483045],[8.0440031,39.9439121],[8.043547,39.9403443],[8.0442003,39.8830051],[8.0606102,39.8270649],[8.0919996,39.7750441],[8.0950835,39.7710928],[8.0942494,39.7350583],[8.1074024,39.6107498],[8.0442225,39.4632671],[8.0285707,39.4070982],[8.0286008,39.3900812],[7.9871127,39.3644289],[7.9410261,39.3209638],[7.9076348,39.2710386],[7.8883677,39.2168336],[7.8840303,39.1607102],[7.8947746,39.1051075],[7.9166762,39.0393183],[7.9381005,38.9928784],[7.9700062,38.95024],[8.0113144,38.9128207],[8.0606401,38.8818621],[8.116339,38.8583899],[8.1193837,38.857622],[8.1318057,38.8397583],[8.1688418,38.7968479],[8.2156489,38.7602177],[8.2705068,38.7312028],[8.33141,38.7108591],[8.3554711,38.7067998],[8.3972688,38.6742169],[8.4521572,38.6393624],[8.5149307,38.6139456],[8.5829748,38.5990219],[8.6534629,38.5952106],[8.7234704,38.6026695],[8.7743588,38.6167437],[8.828464,38.6093337],[8.8964656,38.6105787],[8.9628458,38.6221939],[9.0250512,38.6437327],[9.0806838,38.6743666],[9.2533505,38.7905274],[9.2964249,38.8250802],[9.3309649,38.865049],[9.3372792,38.876245],[9.3872711,38.8555365],[9.4505337,38.8403973],[9.5163161,38.8348763],[9.5822416,38.8391726],[9.645929,38.8531309],[9.7050749,38.8762468],[9.7575351,38.9076844],[9.8014004,38.9463056],[9.8350647,38.9907104],[9.9509482,39.1828758],[9.974042,39.2336933],[9.9836641,39.2870596],[9.9793996,39.3408488],[9.9613865,39.3929131],[9.9610888,39.3933757],[10.0816602,40.0462619],[10.0848901,40.0958396],[10.0761886,40.1450348],[10.0558249,40.1921793],[10.0359073,40.2198114],[10.0556721,40.2410916],[10.0814149,40.2818588],[10.1576577,40.4336021],[10.1763525,40.4858904],[10.1809476,40.5399705],[10.1712232,40.5936618],[10.1475383,40.6447937],[10.0684297,40.7724163],[10.0806557,40.8218862],[10.0802591,40.8732952],[10.0669626,40.9237161],[10.0412212,40.9713135],[10.0206281,40.9950995],[10.0189686,41.0366203],[10.0042748,41.0863314],[9.9774185,41.1330722],[9.9393363,41.1751687],[9.9035174,41.2020161],[9.8774443,41.250971],[9.8383633,41.2957787],[9.8161983,41.3126282],[9.812111,41.3251305],[9.7979194,41.3482232],[9.797806,41.1999914],[9.7991062,42.8999855],[9.7983642,42.9062414],[9.7961478,42.9123075],[9.6463441,43.2123666],[9.6424288,43.2183767],[9.6370609,43.2237582],[9.6304237,43.2283268],[9.6227443,43.2319261],[9.6142857,43.2344328],[7.9678344,43.5780547],[7.5711438,43.6608458],[7.3896287,43.6987288],[7.3896287,43.6987288],[7.3517268,43.7066391],[7.3896287,43.6987288],[7.3980347,43.7073984],[7.4016368,43.7120178],[7.4067216,43.7203614],[7.4067181,43.7203586],[7.4067181,43.7203586],[7.4067173,43.720358],[7.4067173,43.720358],[7.4067162,43.7203571],[7.4067162,43.7203571],[7.4067161,43.720357],[7.4067161,43.720357],[7.4067021,43.7203461],[7.4067021,43.7203461],[7.4066956,43.720341],[7.4066956,43.720341],[7.403474,43.7178226],[7.3674737,43.7228883],[7.3890739,43.7583484],[7.4358744,43.7431512],[7.409178,43.7222816],[7.409178,43.7222816],[7.409177,43.7222808],[7.409177,43.7222808],[7.4091711,43.7222762],[7.4091711,43.7222762],[7.4091677,43.7222736],[7.4091677,43.7222736],[7.4091618,43.7222689],[7.4091618,43.7222689],[7.409161,43.7222683],[7.409161,43.7222683],[7.4091447,43.7222555],[7.4091443,43.7222553],[7.4091442,43.7222552],[7.4205616,43.7185456],[7.4278193,43.7168073],[7.4354145,43.7161737],[7.443029,43.7166716],[7.4503437,43.71828],[7.4570521,43.7209315],[7.4628728,43.724515],[7.5164721,43.7650137],[7.5282207,43.7649108],[7.5209526,43.7654958],[7.5180224,43.7661759],[7.5138493,43.7671445],[7.5073409,43.7697793],[7.5016867,43.7732952],[7.4971123,43.7775522],[7.4938002,43.7823805],[7.4924912,43.7859356],[7.500675,43.79212],[7.5287814,43.7918758],[7.5379431,43.7917963],[7.5379454,43.7917962],[7.5379461,43.7917962],[7.695077,43.7904314],[7.5379461,43.7917962],[7.5379454,43.7917962],[7.5379431,43.7917963],[7.5287814,43.7918758],[7.53,43.8],[7.5917131,43.9763231],[7.6390664,44.0195332],[8,44.2],[8.25,44.4],[8.375,44.475],[8.5,44.55],[8.6,44.65],[8.8,44.78],[9,44.7],[9.2,44.6],[9.3,44.6],[9.35,44.75],[9.35,45.1],[9.27,45.13],[9.16,45.18],[9.05,45.24],[8.88,45.35],[8.78,45.45],[8.7,45.58],[8.62,45.72],[8.58,45.8],[8.56,45.9],[8.62,45.98],[8.6777026,46.0954052],[8.602286,46.1223566],[8.5086851,46.208474],[8.45,46.2304948],[8.4366844,46.2354913],[8.4222842,46.2760171],[8.4471949,46.4112203],[8.4474845,46.4127919],[8.4461398,46.415441],[8.4461398,46.415441],[8.4294843,46.448252],[8.400684,46.4516292],[8.3178832,46.4330548],[8.2818828,46.3705775],[8.0766808,46.2625085],[8.1306813,46.196654],[8.1090811,46.1274223],[8.0262803,46.0919622],[7.9866799,45.9990905],[7.896679,45.9822047],[7.86,45.9439734],[7.8318783,45.9146616],[7.695077,45.9281702],[7.6446764,45.9670075],[7.5402754,45.9838933],[7.3926739,45.9163502],[7.1550716,45.8758243],[7.0902709,45.8808901],[7.0218702,45.9247931],[6.9858699,45.9923362],[6.9138691,46.0480592],[6.8490685,46.0531249],[6.8706687,46.1122251],[6.7734677,46.1341766],[6.7734677,46.1865225],[6.8274683,46.2692628],[6.7518675,46.3452488],[6.7878679,46.3959061],[6.7698891,46.42],[6.7626676,46.4296777],[6.5466655,46.4566949],[6.301863,46.3942175],[6.2154622,46.3148544],[6.2366531,46.2905578],[6.2802628,46.240557],[6.1311559,46.1531348],[6.1311559,46.1531348],[6.1074611,46.1392424],[5.9783597,46.1318577],[5.97,46.13],[5.95,46.05],[5.83,45.95],[5.79,45.85],[5.73,45.72],[5.64,45.62]],[[9.6858969,39.9607381],[9.7008034,40],[9.7008034,40],[9.7326973,40.0840043],[9.7008034,40],[9.7008034,40],[9.6858969,39.9607381]]]}}
