{"type":"Feature","properties":{"family":"other","name":"Kingdom of Sardinia, reduced to the island, 1801 – 1813"},"geometry":{"type":"Polygon","coordinates":[[[7.7782865,40.7326005],[7.7838003,40.6821907],[7.8016083,40.6334447],[7.8051327,40.6280188],[7.7986894,40.6033379],[7.799018,40.5494099],[7.8134441,40.4966075],[7.8413608,40.4470353],[7.8816296,40.4026649],[7.9326301,40.3652574],[7.992326,40.3362949],[8.0358588,40.323527],[8.0433217,40.2860727],[8.0675385,40.2355185],[8.097433,40.1982851],[8.0638161,40.1596347],[8.0371507,40.1092208],[8.0242759,40.0557407],[8.025683,40.0013717],[8.0412814,39.948322],[8.0438745,39.9439109],[8.0434148,39.9403176],[8.0440617,39.8830005],[8.0604597,39.8270807],[8.0918334,39.7750758],[8.0949387,39.7710965],[8.0940987,39.7350377],[8.1072437,39.6107016],[8.0440446,39.4632072],[8.0283915,39.4070634],[8.0284193,39.3900103],[7.9869872,39.3644042],[7.9408776,39.3209435],[7.907465,39.2710255],[7.8881793,39.2168289],[7.8838267,39.1607141],[7.8945607,39.1051188],[7.9164559,39.0393289],[7.9378776,38.9928911],[7.9697875,38.9502536],[8.011107,38.9128338],[8.0604511,38.8818735],[8.1161752,38.8583989],[8.1191306,38.8576537],[8.1315498,38.8397911],[8.1685974,38.7968677],[8.2154299,38.7602261],[8.2703258,38.7312027],[8.3312771,38.7108545],[8.3552136,38.7068198],[8.3969787,38.6742581],[8.4519048,38.63938],[8.5147341,38.6139466],[8.5828475,38.5990154],[8.6534128,38.5952065],[8.7234997,38.6026782],[8.7742844,38.6167249],[8.8283326,38.6093246],[8.8964165,38.6105731],[8.9628794,38.6222033],[9.0251616,38.6437676],[9.0808595,38.6744356],[9.2535346,38.790608],[9.2966244,38.8251749],[9.3311753,38.8651532],[9.3373509,38.8761014],[9.3870339,38.8555223],[9.450351,38.8403752],[9.516197,38.8348546],[9.582191,38.8391603],[9.645947,38.8531363],[9.7051571,38.8762773],[9.7576729,38.9077456],[9.8015813,38.9464009],[9.8352739,38.9908406],[9.9511507,39.1830208],[9.9742377,39.2338317],[9.9838564,39.2871829],[9.9795931,39.3409511],[9.9615863,39.392991],[9.961275,39.3934747],[10.0817893,40.0464124],[10.0850093,40.0959742],[10.0763044,40.1451489],[10.0559443,40.19227],[10.0360157,40.2199114],[10.0557572,40.2411693],[10.0815075,40.2819517],[10.1577427,40.4337057],[10.1764347,40.485999],[10.1810271,40.5400787],[10.1713007,40.5937644],[10.1476153,40.6448868],[10.068482,40.7725226],[10.0807022,40.8219395],[10.0803133,40.8733515],[10.0670237,40.9237727],[10.0412885,40.971368],[10.0206598,40.9951964],[10.0190097,41.0366653],[10.004324,41.0863774],[9.9774751,41.1331172],[9.9394,41.1752111],[9.9035387,41.202091],[9.8774716,41.2510338],[9.838397,41.2958325],[9.8162079,41.312699],[9.812115,41.3252143],[9.783352,41.372006],[9.7432133,41.4138257],[9.6931538,41.4491366],[9.6660259,41.4619665],[9.6659548,41.4620001],[9.6443531,41.4348686],[9.605544,41.3955498],[9.6038749,41.3801057],[9.5847785,41.3295532],[9.5557341,41.2739255],[9.5252812,41.2286252],[9.5080529,41.2118124],[9.5080544,41.2118402],[9.5080591,41.2119222],[9.5080613,41.2119606],[9.5093365,41.2344712],[9.5088615,41.2401432],[9.5068167,41.2456144],[9.5032927,41.2506421],[9.4984455,41.2550029],[9.4924901,41.2585031],[9.478087,41.2652598],[9.4714921,41.2676869],[9.4643777,41.2690539],[9.4570419,41.2693035],[9.4509763,41.2685687],[9.4503526,41.2701791],[9.4478729,41.2748831],[9.4442678,41.2791562],[9.4396641,41.2828481],[9.4342235,41.2858287],[9.4281375,41.2879932],[9.4216204,41.2892654],[9.4149017,41.2896003],[9.4082179,41.2889863],[9.4018044,41.287445],[9.3958871,41.2850306],[9.3906742,41.2818282],[9.3474734,41.2497359],[9.3427162,41.2453685],[9.3392723,41.2403523],[9.3387324,41.2388675],[9.332525,41.2387705],[9.3258206,41.2376837],[9.3195139,41.2356571],[9.3177711,41.2347693],[9.3161283,41.2370841],[9.3116727,41.2411725],[9.306242,41.2445289],[9.3019707,41.2462487],[9.301347,41.2477946],[9.2977257,41.2527326],[9.2928176,41.2569964],[9.256816,41.2823326],[9.2512899,41.2855228],[9.2450473,41.2878503],[9.2383237,41.2892273],[9.2313725,41.2896019],[9.224456,41.2889599],[9.2178352,41.2873256],[9.156616,41.2670551],[9.1508645,41.264653],[9.1457934,41.2615017],[9.1415733,41.2577072],[9.1383459,41.2533973],[9.1362195,41.2487169],[9.1123233,41.1743567],[8.9953268,41.1483501],[8.9881218,41.1460751],[8.9878649,41.1459382],[8.9877987,41.145903],[8.9871005,41.1460712],[8.9216664,41.1673725],[8.8630437,41.1979735],[8.8135437,41.2366747],[8.8015231,41.2508525],[8.7177349,41.2836138],[8.7172906,41.2831881],[8.6567467,41.2251707],[8.6488883,41.2415803],[8.6137505,41.2859002],[8.5679801,41.3243661],[8.5132473,41.3555599],[8.4515621,41.37833],[8.3851987,41.3918346],[8.3166107,41.3955743],[8.2483364,41.3894106],[8.1829024,41.3735718],[8.1227263,41.3486438],[8.0700248,41.3155479],[8.0267304,41.2755057],[7.9118599,41.1451939],[7.8783686,41.0972125],[7.8624128,41.0557778],[7.8597344,41.051839],[7.8328723,40.9995042],[7.8209699,40.9441061],[7.8245056,40.8880466],[7.8286702,40.876016],[7.8045869,40.8313305],[7.7852883,40.7829039],[7.7782865,40.7326005]],[[9.6858969,39.9607381],[9.7008034,40],[9.7008034,40],[9.7326973,40.0840043],[9.7008034,40],[9.7008034,40],[9.6858969,39.9607381]]]}}
