{"type":"Feature","properties":{"family":"other","name":"Serbia, in revolt against the Ottomans, 1804 – 1813"},"geometry":{"type":"Polygon","coordinates":[[[19.2108042,44.5783916],[19.3,44.4],[19.425,44.225],[19.5284109,44.0802248],[19.5787958,44.0521609],[19.600396,44.0622923],[19.6183962,44.0352751],[19.5947312,44.0201792],[19.7,43.95],[19.85,43.85],[20,43.75],[20.1666667,43.6833333],[20.3333333,43.6166667],[20.5,43.55],[20.7,43.475],[20.9,43.4],[21.0666667,43.4166667],[21.2333333,43.4333333],[21.4,43.45],[21.8,43.75],[21.9666667,43.7833333],[22.1333333,43.8166667],[22.3,43.85],[22.3847613,43.917809],[22.4120241,44.0065693],[22.5501567,44.0506267],[22.6,44.25],[22.6190511,44.3262042],[22.5488255,44.3493505],[22.4768248,44.4776823],[22.4912249,44.5046996],[22.5488255,44.5114539],[22.5756619,44.5429226],[22.55,44.575],[22.45,44.7],[22.2,44.5],[22.1519632,44.5080061],[22.1276213,44.503011],[22.1132224,44.5144629],[22.05,44.525],[21.9,44.55],[21.6,44.7],[21.45,44.75],[21.3,44.8],[20.95,44.7],[20.825,44.775],[20.7,44.85],[20.46,44.83],[20.355,44.755],[20.25,44.68],[20,44.68],[19.7,44.77],[19.45,44.88],[19.25,44.95],[19.2337197,44.9092992],[19.3087931,44.9116467],[19.3699937,44.886318],[19.3195932,44.7157717],[19.2108042,44.5783916]]]}}
