{"type":"Feature","properties":{"family":"other","name":"Kingdom of Sicily, under the Bourbons, 1806 – 1815"},"geometry":{"type":"Polygon","coordinates":[[[11.6881513,38.0055569],[11.6896809,37.9532701],[11.7039672,37.9021972],[11.7304488,37.8542532],[11.7681124,37.8112324],[11.8041452,37.7775407],[11.8511067,37.7413017],[11.9059312,37.7128149],[11.9666018,37.6931244],[12.0308933,37.6829514],[12.0964522,37.6826685],[12.1157521,37.6855534],[12.1177251,37.6813067],[12.1973426,37.549807],[12.2365432,37.4997686],[12.2884469,37.4576509],[12.4431043,37.3566185],[12.4925747,37.3296615],[12.5472117,37.310025],[12.6053218,37.2983166],[12.6651075,37.2948982],[12.7905469,37.2964696],[12.8000902,37.288818],[12.8574481,37.2585073],[12.9212813,37.2380103],[12.9889786,37.2281643],[13.0515498,37.2241872],[13.5135466,36.954144],[13.5650949,36.9291296],[13.7446609,36.8584372],[13.7996192,36.8413236],[13.8574463,36.8321076],[13.9163903,36.8310681],[14.0463464,36.8377908],[14.2079771,36.6437227],[14.2453357,36.6063682],[14.2902984,36.5748889],[14.3414508,36.550269],[14.3971898,36.5332776],[15.0001206,36.3952961],[15.069564,36.3853913],[15.1400407,36.3873628],[15.2084618,36.4011238],[15.2718257,36.426071],[15.3273463,36.4611097],[15.3705389,36.4947952],[15.4105453,36.5322424],[15.4414279,36.5749127],[15.4621424,36.6213853],[15.4719789,36.6701099],[15.470588,36.7194582],[15.4606223,36.7577002],[15.5087892,36.7816323],[15.5622018,36.8144685],[15.6064379,36.8551369],[15.6397267,36.9020236],[15.6607241,36.9532653],[15.6685685,37.0068215],[15.6629193,37.0605553],[15.6439739,37.1123183],[15.637921,37.1214902],[15.6371721,37.1385739],[15.6215901,37.1906847],[15.5933613,37.2393107],[15.589463,37.2435484],[15.5903292,37.2487168],[15.5859539,37.3019176],[15.5684958,37.353394],[15.5386125,37.4011302],[15.4974542,37.443253],[15.4755486,37.458279],[15.4769261,37.4601728],[15.499292,37.5170664],[15.5329355,37.6542166],[15.570271,37.6958183],[15.5436355,37.7070766],[15.4910719,37.7414081],[15.3938659,37.8188754],[15.3524867,37.8587704],[15.3470555,37.8667069],[15.527941,38.0691566],[15.5303951,38.0723318],[15.6049616,38.1855132],[15.5992011,38.2158312],[15.5988688,38.2211994],[15.5998973,38.2265129],[15.602246,38.2315607],[15.6058219,38.2361425],[15.6104833,38.2400763],[15.6160452,38.2432059],[15.6812013,38.272553],[15.6811918,38.2726229],[15.6791234,38.2777597],[15.6757953,38.2824713],[15.6713403,38.2865697],[15.665936,38.2898912],[15.6597979,38.2923033],[15.5409619,38.327776],[15.5346053,38.3291394],[15.5280337,38.3295263],[15.5214886,38.3289226],[15.5152106,38.3273504],[15.5094305,38.3248674],[15.3839601,38.2578378],[15.2920634,38.2348509],[15.2963643,38.2726741],[15.3180354,38.327322],[15.3539502,38.377144],[15.4025116,38.4198854],[15.4615386,38.4536084],[15.5345716,38.4865879],[15.5480905,38.5148442],[15.5244478,38.561484],[15.5208235,38.5714647],[15.5094379,38.5718996],[15.4382376,38.5628363],[15.431051,38.5606487],[15.4730084,38.5881034],[15.5049325,38.6189074],[15.500224,38.6682668],[15.5091366,38.7223241],[15.5318139,38.7738774],[15.567356,38.8208148],[15.5709025,38.8238648],[15.5659915,38.8636897],[15.5459826,38.914964],[15.513307,38.9621397],[15.4692374,39.0033455],[15.4155068,39.0369438],[15.3542416,39.0615974],[15.2878768,39.0763236],[15.2190569,39.080535],[15.1505277,39.0740633],[15.0850232,39.0571665],[15.0251527,39.0305183],[14.9854912,39.0085002],[14.9343397,38.9737025],[14.8929428,38.9318079],[14.8628807,38.8844339],[14.8508012,38.8494042],[14.8051515,38.8466937],[14.7328929,38.8365263],[14.6969766,38.8285322],[14.6709377,38.8366783],[14.6081008,38.851107],[14.5428857,38.8560272],[14.4776509,38.8512607],[14.4147556,38.83698],[14.3564717,38.8137013],[14.3048992,38.7822653],[14.2618894,38.7438064],[14.2289773,38.6997103],[14.2073273,38.6515632],[14.1976937,38.6010937],[14.2003965,38.5501101],[14.2153133,38.5004354],[14.2262152,38.4751363],[14.2522153,38.4293172],[14.2885535,38.3880479],[14.333966,38.3527451],[14.3868845,38.3246186],[14.412431,38.3159109],[14.385376,38.3021649],[14.2752074,38.2888466],[14.077561,38.3152889],[14.0133715,38.3190087],[13.9494287,38.3132431],[13.8879972,38.2981964],[13.7963707,38.2680334],[13.7579096,38.2989247],[13.7007028,38.3358511],[13.6346924,38.3622732],[13.6036836,38.3686254],[13.59488,38.3800846],[13.5526274,38.4172916],[13.5023249,38.4477577],[13.4456929,38.4704354],[13.3874807,38.4838966],[13.4338851,38.512325],[13.4769575,38.5509971],[13.5099376,38.595337],[13.5316205,38.6437508],[13.5412021,38.6944949],[13.5383109,38.7457381],[13.5230253,38.7956273],[13.4958742,38.8423546],[13.4578216,38.8842234],[13.410234,38.9197107],[13.3548325,38.9475236],[13.3295701,38.9576886],[13.2688976,38.9766743],[13.2047002,38.9864367],[13.1392825,38.9866253],[13.0749949,38.9772333],[13.0141453,38.9585981],[12.9589144,38.9313886],[12.9112755,38.8965808],[12.8729223,38.855421],[12.8549863,38.8317363],[12.8269879,38.7850236],[12.8109302,38.7350097],[12.807376,38.6835261],[12.8164286,38.6324541],[12.8377317,38.5836559],[12.8704866,38.5389075],[12.9134838,38.4998341],[12.9651491,38.4678527],[13.0124533,38.4486511],[12.9800389,38.4415762],[12.9230751,38.4196432],[12.9190429,38.4172824],[12.8927834,38.4310701],[12.8282968,38.4516797],[12.7598124,38.4616695],[12.6901591,38.4606267],[12.6222159,38.4485946],[12.5587888,38.4260705],[12.5024911,38.3939846],[12.455634,38.3536603],[12.4201298,38.3067584],[12.4146705,38.2943754],[12.3338263,38.2608534],[12.2781739,38.2319719],[12.2520267,38.2116969],[12.2035585,38.2348864],[12.1411141,38.252925],[12.0753947,38.2611363],[12.0088917,38.2592094],[11.9441271,38.2472173],[11.9188497,38.2404388],[11.8582316,38.2187972],[11.8041134,38.1883486],[11.7585377,38.1502477],[11.7232157,38.1059375],[11.6994627,38.0570929],[11.6881513,38.0055569]],[[12.4651247,37.8229993],[12.4907087,38],[12.4907087,38],[12.4651247,37.8229993]],[[13.7899379,37.9732827],[13.8709493,38],[13.8709493,38],[13.7899379,37.9732827]],[[13.8709493,38],[13.9139534,38.0141826],[14,38.0425605],[14.0203402,38.0492687],[14,38.0425605],[13.9139534,38.0141826],[13.8709493,38]],[[15.4242937,38],[15.499955,38.0847288],[15.4242937,38],[15.4242937,38]]]}}
