{"type":"Feature","properties":{"family":"spain","name":"Kingdom of Spain, 1789 – 1798"},"geometry":{"type":"Polygon","coordinates":[[[-9.6599175,42.9505735],[-9.6592996,42.8922434],[-9.6415597,42.8353566],[-9.607571,42.7825719],[-9.5822815,42.7522465],[-9.5364625,42.708142],[-9.4793944,42.6718104],[-9.4376457,42.6546925],[-9.4295124,42.643086],[-9.4363262,42.6093698],[-9.4318289,42.5538147],[-9.4119412,42.5001065],[-9.3775457,42.4505283],[-9.3197732,42.3848277],[-9.2775232,42.3453102],[-9.2573398,42.3323356],[-9.2542281,42.3276787],[-9.227324,42.3020353],[-9.229844,42.2941472],[-9.2324616,42.2417852],[-9.2286218,42.2239373],[-9.2306706,42.2211405],[-9.2524503,42.164496],[-9.2570572,42.1056887],[-9.2413912,41.8794967],[-9.2373082,41.8597152],[-9.2280277,41.9136891],[-9.2018115,41.9683099],[-9.1604488,42.0174846],[-9.0346473,42.1359855],[-8.9949366,42.1676776],[-8.8926216,42.2370167],[-8.8926127,42.2370227],[-8.8926121,42.2370231],[-8.8926089,42.2370253],[-8.8880281,42.2343808],[-8.8813236,42.2319386],[-8.8740884,42.2305584],[-8.8666264,42.230298],[-8.7880525,42.2335034],[-8.8706952,42.1814818],[-8.8755666,42.1777545],[-8.8793812,42.1734043],[-8.8819976,42.1685924],[-8.8833192,42.1634975],[-8.883297,42.1583085],[-8.8819325,42.1532178],[-8.8795448,42.1488998],[-8.9022002,42.1449797],[-8.9090125,42.1432579],[-8.9152317,42.1405753],[-8.9206139,42.1370372],[-8.9249485,42.1327823],[-8.9280655,42.1279774],[-8.9298433,42.1228107],[-8.9302123,42.1174848],[-8.9156855,41.8912229],[-8.9146284,41.885917],[-8.9121798,41.8808708],[-8.9084368,41.8762842],[-8.903548,41.8723387],[-8.9000004,41.8704267],[-8.82857,41.9223245],[-8.7498875,41.9684565],[-8.6706867,42.0005395],[-8.6274863,42.0511968],[-8.3466835,42.1018541],[-8.2206822,42.1542],[-8.202682,42.0697712],[-8.1378814,42.0731483],[-8.0946809,42.0410653],[-8.2314823,41.9042906],[-8.2206822,41.8688305],[-8.1774818,41.8502561],[-8.1810818,41.8114188],[-8.0478805,41.8164846],[-7.9938799,41.8637647],[-7.9434794,41.8671419],[-7.9074791,41.914422],[-7.896679,41.858699],[-7.7202772,41.8992249],[-7.6086761,41.8738962],[-7.6230762,41.8316818],[-7.6050761,41.8249275],[-7.5474755,41.8316818],[-7.5150752,41.8654533],[-7.4826748,41.8570104],[-7.4430744,41.8063531],[-7.3926739,41.8418132],[-7.2198722,41.8789619],[-7.198272,41.9009134],[-7.198272,41.9633908],[-7.1586716,41.9853423],[-7.0506705,41.9414393],[-6.9930699,41.9667679],[-6.9462695,41.9431279],[-6.8562686,41.9431279],[-6.8238682,41.9836537],[-6.7266673,41.9313078],[-6.6222662,41.9414393],[-6.6078661,41.9617022],[-6.5718657,41.9431279],[-6.5754658,41.8823391],[-6.5250653,41.8671419],[-6.5790658,41.7404986],[-6.5430654,41.6594469],[-6.4602646,41.6763327],[-6.3666637,41.662824],[-6.2730627,41.6290525],[-6.204662,41.5699523],[-6.2802628,41.4973435],[-6.3198632,41.411226],[-6.3774638,41.3977174],[-6.3774638,41.3774545],[-6.496265,41.2947142],[-6.6474665,41.267697],[-6.7554676,41.159628],[-6.7662677,41.1089707],[-6.8166682,41.0549362],[-6.9066691,41.0566248],[-6.9426694,41.0160989],[-6.8166682,40.8573727],[-6.8382684,40.8404869],[-6.8382684,40.7425494],[-6.8130681,40.6479891],[-6.8490685,40.5652488],[-6.8130681,40.5145915],[-6.8562686,40.4419827],[-6.8526685,40.4098997],[-6.795068,40.3558652],[-6.8706687,40.2950764],[-6.8778688,40.2646821],[-7.0146701,40.2258448],[-7.0434704,40.1819418],[-7.0290703,40.132973],[-6.9570696,40.1025786],[-6.8814688,40.0097069],[-6.9282693,39.8611121],[-7.00027,39.8020119],[-7.0218702,39.6939429],[-7.5582756,39.6804343],[-7.4682747,39.5504139],[-7.3134731,39.4575421],[-7.3278733,39.3410303],[-7.2522725,39.27011],[-7.2594726,39.2110098],[-7.1694717,39.170484],[-7.1586716,39.1046295],[-7.0650707,39.1147609],[-7.0146701,39.0961866],[-6.9750698,39.0235778],[-7.0650707,38.9053774],[-7.0578706,38.85472],[-7.0703296,38.85],[-7,38.85],[-6.95,38.6],[-7.15,38.45],[-7.32,38.5],[-7.3154474,38.5318684],[-7.3602736,38.4460843],[-7.1658717,38.2721609],[-7.104671,38.1742234],[-6.9462695,38.1961749],[-7.0254703,38.0222514],[-7.1226712,38.0408258],[-7.1586716,37.9969228],[-7.2738727,37.9766599],[-7.3062731,37.8500166],[-7.4430744,37.7301276],[-7.4718747,37.6372558],[-7.5150752,37.6017957],[-7.5294753,37.5562041],[-7.4682747,37.4751524],[-7.4142741,37.19316],[-7.3787445,37.1946251],[-7.3736329,37.168615],[-7.3735802,37.1678431],[-7.0850153,37.1797397],[-7.0782615,37.1805578],[-7.0718498,37.1824388],[-7.0710767,37.1828204],[-7.0710763,37.1828165],[-7.0710762,37.1828158],[-7.0710751,37.1828057],[-7.0686575,37.1607453],[-7.0768056,37.1059042],[-7.0987594,37.0535338],[-7.1335747,37.0058208],[-7.1797775,36.9647536],[-7.2212378,36.9403824],[-7.1416226,36.9481301],[-7.0453933,36.9198864],[-7.0331364,36.9173436],[-6.769814,36.7793584],[-6.7713562,36.774352],[-6.7749365,36.724875],[-6.7671648,36.6757181],[-6.7483249,36.6285389],[-6.6903625,36.5189457],[-6.6573598,36.4707705],[-6.6215938,36.4371395],[-6.6207978,36.4349293],[-6.5909735,36.3884232],[-6.3166571,36.0446467],[-6.2784249,36.0050955],[-6.2318217,35.9719582],[-6.1861189,35.9500469],[-6.1784615,35.9463756],[-6.1201848,35.9292277],[-6.0589967,35.9211038],[-6.0340931,35.9196971],[-5.8767578,35.8285587],[-5.876753,35.8285594],[-5.8767518,35.8285595],[-5.8767162,35.8285644],[-5.8760049,35.8286618],[-5.8701348,35.8286133],[-5.7774504,35.8211216],[-5.7117002,35.8563655],[-5.7063075,35.8587069],[-5.7004794,35.8602066],[-5.6944133,35.860814],[-5.6883148,35.8605083],[-5.6095549,35.8505666],[-5.5412663,35.8968319],[-5.4915039,35.9305459],[-5.5412663,35.8968319],[-5.5614662,35.9085812],[-5.6067469,35.9480501],[-5.6388868,35.9905706],[-5.6336093,35.9865205],[-5.6284699,35.9832828],[-5.6226499,35.9809172],[-5.6163717,35.9795138],[-5.6098751,35.9791265],[-5.6034084,35.97977],[-5.5972185,35.9814196],[-5.4172627,36.0455636],[-5.4117776,36.0480342],[-5.4069606,36.0512919],[-5.4029825,36.0552214],[-5.399984,36.0596835],[-5.3980716,36.0645202],[-5.3973132,36.0695603],[-5.3948849,36.1426319],[-5.3935559,36.1422651],[-5.3910813,36.1347286],[-5.3910823,36.1347341],[-5.3910825,36.1347352],[-5.3910858,36.1347535],[-5.3920309,36.1400152],[-5.3916435,36.1454386],[-5.3899183,36.1506894],[-5.3869251,36.1555547],[-5.382785,36.159837],[-5.3776659,36.1633626],[-5.3734753,36.1652307],[-5.3658537,36.1631279],[-5.3586536,36.1411764],[-5.3370534,36.1411764],[-5.3281951,36.1670647],[-5.3235293,36.1658473],[-5.3175036,36.1630559],[-5.3123235,36.1593188],[-5.3082128,36.1547976],[-5.3053492,36.1496878],[-5.3038561,36.1442103],[-5.3037978,36.1386019],[-5.3040597,36.1363989],[-5.2614421,36.2608099],[-5.2362504,36.2738036],[-5.2316646,36.276646],[-5.2277532,36.2800826],[-5.2246333,36.2840105],[-5.1672931,36.3719904],[-5.1672912,36.3719895],[-5.1672909,36.3719894],[-5.1672859,36.371987],[-5.1410627,36.3598286],[-5.0892382,36.3223716],[-5.0481967,36.2770771],[-5.0197023,36.2259143],[-5.0049661,36.1711033],[-5.0045972,36.115018],[-5.0083246,36.0846338],[-5.0136838,36.0631192],[-4.9285382,36.2078647],[-4.844361,36.2353971],[-4.6553464,36.2378711],[-4.5923893,36.2434674],[-4.5318426,36.2585124],[-4.4758599,36.2824715],[-4.3392828,36.3548565],[-4.2870224,36.3889793],[-4.2442273,36.4308059],[-4.2173054,36.4632406],[-3.8571784,36.4813162],[-3.471177,36.429084],[-3.4043339,36.4253696],[-3.337898,36.4323969],[-3.2744981,36.4498879],[-3.2166468,36.4771506],[-3.2153763,36.4778952],[-2.9960016,36.4816006],[-2.8490095,36.4324953],[-2.790879,36.4178355],[-2.7304246,36.4118594],[-2.6696236,36.4147627],[-2.6104644,36.4264503],[-2.5548831,36.44654],[-2.4507042,36.493669],[-2.3952356,36.5250152],[-2.3795844,36.5383551],[-2.2837559,36.4974413],[-2.2267239,36.4782264],[-2.166297,36.4677292],[-2.1045089,36.4663026],[-2.0434376,36.4739945],[-1.9851378,36.4905463],[-1.9315738,36.5154011],[-1.8845549,36.5477219],[-1.8456758,36.5864192],[-1.753421,36.6976069],[-1.7341225,36.7062779],[-1.6787956,36.737338],[-1.6322737,36.7766151],[-1.5964333,36.8225381],[-1.5727314,36.8732664],[-1.5010924,37.0902985],[-1.4490432,37.1482906],[-1.3551741,37.1823634],[-1.3044668,37.2051008],[-1.2593616,37.2344034],[-1.2096928,37.2727275],[-1.1633258,37.2665315],[-1.0931859,37.2630041],[-1.0236346,37.271027],[-0.9612145,37.289216],[-0.9265359,37.2864397],[-0.8651413,37.2904143],[-0.8056504,37.3031334],[-0.5867075,37.3670795],[-0.5258399,37.3904613],[-0.4719697,37.422943],[-0.4272266,37.4632469],[-0.3933895,37.509785],[-0.3718154,37.5607209],[-0.3633833,37.6140403],[-0.3684561,37.6676306],[-0.3868615,37.7193635],[-0.3885924,37.7220324],[-0.3922399,37.7653521],[-0.4005534,37.8091896],[-0.4008202,37.8098403],[-0.3817363,37.8263327],[-0.3499457,37.8657258],[-0.3272105,37.9088565],[-0.3142263,37.9544368],[-0.3084476,37.9881219],[-0.3004233,37.991967],[-0.2523352,38.0262746],[-0.2132826,38.0671016],[-0.1846747,38.1129914],[-0.1675545,38.1623042],[-0.1661022,38.1771297],[-0.1202258,38.2226412],[-0.1008457,38.2470535],[0.0406823,38.2862212],[0.0962027,38.3060283],[0.1464215,38.3332025],[0.189765,38.3668961],[0.20111,38.379558],[0.2102859,38.3817449],[0.2643874,38.4033652],[0.3128322,38.432081],[0.467544,38.5415283],[0.5155334,38.5832188],[0.5515042,38.6317571],[0.5738841,38.6850559],[0.5816774,38.7408183],[0.5753147,38.790392],[0.8731953,38.8445507],[0.8731973,38.844551],[1.1811199,38.9005355],[0.8731973,38.844551],[0.8731953,38.8445507],[0.873704,38.8388261],[0.8938958,38.7841654],[0.9283085,38.7340076],[0.9753913,38.6905716],[1.0330437,38.655775],[1.0405912,38.6529476],[1.0396977,38.6233746],[1.0505,38.5730031],[1.0732359,38.5251194],[1.10707,38.4814341],[1.1507765,38.4435046],[1.2027851,38.412681],[1.2612375,38.3900585],[1.324053,38.3764399],[1.3890012,38.3723079],[1.4537786,38.3778087],[1.5099165,38.3912689],[1.5538758,38.3850377],[1.6203149,38.3857549],[1.6853484,38.3964256],[1.7465776,38.4166561],[1.8017396,38.4456996],[1.8487892,38.4824834],[1.8859734,38.5256471],[1.9118962,38.5735921],[1.9255727,38.6245394],[1.9264679,38.6765945],[1.9145206,38.727818],[1.8901498,38.7762969],[1.8542428,38.8202169],[1.8485473,38.8248777],[1.8961769,38.863572],[1.9342402,38.9112269],[1.9588409,38.9639754],[1.9688873,39.0195422],[1.9639105,39.075525],[1.9498084,39.1380392],[1.9318113,39.1875903],[1.9318563,39.1876115],[2.1846287,39.3065439],[2.1848213,39.3066346],[2.1848559,39.3066508],[2.4239948,39.4191686],[2.1848559,39.3066508],[2.1848213,39.3066346],[2.2376278,39.2816811],[2.2522702,39.2773238],[2.2859722,39.2540735],[2.3421826,39.2279776],[2.4036771,39.2104607],[2.4682983,39.2021358],[2.5216248,39.2030816],[2.5227132,39.2018772],[2.5684703,39.1675739],[2.5664534,39.1453537],[2.5747254,39.0936363],[2.5956536,39.0441134],[2.6284329,38.9986292],[2.6718229,38.958874],[2.7186242,38.9235122],[2.771814,38.8905039],[2.8322221,38.8661773],[2.8975381,38.8514594],[2.965271,38.8469105],[3.0328409,38.852703],[3.0976742,38.8686158],[3.1572985,38.894042],[3.2094341,38.9280117],[3.2520791,38.9692278],[3.2835857,39.0161144],[3.3089696,39.065008],[3.3145243,39.0797851],[3.4700761,39.1759236],[3.5259524,39.2192212],[3.5678289,39.2711485],[3.7922609,39.6335505],[3.8076324,39.6665973],[3.9070416,39.661158],[4.0688574,39.5864555],[4.1402288,39.5612957],[4.2170505,39.548962],[4.2955002,39.5500668],[4.345707,39.5551181],[4.4136915,39.5673281],[4.4772087,39.5896484],[4.5337525,39.6211992],[4.5810835,39.6607362],[4.6165909,39.7057785],[4.6173192,39.7063851],[4.6538569,39.7528287],[4.6775733,39.803948],[4.6874812,39.8576773],[4.6831471,39.9118411],[4.6647137,39.9642406],[4.6328993,40.0127441],[4.4678475,40.2107157],[4.4269718,40.250685],[4.3769519,40.2840919],[4.3195604,40.3097436],[4.2568412,40.3267226],[4.2324078,40.3295854],[4.2189967,40.3341887],[4.1523866,40.3460371],[4.084016,40.3478714],[4.0164684,40.3396214],[3.7129627,40.2786265],[3.6489968,40.2604576],[3.5908471,40.2332283],[3.5406952,40.1979635],[3.5004133,40.1559886],[3.4753342,40.1151386],[3.4456237,40.146917],[3.3951229,40.1831033],[3.3362894,40.2110393],[3.2714006,40.2296388],[3.2029771,40.2381775],[3.1336818,40.236322],[3.0662133,40.2241441],[2.6941595,40.1258663],[2.636607,40.1059514],[2.5846661,40.0784869],[2.1233827,39.7821],[2.0733765,39.7422636],[2.0350683,39.6954065],[2.0100576,39.6435153],[1.999372,39.5887856],[2.0034289,39.5335279],[2.0220225,39.4800693],[2.0543393,39.4306562],[2.0976787,39.3784177],[2.117174,39.3590138],[2.1171923,39.3590224],[2.3759841,39.4808265],[2.1171923,39.3590224],[2.117174,39.3590138],[2.117067,39.3589634],[1.886504,39.2504456],[1.8863986,39.250396],[1.8863803,39.2503874],[1.7693745,39.1953169],[1.6088446,39.1197612],[1.608826,39.1197525],[1.608826,39.1197525],[1.608822,39.1197506],[1.5855964,39.1088191],[1.5717135,39.1022849],[1.5855964,39.1088191],[1.608822,39.1197506],[1.608826,39.1197525],[1.608826,39.1197525],[1.6088446,39.1197612],[1.7693745,39.1953169],[1.8863803,39.2503874],[1.8863986,39.250396],[1.8544192,39.2810603],[1.8001435,39.3156536],[1.7379515,39.3410898],[1.6512969,39.368209],[1.5940304,39.3818014],[1.5345879,39.3875978],[1.4747401,39.3854254],[1.4162702,39.3753485],[1.2501106,39.3346811],[1.1802812,39.3107111],[1.1189405,39.2755209],[1.0577089,39.2314931],[1.0155193,39.1950324],[0.9825802,39.1532517],[0.9813077,39.1506811],[0.9753358,39.1469184],[0.9331146,39.1079723],[0.9011237,39.0635566],[0.8804885,39.0152617],[0.8719225,38.9648132],[0.8697088,38.9177965],[0.8697088,38.9177966],[1.2033926,38.978468],[1.2397507,38.9850787],[1.2033926,38.978468],[0.8697088,38.9177966],[0.8697088,38.9177965],[0.5461835,38.8589722],[0.5461705,38.8589698],[0.3766341,38.8281442],[0.2272617,38.8009849],[0.3766341,38.8281442],[0.5461705,38.8589698],[0.5461835,38.8589722],[0.5170553,38.8988667],[0.4344352,38.9885607],[0.3845784,39.0318323],[0.3238982,39.0657848],[0.1633069,39.1363652],[0.0271113,39.4346578],[0.0271814,39.4485903],[0.203489,39.7000758],[0.6293566,40.1188949],[0.6632811,40.1587556],[0.7653446,40.3050638],[0.7952743,40.310574],[0.8581979,40.3327197],[0.9143024,40.3637587],[1.0941731,40.4849752],[1.1410137,40.5231611],[1.17735,40.567476],[1.2018077,40.6162701],[1.216398,40.6567508],[1.2282656,40.7104749],[1.2256539,40.7649088],[1.2118668,40.8077872],[2.1589315,41.0151204],[2.2201317,41.0329209],[2.2760366,41.0588199],[2.3247783,41.0919548],[2.5163812,41.2478265],[3.0964072,41.4718629],[3.160092,41.502922],[3.3794224,41.6359007],[3.4323645,41.6752645],[3.4733938,41.7218944],[3.5566137,41.8415475],[3.5833652,41.8915455],[3.5962705,41.9444894],[3.5947826,41.9982748],[3.5789253,42.0507588],[3.562232,42.0880241],[3.5910041,42.1230258],[3.6453163,42.2056091],[3.6699511,42.2544837],[3.6814336,42.3059413],[3.679303,42.3580597],[3.6636063,42.4088878],[3.6349009,42.4565181],[3.5942386,42.499159],[3.5431293,42.535203],[3.5123553,42.5496999],[3.5272644,42.5166531],[3.5428544,42.4663828],[3.5451895,42.4148452],[3.5342175,42.363924],[3.5103707,42.3154754],[3.4745452,42.2712613],[3.4280651,42.232886],[3.3726318,42.201739],[3.3102614,42.1789463],[3.2432123,42.1653309],[3.1739058,42.161384],[3.1584232,42.1626985],[3.1584231,42.1626999],[3.1584223,42.1627175],[3.1584223,42.1627184],[3.1562045,42.2111638],[3.1694467,42.2270307],[3.2560786,42.2139141],[3.2629199,42.2133667],[3.2697795,42.2137813],[3.2764127,42.2151431],[3.282583,42.2174035],[3.2880701,42.2204818],[3.2926783,42.2242684],[3.296243,42.2286279],[3.3502749,42.3113526],[3.3527187,42.3162468],[3.3538419,42.3213962],[3.3536022,42.326608],[3.3520081,42.3316871],[3.3491191,42.3364433],[3.3450431,42.3406984],[3.3399327,42.344293],[3.333979,42.3470925],[3.3274052,42.3489918],[3.2225751,42.3708593],[3.2170973,42.4329129],[3.216912,42.4337484],[3.2170234,42.428809],[3.2156205,42.4233795],[3.2127493,42.4182754],[3.2085305,42.4137109],[3.2031415,42.4098774],[3.1968085,42.4069358],[3.1897972,42.4050095],[3.1830195,42.4042484],[3.1830195,42.4042485],[3.1830195,42.4042486],[3.1830195,42.4042487],[3.1830194,42.4042494],[3.1830192,42.4042513],[3.1806318,42.4311267],[3.0870309,42.4277495],[3.0294303,42.4648982],[2.9322293,42.469964],[2.7882279,42.4125523],[2.6910269,42.405798],[2.6406264,42.3720265],[2.6622266,42.3382549],[2.5470255,42.3517636],[2.5254253,42.3264349],[2.2770228,42.4294381],[2.1366214,42.4159295],[2.0646206,42.3585179],[2.0106201,42.3466978],[1.9638196,42.3669608],[1.9362393,42.42],[1.9,42.42],[1.9,42.4445349],[1.7082171,42.5020469],[1.5174152,42.4294381],[1.4490145,42.4345038],[1.4058141,42.4868497],[1.4490145,42.5037355],[1.4058141,42.5290642],[1.4310143,42.5949187],[1.3410134,42.7080534],[1.1502115,42.7063648],[1.0890109,42.7705307],[0.9198092,42.7840393],[0.7074071,42.8465167],[0.6694175,42.8320389],[0.6498065,42.8245652],[0.6318063,42.7452021],[0.6678067,42.7148077],[0.6426064,42.6844133],[0.3906039,42.6844133],[0.3546035,42.7181848],[0.2754028,42.6692161],[0.2394024,42.7097419],[0.1674017,42.7266277],[-0.0378004,42.6844133],[-0.1206012,42.7164962],[-0.1602016,42.7958594],[-0.2358024,42.7857279],[-0.3222032,42.8431395],[-0.4230042,42.7907936],[-0.5346053,42.8076794],[-0.5346053,42.7840393],[-0.5706057,42.7722193],[-0.6498065,42.8498939],[-0.7398074,42.885354],[-0.7614076,42.9461428],[-0.9450095,42.9478313],[-1.0278103,42.9866686],[-1.1502115,43.005243],[-1.3122131,43.0694089],[-1.2870129,43.1099348],[-1.3482135,43.093049],[-1.3662137,43.0339488],[-1.4562146,43.0457688],[-1.4886149,43.0812289],[-1.4094141,43.1673464],[-1.402214,43.2433324],[-1.5390154,43.2838582],[-1.6110161,43.2450209],[-1.6722167,43.3041211],[-1.7478175,43.2906125],[-1.7550176,43.3193183],[-1.798218,43.3412698],[-1.7946179,43.3851728],[-1.8126181,43.3953043],[-1.8316701,43.3863681],[-1.8316761,43.3863653],[-1.8316842,43.3863615],[-1.8316861,43.3863606],[-1.8316871,43.3863601],[-1.8316871,43.3863601],[-1.8316875,43.3863599],[-1.8316875,43.3863599],[-1.8316926,43.3863575],[-1.8316607,43.3867499],[-1.8305464,43.3919014],[-1.8280887,43.3968016],[-1.8243792,43.4012672],[-1.8195564,43.4051313],[-1.8138004,43.4082491],[-1.8073266,43.4105041],[-1.8003771,43.4118119],[-1.7845338,43.4136204],[-1.7845386,43.4136231],[-1.7845388,43.4136232],[-1.7898964,43.4166393],[-1.7963506,43.419556],[-1.8034876,43.4214556],[-1.8110079,43.4222584],[-1.8185958,43.4219306],[-1.8259327,43.420486],[-1.8327108,43.4179852],[-1.9424849,43.3664906],[-1.9456831,43.36778],[-1.9529922,43.3694212],[-1.9606091,43.3699363],[-1.9682095,43.3693033],[-1.9754696,43.3675493],[-2.1279365,43.3173492],[-2.1556183,43.3282812],[-2.1556436,43.3282912],[-2.1556633,43.328299],[-2.1557046,43.3283153],[-2.1612686,43.3440165],[-2.1653814,43.3966045],[-2.1553423,43.4487796],[-2.1314983,43.4985478],[-2.0947297,43.5440019],[-2.0464205,43.5833961],[-1.9884087,43.6152134],[-1.9229173,43.6382266],[-1.8711583,43.6480176],[-1.8569199,43.6619578],[-1.8856995,43.6598264],[-1.9540861,43.6447893],[-2.0172059,43.6205415],[-2.0727179,43.5879848],[-2.1007254,43.5680217],[-2.1103715,43.5664877],[-2.5489905,43.6691758],[-2.5504988,43.6694058],[-2.5623247,43.6764594],[-2.6244721,43.7009525],[-2.6919334,43.716471],[-2.7622512,43.7224489],[-2.8328601,43.7186684],[-3.0100019,43.6966231],[-3.0771082,43.6834364],[-3.1396202,43.6614277],[-3.1592248,43.6508597],[-3.1621445,43.6536948],[-3.217802,43.6896909],[-3.2823088,43.7169088],[-3.4267703,43.7643719],[-3.491424,43.7805618],[-3.5590981,43.7879176],[-3.6274912,43.7861893],[-3.6942764,43.7754356],[-3.7466925,43.7592631],[-3.7631839,43.7626382],[-3.8437599,43.7660646],[-3.9234488,43.7568412],[-3.9984789,43.7354048],[-4.0971162,43.6977435],[-4.4601709,43.6585503],[-5.2098165,43.7986191],[-5.2666475,43.8047063],[-5.2752174,43.8081863],[-5.3476407,43.8248318],[-5.4232393,43.8305108],[-5.5453604,43.830573],[-5.6147002,43.8719196],[-5.6761442,43.9016463],[-5.7445371,43.922043],[-5.8171778,43.9323029],[-5.8911913,43.9320205],[-5.9636461,43.9212074],[-6.0316752,43.9002921],[-6.0925932,43.8701021],[-6.13528,43.8383307],[-7.0093124,43.8269677],[-7.0132916,43.8266214],[-7.0396533,43.8287066],[-7.0579717,43.8288576],[-7.0938222,43.8638141],[-7.155282,43.9023277],[-7.2268945,43.930319],[-7.4003007,43.9811682],[-7.4254209,43.9863974],[-7.46199,44.0104148],[-7.5273091,44.0383579],[-7.5991466,44.0562281],[-7.6745217,44.0632837],[-7.750301,44.0592321],[-7.8233341,44.0442426],[-7.8545215,44.0325159],[-7.8770849,44.0354243],[-7.9476683,44.0348358],[-8.0168075,44.0247085],[-8.0820226,44.0054062],[-8.2336344,43.9477663],[-8.2940459,43.9189929],[-8.345542,43.8823434],[-8.3861922,43.8392047],[-8.387559,43.8368877],[-8.4539188,43.8176122],[-8.523197,43.7910101],[-8.5831416,43.7545059],[-8.6310968,43.7097288],[-8.6649558,43.6586732],[-8.6832511,43.6036075],[-8.6860787,43.5880024],[-8.6913353,43.5864156],[-8.6951476,43.5875903],[-8.7733555,43.6046184],[-8.854801,43.6088515],[-8.9355181,43.6000848],[-9.0115786,43.578746],[-9.1595778,43.5228012],[-9.2204639,43.4938576],[-9.2723084,43.4568291],[-9.2832141,43.4451645],[-9.3388388,43.4297469],[-9.4035508,43.3993743],[-9.4581275,43.3599151],[-9.5002144,43.313088],[-9.5360086,43.2623366],[-9.5500859,43.2366376],[-9.5848348,43.2058706],[-9.6177907,43.1621201],[-9.6390503,43.1146728],[-9.647908,43.065165],[-9.6440887,43.0153002],[-9.642285,43.0099482],[-9.6433372,43.0076131],[-9.6599175,42.9505735]],[[-8.8938889,42.1187399],[-8.8863321,42],[-8.8794888,41.8924705],[-8.8863321,42],[-8.8938889,42.1187399]],[[-6.0354604,36.1901451],[-6,36.188129],[-5.9166592,36.1833908],[-6,36.188129],[-6.0354604,36.1901451]],[[-6,43.5770084],[-6,43.5770084],[-5.9058591,43.5878021],[-6,43.5770084]],[[-4.0122401,43.4527159],[-4,43.4469748],[-3.9798398,43.4375187],[-4,43.4469748],[-4.0122401,43.4527159]],[[-0.0090001,38.8699172],[0,38.8677596],[0.1530015,38.83108],[0,38.8677596],[-0.0090001,38.8699172]],[[0,38.6184185],[0,38.6184185],[0.0810008,38.6318278],[0,38.6184185]],[[0.1875295,38.7937606],[0.2021602,38.7964208],[0.2144078,38.7986477],[0.2240506,38.800401],[0.2240522,38.8004013],[0.2240506,38.800401],[0.2144078,38.7986477],[0.2021602,38.7964208],[0.1875295,38.7937606]],[[3.2141584,42],[3.2141584,42],[3.2346323,41.9650794],[3.2141584,42]],[[3.803438,40.0181498],[3.8285899,40],[3.8285899,40],[3.803438,40.0181498]],[[3.8214382,40.0468556],[4,40.0669988],[4.1058411,40.0789386],[4,40.0669988],[3.8214382,40.0468556]],[[3.8322383,39.9354095],[3.8905092,39.932194],[4,39.9261521],[4,39.9261521],[4.0158402,39.925278],[4,39.9261521],[4,39.9261521],[3.8905092,39.932194],[3.8322383,39.9354095]],[[4.2412448,40],[4.2412448,40],[4.2642426,39.9860668],[4.2412448,40]]]}}
