{"type":"Feature","properties":{"family":"spain","name":"Kingdom of Spain, 1799 – 1800"},"geometry":{"type":"Polygon","coordinates":[[[-9.6599135,42.9505649],[-9.6592968,42.8922169],[-9.6415534,42.8353137],[-9.607557,42.7825158],[-9.5822673,42.7521902],[-9.5364495,42.7080867],[-9.4793854,42.6717569],[-9.4376296,42.6546361],[-9.4295137,42.6430532],[-9.4363235,42.6093578],[-9.4318261,42.5537869],[-9.4119346,42.5000645],[-9.377532,42.450475],[-9.3197587,42.3847741],[-9.2775103,42.3452578],[-9.2573284,42.3322839],[-9.2542254,42.3276394],[-9.227331,42.302003],[-9.229839,42.2941529],[-9.232461,42.2417834],[-9.228624,42.2239379],[-9.2306611,42.221157],[-9.2524468,42.1644958],[-9.2570553,42.1056714],[-9.2413893,41.8794773],[-9.2373093,41.8597089],[-9.2373082,41.8597152],[-9.2280277,41.9136891],[-9.2018115,41.9683099],[-9.1604488,42.0174846],[-9.0346473,42.1359855],[-8.9949366,42.1676776],[-8.8926216,42.2370167],[-8.8926127,42.2370227],[-8.8926121,42.2370231],[-8.8880298,42.2343772],[-8.8813256,42.2319346],[-8.8740907,42.2305542],[-8.8666289,42.2302938],[-8.7880635,42.2334988],[-8.8706921,42.1814859],[-8.8755645,42.1777578],[-8.87938,42.1734064],[-8.8819971,42.1685932],[-8.8833189,42.1634968],[-8.8832968,42.1583064],[-8.881932,42.1532143],[-8.8795481,42.148903],[-8.9021969,42.1449841],[-8.9090098,42.143262],[-8.9152296,42.1405789],[-8.9206125,42.1370401],[-8.9249476,42.1327841],[-8.928065,42.1279781],[-8.929843,42.1228102],[-8.9302121,42.1174831],[-8.9156853,41.891221],[-8.9146282,41.8859145],[-8.9121797,41.8808679],[-8.9084371,41.8762809],[-8.9035487,41.8723351],[-8.9000037,41.8704242],[-8.9000004,41.8704267],[-8.82857,41.9223245],[-8.7498875,41.9684565],[-8.6706867,42.0005395],[-8.6274863,42.0511968],[-8.3466835,42.1018541],[-8.2206822,42.1542],[-8.202682,42.0697712],[-8.1378814,42.0731483],[-8.0946809,42.0410653],[-8.2314823,41.9042906],[-8.2206822,41.8688305],[-8.1774818,41.8502561],[-8.1810818,41.8114188],[-8.0478805,41.8164846],[-7.9938799,41.8637647],[-7.9434794,41.8671419],[-7.9074791,41.914422],[-7.896679,41.858699],[-7.7202772,41.8992249],[-7.6086761,41.8738962],[-7.6230762,41.8316818],[-7.6050761,41.8249275],[-7.5474755,41.8316818],[-7.5150752,41.8654533],[-7.4826748,41.8570104],[-7.4430744,41.8063531],[-7.3926739,41.8418132],[-7.2198722,41.8789619],[-7.198272,41.9009134],[-7.198272,41.9633908],[-7.1586716,41.9853423],[-7.0506705,41.9414393],[-6.9930699,41.9667679],[-6.9462695,41.9431279],[-6.8562686,41.9431279],[-6.8238682,41.9836537],[-6.7266673,41.9313078],[-6.6222662,41.9414393],[-6.6078661,41.9617022],[-6.5718657,41.9431279],[-6.5754658,41.8823391],[-6.5250653,41.8671419],[-6.5790658,41.7404986],[-6.5430654,41.6594469],[-6.4602646,41.6763327],[-6.3666637,41.662824],[-6.2730627,41.6290525],[-6.204662,41.5699523],[-6.2802628,41.4973435],[-6.3198632,41.411226],[-6.3774638,41.3977174],[-6.3774638,41.3774545],[-6.496265,41.2947142],[-6.6474665,41.267697],[-6.7554676,41.159628],[-6.7662677,41.1089707],[-6.8166682,41.0549362],[-6.9066691,41.0566248],[-6.9426694,41.0160989],[-6.8166682,40.8573727],[-6.8382684,40.8404869],[-6.8382684,40.7425494],[-6.8130681,40.6479891],[-6.8490685,40.5652488],[-6.8130681,40.5145915],[-6.8562686,40.4419827],[-6.8526685,40.4098997],[-6.795068,40.3558652],[-6.8706687,40.2950764],[-6.8778688,40.2646821],[-7.0146701,40.2258448],[-7.0434704,40.1819418],[-7.0290703,40.132973],[-6.9570696,40.1025786],[-6.8814688,40.0097069],[-6.9282693,39.8611121],[-7.00027,39.8020119],[-7.0218702,39.6939429],[-7.5582756,39.6804343],[-7.4682747,39.5504139],[-7.3134731,39.4575421],[-7.3278733,39.3410303],[-7.2522725,39.27011],[-7.2594726,39.2110098],[-7.1694717,39.170484],[-7.1586716,39.1046295],[-7.0650707,39.1147609],[-7.0146701,39.0961866],[-6.9750698,39.0235778],[-7.0650707,38.9053774],[-7.0578706,38.85472],[-7.0703296,38.85],[-7,38.85],[-6.95,38.6],[-7.15,38.45],[-7.32,38.5],[-7.3154474,38.5318684],[-7.3602736,38.4460843],[-7.1658717,38.2721609],[-7.104671,38.1742234],[-6.9462695,38.1961749],[-7.0254703,38.0222514],[-7.1226712,38.0408258],[-7.1586716,37.9969228],[-7.2738727,37.9766599],[-7.3062731,37.8500166],[-7.4430744,37.7301276],[-7.4718747,37.6372558],[-7.5150752,37.6017957],[-7.5294753,37.5562041],[-7.4682747,37.4751524],[-7.4142741,37.19316],[-7.3787445,37.1946251],[-7.3736329,37.168615],[-7.3735802,37.1678431],[-7.37358,37.1678398],[-7.0850121,37.1797367],[-7.0782584,37.1805549],[-7.0718468,37.182436],[-7.0710763,37.1828165],[-7.0710762,37.1828158],[-7.0710751,37.1828057],[-7.0686575,37.1607453],[-7.0768056,37.1059042],[-7.0987594,37.0535338],[-7.1335747,37.0058208],[-7.1797775,36.9647536],[-7.2212378,36.9403824],[-7.2213084,36.9403409],[-7.1415846,36.9480997],[-7.0453522,36.9198559],[-7.0330989,36.9173139],[-6.7698257,36.7793564],[-6.7713596,36.7743765],[-6.7749377,36.7248936],[-6.7671631,36.6757303],[-6.7483198,36.6285444],[-6.6903565,36.5189505],[-6.6573472,36.4707655],[-6.6215848,36.437137],[-6.6207908,36.4349326],[-6.5909625,36.3884211],[-6.3166421,36.044643],[-6.2784028,36.0050851],[-6.2317924,35.9719422],[-6.1784252,35.9463555],[-6.1201424,35.9292051],[-6.0589494,35.9210804],[-6.0340503,35.9196742],[-5.876753,35.8285594],[-5.8767518,35.8285595],[-5.8767162,35.8285644],[-5.8760049,35.8286618],[-5.8701348,35.8286133],[-5.7774504,35.8211216],[-5.7117002,35.8563655],[-5.7063075,35.8587069],[-5.7004794,35.8602066],[-5.6944133,35.860814],[-5.6883148,35.8605083],[-5.6095549,35.8505666],[-5.5412663,35.8968319],[-5.4915039,35.9305459],[-5.5412663,35.8968319],[-5.5614662,35.9085812],[-5.6067469,35.9480501],[-5.6388868,35.9905706],[-5.6388884,35.9905729],[-5.6336067,35.9865195],[-5.628467,35.9832815],[-5.6226468,35.9809156],[-5.6163685,35.979512],[-5.609872,35.9791245],[-5.6034054,35.9797677],[-5.5972157,35.9814173],[-5.41726,36.0455613],[-5.4117756,36.0480317],[-5.4069592,36.0512892],[-5.4029815,36.0552184],[-5.3999835,36.0596802],[-5.3980714,36.0645168],[-5.3973131,36.0695568],[-5.3948848,36.1426312],[-5.3935548,36.1422641],[-5.3910823,36.1347341],[-5.3910825,36.1347352],[-5.3910858,36.1347535],[-5.3920309,36.1400152],[-5.3916435,36.1454386],[-5.3899183,36.1506894],[-5.3869251,36.1555547],[-5.382785,36.159837],[-5.3776659,36.1633626],[-5.3734753,36.1652307],[-5.3658537,36.1631279],[-5.3586536,36.1411764],[-5.3370534,36.1411764],[-5.3281951,36.1670647],[-5.3235293,36.1658473],[-5.3175036,36.1630559],[-5.3123235,36.1593188],[-5.3082128,36.1547976],[-5.3053492,36.1496878],[-5.3038561,36.1442103],[-5.3037978,36.1386019],[-5.3040597,36.1363989],[-5.3040597,36.1363989],[-5.3040604,36.1363926],[-5.2614419,36.2608067],[-5.2362487,36.2738011],[-5.2316635,36.2766432],[-5.2277526,36.2800793],[-5.2246331,36.2840068],[-5.152217,36.3951187],[-5.1672912,36.3719895],[-5.1672909,36.3719894],[-5.1672859,36.371987],[-5.1410627,36.3598286],[-5.0892382,36.3223716],[-5.0481967,36.2770771],[-5.0197023,36.2259143],[-5.0049661,36.1711033],[-5.0045972,36.115018],[-5.0083246,36.0846338],[-5.0136838,36.0631192],[-5.0137011,36.0630496],[-4.9285307,36.2078401],[-4.8443259,36.235382],[-4.655305,36.2378575],[-4.5923547,36.2434535],[-4.5318154,36.2584968],[-4.4758405,36.2824531],[-4.3392648,36.3548386],[-4.2870117,36.3889571],[-4.2442224,36.4307788],[-4.2172882,36.463229],[-3.8571402,36.4813081],[-3.4711379,36.4290786],[-3.404298,36.4253646],[-3.3378668,36.4323912],[-3.2744727,36.4498806],[-3.2166275,36.4771406],[-3.2153465,36.4778914],[-2.9959658,36.4815984],[-2.8489777,36.4324957],[-2.7908459,36.4178357],[-2.7303914,36.4118593],[-2.6695916,36.414762],[-2.6104346,36.4264488],[-2.5548565,36.4465376],[-2.4506786,36.493667],[-2.3952184,36.5250088],[-2.3795556,36.5383589],[-2.2837297,36.4974471],[-2.2266969,36.478232],[-2.1662703,36.467734],[-2.1044835,36.466306],[-2.0434145,36.473996],[-1.9851178,36.4905453],[-1.9315573,36.5153972],[-1.8845423,36.5477147],[-1.8456669,36.5864085],[-1.753406,36.6976052],[-1.7340962,36.7062815],[-1.6787771,36.7373376],[-1.6322623,36.7766093],[-1.5964278,36.822526],[-1.5727299,36.8732476],[-1.5010899,37.090286],[-1.449027,37.1482941],[-1.3551477,37.1823713],[-1.3044453,37.2051067],[-1.2593452,37.2344065],[-1.2096674,37.2727382],[-1.1632985,37.2665423],[-1.0931609,37.263015],[-1.0236131,37.2710367],[-0.9611817,37.2892278],[-0.9265073,37.2864519],[-0.8651113,37.2904269],[-0.8056203,37.3031464],[-0.5866787,37.3670936],[-0.525816,37.3904738],[-0.4719512,37.4229527],[-0.4272136,37.4632527],[-0.3933817,37.5097862],[-0.3718121,37.560717],[-0.3633836,37.6140313],[-0.3684588,37.6676168],[-0.3868655,37.7193456],[-0.388593,37.722009],[-0.3922403,37.7653295],[-0.4005536,37.8091655],[-0.4008266,37.8098313],[-0.3817257,37.8263386],[-0.3499398,37.8657262],[-0.3272082,37.9088509],[-0.3142262,37.954425],[-0.3084447,37.988128],[-0.3004061,37.9919799],[-0.2523236,38.0262834],[-0.2132759,38.0671051],[-0.1846719,38.1129889],[-0.1675541,38.1622952],[-0.1661011,38.1771291],[-0.1202174,38.2226483],[-0.1008305,38.2470696],[0.0407047,38.2862402],[0.0962212,38.3060459],[0.1464357,38.3332176],[0.1897751,38.3669075],[0.201127,38.3795769],[0.2103073,38.3817649],[0.2644073,38.4033848],[0.3128499,38.4320997],[0.4675598,38.541547],[0.5155433,38.5832325],[0.5515093,38.6317644],[0.5738855,38.6850558],[0.581677,38.7408105],[0.5753124,38.7903916],[0.5753147,38.790392],[0.8731953,38.8445507],[1.1811199,38.9005355],[1.1811199,38.9005355],[1.1811199,38.9005355],[0.8731973,38.844551],[0.8737049,38.8388394],[0.8938974,38.7841833],[0.9283108,38.7340295],[0.9753943,38.6905966],[1.0330473,38.6558021],[1.0405922,38.6529758],[1.0396995,38.6233773],[1.0505052,38.5730098],[1.0732449,38.5251299],[1.107083,38.4814483],[1.1507936,38.4435224],[1.202806,38.412702],[1.2612616,38.3900825],[1.3240796,38.3764664],[1.3890293,38.3723363],[1.453807,38.3778383],[1.5099375,38.3912973],[1.5538842,38.3850678],[1.6203222,38.3857835],[1.6853542,38.3964514],[1.7465817,38.4166776],[1.801742,38.4457158],[1.8487901,38.4824932],[1.8859731,38.5256499],[1.9118953,38.5735876],[1.9255717,38.6245274],[1.9264674,38.6765756],[1.9145213,38.7277928],[1.8901522,38.7762666],[1.8542474,38.8201829],[1.8485206,38.8248693],[1.8961889,38.8635948],[1.9342457,38.9112405],[1.9588421,38.9639782],[1.9688867,39.0195335],[1.9639109,39.0755052],[1.9498092,39.1380189],[1.9318054,39.1875875],[1.9318113,39.1875903],[1.9318563,39.1876115],[2.1846287,39.3065439],[2.1848213,39.3066346],[2.1848559,39.3066508],[2.2376262,39.2817161],[2.2522593,39.2773619],[2.2859792,39.2541026],[2.3421937,39.2280089],[2.4036922,39.2104941],[2.4683172,39.202171],[2.5216197,39.2031177],[2.5227111,39.2019102],[2.5684729,39.1676065],[2.5664539,39.1453669],[2.5747246,39.0936592],[2.5956505,39.0441448],[2.6284262,38.9986676],[2.6718118,38.9589175],[2.7186138,38.9235558],[2.7718051,38.8905472],[2.8322157,38.8662196],[2.8975351,38.8515003],[2.9652715,38.8469495],[3.0328448,38.8527397],[3.0976809,38.8686498],[3.1573072,38.894073],[3.2094436,38.9280392],[3.2520881,38.9692514],[3.2835928,39.0161337],[3.3089763,39.0650269],[3.3145359,39.079818],[3.470102,39.1759663],[3.5259711,39.2192584],[3.5678405,39.2711776],[3.7922691,39.6335771],[3.8074879,39.6662847],[3.8074398,39.6662874],[3.7394225,39.6752065],[3.6749617,39.6941721],[3.6165322,39.722457],[3.5663848,39.7589758],[3.5264608,39.8023254],[3.4983173,39.850837],[3.4929913,39.868927],[3.8574413,39.9144827],[3.8663327,39.9162777],[3.8745973,39.9193681],[3.881918,39.9236352],[3.8880134,39.9289152],[3.8905092,39.932194],[3.8322383,39.9354095],[3.8502385,39.9843782],[3.8482874,39.9857862],[3.842551,39.9855169],[3.4684544,39.9387542],[3.4611666,39.9547745],[3.4515177,40.0063541],[3.4549887,40.0583931],[3.4714796,40.1089492],[3.4752865,40.1151597],[3.44561,40.1468995],[3.3951072,40.1830781],[3.3362726,40.2110077],[3.2713834,40.2296022],[3.2029601,40.2381375],[3.1336656,40.2362806],[3.0661983,40.2241028],[2.6941423,40.125827],[2.63659,40.1059127],[2.5846499,40.0784496],[2.1233615,39.7820631],[2.0733635,39.7422336],[2.0350619,39.6953859],[2.0100557,39.6435057],[1.9993722,39.588788],[2.0034285,39.5335422],[2.022019,39.4800947],[2.0543303,39.4306909],[2.0976704,39.3784522],[2.1171923,39.3590224],[2.117174,39.3590138],[2.117067,39.3589634],[1.886504,39.2504456],[1.8863986,39.250396],[1.7693745,39.1953169],[1.6088446,39.1197612],[1.608826,39.1197525],[1.608826,39.1197525],[1.5855964,39.1088191],[1.5717135,39.1022849],[1.5855964,39.1088191],[1.608822,39.1197506],[1.608822,39.1197506],[1.608826,39.1197525],[1.608826,39.1197525],[1.6088446,39.1197612],[1.7693745,39.1953169],[1.8863803,39.2503874],[1.8544234,39.281029],[1.8001482,39.315621],[1.7379562,39.3410571],[1.6513022,39.3681768],[1.5940305,39.3817709],[1.5345821,39.3875685],[1.4747285,39.3853965],[1.4162534,39.3753193],[1.2500928,39.3346528],[1.1802641,39.3106837],[1.1189251,39.2754953],[1.0576928,39.2314675],[1.0155094,39.1950128],[0.9825753,39.1532396],[0.9812994,39.1506622],[0.9753295,39.1469011],[0.9331109,39.1079607],[0.9011222,39.0635515],[0.8804883,39.0152635],[0.8719229,38.9648219],[0.8697088,38.9177966],[1.2033926,38.978468],[0.8697088,38.9177965],[0.5461835,38.8589722],[0.3766341,38.8281442],[0.5461705,38.8589698],[0.5170595,38.8988404],[0.4344407,38.9885342],[0.3845825,39.0318074],[0.3238995,39.0657617],[0.1633088,39.136343],[0.027111,39.4346454],[0.0271811,39.448596],[0.203496,39.7000934],[0.6293622,40.1189151],[0.6632887,40.1587782],[0.7653518,40.305089],[0.79528,40.3105991],[0.8582074,40.3327463],[0.9143144,40.3637872],[1.0941831,40.4850038],[1.1410212,40.5231875],[1.177355,40.5674989],[1.2018104,40.6162885],[1.2164005,40.6567688],[1.2282663,40.7104852],[1.2256544,40.7649108],[1.2118584,40.8078138],[2.1589313,41.0151547],[2.2201382,41.032957],[2.2760483,41.0588583],[2.3247931,41.0919957],[2.5163943,41.247868],[3.0964149,41.4719059],[3.1601086,41.5029696],[3.3794367,41.6359486],[3.432378,41.6753116],[3.4734052,41.7219391],[3.5566239,41.8415915],[3.5833696,41.8915775],[3.5962723,41.9445074],[3.5947853,41.9982779],[3.5789323,42.0507471],[3.5622231,42.0880474],[3.5910148,42.1230724],[3.6453263,42.2056552],[3.6699562,42.2545196],[3.681436,42.3059651],[3.6793052,42.3580705],[3.6636107,42.4088854],[3.6349098,42.4565033],[3.5942538,42.4991332],[3.5431521,42.5351684],[3.5122954,42.5497032],[3.5272037,42.5166571],[3.5427939,42.4663868],[3.5451314,42.4148492],[3.5341639,42.3639279],[3.5103236,42.3154792],[3.4745065,42.2712649],[3.4280365,42.2328892],[3.3726144,42.2017416],[3.310256,42.1789482],[3.2432192,42.1653319],[3.1739249,42.1613838],[3.1584234,42.1626998],[3.1562045,42.2111672],[3.1694469,42.2270343],[3.2560754,42.2139183],[3.2629174,42.2133708],[3.2697778,42.2137854],[3.2764118,42.2151473],[3.2825828,42.2174078],[3.2880706,42.2204862],[3.2926791,42.2242729],[3.296244,42.2286325],[3.3502758,42.3113571],[3.3527192,42.3162504],[3.3538421,42.3213986],[3.3536024,42.3266091],[3.3520085,42.331687],[3.3491199,42.3364419],[3.3450445,42.3406959],[3.3399348,42.3442897],[3.3339819,42.3470885],[3.3274088,42.3489875],[3.2225757,42.3708557],[3.2170975,42.4329141],[3.2169052,42.4337811],[3.2169053,42.4337786],[3.2170177,42.4288095],[3.2156152,42.4233798],[3.2127446,42.4182756],[3.2085267,42.413711],[3.2031386,42.4098774],[3.1968066,42.4069358],[3.1897963,42.4050094],[3.1830195,42.4042484],[3.1830195,42.4042484],[3.1830195,42.4042485],[3.1830195,42.4042486],[3.1830195,42.4042487],[3.1830194,42.4042494],[3.1830192,42.4042513],[3.1806318,42.4311267],[3.0870309,42.4277495],[3.0294303,42.4648982],[2.9322293,42.469964],[2.7882279,42.4125523],[2.6910269,42.405798],[2.6406264,42.3720265],[2.6622266,42.3382549],[2.5470255,42.3517636],[2.5254253,42.3264349],[2.2770228,42.4294381],[2.1366214,42.4159295],[2.0646206,42.3585179],[2.0106201,42.3466978],[1.9638196,42.3669608],[1.9362393,42.42],[1.9,42.42],[1.9,42.4445349],[1.7082171,42.5020469],[1.5174152,42.4294381],[1.4490145,42.4345038],[1.4058141,42.4868497],[1.4490145,42.5037355],[1.4058141,42.5290642],[1.4310143,42.5949187],[1.3410134,42.7080534],[1.1502115,42.7063648],[1.0890109,42.7705307],[0.9198092,42.7840393],[0.7074071,42.8465167],[0.6694175,42.8320389],[0.6498065,42.8245652],[0.6318063,42.7452021],[0.6678067,42.7148077],[0.6426064,42.6844133],[0.3906039,42.6844133],[0.3546035,42.7181848],[0.2754028,42.6692161],[0.2394024,42.7097419],[0.1674017,42.7266277],[-0.0378004,42.6844133],[-0.1206012,42.7164962],[-0.1602016,42.7958594],[-0.2358024,42.7857279],[-0.3222032,42.8431395],[-0.4230042,42.7907936],[-0.5346053,42.8076794],[-0.5346053,42.7840393],[-0.5706057,42.7722193],[-0.6498065,42.8498939],[-0.7398074,42.885354],[-0.7614076,42.9461428],[-0.9450095,42.9478313],[-1.0278103,42.9866686],[-1.1502115,43.005243],[-1.3122131,43.0694089],[-1.2870129,43.1099348],[-1.3482135,43.093049],[-1.3662137,43.0339488],[-1.4562146,43.0457688],[-1.4886149,43.0812289],[-1.4094141,43.1673464],[-1.402214,43.2433324],[-1.5390154,43.2838582],[-1.6110161,43.2450209],[-1.6722167,43.3041211],[-1.7478175,43.2906125],[-1.7550176,43.3193183],[-1.798218,43.3412698],[-1.7946179,43.3851728],[-1.8126181,43.3953043],[-1.8316701,43.3863681],[-1.8316761,43.3863653],[-1.8316842,43.3863615],[-1.8316861,43.3863606],[-1.8316871,43.3863601],[-1.8316871,43.3863601],[-1.8316875,43.3863599],[-1.831656,43.3867473],[-1.8305417,43.3918993],[-1.8280839,43.3968001],[-1.8243743,43.4012662],[-1.8195513,43.4051308],[-1.8137952,43.408249],[-1.8073214,43.4105042],[-1.800372,43.4118121],[-1.7845333,43.4136201],[-1.7845311,43.4136203],[-1.7898939,43.4166394],[-1.7963478,43.4195559],[-1.8034846,43.4214553],[-1.8110049,43.4222578],[-1.8185929,43.4219298],[-1.8259301,43.420485],[-1.8327085,43.4179841],[-1.9424812,43.3664902],[-1.94568,43.3677798],[-1.9529889,43.3694208],[-1.9606058,43.3699358],[-1.9682062,43.3693027],[-1.9754665,43.3675486],[-2.1279328,43.3173488],[-2.1801538,43.3379719],[-2.1556638,43.3283003],[-2.1612209,43.3439816],[-2.1653348,43.3965741],[-2.1552961,43.4487548],[-2.1314518,43.4985292],[-2.0946823,43.5439896],[-2.0463718,43.5833894],[-1.9883588,43.6152113],[-1.9228665,43.6382276],[-1.8710978,43.6480212],[-1.8568691,43.6619521],[-1.8856799,43.659817],[-1.9540673,43.6447774],[-2.0171887,43.6205274],[-2.072703,43.5879692],[-2.1006985,43.568015],[-2.1103281,43.5664836],[-2.5489479,43.6691754],[-2.5504655,43.6694068],[-2.5623022,43.6764667],[-2.6244423,43.7009564],[-2.6918969,43.7164725],[-2.762209,43.7224495],[-2.8328138,43.7186692],[-3.0099562,43.6966252],[-3.0770701,43.6834372],[-3.1395903,43.6614258],[-3.1591924,43.6508592],[-3.162121,43.6537033],[-3.2177731,43.6896987],[-3.2822756,43.7169158],[-3.426736,43.7643796],[-3.4913862,43.7805688],[-3.559058,43.787924],[-3.6274503,43.786195],[-3.6942361,43.7754408],[-3.746647,43.7592701],[-3.763145,43.7626466],[-3.8437189,43.7660723],[-3.9234078,43.7568483],[-3.99844,43.7354114],[-4.0970723,43.6977529],[-4.4601278,43.6585621],[-5.2097772,43.7986372],[-5.2666142,43.8047254],[-5.2751866,43.8082066],[-5.3476008,43.8248508],[-5.4231914,43.8305297],[-5.5453325,43.8305928],[-5.6146894,43.8719503],[-5.67613,43.9016754],[-5.7445199,43.9220695],[-5.8171583,43.9323265],[-5.8911703,43.9320405],[-5.9636246,43.9212233],[-6.0316542,43.9003035],[-6.0925738,43.8701089],[-6.1352346,43.8383545],[-7.0092652,43.8269976],[-7.0132457,43.8266512],[-7.039608,43.8287367],[-7.0579591,43.8288881],[-7.0938215,43.8638573],[-7.1552723,43.9023667],[-7.2268739,43.9303545],[-7.4002789,43.9812046],[-7.4254112,43.9864363],[-7.4619706,44.0104505],[-7.5272828,44.0383936],[-7.599114,44.0562635],[-7.6744839,44.0633184],[-7.7502596,44.0592658],[-7.8232912,44.0442749],[-7.8544709,44.0325504],[-7.877052,44.0354609],[-7.947626,44.0348716],[-8.0167578,44.0247446],[-8.0819683,44.0054436],[-8.2335814,43.9478045],[-8.2940066,43.9190244],[-8.3455154,43.8823647],[-8.3861762,43.8392132],[-8.3875284,43.8369211],[-8.4538649,43.8176528],[-8.5231559,43.7910454],[-8.5831129,43.7545319],[-8.631079,43.7097425],[-8.6649464,43.6586724],[-8.6832468,43.6035911],[-8.6860659,43.5880332],[-8.6912991,43.5864535],[-8.6951372,43.5876362],[-8.7733324,43.6046618],[-8.8547655,43.608894],[-8.9354724,43.6001278],[-9.0115262,43.5787909],[-9.1595268,43.5228468],[-9.2204247,43.4938974],[-9.2722807,43.4568597],[-9.2831737,43.4452084],[-9.3387956,43.4297913],[-9.4035153,43.3994137],[-9.4581003,43.3599469],[-9.5001954,43.31311],[-9.5359902,43.2623583],[-9.5500654,43.2366648],[-9.5848127,43.2058986],[-9.6177777,43.1621346],[-9.6390438,43.1146723],[-9.6479048,43.065149],[-9.6440854,43.0152691],[-9.6422868,43.0099321],[-9.6433274,43.0076226],[-9.6599135,42.9505649]],[[-8.8938889,42.1187399],[-8.8863321,42],[-8.8794888,41.8924705],[-8.8863321,42],[-8.8938889,42.1187399]],[[-6.0354604,36.1901451],[-6,36.188129],[-5.9166592,36.1833908],[-6,36.188129],[-6.0354604,36.1901451]],[[-6,43.5770084],[-6,43.5770084],[-5.9058591,43.5878021],[-6,43.5770084]],[[-4.0122401,43.4527159],[-4,43.4469748],[-3.9798398,43.4375187],[-4,43.4469748],[-4.0122401,43.4527159]],[[-0.0090001,38.8699172],[0,38.8677596],[0.1530015,38.83108],[0,38.8677596],[-0.0090001,38.8699172]],[[0,38.6184185],[0,38.6184185],[0.0810008,38.6318278],[0,38.6184185]],[[0.1875295,38.7937606],[0.2021602,38.7964208],[0.2240506,38.800401],[0.2144078,38.7986477],[0.2021602,38.7964208],[0.1875295,38.7937606]],[[3.2141584,42],[3.2141584,42],[3.2346323,41.9650794],[3.2141584,42]]]}}
