{"type":"Feature","properties":{"family":"sweden","name":"Kingdom of Sweden, 1809 – 1815"},"geometry":{"type":"Polygon","coordinates":[[[10.6422742,58.8345206],[10.6699518,58.807034],[10.6786838,58.8014108],[10.6684573,58.7768384],[10.6568015,58.7217341],[10.6670958,58.666564],[10.6988043,58.6136536],[10.736311,58.5680312],[10.7260607,58.5460771],[10.7233414,58.5081963],[10.7194577,58.5036356],[10.6971223,58.4506409],[10.6955485,58.3963883],[10.7074023,58.3238311],[10.7265948,58.2703401],[10.7657433,58.2199621],[10.8231855,58.1747321],[10.8965459,58.1364699],[10.8979818,58.1359756],[10.8965673,58.1181294],[10.9107177,58.0677306],[10.942478,58.0196387],[10.9934844,57.9607294],[11.0140437,57.9420654],[11.0220586,57.919303],[11.022512,57.9186906],[11.0757998,57.8829664],[11.1212066,57.8356799],[11.1343428,57.8108447],[11.1573982,57.7949961],[11.1606409,57.7813532],[11.1898593,57.7332769],[11.2045204,57.7189815],[11.2008709,57.6964594],[11.2121765,57.6431348],[11.2420396,57.5935391],[11.313282,57.5876628],[11.402816,57.570502],[11.4846231,57.54456],[11.555746,57.5107811],[11.6136363,57.4703917],[11.6562463,57.4248537],[11.6820991,57.3758094],[11.6903348,57.3250207],[11.6898955,57.2929393],[11.680223,57.2420075],[11.6529953,57.1929791],[11.6211025,57.1598981],[11.628368,57.1561596],[11.6366423,57.1401586],[11.6785742,57.094513],[11.6899501,57.0864136],[11.701781,57.0691933],[11.7365851,57.0387673],[11.7499847,57.0076015],[11.7633879,56.9912427],[11.8373754,56.979063],[11.9257292,56.9528479],[12.0023967,56.9173814],[12.0641957,56.8741536],[12.1085946,56.8249747],[12.1338134,56.7718965],[12.1388877,56.7171242],[12.1284318,56.6798205],[12.1956825,56.6512622],[12.2436158,56.5896211],[12.2273769,56.5796068],[12.1796863,56.5356007],[12.1724523,56.5246],[12.1528434,56.517784],[12.0831657,56.4812504],[12.0278973,56.4378723],[11.9891473,56.3893475],[11.9739892,56.3515901],[12.0442336,56.3743944],[12.1367179,56.3918042],[12.2336694,56.3985644],[12.3311071,56.3943976],[12.4250291,56.3794752],[12.7117101,56.3153645],[12.7117243,56.3153613],[12.7115159,56.315501],[12.5824076,56.4020725],[12.7115159,56.315501],[12.7767946,56.2717295],[12.772423,56.2588679],[12.7137013,56.2506014],[12.4751418,56.3278122],[12.4665974,56.32998],[12.4574587,56.3311942],[12.4480678,56.3314093],[12.4387764,56.3306173],[12.4299325,56.3288478],[12.421867,56.3261671],[12.4148817,56.3226756],[12.4092378,56.3185039],[12.4051458,56.3138082],[12.4027583,56.308764],[12.4021638,56.30356],[12.4033837,56.2983906],[12.4063719,56.293449],[12.411016,56.2889196],[12.4171421,56.2849717],[12.462866,56.2606816],[12.5563688,56.1147417],[12.5617388,56.1087841],[12.5773279,56.0957397],[12.5773643,56.0957093],[12.6514446,56.0664398],[12.6514446,56.0664398],[12.6589382,56.0627657],[12.6649212,56.0583107],[12.6691388,56.0532647],[12.671412,56.047843],[12.6716448,56.0422765],[12.6698281,56.0368024],[12.6660402,56.0316538],[12.6606416,56.0260261],[12.6606501,56.0260189],[12.7096522,55.985016],[12.7761612,55.8784879],[12.7793498,55.8744581],[12.7836653,55.8707744],[12.7889919,55.8675352],[12.881792,55.8195385],[12.8897947,55.7961635],[12.8704417,55.7779852],[12.866625,55.7735096],[12.8643294,55.7687168],[12.863632,55.7637691],[12.8645559,55.7588341],[12.8670692,55.7540787],[12.877884,55.7388856],[12.8823733,55.734057],[12.8884937,55.7298365],[12.8959949,55.7263963],[12.9045705,55.723877],[12.9810983,55.7066549],[13.0050467,55.6870155],[12.9932711,55.6493077],[12.8968506,55.5980153],[12.8904458,55.5938189],[12.8856923,55.5889713],[12.88279,55.5836775],[12.8720254,55.553279],[12.8710983,55.5481869],[12.8718862,55.5430883],[12.8743602,55.5381666],[12.9224993,55.4682276],[12.9201435,55.4662606],[12.9164522,55.4612345],[12.9146139,55.4558911],[12.9146926,55.4510674],[12.8800825,55.4596056],[12.8716778,55.4611673],[12.8629069,55.4618169],[12.8540742,55.4615318],[12.8454864,55.460322],[12.8374417,55.4582294],[12.8302192,55.4553268],[12.8240693,55.4517147],[12.8192051,55.4475187],[12.8157948,55.4428842],[12.7870501,55.3905274],[12.7851882,55.3854678],[12.7850571,55.3803],[12.786661,55.3752139],[12.7899404,55.370396],[12.7947743,55.3660231],[12.8009852,55.3622556],[12.8083448,55.3592315],[12.8165834,55.3570616],[12.8253988,55.3558256],[12.834468,55.3555686],[12.8434589,55.3563001],[12.9204906,55.3668784],[12.9280682,55.3466827],[12.9321148,55.3256143],[12.6194526,55.3842313],[12.9321148,55.3256143],[12.9325875,55.3255257],[13.4120723,55.2356334],[14.2384759,55.2038194],[14.2388303,55.2038058],[14.2984058,55.3663824],[14.3275534,55.4184031],[14.3746553,55.4659954],[14.4378224,55.5071883],[14.5144764,55.5402701],[14.6014532,55.5638623],[14.6951359,55.5769797],[14.791612,55.5790741],[14.8390875,55.5745794],[14.8389563,55.577308],[14.821219,55.6248758],[14.7886042,55.6698594],[14.7306797,55.7326741],[14.73246,55.7326198],[14.818272,55.7387561],[14.9007855,55.7534372],[14.9773542,55.7761934],[15.045511,55.8062955],[15.0994839,55.8348516],[15.159345,55.8730189],[15.1704713,55.8835817],[15.1969387,55.8841143],[15.2151394,55.8813394],[15.286651,55.8746323],[15.3843489,55.8716369],[15.4296237,55.8507722],[15.512783,55.8257733],[15.6029556,55.8103343],[15.6967224,55.8050394],[15.7905361,55.810089],[15.8386757,55.8182029],[15.8827357,55.8173846],[15.9732146,55.8254511],[16.0593903,55.842978],[16.138174,55.869339],[16.2067263,55.9035902],[16.262556,55.9445025],[16.2825362,55.962434],[16.3090131,55.9569785],[16.4069818,55.9488379],[16.5058533,55.9520243],[16.6015292,55.9664057],[16.6900353,55.9913858],[16.7510206,56.013204],[16.8207551,56.043435],[16.8795928,56.0802331],[16.9255584,56.1223848],[16.9570858,56.1684953],[17.2259877,56.6961141],[17.3165189,56.7878207],[17.3545501,56.8374285],[17.3739199,56.89018],[17.3739028,56.896777],[17.3826957,56.9050448],[17.4136772,56.9533941],[17.426789,57.0017707],[17.489755,57.0654969],[17.525986,57.1120155],[17.5456925,57.1613873],[17.5464525,57.177221],[17.551097,57.1805663],[17.5944646,57.2302987],[17.6031745,57.2497718],[17.6028446,57.2339473],[17.6239804,57.1778168],[17.6663998,57.1253574],[17.7069887,57.086772],[17.7042108,57.0746695],[17.7066279,57.0553059],[17.6922654,57.0388016],[17.6602805,56.9905958],[17.6456637,56.9399604],[17.6488727,56.8887295],[17.6697186,56.8387514],[17.7073832,56.7918215],[17.7604581,56.7496192],[17.8270015,56.7136492],[17.9046126,56.6851902],[17.9905174,56.6652509],[18.0816647,56.6545369],[18.1748297,56.6534266],[18.2667208,56.6619593],[18.4383936,56.6871094],[18.5304346,56.7060719],[18.6138712,56.7346693],[18.685396,56.7717761],[18.7199151,56.7986475],[18.7428211,56.8084809],[18.8045705,56.847393],[18.8517877,56.892007],[18.882712,56.9407115],[18.8951421,56.9878969],[18.9666923,57.0107522],[19.0408454,57.0396605],[19.1041273,57.0754484],[19.1543907,57.1169209],[19.1899058,57.1626893],[19.1903803,57.1638708],[19.2570957,57.1894424],[19.3278653,57.2308638],[19.3813176,57.2793345],[19.4150655,57.3327556],[19.4275528,57.3888046],[19.4181356,57.4450334],[19.400753,57.4923825],[19.3739536,57.5408012],[19.3458969,57.5699446],[19.387704,57.6038076],[19.3954601,57.6138738],[19.4131395,57.6204832],[19.4402459,57.6353358],[19.4721482,57.6481355],[19.5398252,57.68894],[19.5770968,57.723418],[19.5942276,57.7277532],[19.6714039,57.757878],[19.736699,57.7951897],[19.7877702,57.8383726],[19.8227564,57.885899],[19.8403491,57.9360809],[19.8398469,57.9871291],[19.8211907,58.0372154],[19.7849764,58.0845387],[19.7324445,58.12739],[19.6654435,58.1642159],[19.6648409,58.1644408],[19.6795779,58.1702769],[19.7486933,58.2115818],[19.8005958,58.2594044],[19.8330719,58.311773],[19.8446885,58.3665197],[19.8348648,58.4213673],[19.8039126,58.4740243],[19.7530392,58.5222802],[19.6843117,58.5641006],[19.6005797,58.5977155],[19.5053597,58.6216973],[19.3604453,58.6489154],[19.2643346,58.6616151],[19.1653081,58.6644907],[19.0670697,58.6574343],[18.9732918,58.6407098],[18.8874691,58.6149419],[18.8127814,58.5810918],[18.751971,58.5404186],[18.7072411,58.4944307],[18.6801781,58.4448271],[18.6717016,58.3934332],[18.6820408,58.3421318],[18.7107377,58.2927943],[18.7566758,58.2472126],[18.8170286,58.1989463],[18.7840988,58.1870353],[18.7452604,58.190865],[18.6472796,58.1904569],[18.5512895,58.1801367],[18.4608845,58.160291],[18.3794366,58.1316629],[18.3099632,58.0953219],[18.2550123,58.052622],[18.2503004,58.048071],[18.1845633,58.0296511],[18.1096215,57.9977403],[18.0474775,57.9588983],[17.7141827,57.7028091],[17.6578135,57.6452298],[17.6289501,57.582098],[17.6153775,57.521252],[17.6143627,57.462114],[17.6372843,57.4042744],[17.6504216,57.3828888],[17.6276178,57.3470791],[17.6214317,57.3324427],[17.6218243,57.3387358],[17.6045051,57.392946],[17.5869176,57.4267867],[17.5487942,57.4786175],[17.4915569,57.5251045],[17.4176105,57.564239],[17.3301123,57.5943237],[17.2328382,57.6140502],[17.1738033,57.6189461],[17.189541,57.6393936],[17.2086844,57.691814],[17.2083681,57.7243927],[17.2089623,57.7592954],[17.230114,57.7787894],[17.2628037,57.8316074],[17.2745303,57.8868742],[17.2646993,57.9422472],[17.2542777,57.9698925],[17.255022,57.9711383],[17.2657074,58.025655],[17.2618193,58.046191],[17.2671355,58.0529998],[17.3113159,58.1305038],[17.3143264,58.1386022],[17.3163485,58.1400169],[17.3597587,58.1871592],[17.3733103,58.2142148],[17.3949972,58.2359071],[17.423951,58.2886311],[17.4320687,58.3433466],[17.4195005,58.3953847],[17.4419396,58.4293877],[17.4511878,58.4645819],[17.4517392,58.464807],[17.4985147,58.4929284],[17.5544334,58.5016558],[17.6441704,58.5264152],[17.7230517,58.5598114],[17.723233,58.5599253],[17.7233207,58.5599435],[17.8050255,58.5868672],[17.8216444,58.5949355],[17.8557954,58.5919228],[17.9535483,58.5929674],[18.0492239,58.6035011],[18.1394816,58.6231565],[18.1960779,58.6426319],[18.2149193,58.6420946],[18.314539,58.649331],[18.4360651,58.6644136],[18.52656,58.6802564],[18.610045,58.7043983],[18.6837313,58.7360379],[18.7451373,58.7741223],[18.7921704,58.8173806],[18.8112686,58.8394372],[18.8548074,58.8701607],[18.8969572,58.9157599],[18.9156718,58.9420405],[18.9375878,58.9475332],[19.0272148,58.9760468],[19.1104723,59.008767],[19.1795888,59.0493276],[19.2317882,59.0961312],[19.2649343,59.1473276],[19.2658241,59.1510885],[19.283653,59.1692154],[19.2846799,59.170592],[19.3409354,59.1981727],[19.4017681,59.2431973],[19.4437208,59.2935637],[19.4649955,59.3472171],[19.4689083,59.3674641],[19.4694731,59.4172726],[19.452006,59.4662853],[19.4514729,59.4669956],[19.4403645,59.501098],[19.483975,59.5501163],[19.5077042,59.6042146],[19.5078238,59.6088878],[19.5238473,59.6182625],[19.5760955,59.6650356],[19.6090851,59.7161029],[19.6214278,59.7694551],[19.6139291,59.8145997],[19.6125366,59.8229829],[19.5978896,59.8482927],[19.6059157,59.867875],[19.6073767,59.9186772],[19.589783,59.9687155],[19.553677,60.0162079],[19.5002738,60.0594554],[19.4314276,60.0969044],[19.3670028,60.1207615],[19.3494548,60.1533366],[19.3445227,60.2026342],[19.3174672,60.2550537],[19.2697573,60.303725],[19.2032458,60.3466689],[19.1085256,60.3963483],[19.1061109,60.3976147],[19.0807564,60.408545],[19.0614304,60.4347196],[18.8728409,60.6262234],[18.8160864,60.6714403],[18.74219,60.7102985],[18.6540051,60.7412676],[18.5549792,60.7631243],[18.4490159,60.7750027],[18.3682661,60.7760726],[18.3648283,60.778176],[18.2764614,60.8137017],[18.1748184,60.8395142],[18.0643274,60.8544818],[17.949831,60.8579474],[17.9173036,60.8572695],[17.9005303,60.8638453],[17.8383659,60.8803113],[17.8377008,60.8812625],[17.7832757,60.938608],[17.7879888,60.9447127],[17.8054754,60.9988512],[17.8000584,61.0535876],[17.7718453,61.1066608],[17.7532859,61.1249646],[17.7507073,61.146448],[17.7458564,61.1554619],[17.762578,61.1815546],[17.7631617,61.1841418],[17.7804903,61.1976987],[17.8192393,61.2486123],[17.8361339,61.3022239],[17.8303824,61.3563761],[17.802102,61.4088789],[17.802102,61.4088789],[17.8691012,61.4316253],[17.9436517,61.4688591],[18.0021981,61.5121596],[18.0425638,61.5599685],[18.063204,61.6105582],[18.0790082,61.6881698],[18.0786021,61.7420912],[18.0555171,61.7948944],[18.0105673,61.8444595],[17.9656726,61.875045],[18.0065268,61.9183052],[18.0311756,61.9674469],[18.0359608,62.017887],[18.0324546,62.0293214],[18.0511367,62.036184],[18.1226599,62.0745614],[18.177679,62.118531],[18.2141827,62.1665451],[18.2307907,62.2169061],[18.2268136,62.2678247],[18.2182631,62.2851583],[18.2712207,62.3066893],[18.3436152,62.3513007],[18.3474377,62.355078],[18.432503,62.3871516],[18.5129949,62.4239314],[18.5768232,62.467189],[18.6215425,62.5153185],[18.6450157,62.565722],[18.6716665,62.58993],[18.6859769,62.6067282],[18.7724912,62.6363217],[18.8695743,62.6765783],[18.9475787,62.715825],[18.9794383,62.7400158],[19.0245317,62.7683726],[19.0611487,62.8051411],[19.1078978,62.8389065],[19.1496316,62.8882114],[19.1596277,62.9143142],[19.1934553,62.9165198],[19.3000469,62.9332296],[19.3979246,62.9587556],[19.4836028,62.9921952],[19.5539986,63.0323628],[19.6119987,63.0726874],[19.6634745,63.116784],[19.6781127,63.1380623],[19.7334213,63.1646654],[19.7406699,63.1658118],[19.7953799,63.1672443],[19.910575,63.1808637],[20.0176703,63.2044376],[20.1124941,63.2370527],[20.1844321,63.2672436],[20.2616295,63.3064673],[20.3207193,63.3516263],[20.336526,63.3718328],[20.3706223,63.3801523],[20.3913685,63.3879799],[20.4985246,63.3986414],[20.5417844,63.4071706],[20.6075365,63.4201345],[20.6457072,63.432112],[20.7561628,63.4181027],[20.8753745,63.4138713],[20.99415,63.4201639],[21.1079366,63.436739],[21.2123581,63.4629602],[21.3033701,63.497819],[21.3718115,63.5296967],[21.451844,63.5759575],[21.5025964,63.6237832],[21.5078911,63.6287726],[21.5372206,63.6856965],[21.552856,63.7447313],[21.5548556,63.7989237],[21.5322471,63.8521887],[21.4858134,63.9023651],[21.4793407,63.9066295],[21.5003413,63.9352325],[21.5373182,64.0205289],[21.7751883,64.126659],[21.7771251,64.1276884],[21.8476153,64.1574735],[22.0822091,64.2783043],[22.1535918,64.3233237],[22.2028142,64.3736291],[22.2277566,64.4271803],[22.2272604,64.4817941],[22.2011971,64.5352312],[22.1568651,64.5790119],[22.1217385,64.6305517],[22.0687247,64.6864774],[22.017088,64.729298],[21.9482521,64.7674711],[21.936839,64.7718719],[21.9305867,64.8134066],[21.9282336,64.8170948],[21.9809304,64.8422637],[22.0534472,64.88435],[22.0605045,64.890727],[22.0836406,64.9007378],[22.1498703,64.9427629],[22.1966486,64.9892622],[22.2193543,65.0330392],[21.5634677,65.0329925],[21.5588134,65.0408278],[21.5968617,65.0431984],[21.6090208,65.0444781],[21.620359,65.0467341],[21.6304408,65.0498799],[21.638879,65.0537948],[21.6453489,65.0583284],[21.6466762,65.0598823],[22,65.0598707],[21.6363602,65.0598827],[21.6466762,65.0598823],[21.481549,65.0598877],[21.481549,65.0598877],[21.481549,65.0598877],[21.4953469,65.0367741],[21.4917829,65.0427444],[21.504815,65.0209134],[21.4796148,65.0631278],[21.5876159,65.0698821],[21.5444154,65.0833908],[21.5624156,65.122228],[21.5444154,65.1374252],[21.6200162,65.1475567],[21.6092161,65.1695082],[21.4220142,65.3079715],[21.2636126,65.3366774],[21.2780128,65.350186],[21.3464135,65.3721375],[21.4904149,65.306283],[21.5444154,65.2471828],[21.6236162,65.2404285],[21.702817,65.28602],[21.6056161,65.3333002],[21.5444154,65.318103],[21.4472145,65.3569403],[21.4904149,65.3704489],[21.4904149,65.3704489],[21.4688147,65.3772032],[21.4904149,65.394089],[21.598416,65.3924004],[21.5444154,65.4109748],[21.6092161,65.4194176],[21.6560166,65.3974661],[21.8792188,65.4194176],[21.9260193,65.4042204],[21.9440194,65.4531892],[21.99802,65.426172],[22.0304203,65.4666978],[22.0304203,65.4666978],[21.9651002,65.5],[22.0488938,65.5],[22.0489266,65.5],[22.0155105,65.5170531],[22.0074908,65.5204694],[21.9981414,65.5232447],[21.9877551,65.525292],[21.9766579,65.5265471],[21.9667437,65.5269134],[22.2317552,65.5269163],[22.2207178,65.5264751],[22.2087971,65.5250133],[22.1977632,65.5226377],[22.1880195,65.5194351],[22.1799222,65.5155229],[22.1737666,65.511044],[22.1697767,65.5061622],[22.1683744,65.5018992],[22.1651556,65.5018295],[22.1534983,65.500661],[22.1499488,65.5],[22.233023,65.5],[22.2788228,65.4785178],[22.2788228,65.5],[22.2788228,65.5],[22.3437964,65.5],[22.3438008,65.5],[22.3438009,65.5000233],[22.3425678,65.5052789],[22.338889,65.5103325],[22.3329043,65.5149901],[22.3248424,65.5190731],[22.3150121,65.5224244],[22.3037905,65.5249152],[22.2916089,65.5264499],[22.2803896,65.5269098],[23.031657,65.5269168],[23.0062171,65.561125],[22.9441762,65.6081923],[22.8605716,65.6491955],[22.7586835,65.6824808],[22.7558183,65.68308],[22.7420431,65.6901058],[22.6435286,65.7238539],[22.5306747,65.7489643],[22.4078896,65.7644483],[22.2800053,65.7696944],[22.2337335,65.7696961],[22.1088934,65.7647105],[22.0955013,65.763073],[22.0037191,65.7692542],[14.535853,65.7693282],[14.6553056,65.7637128],[14.7770508,65.7476009],[14.8886337,65.7219856],[14.9857299,65.6878679],[15.0646214,65.6465763],[15.1223408,65.5997117],[15.1567786,65.549082],[15.1609887,65.5269333],[14.5191816,65.526934],[14.5194162,65.5269225],[14.5316991,65.5263197],[14.5443294,65.5245631],[14.555825,65.5217734],[14.5657021,65.5180681],[14.5735453,65.5136032],[14.5790255,65.5085668],[14.5819136,65.5031707],[14.5820145,65.5],[14.5820145,65.5],[14.5174051,65.5],[14.5099451,65.4650092],[14.5099451,65.4650092],[14.5135451,65.318103],[14.3803438,65.2404285],[14.3119431,65.0833908],[13.6423364,64.5835719],[14.095941,64.4653715],[14.1607416,64.2053306],[14.1463415,64.1681819],[13.9627396,64.0094556],[13.2355324,64.0905073],[12.9835298,64.0584244],[12.6811268,63.9571097],[12.2923229,63.656543],[12.1699217,63.5974428],[12.2203222,63.4741766],[11.9935199,63.2884331],[12.2239222,63.001375],[12.0943209,62.9068147],[12.1555216,62.7109397],[12.0907209,62.585985],[12.3139231,62.2854182],[12.3175232,62.2347609],[12.1627216,61.7248106],[12.4147241,61.5829701],[12.6127261,61.54751],[12.8899289,61.3499464],[12.8395284,61.2266803],[12.7387274,61.1422514],[12.702727,61.0460025],[12.5119251,61.0493797],[12.2527225,61.0020995],[12.3499235,60.7927159],[12.6091261,60.4870834],[12.5947259,60.3942117],[12.4903249,60.3114714],[12.5227252,60.1983367],[12.5119251,60.117285],[12.4471245,60.0514305],[12.2923229,59.9585588],[12.1447214,59.89777],[11.9431194,59.9028357],[11.8495185,59.8724413],[11.8423184,59.8386698],[11.903519,59.7846353],[11.8927189,59.7052722],[11.8279183,59.6596806],[11.6947169,59.6225319],[11.6695167,59.5803174],[11.8099181,59.2713078],[11.6947169,58.9741182],[11.6659167,58.9200837],[11.6119161,58.8930665],[11.4823148,58.8863122],[11.4535145,58.8964436],[11.4391144,58.991004],[11.3923139,59.0197098],[11.3563136,59.0923186],[11.3203132,59.0990729],[11.2195122,59.09063],[11.2131299,59.0862466],[11.2131282,59.0862454],[11.1187112,59.0213984],[11.2131282,59.0862454],[11.1753836,59.0893046],[11.164874,59.0907344],[11.1570765,59.0927494],[11.1570533,59.0927554],[11.1206533,59.0677339],[11.1228635,59.0723109],[11.1206533,59.0677339],[11.1206533,59.0677339],[11.1206373,59.0677007],[11.0975904,59.019975],[11.0941608,59.0150027],[11.088918,59.0104689],[11.0820629,59.006547],[11.0738579,59.0033866],[11.0687722,59.0021329],[11.0687715,59.0021328],[11.0700679,58.9925142],[11.07182,58.9872229],[11.0755712,58.9822156],[11.0809516,58.9778687],[11.0717809,58.9733535],[11.0650659,58.9693228],[11.0600148,58.9646922],[11.056823,58.9596415],[11.0556136,58.9543668],[11.0564326,58.9490726],[11.0592474,58.9439643],[11.0639479,58.9392398],[11.0703513,58.9350823],[11.0782091,58.9316526],[11.1464249,58.9073541],[11.1493773,58.8534649],[11.1505844,58.8484092],[11.1536078,58.8435615],[11.1583389,58.8390946],[11.1646085,58.8351678],[11.1721927,58.8319209],[11.175126,58.8308899],[11.1615549,58.765472],[11.1294735,58.7308068],[11.1260482,58.7259587],[11.124466,58.7208612],[11.1247841,58.715701],[11.12699,58.7106673],[11.1310021,58.7059446],[11.1366729,58.7017056],[11.1437942,58.6981056],[11.152105,58.6952762],[11.1633726,58.692196],[11.1608508,58.6820768],[11.1606008,58.6763716],[11.1616974,58.6733953],[11.1617229,58.673326],[11.1617213,58.6733265],[11.1570428,58.6746865],[11.0818184,58.7074669],[11.0196702,58.7469866],[11.0080649,58.7581168],[10.9236471,58.7642718],[10.9236471,58.7642718],[10.8700313,58.7709745],[10.769531,58.7892804],[10.678184,58.81774],[10.6440057,58.8340765],[10.6422742,58.8345206]],[[11.6515165,57.9559061],[11.6947169,58.0150063],[11.6837478,58],[11.6515165,57.9559061]],[[11.6947169,58.0150063],[11.7307173,57.9981205],[11.7267103,58],[11.6947169,58.0150063]],[[11.7307173,57.9981205],[11.7379174,58.0589093],[11.7309399,58],[11.7307173,57.9981205]],[[11.7379174,57.9390203],[11.7830223,58],[11.7830223,58],[11.7379174,57.9390203]],[[14,55.4078026],[14,55.4078026],[14.0635406,55.3909572],[14,55.4078026]],[[14.3479435,55.9532535],[14.499145,56.0410595],[14.4284408,56],[14.4284408,56],[14.3479435,55.9532535]],[[15.8527585,56.0866511],[16.0399604,56.2555088],[16,56.2194642],[15.8527585,56.0866511]],[[16.6591666,58.0352692],[16.698767,57.9981205],[16.6967635,58],[16.6591666,58.0352692]],[[17.3935739,61.9916058],[17.4619746,62.0034258],[17.4421499,62],[17.3935739,61.9916058]],[[17.9623796,58.9639867],[18.0199802,59.0230869],[18,59.0025866],[17.9623796,58.9639867]],[[17.9659797,60.5124121],[18,60.5003365],[18,60.5003365],[18.099181,60.4651319],[17.9659797,60.5124121]],[[17.9695797,62.5606563],[18.0631806,62.5961164],[18,62.5721809],[17.9695797,62.5606563]],[[17.9695797,62.8071886],[18.0775808,62.8561573],[18,62.8209815],[18,62.8209815],[17.9695797,62.8071886]],[[18.804788,60.1223507],[18.872509,60],[18.901989,59.9467387],[18.804788,60.1223507]],[[19.9531995,63.6193943],[20.0288003,63.6025085],[20,63.6089412],[19.9531995,63.6193943]],[[20.896409,63.984127],[20.9648096,64.1496075],[20.90297,64],[20.896409,63.984127]],[[21.9114696,65.5],[21.9114696,65.5],[21.9400201,65.5],[21.9400201,65.5],[21.9512195,65.4954036],[21.9296193,65.4886493],[21.9114696,65.5],[21.9114696,65.5]],[[21.915485,65.5269129],[21.9386927,65.5269132],[21.9273684,65.5264482],[21.9258884,65.5262613],[21.915485,65.5269129]]]}}
