{"type":"Feature","properties":{"family":"sweden","name":"Kingdom of Sweden, 1789 – 1809"},"geometry":{"type":"Polygon","coordinates":[[[10.6422829,58.8345184],[10.6698326,58.8071555],[10.678774,58.8013975],[10.668469,58.7766369],[10.6568267,58.7216091],[10.6671027,58.6665211],[10.6987627,58.6136913],[10.7363765,58.567939],[10.726086,58.5459025],[10.7233584,58.5079776],[10.719477,58.5034209],[10.6971505,58.4504713],[10.6955748,58.3962715],[10.7074281,58.3237182],[10.7266115,58.2702726],[10.7657498,58.2199426],[10.8231818,58.174761],[10.8965327,58.1365459],[10.8980256,58.1360327],[10.8965911,58.1180489],[10.9107096,58.0677028],[10.9424288,58.0196634],[10.9934309,57.9607567],[11.0140291,57.9420606],[11.0220173,57.9193282],[11.0224666,57.9187211],[11.0757998,57.8829664],[11.1212066,57.8356799],[11.1343404,57.8108493],[11.1573847,57.7950076],[11.1606289,57.781329],[11.189791,57.7333135],[11.2045698,57.7188995],[11.2009039,57.6963128],[11.2121887,57.6430489],[11.2419995,57.5935424],[11.313282,57.5876628],[11.402816,57.570502],[11.4846231,57.54456],[11.555746,57.5107811],[11.6136363,57.4703917],[11.6562463,57.4248537],[11.6820991,57.3758094],[11.6903348,57.3250207],[11.6898955,57.2929393],[11.680223,57.2420075],[11.6529953,57.1929791],[11.6211076,57.1599034],[11.6282923,57.1562072],[11.636538,57.1402272],[11.6783946,57.0946181],[11.6898686,57.0864447],[11.7017057,57.0692061],[11.7365627,57.0387303],[11.7499749,57.0075305],[11.7633082,56.9912558],[11.8373754,56.979063],[11.9257292,56.9528479],[12.0023967,56.9173814],[12.0023967,56.9173814],[12.0641957,56.8741536],[12.1085946,56.8249747],[12.1338134,56.7718965],[12.1388877,56.7171242],[12.1284344,56.6798298],[12.1955619,56.6513223],[12.2437245,56.5893828],[12.2274791,56.5793661],[12.1797848,56.5353827],[12.1725157,56.5243419],[12.1530974,56.517595],[12.0833741,56.4810635],[12.028058,56.4376922],[11.9892606,56.3891796],[11.9741534,56.3516434],[12.0442336,56.3743944],[12.1367179,56.3918042],[12.2336694,56.3985644],[12.3311071,56.3943976],[12.4250291,56.3794752],[12.7117101,56.3153645],[12.7768035,56.2717171],[12.772429,56.2588468],[12.7137448,56.2505854],[12.4751778,56.3277978],[12.4666372,56.3299642],[12.4575007,56.3311775],[12.4481104,56.3313923],[12.438818,56.3306004],[12.4299716,56.3288316],[12.4219023,56.3261522],[12.4149119,56.3226623],[12.4092619,56.3184927],[12.4051632,56.3137995],[12.4027684,56.3087581],[12.4021664,56.303557],[12.403379,56.2983907],[12.4063602,56.2934522],[12.4109978,56.2889259],[12.4171184,56.2849808],[12.4628582,56.2606821],[12.5563676,56.1147309],[12.5617282,56.1087835],[12.5773427,56.0957178],[12.6514446,56.0664398],[12.6589382,56.0627657],[12.6649212,56.0583107],[12.6691388,56.0532647],[12.671412,56.047843],[12.6716448,56.0422765],[12.6698281,56.0368024],[12.6660402,56.0316538],[12.6606363,56.0260207],[12.6606363,56.0260207],[12.7096478,55.9850096],[12.7761603,55.8784752],[12.7813623,55.872565],[12.7889668,55.8675432],[12.8817892,55.8195346],[12.8898006,55.7961341],[12.8704464,55.7779546],[12.8666305,55.7734809],[12.8643346,55.7686911],[12.8636359,55.7637474],[12.8645574,55.7588171],[12.8670674,55.7540669],[12.8778821,55.7388738],[12.8823633,55.7340539],[12.8884732,55.7298412],[12.8959623,55.7264072],[12.9045251,55.7238919],[12.9810717,55.7066654],[13.0050546,55.6869976],[12.9932753,55.6492778],[12.8968645,55.5979902],[12.8904545,55.5937907],[12.8856973,55.5889405],[12.8827935,55.5836447],[12.872029,55.5532464],[12.8711025,55.5481598],[12.8718888,55.5430676],[12.874359,55.5381529],[12.9225086,55.4681996],[12.9201557,55.4662364],[12.91646,55.4612091],[12.9146188,55.4558651],[12.9146962,55.4510633],[12.8801283,55.459591],[12.8717214,55.4611525],[12.8629463,55.4618012],[12.854108,55.4615145],[12.8455138,55.4603024],[12.8374624,55.458207],[12.8302336,55.4553012],[12.8240784,55.451686],[12.8192104,55.4474869],[12.8157981,55.4428499],[12.7870538,55.3904934],[12.7851928,55.3854379],[12.7850609,55.3802755],[12.7866622,55.3751956],[12.7899375,55.3703843],[12.794766,55.3660181],[12.8009705,55.3622568],[12.8083232,55.3592382],[12.8165548,55.3570729],[12.8253639,55.3558401],[12.8344278,55.3555849],[12.8434149,55.3563167],[12.9204826,55.3668998],[12.9280682,55.3466827],[12.9321148,55.3256144],[13.4120723,55.2356334],[14.2388303,55.2038058],[14.2984058,55.3663824],[14.2984058,55.3663824],[14.3275534,55.4184031],[14.3746553,55.4659954],[14.4378224,55.5071883],[14.5144764,55.5402701],[14.6014532,55.5638623],[14.6951359,55.5769797],[14.791612,55.5790741],[14.8390847,55.5745797],[14.8389465,55.5774854],[14.8212421,55.6250144],[14.7886661,55.6699558],[14.7307432,55.7327691],[14.7320317,55.7327298],[14.8179098,55.7388735],[14.9004973,55.7535705],[14.9771414,55.7763502],[15.0453686,55.8064818],[15.0993457,55.8350377],[15.1592267,55.8732081],[15.1702639,55.8836795],[15.1964838,55.8842096],[15.2146817,55.8814352],[15.286192,55.8747263],[15.3839656,55.8717286],[15.429404,55.8507915],[15.5125557,55.8258106],[15.6027341,55.8103929],[15.696518,55.8051223],[15.7903579,55.8101986],[15.8382479,55.8182826],[15.8824394,55.8174684],[15.9729611,55.8255526],[16.0591862,55.8431016],[16.138021,55.869488],[16.2066217,55.9037665],[16.2624926,55.9447058],[16.2822887,55.9624697],[16.3088322,55.9570082],[16.4067696,55.9488961],[16.5056195,55.9521036],[16.6012862,55.9664981],[16.6897972,55.9914832],[16.750786,56.0133006],[16.820586,56.0435555],[16.8794827,56.0803814],[16.9254965,56.1225621],[16.9570575,56.1687006],[17.2259808,56.696315],[17.3164906,56.7879947],[17.3545325,56.8376109],[17.3739101,56.8903643],[17.3738936,56.8969584],[17.3826474,56.9051877],[17.4136435,56.9535296],[17.4267933,57.0019624],[17.4897317,57.0656589],[17.5259712,57.1121849],[17.545684,57.1615587],[17.5464448,57.1773804],[17.5510374,57.1806879],[17.5944295,57.23043],[17.6031853,57.249991],[17.6028445,57.2338077],[17.6239627,57.177695],[17.6663592,57.1252574],[17.7069998,57.086622],[17.7042172,57.0745042],[17.7066332,57.0551247],[17.6922965,57.0386503],[17.6603077,56.9904507],[17.6456765,56.9398282],[17.6488607,56.8886153],[17.6696725,56.8386586],[17.7072957,56.7917516],[17.7603242,56.7495721],[17.8268195,56.7136231],[17.9043839,56.6851818],[17.9902468,56.6652563],[18.0813604,56.6545512],[18.1745026,56.6534449],[18.2663841,56.6619767],[18.4380615,56.6871227],[18.5301792,56.7060993],[18.6136931,56.7347215],[18.6852887,56.7718617],[18.7197876,56.798714],[18.7425839,56.8084951],[18.8043877,56.8474125],[18.8516625,56.8920329],[18.8826444,56.9407441],[18.8951396,56.9879881],[18.9664769,57.0107738],[19.0406745,57.0396961],[19.1040016,57.0755003],[19.154308,57.1169908],[19.1898611,57.1627772],[19.1903318,57.1639477],[19.2569286,57.1894698],[19.3277579,57.2309164],[19.3812612,57.2794158],[19.4150467,57.3328664],[19.427555,57.3889422],[19.4181405,57.445192],[19.400756,57.4925435],[19.3739731,57.5409318],[19.3459128,57.5700795],[19.3876688,57.6038992],[19.3953929,57.6139225],[19.4129731,57.6204936],[19.4401204,57.6353643],[19.472101,57.6482011],[19.5397956,57.6890264],[19.5769867,57.7234335],[19.594011,57.727741],[19.6712173,57.7578681],[19.7365492,57.7951831],[19.7876621,57.8383701],[19.822693,57.8859011],[19.8403315,57.9360879],[19.8398745,57.9871407],[19.8212612,58.0372312],[19.7850861,58.0845577],[19.7325887,58.1274111],[19.6656165,58.1642378],[19.6648831,58.1645116],[19.6794417,58.1702762],[19.7485878,58.2115864],[19.8005247,58.2594147],[19.8330373,58.3117891],[19.8446904,58.3665411],[19.8349016,58.4213932],[19.8039813,58.4740533],[19.7531359,58.5223107],[19.6844318,58.5641306],[19.6007182,58.5977432],[19.5055115,58.6217211],[19.3605918,58.648936],[19.2644767,58.6616314],[19.165441,58.6644999],[19.0671897,58.6574341],[18.9733963,58.6406986],[18.8875564,58.6149189],[18.8128507,58.5810568],[18.752022,58.5403723],[18.7072739,58.4943744],[18.6801937,58.4447628],[18.6717012,58.393363],[18.6820262,58.3420583],[18.7107113,58.2927203],[18.7566406,58.2471411],[18.8169994,58.1988668],[18.7843013,58.1870359],[18.7452868,58.1908737],[18.6473055,58.1904419],[18.5513152,58.1800986],[18.4609099,58.1602316],[18.3794612,58.1315849],[18.3099861,58.0952289],[18.255032,58.0525181],[18.2503708,58.0480155],[18.1846899,58.0296088],[18.1096916,57.9976692],[18.0475034,57.9587934],[17.7142395,57.7027101],[17.6578329,57.6450966],[17.628954,57.5819339],[17.6153831,57.5210912],[17.614366,57.4619649],[17.6372782,57.4041438],[17.6504334,57.3827289],[17.6276324,57.3469232],[17.6214043,57.3321904],[17.6218228,57.3388733],[17.6045107,57.3930779],[17.5869213,57.4269203],[17.5488096,57.4787255],[17.4915876,57.5251833],[17.4176593,57.5642865],[17.3301812,57.5943398],[17.2329278,57.6140366],[17.1736704,57.6189368],[17.1894679,57.6394354],[17.2086573,57.6918526],[17.2083587,57.7253435],[17.2089635,57.7594494],[17.2300562,57.7788787],[17.2627773,57.8317069],[17.2745238,57.8869814],[17.2646999,57.9423576],[17.2542773,57.9700057],[17.2549712,57.9711652],[17.2657014,58.0256772],[17.261808,58.0463208],[17.2671276,58.0531333],[17.3113129,58.130641],[17.3143169,58.13872],[17.3162949,58.1401034],[17.3597269,58.1872505],[17.3733005,58.2143325],[17.3949131,58.2359298],[17.4239092,58.2886464],[17.4320691,58.3433542],[17.4195059,58.3955244],[17.4419026,58.4294322],[17.451185,58.4646783],[17.4516845,58.4648823],[17.498421,58.4929781],[17.5542734,58.501693],[17.6440419,58.5264552],[17.7229561,58.5598563],[17.7231367,58.5599697],[17.7231772,58.5599781],[17.8049114,58.5869051],[17.821504,58.5949582],[17.855714,58.5919434],[17.9534712,58.5929966],[18.0491548,58.6035388],[18.1394232,58.6232026],[18.1959222,58.6426473],[18.214748,58.6421102],[18.314369,58.6493449],[18.4358982,58.6644245],[18.5264267,58.680271],[18.6099466,58.7044208],[18.6836664,58.736072],[18.7451014,58.7741709],[18.7921565,58.8174453],[18.811248,58.8394923],[18.854784,58.870213],[18.8969463,58.9158213],[18.915636,58.9420641],[18.9374852,58.9475397],[19.0271173,58.976052],[19.110389,59.0087736],[19.1795235,59.0493357],[19.2317434,59.0961409],[19.2649113,59.1473389],[19.2658097,59.1511299],[19.2836387,59.169256],[19.2846524,59.1706147],[19.3409163,59.1982027],[19.4017579,59.2432362],[19.4437175,59.293611],[19.464996,59.3472715],[19.4689093,59.3675196],[19.4694751,59.4173247],[19.4520123,59.4663321],[19.4514718,59.4670523],[19.4403702,59.501149],[19.4839524,59.5501209],[19.5076975,59.6042246],[19.5078185,59.6089057],[19.5238141,59.6182634],[19.5760735,59.6650396],[19.6090745,59.7161104],[19.6214279,59.7694659],[19.613947,59.8145658],[19.6242856,59.812607],[19.7186657,59.8051059],[19.7330227,59.8010517],[19.7645564,59.7959129],[19.8092289,59.7750184],[19.8885618,59.744253],[19.9777478,59.7214031],[20.0737203,59.7072501],[20.1731963,59.7022774],[20.2727817,59.7066545],[20.2812925,59.7078578],[20.2928766,59.7074062],[20.3984965,59.713896],[20.4971589,59.7249847],[20.5528018,59.698869],[20.6524539,59.6691492],[20.7623086,59.6508677],[20.8087569,59.645842],[20.913578,59.6398243],[21.0187052,59.6442578],[21.120129,59.6589735],[21.14388,59.6651679],[21.2087163,59.6767138],[21.2959384,59.7023251],[21.3722188,59.7357054],[21.4348517,59.7756863],[21.4815858,59.8208642],[21.4924355,59.8390571],[21.5023848,59.8380156],[21.6089322,59.8323009],[21.7156304,59.8372451],[21.8183295,59.8526559],[21.8298882,59.855747],[21.8926047,59.8466138],[21.9326898,59.8452231],[21.9937309,59.8062453],[22.073096,59.7719487],[22.1640368,59.7460004],[22.2631399,59.729368],[22.3667079,59.7226703],[22.4004807,59.7238095],[22.4069649,59.712547],[22.4547521,59.6658926],[22.5193895,59.6247666],[22.598407,59.5907045],[22.6888249,59.5649737],[22.7872652,59.5485293],[22.890072,59.5419802],[22.9934389,59.5455688],[23.3363698,59.5740512],[23.4351255,59.5870889],[23.5272699,59.6093533],[23.6094784,59.640045],[23.6787617,59.6780591],[23.6899453,59.687208],[23.7966118,59.687105],[23.8002199,59.6873076],[23.8193359,59.6858144],[23.8800444,59.6841408],[23.9904607,59.6868025],[24.0975004,59.7007816],[24.1966833,59.7254936],[24.2157651,59.7330388],[24.2398117,59.7301468],[24.3438939,59.7281491],[24.4308794,59.7226866],[24.5336564,59.7261848],[24.6332622,59.739468],[24.726085,59.7620551],[24.8087421,59.7931267],[24.9561822,59.8602639],[24.9846671,59.8763431],[25.0297564,59.8786234],[25.1140068,59.8812851],[25.2125151,59.8939491],[25.3046166,59.9156222],[25.3870737,59.9455457],[25.4186196,59.9594181],[25.4368465,59.9546562],[25.5427011,59.9395668],[25.6524238,59.9354728],[25.7615436,59.9425406],[25.8656123,59.9604818],[25.9222347,59.9772758],[25.9867818,59.9774327],[26.0938141,59.9886568],[26.1942336,60.0103692],[26.2839854,60.0416965],[26.3594172,60.0813755],[26.3603698,60.0821393],[26.4245454,60.109463],[26.4355512,60.1098565],[26.5380572,60.1238418],[26.5937628,60.1376778],[26.6497881,60.1421671],[26.7056977,60.1495818],[26.7548051,60.150156],[26.8581553,60.1615392],[26.955199,60.1826217],[27.0423034,60.2126171],[27.0458711,60.2144449],[27.1099938,60.2236724],[27.2054367,60.2482773],[27.2894095,60.28167],[27.3586466,60.322567],[27.4104195,60.3693915],[27.4426463,60.4203309],[27.4467671,60.4396269],[27.2118,60.4874774],[27.2056541,60.4890908],[27.1981646,60.4872398],[27.1878029,60.4858392],[27.1770812,60.4854651],[27.1664133,60.4861319],[27.1562104,60.4878139],[27.1468662,60.4904461],[27.1387414,60.4939272],[27.1197689,60.5038195],[27.1111777,60.5013678],[27.1009405,60.4996586],[27.0902168,60.4989756],[27.0794251,60.4993454],[27.0689862,60.5007535],[27.0675188,60.5011161],[27.0492115,60.4786757],[27.0447064,60.4743346],[27.0386871,60.4704669],[27.0313512,60.4671994],[27.0229392,60.4646389],[27.0137266,60.4628693],[27.0083217,60.4623569],[27.0129853,60.4567503],[27.0159986,60.451846],[27.0170788,60.4467512],[27.0161877,60.4416498],[27.0133585,60.4367259],[27.0086941,60.4321571],[27.0023632,60.4281082],[26.9945948,60.4247251],[26.985669,60.4221296],[26.9759077,60.4204154],[26.9656625,60.419644],[26.9553023,60.4198434],[26.9452002,60.4210062],[26.9357201,60.4230907],[26.9272034,60.4260217],[26.9199574,60.4296937],[26.8964201,60.4441255],[26.9225881,60.4480963],[26.9326263,60.4501725],[26.9416333,60.4531868],[26.9471428,60.4559585],[26.9156692,60.4752634],[26.9065308,60.4738767],[26.9,60.5],[26.75,60.85],[26.675,61.025],[26.6,61.2],[26.8,61.3333333],[27,61.4666667],[27.2,61.6],[27.4166667,61.7],[27.6333333,61.8],[27.85,61.9],[28.0666667,62],[28.2833333,62.1],[28.5,62.2],[29.5,62.8],[30.3,63.36],[30.4611434,63.4728004],[29.9792998,63.7409718],[30.202502,63.7933177],[30.3285033,63.8963209],[30.5,63.9923295],[30.5,64.2448081],[30.3213032,64.3184653],[30.1629016,64.3421053],[30.0333003,64.3961398],[30.0693007,64.4721258],[29.9900999,64.5042088],[29.9540995,64.5683747],[30.1809018,64.6426721],[30.1881019,64.662935],[30.1053011,64.7254124],[30.1197012,64.7676268],[29.7812978,64.7963326],[29.698497,64.8385471],[29.6336963,64.9077787],[29.5868959,64.9922076],[29.597696,65.034422],[29.6369542,65.0596199],[29.757228,65.0596159],[29.7572286,65.059616],[29.8352202,65.0672657],[29.8352202,65.0672657],[29.8466774,65.0688763],[29.8572184,65.0713644],[29.8664682,65.0746416],[29.8740976,65.0785914],[29.8798344,65.0830733],[29.8847743,65.0879864],[30.4822528,65.0879059],[30.4879856,65.1006235],[30.4862544,65.154808],[30.4693651,65.1872682],[30.473794,65.2186094],[30.4545264,65.2732924],[30.4088511,65.3251452],[30.3695676,65.3513351],[30.3883287,65.4863464],[30.3830715,65.5395149],[30.352618,65.5911918],[30.2980203,65.6393483],[30.221308,65.6820831],[30.1254256,65.7177002],[30.0141251,65.7447794],[29.8918187,65.7622368],[29.7633957,65.7693716],[25.3116931,65.7695704],[25.1780034,65.7619224],[25.0510719,65.7430959],[24.9363993,65.7139091],[24.8389116,65.6756272],[24.7627386,65.6299037],[24.7110389,65.5787046],[24.6871297,65.5269309],[25.3307538,65.5269369],[25.3182029,65.5262328],[25.3058975,65.5244553],[25.2946924,65.5216961],[25.2850378,65.518066],[25.2773211,65.5137111],[25.2718514,65.5088064],[25.2688472,65.5035487],[25.2685713,65.5],[25.3332537,65.5],[25.3332537,65.5],[25.3532535,65.4835836],[25.3568536,65.4109748],[25.2668527,65.3772032],[25.3352534,65.3434317],[25.3064531,65.329923],[25.3208532,65.3164144],[25.2812528,65.2606914],[25.3280533,65.2269198],[25.2812528,65.2201655],[25.2740527,65.1796397],[25.2128521,65.1239166],[25.3568536,65.0968994],[25.3932347,65.0597593],[24.8816488,65.0597761],[24.8816488,65.0867679],[24.8348483,65.0952108],[24.6548465,65.0800136],[24.6099941,65.059785],[24.5225191,65.0597879],[24.5145706,65.0562003],[24.507024,65.0520409],[24.5015243,65.0473447],[24.4982781,65.042289],[24.4974066,65.0370646],[24.4989411,65.0318683],[24.498547,65.0332026],[23.925957,65.0331619],[23.9265155,65.0091635],[23.9533589,64.9561336],[23.9797227,64.9305722],[23.9730178,64.9260377],[23.9288272,64.8768594],[23.9119329,64.8346626],[23.895536,64.8238876],[23.8434514,64.7818972],[23.8095724,64.7366613],[23.7743487,64.6695266],[23.5669415,64.582682],[23.4788704,64.5362286],[23.4170692,64.4825388],[23.378462,64.4366522],[23.371774,64.43362],[23.1344556,64.300319],[23.1050175,64.2950496],[23.0033997,64.2655565],[22.9172643,64.2279437],[22.8499433,64.1836956],[22.8039889,64.1345511],[22.7862555,64.0942186],[22.7060254,64.0733083],[22.6091099,64.0333745],[22.5992548,64.0283173],[22.5964925,64.027682],[22.5131076,64.0171615],[22.3964024,63.996465],[22.2919545,63.9657083],[22.2041926,63.9262087],[22.1552317,63.8924104],[22.0958002,63.8630604],[22.0342163,63.8163717],[22.0085238,63.7827758],[22.0081539,63.7825952],[21.9786966,63.7601003],[21.9781441,63.7599893],[21.8790077,63.7280861],[21.7965227,63.6879997],[21.7340106,63.641381],[21.7199656,63.6234465],[21.701213,63.6196834],[21.6364646,63.5996557],[21.5764117,63.6139082],[21.5028076,63.6238226],[21.5078806,63.6285947],[21.5372009,63.6855059],[21.5528376,63.744544],[21.554837,63.7987565],[21.5322212,63.8520481],[21.4857741,63.9022556],[21.4793636,63.906481],[21.5003158,63.9350183],[21.5373079,64.0203391],[21.7752706,64.126506],[21.7772265,64.1275455],[21.8476418,64.1572917],[22.0822537,64.2781244],[22.1536359,64.3231526],[22.202842,64.3734774],[22.2277512,64.4270567],[22.2272055,64.4817043],[22.2010782,64.535178],[22.1568489,64.5788246],[22.1216569,64.630439],[22.0686374,64.6863669],[22.0169283,64.7292442],[21.947998,64.767468],[21.9368134,64.7717806],[21.9304863,64.8133781],[21.9282469,64.81688],[21.9810007,64.8420749],[22.0534862,64.8841475],[22.0605418,64.8905255],[22.0838167,64.9006016],[22.1499718,64.9426099],[22.1966872,64.9890946],[22.2194425,65.0330408],[21.5634512,65.0329942],[21.5588048,65.0408163],[21.5969151,65.0431906],[21.6090706,65.0444703],[21.6204033,65.0467264],[21.6304781,65.0498726],[21.638908,65.053788],[21.6453687,65.0583224],[21.6466977,65.0598823],[21.481549,65.0598877],[21.4796148,65.0631278],[21.5876159,65.0698821],[21.5444154,65.0833908],[21.5624156,65.122228],[21.5444154,65.1374252],[21.6200162,65.1475567],[21.6092161,65.1695082],[21.6092161,65.1695082],[21.4220142,65.3079715],[21.2636126,65.3366774],[21.2780128,65.350186],[21.3464135,65.3721375],[21.4904149,65.306283],[21.5444154,65.2471828],[21.6236162,65.2404285],[21.702817,65.28602],[21.6056161,65.3333002],[21.5444154,65.318103],[21.4472145,65.3569403],[21.4904149,65.3704489],[21.4688147,65.3772032],[21.4904149,65.394089],[21.598416,65.3924004],[21.598416,65.3924004],[21.5444154,65.4109748],[21.6092161,65.4194176],[21.6560166,65.3974661],[21.8792188,65.4194176],[21.9260193,65.4042204],[21.9440194,65.4531892],[21.99802,65.426172],[22.0304203,65.4666978],[21.9651002,65.5],[21.9651002,65.5],[22.0488938,65.5],[22.0154836,65.5170499],[22.0074554,65.5204701],[21.9980972,65.5232488],[21.9877026,65.5252986],[21.976598,65.5265552],[21.9669548,65.5269118],[22.2314179,65.5269147],[22.2206563,65.5264844],[22.2087415,65.5250225],[22.1977152,65.5226467],[22.1879806,65.519444],[22.1798932,65.5155315],[22.173748,65.5110522],[22.1697684,65.5061698],[22.1683757,65.5019101],[22.165112,65.5018397],[22.1534601,65.5006728],[22.1498469,65.5],[22.1499488,65.5],[22.233023,65.5],[22.233023,65.5],[22.2788228,65.4785178],[22.2788228,65.5],[22.3437964,65.5],[22.3425625,65.5052578],[22.3388793,65.5103176],[22.3328876,65.5149815],[22.3248166,65.5190703],[22.314976,65.5224267],[22.3037438,65.5249215],[22.2915522,65.5264586],[22.2805915,65.5269083],[23.0314516,65.5269153],[23.0060737,65.5610225],[22.9439511,65.6081456],[22.8602512,65.6491997],[22.7582618,65.6825272],[22.7554173,65.6831223],[22.7417661,65.6900865],[22.6431423,65.7238846],[22.5301758,65.749032],[22.4072856,65.7645377],[22.2793143,65.7697888],[22.2330424,65.7697893],[22.1082416,65.7648002],[22.0948219,65.7631581],[22.0030159,65.7693412],[14.5382916,65.7692135],[14.6553056,65.7637128],[14.7770508,65.7476009],[14.8886337,65.7219856],[14.9857299,65.6878679],[15.0646214,65.6465763],[15.1223408,65.5997117],[15.1567786,65.549082],[15.1609905,65.5269236],[14.5194162,65.5269225],[14.5316991,65.5263197],[14.5443294,65.5245631],[14.555825,65.5217734],[14.5657021,65.5180681],[14.5735453,65.5136032],[14.5790255,65.5085668],[14.5819136,65.5031707],[14.5820145,65.5],[14.5174051,65.5],[14.5174051,65.5],[14.5099451,65.4650092],[14.5135451,65.318103],[14.3803438,65.2404285],[14.3119431,65.0833908],[13.6423364,64.5835719],[13.6423364,64.5835719],[14.095941,64.4653715],[14.1607416,64.2053306],[14.1463415,64.1681819],[13.9627396,64.0094556],[13.9627396,64.0094556],[13.2355324,64.0905073],[12.9835298,64.0584244],[12.6811268,63.9571097],[12.2923229,63.656543],[12.1699217,63.5974428],[12.2203222,63.4741766],[11.9935199,63.2884331],[11.9935199,63.2884331],[12.2239222,63.001375],[12.0943209,62.9068147],[12.1555216,62.7109397],[12.0907209,62.585985],[12.3139231,62.2854182],[12.3175232,62.2347609],[12.1627216,61.7248106],[12.4147241,61.5829701],[12.6127261,61.54751],[12.8899289,61.3499464],[12.8395284,61.2266803],[12.7387274,61.1422514],[12.702727,61.0460025],[12.5119251,61.0493797],[12.2527225,61.0020995],[12.2527225,61.0020995],[12.3499235,60.7927159],[12.6091261,60.4870834],[12.5947259,60.3942117],[12.4903249,60.3114714],[12.4903249,60.3114714],[12.5227252,60.1983367],[12.5119251,60.117285],[12.4471245,60.0514305],[12.2923229,59.9585588],[12.1447214,59.89777],[11.9431194,59.9028357],[11.8495185,59.8724413],[11.8423184,59.8386698],[11.903519,59.7846353],[11.8927189,59.7052722],[11.8279183,59.6596806],[11.6947169,59.6225319],[11.6695167,59.5803174],[11.8099181,59.2713078],[11.8099181,59.2713078],[11.6947169,58.9741182],[11.6659167,58.9200837],[11.6119161,58.8930665],[11.4823148,58.8863122],[11.4535145,58.8964436],[11.4391144,58.991004],[11.3923139,59.0197098],[11.3563136,59.0923186],[11.3203132,59.0990729],[11.2195122,59.09063],[11.1187112,59.0213984],[11.2131282,59.0862454],[11.1753836,59.0893046],[11.164874,59.0907344],[11.1570765,59.0927494],[11.1206373,59.0677007],[11.0975904,59.019975],[11.0941608,59.0150027],[11.088918,59.0104689],[11.0820629,59.006547],[11.0820629,59.006547],[11.0738579,59.0033866],[11.0687722,59.0021329],[11.0700697,58.9925057],[11.0718203,58.9872205],[11.0755687,58.982219],[11.0809726,58.9778555],[11.0717774,58.9733281],[11.0650661,58.9693004],[11.0600174,58.9646742],[11.0568264,58.9596289],[11.0556159,58.9543603],[11.056432,58.9490724],[11.0592422,58.9439703],[11.0639367,58.9392515],[11.0703331,58.9350987],[11.0781833,58.9316724],[11.1464261,58.9073643],[11.1493795,58.8534543],[11.1505848,58.8484058],[11.1536041,58.8435652],[11.1583291,58.8391048],[11.164591,58.8351834],[11.1721664,58.8319405],[11.1751332,58.8308977],[11.1615559,58.7654506],[11.1294715,58.730782],[11.1260494,58.7259391],[11.1244684,58.7208478],[11.1247855,58.7156945],[11.1269883,58.7106677],[11.1309953,58.7059515],[11.1366594,58.7017183],[11.1366594,58.7017183],[11.1437729,58.6981228],[11.1520755,58.6952966],[11.1633813,58.6922059],[11.1608526,58.6820592],[11.1606028,58.6763625],[11.1617213,58.6733265],[11.1570428,58.6746865],[11.0818184,58.7074669],[11.0196702,58.7469866],[11.0080649,58.7581168],[10.9236471,58.7642718],[10.8700313,58.7709745],[10.769531,58.7892804],[10.678184,58.81774],[10.6440057,58.8340765],[10.6422829,58.8345184]],[[11.6515165,57.9559061],[11.6947169,58.0150063],[11.6837478,58],[11.6515165,57.9559061]],[[11.6947169,58.0150063],[11.7267103,58],[11.7307173,57.9981205],[11.6947169,58.0150063]],[[11.7307173,57.9981205],[11.7309399,58],[11.7379174,58.0589093],[11.7307173,57.9981205]],[[14.3479435,55.9532535],[14.499145,56.0410595],[14.4284408,56],[14.3479435,55.9532535]],[[15.8527585,56.0866511],[16,56.2194642],[16.0399604,56.2555088],[16.0399604,56.2555088],[16.0399604,56.2555088],[15.8527585,56.0866511]],[[16.6591666,58.0352692],[16.6967635,58],[16.698767,57.9981205],[16.6591666,58.0352692]],[[17.3935739,61.9916058],[17.4421499,62],[17.4619746,62.0034258],[17.3935739,61.9916058]],[[17.7458552,61.1554281],[17.7625865,61.1815377],[17.7631706,61.184127],[17.7805036,61.1976857],[17.819247,61.2485884],[17.8361365,61.3021901],[17.8303805,61.3563338],[17.8020965,61.4088297],[17.8020649,61.4088607],[17.8690884,61.4316031],[17.9436433,61.4688234],[18.0021939,61.5121123],[18.042563,61.559912],[18.0632051,61.6104948],[18.0790111,61.6881106],[18.0786001,61.7420349],[18.0555023,61.7948428],[18.0105328,61.8444134],[17.9656675,61.8749709],[18.0065549,61.918272],[18.0311878,61.9674014],[18.0359597,62.0178307],[18.0324459,62.0292809],[18.0512531,62.0361895],[18.1227503,62.0745571],[18.1777424,62.1185168],[18.2142189,62.1665213],[18.2308003,62.2168733],[18.2267983,62.2677842],[18.2182494,62.285097],[18.2712745,62.3066502],[18.3436409,62.3512361],[18.3474922,62.3550411],[18.4326227,62.3871365],[18.5130924,62.4239063],[18.5768959,62.467155],[18.6215882,62.5152769],[18.6450016,62.5656061],[18.6716785,62.5898351],[18.6860283,62.6066783],[18.7725946,62.6362843],[18.8696849,62.6765404],[18.9476663,62.7157766],[18.9794589,62.7399221],[19.0246205,62.7683295],[19.0611205,62.8049999],[19.1080199,62.8388972],[19.1497046,62.8882022],[19.1596658,62.9142836],[19.1935204,62.9164844],[19.3001054,62.9331728],[19.3979756,62.9586794],[19.4836452,62.9921027],[19.5540311,63.0322576],[19.6120363,63.0725833],[19.6635014,63.1166736],[19.6781311,63.1379471],[19.7335717,63.164614],[19.7409825,63.165785],[19.7955094,63.1672033],[19.910696,63.1808038],[20.017779,63.2043615],[20.1125869,63.2369637],[20.18453,63.2671544],[20.2616905,63.3063597],[20.3207494,63.3515021],[20.3365693,63.3717316],[20.3708166,63.3800879],[20.3916084,63.3879338],[20.4986328,63.3985638],[20.5419465,63.4071102],[20.5054334,63.3672448],[20.4828692,63.3158543],[20.4828733,63.2634749],[20.5053254,63.2120807],[20.5756336,63.1059752],[20.5795133,63.1017881],[20.5489658,63.0579733],[20.5363236,63.0050824],[20.5467882,62.9520941],[20.579832,62.9010639],[20.5818572,62.8993082],[20.5742654,62.893215],[20.5383124,62.8446981],[20.5231748,62.7939532],[20.52636,62.767354],[20.5165511,62.7566295],[20.4938122,62.6991913],[20.4810266,62.6163951],[20.4839271,62.5644464],[20.5083379,62.5137146],[20.5468569,62.4728663],[20.551989,62.3964522],[20.566521,62.3442996],[20.6024849,62.2944385],[20.6584248,62.2487474],[20.6776692,62.2383715],[20.7015597,62.2106894],[20.7315576,62.1892368],[20.7206844,62.1696695],[20.6691432,62.0326806],[20.660718,61.9782915],[20.6757303,61.9242176],[20.7134487,61.8726607],[20.7722364,61.8257096],[20.8496338,61.7852575],[20.8999962,61.7637035],[20.8988051,61.7553722],[20.9102998,61.7071591],[20.9397646,61.6606966],[20.9476094,61.6534006],[20.9273934,61.6213272],[20.9254128,61.6119792],[20.8956957,61.5842898],[20.8654377,61.5329063],[20.8570535,61.4796902],[20.8707608,61.4267276],[20.8859085,61.4049274],[20.8843727,61.3891638],[20.8955458,61.3543164],[20.8890246,61.3499899],[20.8320806,61.3026953],[20.7962882,61.2508545],[20.7830194,61.196609],[20.7882836,61.167052],[20.7841177,61.1632708],[20.7526659,61.112952],[20.7440178,61.070257],[20.7107688,61.031564],[20.6967441,60.998196],[20.6694367,60.964557],[20.6612186,60.9432182],[20.638365,60.8953776],[20.635586,60.8406583],[20.6555018,60.7867908],[20.6971857,60.7359824],[20.7107359,60.7259572],[20.680228,60.6845416],[20.6707084,60.6539745],[20.6335531,60.6321828],[20.6287741,60.6278175],[20.5428148,60.614187],[20.4451563,60.5868007],[20.414824,60.5736008],[20.4121131,60.5747762],[20.3175973,60.6015593],[20.2153361,60.6183526],[20.1724143,60.6346166],[20.0789217,60.6576819],[19.9781126,60.6715812],[19.8737127,60.6757999],[19.7695905,60.6701816],[19.6696035,60.6549347],[19.5774446,60.6306237],[19.4964982,60.5981471],[19.3920842,60.5471892],[19.3247927,60.5071584],[19.3108644,60.4945311],[19.2475102,60.4751934],[19.1681509,60.4383498],[19.1082712,60.396492],[19.1061025,60.3976268],[19.0807531,60.4085537],[19.061437,60.4347163],[18.8728289,60.6262273],[18.8160667,60.6714434],[18.7421624,60.7102997],[18.6539703,60.7412662],[18.5549389,60.7631195],[18.4489724,60.7749942],[18.3682465,60.7760611],[18.3648033,60.7781674],[18.2764275,60.8136901],[18.174777,60.8394989],[18.0642809,60.8544629],[17.9497826,60.857925],[17.917279,60.8572467],[17.9005168,60.8638174],[17.8383726,60.8802757],[17.8377151,60.8812159],[17.7832681,60.9385851],[17.7880045,60.9447207],[17.8054796,60.9988525],[17.8000497,61.0535821],[17.7718228,61.1066486],[17.753287,61.1249218],[17.750703,61.1464233],[17.7458552,61.1554281]],[[17.9623796,58.9639867],[18,59.0025866],[18.0199802,59.0230869],[17.9623796,58.9639867]],[[17.9659797,60.5124121],[18,60.5003365],[18.099181,60.4651319],[17.9659797,60.5124121]],[[17.9695797,62.5606563],[18,62.5721809],[18.0631806,62.5961164],[17.9695797,62.5606563]],[[17.9695797,62.8071886],[18,62.8209815],[18.0775808,62.8561573],[17.9695797,62.8071886]],[[18.804788,60.1223507],[18.872509,60],[18.901989,59.9467387],[18.804788,60.1223507]],[[19.9171992,60.2084682],[20.0108001,60.1561223],[20,60.1621622],[19.9171992,60.2084682]],[[19.9279993,60.357063],[20.0360004,60.3334229],[20,60.3413029],[19.9279993,60.357063]],[[19.9531995,63.6193943],[20,63.6089412],[20.0288003,63.6025085],[19.9531995,63.6193943]],[[19.9639996,60.1949596],[20.0180002,60.1831395],[20,60.1870795],[19.9639996,60.1949596]],[[19.9747997,60.2793884],[20.0288003,60.2169111],[20,60.2502323],[19.9747997,60.2793884]],[[20.104401,59.9957075],[20.1224012,60.0159704],[20.1082142,60],[20.104401,59.9957075]],[[20.1764018,59.9720674],[20.2180883,60],[20.2268023,60.0058389],[20.1764018,59.9720674]],[[20.896409,63.984127],[20.90297,64],[20.9648096,64.1496075],[20.896409,63.984127]],[[21.9114696,65.5],[21.9400201,65.5],[21.9512195,65.4954036],[21.9296193,65.4886493],[21.9114696,65.5]],[[21.9151977,65.5269352],[21.9155793,65.5269113],[21.9383807,65.5269116],[21.9273064,65.5264567],[21.9258239,65.5262694],[21.9151977,65.5269352]],[[21.9512195,60.149368],[22,60.1393579],[22.0088201,60.1375479],[21.9512195,60.149368]],[[21.9728197,63.2867446],[22.0268203,63.3222047],[22,63.3045928],[21.9728197,63.2867446]],[[21.9836198,60.4921492],[21.9836198,60.4921492],[22,60.4784905],[22.0484205,60.4381147],[21.9836198,60.4921492],[21.9836198,60.4921492]],[[22.4444244,59.997396],[22.4480245,60.0666277],[22.4445599,60],[22.4444244,59.997396]],[[22.4696247,59.997396],[22.4768248,60.0818249],[22.4698468,60],[22.4696247,59.997396]],[[22.599226,59.9838874],[22.6169942,60],[22.6532265,60.0328562],[22.599226,59.9838874]],[[22.6532265,60.0328562],[22.6799119,60],[22.6820268,59.997396],[22.6532265,60.0328562]],[[22.6820268,59.997396],[22.7000697,60],[22.7288273,60.0041503],[22.6820268,59.997396]],[[23.798038,59.9568702],[23.9425348,60],[23.9564396,60.0041503],[23.798038,59.9568702]],[[23.99964,60.0379219],[24,60.0379557],[24.0176402,60.0396105],[23.99964,60.0379219]],[[25.111071,65.0597685],[25.3240509,65.0597615],[25.3504974,65.0328167],[25.1206997,65.0328262],[25.1239863,65.037018],[25.1255125,65.0423654],[25.1244933,65.0477331],[25.1209676,65.0529073],[25.1150748,65.0576815],[25.111071,65.0597685]],[[25.9580596,60.3553744],[26,60.3674802],[26.00486,60.368883],[25.9580596,60.3553744]]]}}
