{"type":"Feature","properties":{"family":"sweden","name":"Swedish Pomerania, 1789 – 1815"},"geometry":{"type":"Polygon","coordinates":[[[11.9476685,54.3018212],[11.9476775,54.3017932],[11.9558796,54.2764107],[11.9758289,54.247711],[11.9892915,54.2093423],[11.9914076,54.2063719],[12.075033,54.2197881],[12.0841636,54.2206782],[12.0934136,54.220483],[12.0985315,54.2197592],[12.1516168,54.2593729],[12.1564937,54.2624746],[12.1621376,54.2650949],[12.3084656,54.322579],[12.3601659,54.372489],[12.3601614,54.3724836],[12.3566768,54.3682908],[12.3544472,54.3636019],[12.3540797,54.36122],[12.3536996,54.3587559],[12.3537076,54.3517052],[12.3546185,54.3463966],[12.3573034,54.3412962],[12.3616567,54.3366034],[12.3675077,54.3325014],[12.3710472,54.3308357],[12.3427234,54.3035135],[12.3710472,54.3308357],[12.3710561,54.3308443],[12.385221,54.3445083],[12.3894203,54.3485591],[12.4,54.3587647],[12.4,54.3517139],[12.396724,54.3524822],[12.3935457,54.3241582],[12.3935445,54.3241476],[12.4082491,54.3206994],[12.4114272,54.3201566],[12.3920599,54.3024373],[12.3876869,54.297299],[12.3858304,54.2930172],[12.3852754,54.2917372],[12.3849337,54.2860035],[12.3866764,54.2803573],[12.3939532,54.2658351],[12.3939626,54.2658336],[12.4459875,54.258025],[12.4459875,54.258025],[12.45,54.25],[12.6,54.1],[13.05,53.92],[13.225,53.9],[13.4,53.88],[13.55,53.87],[13.7,53.86],[13.85,53.9],[13.9045591,53.9363727],[13.8367524,53.9794853],[13.8044873,54],[13.8044873,54],[13.8367524,53.9794853],[13.9045591,53.9363727],[13.9087391,53.9337151],[13.8187382,53.877992],[13.8187382,53.8620524],[13.8237845,53.863398],[13.8223382,53.8644834],[13.8922783,53.8874469],[13.9274716,53.9108963],[13.9228239,53.9286477],[13.9209367,53.9358553],[13.9209367,53.9358554],[13.920012,53.9393872],[13.9183875,53.9455917],[13.9161476,53.9541468],[13.914971,53.9586406],[13.9147191,53.9596028],[13.914719,53.9596031],[13.9138761,53.9628224],[13.9125412,53.9679208],[13.9118675,53.9704941],[13.9100335,53.9774987],[13.9085975,53.9829832],[13.9085378,53.9832114],[13.9077396,53.9862598],[13.9076578,53.9865724],[13.9054065,53.9951707],[13.9053629,53.9953373],[13.9051407,53.9961862],[13.9051407,53.9961863],[13.9051407,53.9961863],[13.9051406,53.9961863],[13.9051391,53.9961924],[13.9051406,53.9961863],[13.9051407,53.9961863],[13.9051407,53.9961863],[13.9051407,53.9961862],[13.9053629,53.9953373],[13.9054065,53.9951707],[13.9076578,53.9865724],[13.9077396,53.9862598],[13.9085378,53.9832114],[13.9085975,53.9829832],[13.9100335,53.9774987],[13.9118675,53.9704941],[13.9125412,53.9679208],[13.9138761,53.9628224],[13.914719,53.9596031],[13.9147191,53.9596028],[13.914971,53.9586406],[13.9161476,53.9541468],[13.9183875,53.9455917],[13.9709507,53.9806338],[13.9591396,53.9404694],[13.9879399,53.9607323],[13.9975108,53.9575634],[14.0053248,53.9627699],[14.010304,53.9667714],[14.0139549,53.9712412],[14.0161539,53.9760286],[14.0187522,53.984832],[14.019414,53.9901211],[14.018303,53.9953842],[14.0154616,54.0004179],[14.010999,54.0050274],[14.0058647,54.0085076],[14.0091396,54.0087054],[14.0177174,54.0102542],[14.0256195,54.0127533],[14.0325444,54.0161076],[14.0327071,54.0162244],[14,54.0351451],[14,54.0662909],[14.0167402,54.0603583],[14.0459468,54.0420927],[14.0459736,54.0662818],[14.0450146,54.0717808],[14.0421653,54.0770496],[14.0375446,54.081867],[14.0313461,54.0860305],[14.0239179,54.0893261],[14.0239095,54.0893298],[14.0239013,54.0893335],[14.0238949,54.0893363],[14.0405134,54.0834458],[14.0502029,54.0788531],[14.2336338,53.9641076],[14.397735,53.949853],[14.4398445,53.9624547],[14.4398447,53.9624551],[14.439845,53.9624558],[14.4544735,53.9966162],[14.4587179,54.0506499],[14.4445039,54.1040946],[14.412335,54.1547957],[14.36345,54.2007016],[14.2363707,54.2965366],[14.2363534,54.2965497],[14.2363366,54.2965624],[14.2363235,54.2965723],[14.2363024,54.2965882],[14.2362455,54.296631],[14.2225141,54.3069864],[14.226578,54.3645113],[14.2093369,54.4215795],[14.1714766,54.4751796],[14.1253227,54.5139039],[14.1313009,54.5275786],[14.1359667,54.5807749],[14.1224973,54.6334655],[14.0913505,54.6835907],[14.0436861,54.7291839],[13.9813286,54.7684499],[13.9067021,54.7998378],[13.8477886,54.8154699],[13.7995609,54.8555508],[13.7325456,54.8926005],[13.6540312,54.9212706],[13.5671323,54.9404161],[13.5128093,54.9489135],[13.4152732,54.9579223],[13.3166126,54.9549407],[13.2212754,54.9401033],[13.0620366,54.9044229],[12.9970125,54.8854577],[12.9913855,54.8705046],[12.9560273,54.8229744],[12.9056778,54.7801957],[12.842212,54.7437233],[12.7679628,54.7148792],[12.6856348,54.6947062],[12.5982094,54.6839323],[12.5493218,54.6834013],[12.527989,54.665509],[12.4319963,54.599343],[12.4329751,54.5783554],[12.4262338,54.5246876],[12.4013356,54.4728678],[12.3593331,54.4249466],[12.3019398,54.3828132],[12.2314551,54.3481231],[12.1506708,54.3222355],[12.0627623,54.3061627],[11.971168,54.300532],[11.9476685,54.3018212]],[[12.3710472,54.3308357],[12.3710561,54.3308443],[12.385221,54.3445083],[12.3894203,54.3485591],[12.4,54.3587647],[12.4,54.3587647],[12.3894203,54.3485591],[12.385221,54.3445083],[12.3710561,54.3308443],[12.3710472,54.3308357]],[[12.4111241,54.2697419],[12.4310355,54.287929],[12.4450211,54.2599578],[12.4579246,54.2562333],[12.4450211,54.2599578],[12.4111241,54.2697419]]]}}
