{"type":"Feature","properties":{"family":"other","name":"Swiss Confederation and its allies, 1797"},"geometry":{"type":"Polygon","coordinates":[[[5.9598596,46.1307995],[5.9783597,46.1318577],[5.9783597,46.1318577],[5.9783597,46.1318577],[6.1074611,46.1392424],[6.1311559,46.1531348],[6.1311559,46.1531348],[6.2802628,46.240557],[6.2366531,46.2905578],[6.2154622,46.3148544],[6.301863,46.3942175],[6.5466655,46.4566949],[6.7626676,46.4296777],[6.7698891,46.42],[6.7878679,46.3959061],[6.7518675,46.3452488],[6.8274683,46.2692628],[6.7734677,46.1865225],[6.7734677,46.1341766],[6.8706687,46.1122251],[6.8490685,46.0531249],[6.9138691,46.0480592],[6.9858699,45.9923362],[7.0218702,45.9247931],[7.0902709,45.8808901],[7.1550716,45.8758243],[7.3926739,45.9163502],[7.5402754,45.9838933],[7.6446764,45.9670075],[7.695077,45.9281702],[7.8318783,45.9146616],[7.86,45.9439734],[7.896679,45.9822047],[7.9866799,45.9990905],[8.0262803,46.0919622],[8.1090811,46.1274223],[8.1306813,46.196654],[8.0766808,46.2625085],[8.2818828,46.3705775],[8.3178832,46.4330548],[8.400684,46.4516292],[8.4294843,46.448252],[8.4461398,46.415441],[8.4461398,46.415441],[8.4474845,46.4127919],[8.4471949,46.4112203],[8.4222842,46.2760171],[8.4366844,46.2354913],[8.45,46.2304948],[8.5086851,46.208474],[8.602286,46.1223566],[8.6777026,46.0954052],[8.6777026,46.0954052],[8.6778868,46.0953394],[8.7282873,46.108848],[8.8074881,46.0902736],[8.8326883,46.0666336],[8.7678877,45.9838933],[8.8722887,45.9467446],[8.9118891,45.8825786],[8.901089,45.8268556],[9.00189,45.8201013],[9.0630906,45.8994644],[8.9802898,45.9636303],[9.0162902,45.9923362],[9.00189,46.0396163],[9.0594906,46.0615678],[9.0702907,46.1189794],[9.2250923,46.2304255],[9.2412627,46.2629312],[9.2754928,46.3317402],[9.2394924,46.436432],[9.2646926,46.4854007],[9.3294933,46.5022865],[9.3834938,46.4668264],[9.4338943,46.4989093],[9.4410944,46.3807089],[9.5346953,46.2979686],[9.6750968,46.2912143],[9.7218972,46.3503145],[9.7686977,46.3384945],[9.9198992,46.3705775],[9.9630996,46.3553803],[9.9774998,46.2979686],[10.0315003,46.2608199],[10.0423004,46.2202941],[10.1179012,46.2304255],[10.1575016,46.2625085],[10.0927009,46.3384945],[10.1395014,46.4026604],[10.0279003,46.4465634],[10.0315003,46.5326809],[10.096301,46.6086669],[10.1935019,46.6272412],[10.1935019,46.6272412],[10.2331023,46.6187983],[10.2331023,46.5748953],[10.2943029,46.5512552],[10.4455045,46.5377466],[10.4458675,46.5399179],[10.4599046,46.6238641],[10.4055817,46.636604],[10.4055817,46.636604],[10.395104,46.6390612],[10.3869415,46.65],[10.3699037,46.6728328],[10.4275043,46.7555731],[10.4167042,46.7994761],[10.4527045,46.863642],[10.4599046,46.9362508],[10.3735037,46.9970396],[10.3123031,46.9649567],[10.2943029,46.9227422],[10.2367024,46.9227422],[10.200702,46.8670192],[10.1107011,46.8467563],[9.8766988,46.927808],[9.8586986,47.015614],[9.5814958,47.0561398],[9.6174962,47.1067972],[9.5526955,47.1675859],[9.5634956,47.1979803],[9.5202952,47.2621463],[9.6498965,47.4090525],[9.6498965,47.4512669],[9.5850959,47.4799727],[9.5490955,47.5340072],[9.1818918,47.670782],[9.0162902,47.6792248],[8.904689,47.6522076],[8.796688,47.7197507],[8.7714877,47.7214393],[8.7714877,47.694422],[8.7174872,47.694422],[8.699487,47.7231279],[8.7138871,47.7568994],[8.6454865,47.7906709],[8.6166862,47.7568994],[8.5842858,47.8008024],[8.4618846,47.7636537],[8.3898839,47.6927335],[8.3898839,47.6657162],[8.4582846,47.6403876],[8.6058861,47.6555848],[8.5590856,47.5897303],[8.5230852,47.6218132],[8.4222842,47.5812874],[8.3178832,47.5880417],[8.3067848,47.5923797],[8.2,47.45],[7.85,47.45],[7.6,47.55],[7.55,47.4],[7.45,47.33],[7.3,47.32],[7.15,47.27],[7,47.18],[6.85,47.17],[6.8489053,47.17832],[6.9570696,47.2452605],[6.8489053,47.17832],[6.697867,47.0848456],[6.6654667,47.0206797],[6.4422644,46.9446937],[6.4278643,46.7606388],[6.1182612,46.5833382],[6.1470615,46.5512552],[6.0642606,46.4718921],[6.0534605,46.4195462],[6.1362614,46.3705775],[6.131166,46.356973],[6.0894609,46.2456227],[5.9598596,46.2118512],[5.9814598,46.1713253],[5.9598596,46.1307995]]]}}
