{"type":"Feature","properties":{"family":"other","name":"Grand Duchy of Tuscany, 1789 – 1800"},"geometry":{"type":"Polygon","coordinates":[[[9.8332422,42.7081359],[9.8539257,42.6847054],[9.8815508,42.6311903],[9.8931686,42.5746172],[9.9073996,42.3339891],[9.9255273,42.327596],[9.9965143,42.3144682],[10.0431187,42.3094235],[10.1180505,42.3070344],[10.192075,42.3159804],[10.2621011,42.3358879],[10.3251986,42.3659257],[10.3787171,42.4048377],[10.4092879,42.4387017],[10.4151479,42.4382632],[10.4855735,42.4430716],[10.5155277,42.4495577],[10.5144702,42.4476887],[10.5003445,42.3982954],[10.498938,42.3478244],[10.5102693,42.2980431],[10.533913,42.2506908],[10.5690185,42.2074179],[10.6143426,42.1697295],[10.6682951,42.1389338],[10.7437308,42.103603],[10.8051742,42.0804914],[10.8713555,42.0663587],[10.9399251,42.0617063],[11.0084515,42.066699],[11.0745051,42.08116],[11.1267376,42.1011367],[11.1372808,42.0993453],[11.2085527,42.0978025],[11.2788737,42.1065671],[11.3183942,42.1176749],[11.2620439,42.1433551],[11.2024805,42.1771347],[11.153457,42.2192241],[11.1170608,42.2678508],[11.0948585,42.3209628],[11.0889252,42.3676625],[11.0874351,42.3682603],[11.0936929,42.3657498],[11.169269,42.3421191],[11.1764951,42.3404842],[11.1764951,42.3404842],[11.1840216,42.3399838],[11.1915263,42.3406393],[11.1986879,42.3424227],[11.2051996,42.3452576],[11.2107826,42.3490226],[11.2151976,42.3535565],[11.2461853,42.3935123],[11.3652907,42.3815322],[11.4337749,42.3502347],[11.4338066,42.3502231],[11.4279594,42.353534],[11.42311,42.3576713],[11.4194899,42.3624467],[11.4172483,42.3676637],[11.4164778,42.3731076],[11.4172106,42.3785545],[11.4194168,42.38378],[11.4220623,42.38731],[11.4529963,42.3731726],[11.62,42.55],[11.8,42.72],[11.78,42.88],[11.93,43],[12,43.12],[11.97,43.25],[12.1,43.38],[12.15,43.55],[12.18,43.68],[12.05,43.82],[11.85,43.97],[11.65,44.1],[11.45,44.15],[11.2,44.18],[11,44.15],[10.9,44.18],[10.67,44.14],[10.55,44.15],[10.5095238,44.117619],[10.45,44.07],[10.5095238,44.117619],[10.58,44.1],[10.65,43.95],[10.65,43.82],[10.55,43.75],[10.4,43.76],[10.28,43.8],[10.2583867,43.806484],[10.2641776,43.7749456],[10.2429492,43.7819131],[10.2364147,43.7846581],[10.2307784,43.7882962],[10.2262711,43.7926785],[10.2230773,43.797626],[10.2213321,43.8029238],[10.2213325,43.802916],[10.2790377,43.4896928],[10.2406748,43.6979261],[10.2759239,43.5065943],[10.2457328,43.5143886],[10.1045802,43.5606824],[10.0384649,43.5885203],[9.9815235,43.6255247],[9.9361524,43.6701503],[9.9042773,43.7205302],[9.8928734,43.7448263],[9.947445,43.4572215],[9.9666088,43.4011519],[10.0017162,43.349322],[10.150957,43.1773801],[10.1405842,43.0598006],[10.0531772,43.0516481],[9.9854251,43.0404671],[9.9217757,43.0201735],[9.8645039,42.9914944],[9.8347312,42.9695327],[9.8505988,42.8241473],[9.8445966,42.7497214],[9.8332422,42.7081359]],[[11.0800494,42.4560191],[11.1089269,42.4597159],[11.1199654,42.4843379],[11.1394825,42.5091078],[11.1487727,42.4819104],[11.1390044,42.4635663],[11.0800494,42.4560191]]]}}
