{"type":"Feature","properties":{"family":"other","name":"Grand Duchy of Tuscany, 1814 – 1815"},"geometry":{"type":"Polygon","coordinates":[[[9.8928734,43.7448263],[9.947445,43.4572215],[9.9666088,43.4011519],[10.0017162,43.349322],[10.150957,43.1773801],[10.1406006,43.0598064],[10.1473442,43.0604351],[10.1473442,43.0604351],[10.2005893,43.094035],[10.2626662,43.119874],[10.3304351,43.1364693],[10.4013344,43.1431926],[10.4726795,43.1397893],[10.5056046,43.1334029],[10.4828361,43.0357091],[10.4498916,43.0075993],[10.4456074,43.0030796],[10.442666,42.9980185],[10.4411893,42.9926262],[10.4412382,42.9871271],[10.4412382,42.9871271],[10.4428103,42.9817494],[10.4644356,42.9327873],[10.4674067,42.9278242],[10.471672,42.9233957],[10.4896738,42.9082029],[10.4952066,42.9044041],[10.5016836,42.9015154],[10.5088306,42.8996591],[10.5163447,42.8989139],[10.5239081,42.8993112],[10.5312003,42.9008343],[10.5599908,42.9092738],[10.5662193,42.9116239],[10.5717281,42.914795],[10.5763181,42.9186724],[10.5798231,42.923116],[10.5812569,42.9261481],[10.6283436,42.9303892],[10.7266934,42.9038327],[10.7385229,42.8895738],[10.7308508,42.8462457],[10.7021348,42.8219888],[10.6980535,42.8177863],[10.6951379,42.8130906],[10.6934946,42.8080737],[10.6931834,42.802919],[10.6942152,42.7978152],[10.696552,42.7929488],[10.7001082,42.7884977],[10.7047534,42.7846247],[10.7103178,42.7814712],[10.7165978,42.7791526],[10.7889654,42.7584472],[10.7799653,42.7413251],[10.7837081,42.7007522],[10.7747819,42.648971],[10.7524918,42.5994195],[10.7176991,42.5539448],[10.6717235,42.5142383],[10.6162907,42.4817737],[10.5534679,42.4577542],[10.5155212,42.4495447],[10.5144702,42.4476887],[10.5003445,42.3982954],[10.498938,42.3478244],[10.5102693,42.2980431],[10.533913,42.2506908],[10.5690185,42.2074179],[10.6143426,42.1697295],[10.6682951,42.1389338],[10.7437308,42.103603],[10.8051742,42.0804914],[10.8713555,42.0663587],[10.9399251,42.0617063],[11.0084515,42.066699],[11.0745051,42.08116],[11.1267376,42.1011367],[11.1372808,42.0993453],[11.2085527,42.0978025],[11.2788737,42.1065671],[11.3256786,42.1197223],[11.3492269,42.1145474],[11.4221806,42.1043442],[11.4964023,42.1052974],[11.5688376,42.1173676],[11.6365029,42.140058],[11.6929413,42.1704608],[11.6309119,42.2601646],[11.4338385,42.350205],[11.4338066,42.3502231],[11.4399729,42.347968],[11.4466377,42.3466054],[11.4535305,42.3461959],[11.4604041,42.3467541],[11.4670122,42.3482599],[11.4731179,42.3506595],[11.4785023,42.3538667],[11.4829721,42.3577667],[11.4840982,42.3589584],[11.4529963,42.3731726],[11.62,42.55],[11.8,42.72],[11.78,42.88],[11.93,43],[12,43.12],[11.97,43.25],[12.1,43.38],[12.15,43.55],[12.18,43.68],[12.05,43.82],[11.85,43.97],[11.65,44.1],[11.45,44.15],[11.2,44.18],[11,44.15],[10.9,44.18],[10.67,44.14],[10.55,44.15],[10.5095238,44.117619],[10.58,44.1],[10.65,43.95],[10.65,43.82],[10.55,43.75],[10.4,43.76],[10.28,43.8],[10.2583867,43.806484],[10.2641776,43.7749456],[10.2429492,43.7819131],[10.2364147,43.7846581],[10.2307784,43.7882962],[10.2262711,43.7926785],[10.2230773,43.797626],[10.2213321,43.8029238],[10.2213325,43.802916],[10.2790377,43.4896928],[10.2406748,43.6979261],[10.2759239,43.5065943],[10.2457328,43.5143886],[10.1045802,43.5606824],[10.0384649,43.5885203],[9.9815235,43.6255247],[9.9361524,43.6701503],[9.9042773,43.7205302],[9.8928734,43.7448263]]]}}
