{"type":"Feature","properties":{"family":"other","name":"Grand Duchy of Tuscany, 1815"},"geometry":{"type":"Polygon","coordinates":[[[9.8332422,42.7081359],[9.8539257,42.6847054],[9.8815508,42.6311903],[9.8931686,42.5746172],[9.9073996,42.3339891],[9.9255273,42.327596],[9.9965143,42.3144682],[10.0431187,42.3094235],[10.1180505,42.3070344],[10.192075,42.3159804],[10.2621011,42.3358879],[10.3251986,42.3659257],[10.3787171,42.4048377],[10.4092879,42.4387017],[10.4151479,42.4382632],[10.4855735,42.4430716],[10.5155277,42.4495577],[10.5144702,42.4476887],[10.5003445,42.3982954],[10.498938,42.3478244],[10.5102693,42.2980431],[10.533913,42.2506908],[10.5690185,42.2074179],[10.6143426,42.1697295],[10.6682951,42.1389338],[10.7437308,42.103603],[10.8051742,42.0804914],[10.8713555,42.0663587],[10.9399251,42.0617063],[11.0084515,42.066699],[11.0745051,42.08116],[11.1267376,42.1011367],[11.1372808,42.0993453],[11.2085527,42.0978025],[11.2788737,42.1065671],[11.3256786,42.1197223],[11.3492269,42.1145474],[11.4221806,42.1043442],[11.4964023,42.1052974],[11.5688376,42.1173676],[11.6365029,42.140058],[11.6929413,42.1704608],[11.6309119,42.2601646],[11.4338385,42.350205],[11.4338066,42.3502231],[11.4399729,42.347968],[11.4466377,42.3466054],[11.4535305,42.3461959],[11.4604041,42.3467541],[11.4670122,42.3482599],[11.4731179,42.3506595],[11.4785023,42.3538667],[11.4829721,42.3577667],[11.4840982,42.3589584],[11.4529963,42.3731726],[11.62,42.55],[11.8,42.72],[11.78,42.88],[11.93,43],[12,43.12],[11.97,43.25],[12.1,43.38],[12.15,43.55],[12.18,43.68],[12.05,43.82],[11.85,43.97],[11.65,44.1],[11.45,44.15],[11.2,44.18],[11,44.15],[10.9,44.18],[10.67,44.14],[10.55,44.15],[10.5095238,44.117619],[10.58,44.1],[10.65,43.95],[10.65,43.82],[10.55,43.75],[10.4,43.76],[10.28,43.8],[10.2583867,43.806484],[10.2641776,43.7749456],[10.2429492,43.7819131],[10.2364147,43.7846581],[10.2307784,43.7882962],[10.2262711,43.7926785],[10.2230773,43.797626],[10.2213321,43.8029238],[10.2213325,43.802916],[10.2790377,43.4896928],[10.2406748,43.6979261],[10.2759239,43.5065943],[10.2457328,43.5143886],[10.1045802,43.5606824],[10.0384649,43.5885203],[9.9815235,43.6255247],[9.9361524,43.6701503],[9.9042773,43.7205302],[9.8928734,43.7448263],[9.947445,43.4572215],[9.9666088,43.4011519],[10.0017162,43.349322],[10.150957,43.1773801],[10.1405842,43.0598006],[10.0531772,43.0516481],[9.9854251,43.0404671],[9.9217757,43.0201735],[9.8645039,42.9914944],[9.8347312,42.9695327],[9.8505988,42.8241473],[9.8445966,42.7497214],[9.8332422,42.7081359]]]}}
