{"type":"Feature","properties":{"family":"client","name":"Rhodanic Republic (Valais), 1803 – 1809"},"geometry":{"type":"Polygon","coordinates":[[[6.7518675,46.3452488],[6.8274683,46.2692628],[6.7734677,46.1865225],[6.7734677,46.1341766],[6.8706687,46.1122251],[6.8490685,46.0531249],[6.9138691,46.0480592],[6.9858699,45.9923362],[7.0218702,45.9247931],[7.0902709,45.8808901],[7.1550716,45.8758243],[7.3926739,45.9163502],[7.5402754,45.9838933],[7.6446764,45.9670075],[7.695077,45.9281702],[7.8318783,45.9146616],[7.86,45.9439734],[7.86,45.9439734],[7.896679,45.9822047],[7.9866799,45.9990905],[8.0262803,46.0919622],[8.1090811,46.1274223],[8.1306813,46.196654],[8.0766808,46.2625085],[8.2818828,46.3705775],[8.3178832,46.4330548],[8.400684,46.4516292],[8.4294843,46.448252],[8.4461398,46.415441],[8.43,46.48],[8.42,46.58],[8.33,46.57],[8.13,46.55],[7.95,46.49],[7.69,46.43],[7.53,46.41],[7.36,46.37],[7.2,46.33],[7.1,46.27],[7.02,46.22],[6.95,46.3],[6.86,46.42],[6.7698891,46.42],[6.7878679,46.3959061],[6.7518675,46.3452488]]]}}
