{"type":"Feature","properties":{"family":"other","name":"Republic of Venice, 1789 – 1796"},"geometry":{"type":"Polygon","coordinates":[[[9.38,45.95],[9.4,45.86],[9.5,45.62],[9.52,45.53],[9.62,45.5],[9.75,45.47],[9.95,45.48],[10.02,45.35],[10.1,45.26],[10.25,45.2],[10.4,45.13],[10.5,45.25],[10.6,45.33],[10.68,45.35],[10.75,45.3],[10.9,45.22],[11.2,45.08],[11.3,44.98],[11.45,44.95],[11.6,44.93],[11.85,44.95],[12.5245407,44.95],[12.5335253,44.9707469],[12.5245407,44.95],[12.5128639,44.9230368],[12.5128616,44.9230314],[12.5244258,44.9230312],[12.5313338,44.9234587],[12.5380168,44.924766],[12.5442534,44.9269098],[12.5498371,44.9298191],[12.5545827,44.9333976],[12.5583329,44.9375266],[12.560963,44.9420694],[12.5609833,44.9421161],[12.5609721,44.942076],[12.5504594,44.9178358],[12.5231068,44.8547657],[12.5218976,44.8526224],[12.5207732,44.8506294],[12.5185576,44.8480425],[12.5175119,44.8468216],[12.4743009,44.8046185],[12.4693707,44.8006752],[12.4666111,44.7991882],[12.4634547,44.7974873],[12.4567787,44.7951763],[12.4495973,44.7938303],[12.447217,44.7937245],[12.4445616,44.7936064],[12.4309907,44.7808789],[12.427036,44.77717],[12.422021,44.7733112],[12.422021,44.7733112],[12.422021,44.7733112],[12.416049,44.7702148],[12.4093459,44.767998],[12.4021654,44.7667446],[12.3947791,44.766502],[12.3874664,44.7672794],[12.3805038,44.7690474],[12.3741547,44.7717391],[12.3479784,44.7854389],[12.3147167,44.8028471],[12.3147167,44.8028471],[12.284752,44.7130601],[12.2999794,44.6753378],[12.5343949,44.6803942],[12.6096702,44.6871013],[12.681584,44.7042861],[12.7472907,44.7312698],[12.8041803,44.7669849],[12.8499806,44.8100162],[12.8768156,44.8497292],[12.8828471,44.8586552],[12.9014382,44.9109662],[12.9049736,44.9648619],[12.8932704,45.0181864],[12.8667577,45.0688007],[12.8264652,45.1146695],[12.7739874,45.153944],[12.6967594,45.2011203],[12.6937805,45.2197731],[12.6959743,45.2209942],[12.7127507,45.2349085],[13.1462007,45.3661995],[13.1643874,45.2972592],[13.183201,45.2501357],[13.2002433,45.2256181],[13.2151187,45.1190919],[13.2296156,45.0674405],[13.2449675,45.0411136],[13.248479,45.0271945],[13.2693303,44.9752324],[13.3043397,44.9272329],[13.3520805,44.8851084],[13.4087511,44.8441746],[13.4226363,44.7959949],[13.4507705,44.7479893],[13.4912878,44.7046891],[13.606654,44.6036612],[13.6596487,44.5655598],[13.7221031,44.5356438],[13.7915646,44.5150829],[13.8653167,44.50468],[13.8968056,44.5047533],[13.9117024,44.4835697],[13.9552282,44.4430454],[14.0086031,44.4090753],[14.0699197,44.3828642],[14.1093936,44.3694089],[14.1255341,44.3652174],[14.1411176,44.3553071],[14.31361,44.2661323],[14.3738743,44.240893],[14.3753086,44.2214204],[14.3937943,44.1696864],[14.4260774,44.1215662],[14.4708692,44.0789346],[14.5184819,44.0485155],[14.5482666,44.0133055],[14.8224295,43.7505842],[14.8986069,43.6957381],[14.9704919,43.6570364],[15.0152672,43.6375357],[15.0389467,43.6195956],[15.082756,43.5912257],[15.1321402,43.568178],[15.218301,43.5345352],[15.2835522,43.5145477],[15.3528132,43.5038512],[15.4236036,43.5028286],[15.4933907,43.5115167],[15.5378976,43.5236669],[15.55947,43.5152831],[15.5669818,43.4852439],[15.5944699,43.435183],[15.6096623,43.4183074],[15.6156029,43.4034768],[15.6491771,43.3565279],[15.6946507,43.3152293],[15.7502668,43.2811567],[15.7980199,43.2619869],[15.7649118,43.2386406],[15.7228786,43.1938246],[15.6940573,43.1437729],[15.6795874,43.0905223],[15.680019,43.0362341],[15.695296,42.9831063],[15.7247649,42.9332844],[15.7645524,42.881048],[15.805355,42.8378778],[15.8567328,42.8012999],[15.9167403,42.772688],[15.9831176,42.7531149],[16.0533743,42.7433137],[16.1248801,42.7436512],[16.1949598,42.7541148],[16.2609894,42.7743129],[16.3301118,42.8014674],[16.3595605,42.7656264],[16.4062725,42.727495],[16.4566962,42.6994241],[16.4505586,42.7210447],[16.4428163,42.7742648],[16.4495384,42.82756],[16.4704968,42.8788303],[16.5048976,42.9260504],[16.5514078,42.9673505],[16.5968731,42.9943604],[16.5948051,42.9904341],[16.5974525,42.9954604],[16.5977021,42.9957467],[16.5974525,42.9954604],[16.5948051,42.9904341],[16.5935756,42.9851232],[16.5938128,42.9797395],[16.5955067,42.9744976],[16.5985896,42.9696064],[16.6029383,42.9652607],[16.6083794,42.9616337],[16.614696,42.9588698],[16.619002,42.9577588],[16.6162523,42.9563315],[16.6108172,42.9528795],[16.6064024,42.9487202],[16.6031762,42.9440122],[16.6012614,42.938935],[16.6007306,42.9336822],[16.6016037,42.928454],[16.6038471,42.9234497],[16.607375,42.91886],[16.6120527,42.9148595],[16.6155659,42.912833],[16.6155689,42.912838],[16.6155716,42.9128422],[16.6352129,42.9447971],[16.6155716,42.9128422],[16.6155689,42.912838],[16.5552883,42.8147662],[16.5521526,42.8078544],[16.5509798,42.8006209],[16.5518173,42.7933623],[16.5546301,42.7863763],[16.6547391,42.606416],[16.6589102,42.6005191],[16.6644834,42.5952877],[16.6712685,42.5909002],[16.6790335,42.5875063],[16.6875136,42.5852218],[17.0787031,42.5069869],[17.7869469,42.3653435],[17.7943819,42.3642674],[17.8019527,42.3640562],[18.0109018,42.3695551],[18.1214533,42.3724644],[18.1214533,42.3724644],[18.4417016,42.3808924],[18.5009069,42.3824505],[18.5009422,42.3824514],[18.5076753,42.3826286],[18.5076753,42.3826286],[18.5009422,42.3824514],[18.5009069,42.3824505],[18.5008825,42.3824498],[18.5008826,42.3824498],[18.5008825,42.3824498],[18.5008826,42.3824498],[18.5130471,42.3773153],[18.5193199,42.3752182],[18.5227766,42.3746035],[18.5227766,42.3746035],[18.5378767,42.3524199],[18.5227766,42.3746035],[18.5227766,42.3746035],[18.8562534,41.8846916],[19.2004864,41.2953527],[19.0532206,40.6057072],[19.0526279,40.5994666],[19.0534683,40.5932424],[19.1537352,40.1932829],[19.1567245,40.1858164],[19.1617511,40.1790184],[19.1685781,40.1732088],[19.7086767,39.8001709],[19.6764513,39.8224285],[19.6764512,39.8224285],[19.4486631,39.9797584],[19.4265144,39.970299],[19.3758139,39.9377314],[19.3340166,39.8984462],[19.3025947,39.8538426],[19.2826442,39.8055063],[19.274848,39.7551523],[19.2794554,39.7045634],[19.2962763,39.6555267],[19.3246925,39.6097706],[19.3636822,39.5689044],[19.5173772,39.4355961],[19.5456811,39.3689902],[19.5759977,39.3169078],[19.6197566,39.270909],[19.6749844,39.2330418],[19.7392095,39.2049887],[19.7904653,39.1878176],[19.7905368,39.1823141],[19.8030758,39.1332606],[19.8270497,39.0868357],[19.8616158,39.0446285],[19.9055748,39.0080808],[19.9574137,38.978439],[20.0220827,38.9481494],[20.0838123,38.9252966],[20.1500683,38.9122649],[20.2183029,38.9095545],[20.2858948,38.9172692],[20.3071982,38.9231811],[20.28454,38.8913716],[20.2645029,38.8448286],[20.2077418,38.6572114],[20.1986829,38.6027312],[20.2006853,38.5819021],[20.1712775,38.5654029],[20.1234911,38.5246524],[20.0874023,38.4771115],[20.0645143,38.4247928],[20.0113124,38.243942],[20.0028067,38.1936964],[20.0064208,38.143079],[20.0220015,38.0938777],[20.0489756,38.0478265],[20.0863733,38.0065452],[20.1328644,37.9714828],[20.186807,37.9438681],[20.2463046,37.9246675],[20.2682833,37.921141],[20.2946477,37.9032656],[20.2859872,37.8821974],[20.2780158,37.8313059],[20.2823908,37.7801322],[20.2989283,37.7305265],[20.3270073,37.6842779],[20.3655957,37.6430515],[20.5601435,37.4712547],[20.6091909,37.4355187],[20.6660139,37.4080258],[20.728444,37.3898208],[20.7941065,37.3815946],[20.8605079,37.3836588],[20.9251278,37.3959345],[20.9685964,37.4117867],[20.9686077,37.4117689],[20.9686081,37.4117682],[21.4598818,36.6339426],[21.4647336,36.6277907],[21.4710288,36.6225484],[21.4785095,36.6184304],[22.3782549,36.218594],[22.3851887,36.2160697],[22.3925531,36.2145327],[22.400134,36.2140276],[22.572826,36.2140279],[22.5728535,36.2140279],[22.908068,36.2140285],[22.8746002,36.2140285],[22.8746002,36.2140284],[22.5733487,36.2140279],[22.575876,36.18658],[22.585499,36.1393225],[22.6053009,36.0941618],[22.6346409,36.0525185],[22.6725826,36.0156996],[22.7554025,35.9483332],[22.8028091,35.9162579],[22.8566511,35.8917836],[22.9150882,35.8757433],[22.9761285,35.8686824],[23.0376943,35.8708405],[23.0986806,35.8775761],[23.1644761,35.8904485],[23.2256817,35.9138331],[23.2797763,35.9467682],[23.3245237,35.9878983],[23.3580641,36.0355286],[23.4087548,36.128251],[23.4285177,36.175971],[23.4369428,36.2258524],[23.4337138,36.2761553],[23.4189204,36.3251215],[23.3930584,36.3710358],[23.3570156,36.4122866],[23.212824,36.5479289],[23.1645744,36.5850038],[23.1081282,36.6136759],[23.0934668,36.6181695],[23.1071578,36.597408],[23.1717551,36.5640706],[23.1770192,36.5607069],[23.1770192,36.5607069],[23.1813431,36.5565663],[23.1845532,36.5518153],[23.1865208,36.5466447],[23.1871669,36.5412624],[23.1864659,36.5358847],[23.1844463,36.5307274],[23.1757997,36.5145216],[23.2267243,36.4767876],[23.2314305,36.4724645],[23.2348921,36.4674367],[23.236952,36.4619324],[23.2375169,36.4562017],[23.2365617,36.4505048],[23.2293519,36.4268668],[23.2270038,36.421599],[23.2233577,36.4168349],[23.2185705,36.4127795],[23.2128484,36.4096072],[23.2064376,36.4074545],[23.1996138,36.4064138],[23.1926703,36.40653],[23.0919049,36.4166577],[23.0851681,36.4179111],[23.0788941,36.4202527],[23.0733502,36.4235825],[23.0687729,36.4277587],[23.0653574,36.4326034],[23.0314453,36.4948714],[22.9754163,36.4924765],[22.9687114,36.4927299],[22.9622036,36.4940535],[22.9561537,36.4963942],[22.9508041,36.4996582],[22.9463695,36.5037148],[22.9430278,36.5084013],[22.9032195,36.5799299],[22.8558218,36.6095636],[22.8511515,36.6131066],[22.8474059,36.6172995],[22.8447221,36.6219891],[22.8436254,36.6255987],[22.7877915,36.6047921],[22.7341437,36.5730619],[22.6732454,36.5288069],[22.6321889,36.4929523],[22.5999054,36.4517065],[22.5774448,36.4064301],[22.5655285,36.3586138],[22.5645278,36.3098292],[22.5667226,36.2859919],[22.5662365,36.2859919],[22.5662102,36.2859919],[22.4115574,36.2859998],[22.0274877,36.4567245],[22.0274839,36.4567262],[22.0274793,36.4567282],[21.9913555,36.4727858],[21.9913551,36.472786],[21.9913301,36.4727971],[21.5338595,36.6761496],[21.2289251,37.1596879],[21.2289216,37.1596934],[21.2289188,37.1596979],[21.0558173,37.4341873],[21.0558157,37.4341897],[20.890543,37.6962649],[20.8899177,37.6970414],[20.8899178,37.6970414],[20.890543,37.6962649],[21.0557352,37.4343175],[21.0591602,37.4345536],[21.1212067,37.4485274],[21.1788204,37.4715421],[21.2299367,37.5027747],[21.2727169,37.5411072],[21.3056138,37.5851657],[21.3170841,37.6105119],[21.3128055,37.6102951],[21.3061525,37.6110046],[21.2998052,37.6127354],[21.2940103,37.6154203],[21.2889933,37.6189548],[21.2849493,37.6232016],[21.2849493,37.6232016],[21.2820359,37.6279954],[21.2803666,37.6331498],[21.2543986,37.7668386],[21.0992037,37.8183809],[21.0931333,37.8209911],[21.0878529,37.8245146],[21.0835792,37.8288071],[21.0804875,37.8336925],[21.0787048,37.8389707],[21.0714885,37.8744285],[21.0711711,37.8809318],[21.0728351,37.8873068],[21.101608,37.954858],[21.1042254,37.959498],[21.1078987,37.9636693],[21.1124978,37.9672239],[21.1178598,37.9700358],[21.1237946,37.9720053],[21.1300917,37.9730626],[21.1365279,37.9731701],[21.1428748,37.972324],[21.1489074,37.9705543],[21.1544116,37.9679239],[21.1593515,37.9650279],[21.1593515,37.9650279],[21.1256365,37.9963898],[21.1284392,38.0027605],[21.1377137,38.0537365],[21.1416284,38.1195731],[21.1380135,38.1732061],[21.1209351,38.2252238],[21.0970917,38.2637835],[21.1056662,38.2999566],[21.1054515,38.3132446],[21.1054515,38.3132446],[21.0785257,38.3163994],[21.0718603,38.3177251],[21.0656649,38.3200657],[21.0656649,38.3200657],[21.0601874,38.3233276],[21.055647,38.3273804],[21.0522256,38.3320617],[21.0500602,38.3371845],[21.049238,38.3425435],[21.049792,38.3479242],[21.0517004,38.3531112],[21.0724923,38.3937832],[21.0656939,38.3962192],[21.0602432,38.3986663],[21.055451,38.4018498],[21.051477,38.4056635],[21.0484537,38.4099805],[21.0464821,38.4146567],[21.0456282,38.4195365],[21.0459205,38.4244571],[21.0495109,38.444721],[21.0510946,38.4498732],[21.0539334,38.4546838],[21.0579178,38.4589673],[21.0628944,38.4625581],[21.0657067,38.4639017],[21.0650379,38.4641418],[21.0625867,38.4650217],[21.0570209,38.4682012],[21.0523746,38.4721851],[21.0488337,38.476814],[21.0465403,38.4819027],[21.0455862,38.4872476],[21.0455887,38.4872786],[21.0380353,38.4857847],[21.0312746,38.4849946],[21.0244484,38.4852649],[21.0178252,38.4865849],[21.0116655,38.4889026],[21.0062115,38.492127],[21.0016779,38.4961312],[20.9982433,38.5007577],[20.9960428,38.5058245],[20.9960428,38.5058245],[20.9951635,38.5111321],[20.9917653,38.6008197],[20.9769371,38.6216806],[20.9760762,38.6185353],[20.9733321,38.6136045],[20.9693922,38.6091964],[20.9644133,38.6054858],[20.8924207,38.5615965],[20.8865048,38.5586874],[20.8799618,38.55677],[20.87306,38.5559229],[20.8660823,38.5561808],[20.8593148,38.5575331],[20.8530348,38.5599244],[20.8475,38.5632566],[20.8429373,38.5673931],[20.8395341,38.5721644],[20.8374302,38.5773746],[20.8367121,38.5828101],[20.8374097,38.5882478],[20.8394947,38.5934646],[20.8718729,38.6525737],[20.8755769,38.6576992],[20.8806156,38.6620757],[20.8867494,38.6654947],[20.8902526,38.6666557],[20.889621,38.6670653],[20.8850743,38.6716058],[20.8818669,38.6767976],[20.84255,38.7628135],[20.7928866,38.7375671],[20.786971,38.7351569],[20.7805731,38.7336776],[20.773931,38.7331843],[20.7672917,38.7336952],[20.7609023,38.7351915],[20.7550005,38.7376174],[20.7545751,38.7378848],[20.7545934,38.7748347],[20.7545959,38.7799691],[20.7545948,38.7778302],[20.7545959,38.7799691],[20.7545959,38.7799691],[20.7543208,38.7824753],[20.7308073,38.8091284],[20.7488075,38.8564086],[20.7387855,38.8300844],[20.7387855,38.8300844],[20.7186047,38.861659],[20.7182578,38.8620929],[20.7160323,38.864877],[20.7183019,38.8691703],[20.7222781,38.8737407],[20.7273658,38.8775855],[20.7333518,38.8805436],[20.7390092,38.8822044],[20.7316358,38.8878804],[20.727222,38.8920359],[20.7239582,38.8967924],[20.7219751,38.9019596],[20.7213524,38.9073312],[20.7221151,38.9126924],[20.7250505,38.9233883],[20.723702,38.9236189],[20.7175446,38.9257038],[20.7120195,38.9286733],[20.7073341,38.9324162],[20.7036641,38.936792],[20.7011475,38.9416368],[20.656959,39.0578897],[20.5895723,39.1069178],[20.5895723,39.1069178],[20.5597985,39.1004211],[20.5288824,39.0879298],[20.529433,39.0888361],[20.5454744,39.1390017],[20.4550115,39.2048192],[20.4501049,39.2092404],[20.4465394,39.214376],[20.4444819,39.2199859],[20.444029,39.225808],[20.4461285,39.2595703],[20.3178765,39.2773256],[20.3111629,39.2788005],[20.3049639,39.2812814],[20.2995283,39.284669],[20.2950739,39.2888274],[20.2917795,39.2935898],[20.2625764,39.3483376],[20.2150106,39.3795624],[20.2093737,39.3842577],[20.2053285,39.3898485],[20.1837127,39.430368],[20.1817194,39.4354965],[20.1810773,39.4408285],[20.1818118,39.446154],[20.1838944,39.4512629],[20.1872432,39.4559539],[20.1917265,39.4600418],[20.1971674,39.4633655],[20.2020833,39.4652959],[20.1890214,39.4775361],[20.1853083,39.4817793],[20.1827012,39.4864881],[20.1812942,39.4914928],[20.1812052,39.4944219],[20.1257135,39.503801],[20.119276,39.5054042],[20.1133594,39.507934],[20.1081853,39.5112958],[20.1039475,39.5153637],[20.1008046,39.5199854],[20.0988746,39.524988],[20.09823,39.5301842],[20.0988953,39.5353793],[20.1008458,39.5403787],[20.1387641,39.6116096],[20.1387641,39.6116096],[19.9666125,39.6764571],[19.9604485,39.6794171],[19.9552102,39.6832918],[19.9511229,39.6879147],[19.9483624,39.6930874],[19.9470476,39.6985873],[19.9472354,39.7041782],[19.9489182,39.7096197],[19.950743,39.7136197],[19.9527197,39.7179525],[19.9527197,39.7179525],[19.9527198,39.7179525],[19.9512787,39.7172487],[19.8853019,39.6910781],[19.8900013,39.6813664],[19.8853019,39.6910781],[19.9512787,39.7172487],[19.9566036,39.7198494],[19.9612364,39.7231418],[19.965027,39.7270193],[19.9678527,39.7313567],[19.969622,39.7360135],[19.9823073,39.7855821],[19.9829676,39.7907104],[19.9823458,39.795842],[19.9804646,39.8007896],[19.9773923,39.8053723],[19.9732409,39.8094227],[19.9681619,39.8127929],[19.9623409,39.8153597],[19.9614902,39.8156553],[19.9709979,39.8514099],[19.8905371,39.8826273],[19.884657,39.8854996],[19.8796314,39.8892058],[19.8756579,39.8936001],[19.8728928,39.89851],[19.8714453,39.9037423],[19.8713724,39.9090912],[19.8726775,39.9143465],[19.8753094,39.9193013],[19.8791648,39.9237607],[19.8997567,39.9430906],[19.8401015,40.0218903],[19.760759,40.0376295],[19.7542367,40.0394623],[19.7483113,40.0422391],[19.7432131,40.045852],[19.7391402,40.0501607],[19.7213221,40.0735507],[19.7118057,40.071245],[19.5399138,40.0136232],[19.5399138,40.0136232],[19.7814866,39.8466315],[19.7869277,39.8420115],[19.7814866,39.8466315],[19.2433104,40.2186559],[19.1481004,40.6005216],[19.2972571,41.2942125],[19.2978637,41.3010294],[19.2967438,41.3078095],[19.2939371,41.3143083],[18.9442682,41.9144411],[18.9432083,41.9161223],[18.9254064,41.9423277],[18.9718295,41.9434687],[19.0391553,41.9548124],[19.1024105,41.9753981],[19.1053633,41.9769073],[19.1043018,41.9790426],[19.1032952,41.985339],[19.1032695,42.0308211],[19.0575641,42.0616241],[19.053024,42.0653044],[19.0494746,42.0695422],[19.0470376,42.0741925],[19.0457967,42.0790962],[19.0457945,42.0840855],[19.0457945,42.0840855],[19.0479346,42.1012305],[19.0339716,42.1130153],[19.0120913,42.1120808],[19.0054636,42.1122459],[18.9989863,42.1133003],[18.9928743,42.1152089],[18.9873308,42.1179083],[18.9825398,42.1213089],[18.8980092,42.1932382],[18.9030423,42.189709],[18.9089798,42.1869228],[18.9155291,42.1850334],[18.9224464,42.1841111],[18.9294741,42.1841902],[18.9363508,42.1852678],[18.9428204,42.1873039],[18.948642,42.1902225],[18.948642,42.1902225],[18.9492695,42.1906899],[18.9492674,42.1906917],[18.9492674,42.1906917],[18.9492621,42.1906963],[18.9386866,42.1996985],[18.9254149,42.2109957],[18.95,42.27],[18.85,42.38],[18.75,42.48],[18.65,42.55],[18.5004705,42.5998432],[18.499873,42.5993651],[18.475,42.475],[18.4699829,42.4499145],[18.495185,42.4159295],[18.4299237,42.4525758],[18.3722431,42.4510599],[18.2841307,42.4487442],[18.2630442,42.44819],[18.1851907,42.4461439],[18.4299237,42.4525758],[18.3722431,42.4510599],[18.1400416,42.4449573],[18.1048277,42.4440319],[18.1048277,42.4440319],[17.89825,42.4386027],[17.8935777,42.4384799],[17.8567001,42.4375108],[17.8561556,42.4374964],[17.8056935,42.4361702],[16.7360859,42.6501863],[16.65335,42.7993005],[16.7100907,42.8913728],[16.7100907,42.8913728],[16.8434784,42.873994],[16.8510001,42.8735825],[16.8584785,42.8743028],[17.0177223,42.901911],[17.187629,42.8872688],[17.1948748,42.8871651],[17.2020082,42.8881029],[17.2087533,42.890046],[17.2148489,42.8929192],[17.2200591,42.8966113],[17.224182,42.9009793],[17.2270577,42.9058542],[17.2285745,42.9110472],[17.2286735,42.9163571],[17.2273503,42.9215782],[17.2246559,42.9265082],[17.2206945,42.930956],[17.1904244,42.9585284],[17.190403,42.9585307],[17.1903986,42.9585312],[17.1367531,42.9643364],[17.1307713,42.9697828],[17.0335703,42.9832915],[17.007296,42.9805292],[17.0065553,42.9807988],[17.0004865,42.9843331],[16.9955618,42.9887175],[16.991999,42.9937584],[16.9857272,43.005513],[16.9857247,43.0055178],[16.985724,43.0055191],[16.8375059,42.9899431],[16.8375062,42.9899416],[16.8375069,42.9899391],[16.8375073,42.9899375],[16.8379252,42.9882605],[16.8399676,42.9800652],[16.8399676,42.9800652],[16.8379252,42.9882605],[16.8375073,42.9899375],[16.8375069,42.9899391],[16.8375062,42.9899416],[16.8375059,42.9899431],[16.8375055,42.9899446],[16.8101181,43.0998413],[16.8101181,43.0998413],[16.8120249,43.0921901],[16.8101181,43.0998413],[16.8101181,43.0998413],[17.1918595,43.0998417],[17.1991238,43.1003524],[17.2061094,43.1018953],[17.212544,43.1044105],[17.2181768,43.1077998],[17.222788,43.1119312],[17.2261977,43.1166436],[17.2282726,43.1217532],[17.2289315,43.1270607],[17.2281482,43.132359],[17.226187,43.1368997],[17.293343,43.106246],[17.3759696,43.0336035],[17.3811689,43.0298524],[17.3872766,43.0269235],[17.3940535,43.0249311],[17.3978606,43.0244128],[17.3978655,43.0244249],[17.3990777,43.0273833],[17.4026127,43.0321864],[17.4073977,43.0363714],[17.413237,43.0397673],[17.4301486,43.0477007],[17.4328696,43.0368521],[17.4380511,43.0347796],[17.4380511,43.0347796],[17.4619746,43.0305716],[17.4558052,43.0276779],[17.4331743,43.017063],[17.4660907,43.0235637],[17.501575,43.0305716],[17.4785588,43.0185765],[17.4691747,43.0136858],[17.4785588,43.0185765],[17.6,42.97],[17.6138401,42.9522056],[17.6635766,42.9664057],[17.6599766,42.9934229],[17.5879759,43.0829175],[17.4403744,43.1521492],[17.400774,43.2163151],[17.2891729,43.3041211],[17.2675727,43.3530899],[17.2855729,43.4375187],[17.2711727,43.4628474],[17.0623706,43.5270133],[16.7131671,43.771857],[16.6980174,43.8009913],[16.5,43.9],[16.15,44.2],[15.95,44.2],[15.65,44.18],[15.5,44.2],[15.35,44.28],[15.3084764,44.3141959],[15.2623526,44.3324647],[15.3084764,44.3141959],[15.4243542,44.2682988],[15.434399,44.2686237],[15.3757532,44.2999054],[15.3369195,44.3318968],[15.3321895,44.335165],[15.3267377,44.3377955],[15.2870133,44.3535331],[15.2865509,44.3541567],[15.2818214,44.3582902],[15.112106,44.479399],[15.1128647,44.4826358],[15.1126236,44.4879674],[15.1109173,44.4931612],[15.107812,44.498014],[15.1066785,44.4991318],[15.0550151,44.5360574],[15.055015,44.5360575],[15.1066785,44.4991318],[15.3091531,44.3544162],[15.055015,44.5360575],[15.04,44.55],[14.9718603,44.6143542],[14.9592511,44.6301835],[14.9532184,44.6377569],[14.9532178,44.6377576],[14.9532178,44.6377576],[14.9532178,44.6377576],[14.9532178,44.6377576],[14.8955416,44.7101633],[14.8955416,44.7101634],[14.8843488,44.7242146],[14.8837686,44.7435393],[14.8574793,44.7830322],[14.8531802,44.7880075],[14.8474744,44.7922099],[14.844283,44.7940983],[14.8442374,44.7941252],[14.8442295,44.7941299],[14.8442295,44.7941299],[14.8442295,44.7941299],[14.8429333,44.8363624],[14.8427139,44.8435096],[14.8428918,44.8446668],[14.8437855,44.8504819],[14.8806035,44.9574544],[14.8198384,45.0773113],[14.7265766,45.1267073],[14.702968,45.1392116],[14.7029712,45.1441621],[14.7029713,45.1443247],[14.7029713,45.1443247],[14.7029825,45.1615382],[14.7021503,45.1671483],[14.6996826,45.1725142],[14.6965429,45.1763542],[14.8519485,45.094013],[14.7537014,45.1460689],[14.7537014,45.1460689],[14.6575466,45.1970163],[14.6914644,45.179045],[14.6900014,45.1798202],[14.6758525,45.1873169],[14.6687386,45.1883852],[14.6578086,45.1891973],[14.6378426,45.2157722],[14.6220165,45.2308368],[14.6220165,45.2308368],[14.6220165,45.2308368],[14.601093,45.2507536],[14.5962741,45.2519945],[14.5562404,45.2590593],[14.5490756,45.2598244],[14.5418352,45.259625],[14.5347785,45.2584682],[14.5281586,45.2563955],[14.5222125,45.2534811],[14.5171533,45.2498295],[14.5131619,45.2455715],[14.5103812,45.2408596],[14.5089104,45.2358626],[14.4965495,45.1567062],[14.4965431,45.1567052],[14.4965354,45.156704],[14.5114583,45.2523093],[14.5130573,45.257592],[14.5140878,45.2592586],[14.5137488,45.2593737],[14.511516,45.2601314],[14.4638071,45.2806441],[14.3897433,45.3124883],[14.3362437,45.3155042],[14.3362437,45.3155042],[14.3041002,45.2632775],[14.2950927,45.2486422],[14.2822182,45.1884419],[14.2822182,45.1884419],[14.2817316,45.1880202],[14.2799179,45.1864488],[14.2762727,45.1814336],[14.2703292,45.1705894],[14.2690083,45.1723794],[14.2644119,45.1764472],[14.2587942,45.1798174],[14.2523641,45.1823649],[14.2453606,45.1839946],[14.2426183,45.1842389],[14.2369562,45.157681],[14.1816106,45.1336979],[14.2075421,45.126096],[14.1816106,45.1336979],[14.1787418,45.1345389],[14.1796006,45.1328269],[14.1577922,45.1233766],[14.15,45.1],[14.1577922,45.1233766],[14.2,45.25],[14.05,45.3],[13.95,45.45],[13.85,45.55],[13.75,45.58],[13.7282625,45.5773915],[13.7107371,45.5938319],[13.7642693,45.6049915],[13.7581117,45.6063656],[13.750805,45.6069685],[13.743469,45.6065879],[13.7217218,45.6039782],[13.7141579,45.6025007],[13.7071808,45.5999794],[13.7010809,45.5965191],[13.6961117,45.5922638],[13.6924796,45.5873904],[13.6903354,45.5821017],[13.6897676,45.5766174],[13.6899312,45.5757534],[13.6824993,45.5752047],[13.6802802,45.5772853],[13.67984,45.577698],[13.6760056,45.5821213],[13.6746103,45.5847706],[13.673449,45.5869758],[13.6722645,45.5920828],[13.6724961,45.5972545],[13.6732358,45.5995312],[13.6741356,45.6023005],[13.6765096,45.6060624],[13.6771232,45.6070348],[13.681349,45.6112832],[13.6866576,45.6148891],[13.6890448,45.6159797],[13.6928537,45.6177197],[13.6997089,45.6196706],[13.7149755,45.6228592],[13.7230208,45.6245395],[13.7230208,45.6245395],[13.7165637,45.6278825],[13.7110013,45.6313955],[13.7076865,45.6344985],[13.7065158,45.6355944],[13.7032766,45.6403206],[13.7024584,45.6425408],[13.7014063,45.6453958],[13.7011858,45.6480773],[13.7009761,45.6506283],[13.7016015,45.6537923],[13.7020024,45.6558205],[13.7037914,45.6594472],[13.704447,45.6607762],[13.7062023,45.6634552],[13.7101632,45.6695007],[13.7101632,45.6695007],[13.7029069,45.6775772],[13.6957811,45.6855086],[13.6724602,45.6987974],[13.5932492,45.7439337],[13.5932492,45.7439337],[13.5936626,45.7429527],[13.5939411,45.7422919],[13.5945793,45.7367844],[13.5935951,45.7313013],[13.5910302,45.7260729],[13.5885514,45.723154],[13.5869927,45.7213185],[13.5816524,45.7172377],[13.5752335,45.7140016],[13.4205822,45.6515949],[13.4205822,45.6515949],[13.4205822,45.6515949],[13.4205782,45.6515975],[13.4205687,45.6516036],[13.3654345,45.6869034],[13.3454514,45.6996977],[13.3454514,45.6996977],[13.348528,45.7023199],[13.3541785,45.705602],[13.3606174,45.7080776],[13.3731223,45.7118514],[13.3731223,45.7118514],[13.3643837,45.7151283],[13.3534172,45.7192407],[13.2379512,45.7456876],[13.2378726,45.7457122],[13.2378716,45.7457125],[13.2378716,45.7457125],[13.2378387,45.74572],[13.2192525,45.7499791],[13.1698567,45.7280953],[13.1678579,45.7273884],[13.1698567,45.7280953],[13.2192525,45.7499791],[13.2378384,45.7457201],[13.2378712,45.7457126],[13.2379797,45.7456877],[13.2450797,45.7445637],[13.2523542,45.7443892],[13.2595452,45.7451704],[13.2663977,45.7468795],[13.2726686,45.749456],[13.2781355,45.7528084],[13.2826042,45.7568179],[13.285916,45.7613422],[13.2865806,45.762934],[13.25,45.7713134],[13.2139321,45.7795754],[13.25,45.7713134],[13.25,45.85],[13.5919166,46.1919166],[13.4695347,46.2236712],[13.4227342,46.228737],[13.4371344,46.2101626],[13.4083341,46.208474],[13.3651337,46.2895258],[13.4335343,46.3536917],[13.4916967,46.37491],[13.4833333,46.4],[13.45,46.5],[13.3,46.55],[13.2802294,46.5549426],[13.2319323,46.5529438],[13.1455315,46.5850268],[12.9501299,46.6006493],[12.9005129,46.6046162],[12.9005129,46.6046162],[12.8287283,46.6103554],[12.7495275,46.6407498],[12.5479255,46.6525699],[12.403924,46.6897186],[12.39814,46.6969],[12.325,46.575],[12.25,46.45],[12,46.45],[11.85,46.3],[11.775,46.175],[11.7,46.05],[11.6,45.95],[11.35,45.9],[11.15,45.8],[11,45.75],[10.9,45.7],[10.85,45.85],[10.8120253,45.8443038],[10.65,45.82],[10.5,45.85],[10.5,46],[10.54,46.13],[10.58,46.26],[10.15,46.15],[10.15,46.1],[9.9,46.03],[9.6,46.05],[9.4,46.05],[9.38,45.95]],[[17.4331743,43.017063],[17.4558052,43.0276779],[17.4660907,43.0235637],[17.4331743,43.017063]],[[12.248544,45.2463592],[12.2540676,45.2850389],[12.248544,45.2463592],[12.257146,45.2308793],[12.257146,45.2308792],[12.248544,45.2463592]],[[12.2511296,45.3049962],[12.2511651,45.3050371],[12.2525512,45.3076126],[12.2511651,45.3050371],[12.2511296,45.3049962]],[[12.2684399,45.2405115],[12.277197,45.2479801],[12.2824663,45.2516728],[12.2886517,45.2545774],[12.2955196,45.2565842],[12.2974783,45.2568618],[12.2955196,45.2565842],[12.2886517,45.2545774],[12.2824663,45.2516728],[12.277197,45.2479801],[12.2684399,45.2405115]],[[12.2736102,45.360493],[12.2936044,45.411442],[12.2936044,45.411442],[12.2736102,45.360493]],[[12.2827644,45.3471944],[12.2830708,45.349575],[12.2827644,45.3471944],[12.2835005,45.3420766],[12.2856048,45.3371489],[12.2890004,45.3325906],[12.2914258,45.3304522],[12.2890004,45.3325906],[12.2856048,45.3371489],[12.2835005,45.3420766],[12.2827644,45.3471944]],[[12.2849081,45.355927],[12.2854544,45.3572559],[12.3118092,45.4040154],[12.3118092,45.4040154],[12.2854544,45.3572559],[12.2849081,45.355927]],[[12.2979263,45.3259473],[12.2991283,45.3252254],[12.2997823,45.3249645],[12.2991283,45.3252254],[12.2979263,45.3259473]],[[12.3034961,45.4061976],[12.3091841,45.4044182],[12.3107893,45.4041719],[12.3091841,45.4044182],[12.3034961,45.4061976]],[[12.3063548,45.2576273],[12.3102497,45.2576381],[12.3175555,45.2566453],[12.3200702,45.2559274],[12.3175555,45.2566453],[12.3102497,45.2576381],[12.3063548,45.2576273]],[[12.312424,45.3210419],[12.3138428,45.3209069],[12.312424,45.3210419],[12.312424,45.3210419]],[[12.3220929,45.3204486],[12.3269723,45.3206426],[12.3340603,45.3219021],[12.3406784,45.3240851],[12.3452179,45.3264112],[12.3406784,45.3240851],[12.3340603,45.3219021],[12.3269723,45.3206426],[12.3220929,45.3204486]],[[12.3373318,45.2467803],[12.3402178,45.2438249],[12.3420658,45.2408139],[12.3402178,45.2438249],[12.3373318,45.2467803]],[[12.3466432,45.3271555],[12.3515683,45.3308736],[12.3554399,45.3352278],[12.3515683,45.3308736],[12.3466432,45.3271555]],[[12.3554441,45.3352325],[12.3960859,45.3923897],[12.4131622,45.3897176],[12.3960859,45.3923897],[12.3554441,45.3352325],[12.3554441,45.3352325]],[[12.3593613,45.4754418],[12.3593613,45.4754418],[12.378642,45.4633807],[12.3593613,45.4754418]],[[12.3607608,45.4761912],[12.3607608,45.4761912],[12.3854795,45.4739847],[12.3835533,45.4689168],[12.3854795,45.4739847],[12.3607608,45.4761912]],[[12.3609594,45.135919],[12.3662634,45.1038664],[12.366398,45.0985896],[12.3660935,45.0973949],[12.366398,45.0985896],[12.3662634,45.1038664],[12.3609594,45.135919]],[[12.3649964,45.0932558],[12.365023,45.0933037],[12.3649964,45.0932558],[12.3676667,45.0922372],[12.3676667,45.0922372],[12.3649964,45.0932558]],[[12.3921372,45.0859725],[12.3957351,45.0837628],[12.4379186,45.0519916],[12.3957351,45.0837628],[12.3921372,45.0859725]],[[12.4231997,45.3883177],[12.4283429,45.3878805],[12.4359062,45.3882929],[12.4432049,45.3897419],[12.4489577,45.3918124],[12.4432049,45.3897419],[12.4359062,45.3882929],[12.4283429,45.3878805],[12.4231997,45.3883177]],[[12.4628733,45.402224],[12.4644398,45.4042237],[12.4658874,45.407454],[12.4644398,45.4042237],[12.4628733,45.402224]],[[12.4650056,45.4242386],[12.4650056,45.4242386],[12.4668367,45.4199139],[12.4668569,45.4197583],[12.4668367,45.4199139],[12.4650056,45.4242386]],[[12.4917916,45.017109],[12.4926775,45.0173146],[12.4941916,45.0174521],[12.4926775,45.0173146],[12.4917916,45.017109]],[[12.5061216,45.0176893],[12.5070227,45.01765],[12.5140076,45.016384],[12.5205318,45.0142112],[12.5263618,45.0112093],[12.553572,44.994188],[12.5263618,45.0112093],[12.5205318,45.0142112],[12.5140076,45.016384],[12.5070227,45.01765],[12.5061216,45.0176893]],[[12.5606651,44.9894998],[12.5637233,44.9871827],[12.5658655,44.9847678],[12.5637233,44.9871827],[12.5606651,44.9894998]],[[12.5675851,44.9828294],[12.5675851,44.9828294],[12.5702102,44.9780379],[12.5705815,44.9765864],[12.5702102,44.9780379],[12.5675851,44.9828294]],[[12.5711955,44.9670745],[12.571419,44.967845],[12.571419,44.967845],[12.5711955,44.9670745]],[[12.801143,45.5300324],[12.8033995,45.5309064],[12.957728,45.6032897],[13.0780907,45.6134175],[12.957728,45.6032897],[12.8033995,45.5309064],[12.801143,45.5300324]],[[13.0925596,45.6149019],[13.096671,45.615551],[13.10388,45.6178524],[13.10388,45.6178524],[13.096671,45.615551],[13.0925596,45.6149019]],[[13.1131568,45.6233979],[13.1155502,45.6252674],[13.1803676,45.6877281],[13.1833415,45.691266],[13.1803676,45.6877281],[13.1155502,45.6252674],[13.1131568,45.6233979]],[[13.1674202,45.7272336],[13.1674202,45.7272336],[13.1724256,45.7250818],[13.177919,45.7215396],[13.1820007,45.7176424],[13.177919,45.7215396],[13.1724256,45.7250818],[13.1674202,45.7272336]],[[13.1823332,45.717325],[13.1823332,45.717325],[13.1837858,45.7151579],[13.1823332,45.717325]],[[13.1842163,45.6923609],[13.1866197,45.6971509],[13.1876868,45.7023165],[13.18731,45.70753],[13.1861513,45.7107786],[13.18731,45.70753],[13.1876868,45.7023165],[13.1866197,45.6971509],[13.1842163,45.6923609]],[[13.2485682,45.6783319],[13.2490875,45.6853745],[13.2515639,45.6922109],[13.2515639,45.6922109],[13.2490875,45.6853745],[13.2485682,45.6783319],[13.2495302,45.673725],[13.2485682,45.6783319]],[[13.2516672,45.6681224],[13.2534019,45.6647085],[13.2580262,45.6592861],[13.2534019,45.6647085],[13.2516672,45.6681224]],[[13.2571329,45.6997306],[13.2619381,45.704232],[13.2694379,45.7089542],[13.278114,45.7125633],[13.2838335,45.7139796],[13.278114,45.7125633],[13.2694379,45.7089542],[13.2619381,45.704232],[13.2571329,45.6997306]],[[13.2585679,45.6586509],[13.2637768,45.6546133],[13.2585679,45.6586509],[13.2585679,45.6586509]],[[13.3022964,45.7157645],[13.3077135,45.7155671],[13.3175027,45.7138319],[13.326618,45.7107958],[13.3273037,45.7104381],[13.326618,45.7107958],[13.3175027,45.7138319],[13.3077135,45.7155671],[13.3022964,45.7157645]],[[13.4678646,45.5115886],[13.4686587,45.5128205],[13.4722377,45.516289],[13.4686587,45.5128205],[13.4678646,45.5115886]],[[13.5034362,45.343667],[13.5035436,45.3419222],[13.5050559,45.3374427],[13.5035436,45.3419222],[13.5034362,45.343667]],[[13.5042407,45.351849],[13.5042916,45.3520912],[13.5059489,45.3554211],[13.5042916,45.3520912],[13.5042407,45.351849]],[[13.5066937,45.3569175],[13.5066937,45.3569175],[13.5151124,45.3697649],[13.5151124,45.3697649],[13.5066937,45.3569175]],[[13.5108385,45.329648],[13.5123916,45.3280936],[13.5143533,45.3267596],[13.5123916,45.3280936],[13.5108385,45.329648]],[[13.5210201,45.3229746],[13.5237092,45.3217384],[13.5274501,45.3203546],[13.5237092,45.3217384],[13.5210201,45.3229746]],[[13.5356848,45.3085542],[13.5369717,45.3139418],[13.5371845,45.3143283],[13.5369717,45.3139418],[13.5356848,45.3085542],[13.5358533,45.3053001],[13.5356848,45.3085542]],[[13.5366841,45.2704308],[13.538324,45.2745186],[13.5409728,45.2781072],[13.538324,45.2745186],[13.5366841,45.2704308]],[[13.5378079,45.2977845],[13.5408095,45.2933208],[13.5378079,45.2977845],[13.5378079,45.2977845]],[[13.5411299,45.2928443],[13.5420541,45.2919792],[13.5411299,45.2928443],[13.5411299,45.2928443]],[[13.5477406,45.2449937],[13.5485275,45.2443906],[13.5497532,45.2436244],[13.5485275,45.2443906],[13.5477406,45.2449937]],[[13.5486621,45.2849264],[13.549595,45.2855833],[13.549595,45.2855833],[13.5486621,45.2849264]],[[13.5572911,45.1747556],[13.5573108,45.1446849],[13.5581449,45.1390919],[13.5592914,45.1365972],[13.5581449,45.1390919],[13.5573108,45.1446849],[13.5572911,45.1747556]],[[13.5625647,45.1313371],[13.5645798,45.1288663],[13.5645798,45.1288663],[13.5625647,45.1313371]],[[13.5630576,45.5661614],[13.5662418,45.566621],[13.682498,45.5752046],[13.6824993,45.5752047],[13.6899312,45.5757534],[13.6899312,45.5757534],[13.6824993,45.5752047],[13.682498,45.5752046],[13.682498,45.5752046],[13.5662418,45.566621],[13.5630576,45.5661614]],[[13.5635485,45.5600602],[13.5847279,45.5465],[13.5635485,45.5600602],[13.5635485,45.5600602]],[[13.5753293,45.1178325],[13.5758762,45.1215945],[13.5758762,45.1215945],[13.5753293,45.1178325],[13.5759496,45.1130275],[13.5753293,45.1178325]],[[13.586164,45.0732804],[13.5862853,45.0744039],[13.586164,45.0732804],[13.5866357,45.0703391],[13.586164,45.0732804]],[[13.5913162,45.0604509],[13.5925078,45.0588739],[13.5941852,45.0574056],[13.5925078,45.0588739],[13.5913162,45.0604509]],[[13.6673308,45.0039043],[13.7437657,44.9484426],[13.7465118,44.9442965],[13.7437657,44.9484426],[13.6673308,45.0039043]],[[13.7483761,44.8763466],[13.7496147,44.8815792],[13.7496147,44.8815792],[13.7483761,44.8763466],[13.7485366,44.8726549],[13.7483761,44.8763466]],[[13.7504435,44.8656429],[13.7533815,44.8610364],[13.7577404,44.8567213],[13.7586628,44.856109],[13.7577404,44.8567213],[13.7533815,44.8610364],[13.7504435,44.8656429]],[[13.7522749,44.8865381],[13.7522749,44.8865381],[13.7525939,44.8868983],[13.7522749,44.8865381]],[[13.7555323,44.896253],[13.7567567,44.9017225],[13.7572221,44.9025905],[13.7567567,44.9017225],[13.7555323,44.896253],[13.7558852,44.8910872],[13.7555323,44.896253]],[[13.7559102,44.8907209],[13.7559304,44.8906657],[13.7559304,44.8906657],[13.7559102,44.8907209],[13.7559102,44.8907209]],[[13.7967286,44.8348417],[13.8611006,44.7997936],[13.8622584,44.7868508],[13.8611006,44.7997936],[13.7967286,44.8348417]],[[13.8663074,44.7634226],[13.8671819,44.7617004],[13.8707907,44.7573713],[13.8671819,44.7617004],[13.8663074,44.7634226]],[[13.8708262,44.7573287],[13.8755585,44.7535191],[13.8812111,44.7504066],[13.8812111,44.7504066],[13.8755585,44.7535191],[13.8708262,44.7573287],[13.8708262,44.7573287]],[[13.8906768,44.7474634],[13.8944503,44.7466851],[13.8975437,44.7464778],[13.8944503,44.7466851],[13.8906768,44.7474634]],[[13.9047024,44.7464189],[13.9086847,44.7466868],[13.9155483,44.7481047],[13.9335421,44.7531683],[13.9352199,44.7537792],[13.9335421,44.7531683],[13.9155483,44.7481047],[13.9086847,44.7466868],[13.9047024,44.7464189]],[[13.9505822,44.7626932],[13.9542055,44.7672103],[13.9565413,44.7721378],[13.9571739,44.7755305],[13.9565413,44.7721378],[13.9542055,44.7672103],[13.9505822,44.7626932],[13.9505822,44.7626932]],[[13.9515117,44.7946848],[13.9515117,44.7946848],[13.9552089,44.7875166],[13.9563369,44.7844375],[13.9552089,44.7875166],[13.9515117,44.7946848]],[[13.9722835,44.7907806],[13.9890243,44.787634],[13.996389,44.7867861],[14.0038441,44.7869758],[14.0070252,44.7875105],[14.0038441,44.7869758],[13.996389,44.7867861],[13.9890243,44.787634],[13.9722835,44.7907806]],[[14.016249,44.8381238],[14.0285691,44.8750268],[14.028608,44.8752326],[14.028608,44.8752326],[14.0285691,44.8750268],[14.016249,44.8381238],[14.0216521,44.8352259],[14.0271383,44.8316311],[14.0315287,44.8273451],[14.0346539,44.8225335],[14.0346539,44.8225335],[14.0315287,44.8273451],[14.0271383,44.8316311],[14.0216521,44.8352259],[14.016249,44.8381238]],[[14.0276355,44.7963342],[14.0290055,44.7973818],[14.0290709,44.7974572],[14.0290055,44.7973818],[14.0276355,44.7963342]],[[14.0324025,44.8760536],[14.0350081,44.8766173],[14.0372036,44.8774554],[14.0350081,44.8766173],[14.0324025,44.8760536]],[[14.0541552,44.8894001],[14.0556255,44.8913845],[14.0571821,44.8951389],[14.0556255,44.8913845],[14.0541552,44.8894001]],[[14.0691648,44.9219192],[14.0753695,44.9224531],[14.0779531,44.9230464],[14.0753695,44.9224531],[14.0691648,44.9219192]],[[14.1573626,44.9599404],[14.1859218,44.9738295],[14.1917723,44.9773314],[14.1930829,44.9785086],[14.1917723,44.9773314],[14.1859218,44.9738295],[14.1573626,44.9599404]],[[14.1948624,44.6268844],[14.1957093,44.6319975],[14.2002551,44.6469533],[14.1957093,44.6319975],[14.1948624,44.6268844],[14.1952155,44.623483],[14.1948624,44.6268844]],[[14.1963348,44.6192836],[14.1972887,44.6167796],[14.1973722,44.6166584],[14.1972887,44.6167796],[14.1963348,44.6192836]],[[14.2008784,44.9888447],[14.2019601,44.991672],[14.2022906,44.9953832],[14.2019601,44.991672],[14.2008784,44.9888447]],[[14.2067083,44.6068437],[14.2102063,44.6046013],[14.216401,44.6019455],[14.2559888,44.5884422],[14.2625987,44.5867492],[14.2559888,44.5884422],[14.216401,44.6019455],[14.2102063,44.6046013],[14.2067083,44.6068437]],[[14.2092965,44.6732051],[14.2127697,44.6775086],[14.2179319,44.6816397],[14.2198106,44.6826319],[14.2179319,44.6816397],[14.2127697,44.6775086],[14.2092965,44.6732051]],[[14.2252006,45.091388],[14.2275584,45.0941196],[14.2301383,45.099107],[14.2306908,45.1016363],[14.2301383,45.099107],[14.2275584,45.0941196],[14.2252006,45.091388]],[[14.2406452,45.1125275],[14.2414258,45.1133657],[14.2414258,45.1133657],[14.2406452,45.1125275]],[[14.2419399,45.107842],[14.2421384,45.1073327],[14.2419399,45.107842],[14.2419399,45.107842]],[[14.2465898,45.0990145],[14.2468064,45.0986982],[14.2468064,45.0986982],[14.2465898,45.0990145]],[[14.2560427,44.9057399],[14.2562573,44.9121167],[14.263435,44.947579],[14.2642064,44.9498103],[14.263435,44.947579],[14.2562573,44.9121167],[14.2560427,44.9057399],[14.2560427,44.9057399]],[[14.2562277,44.9051342],[14.2579468,44.8995048],[14.293987,44.8252185],[14.2969118,44.8206275],[14.2984783,44.8190419],[14.2969118,44.8206275],[14.293987,44.8252185],[14.2579468,44.8995048],[14.2562277,44.9051342]],[[14.2659251,45.076186],[14.3558063,44.9703513],[14.355026,44.9688622],[14.3558063,44.9703513],[14.2659251,45.076186]],[[14.2670063,44.9554343],[14.2683316,44.9574517],[14.270862,44.9599049],[14.2683316,44.9574517],[14.2670063,44.9554343]],[[14.2695407,44.7028345],[14.2743992,44.7036637],[14.2819629,44.7038553],[14.2819629,44.7038553],[14.2743992,44.7036637],[14.2695407,44.7028345]],[[14.2744535,44.9628344],[14.2781697,44.9652594],[14.284503,44.9680039],[14.291469,44.969826],[14.2970578,44.9704587],[14.291469,44.969826],[14.284503,44.9680039],[14.2781697,44.9652594],[14.2744535,44.9628344]],[[14.2745126,44.5859749],[14.2785205,44.5861511],[14.2816587,44.5867581],[14.2785205,44.5861511],[14.2745126,44.5859749]],[[14.2820925,45.188333],[14.2820925,45.188333],[14.2820925,45.188333],[14.2822087,45.1884337],[14.2822182,45.1884419],[14.2849624,45.1908196],[14.2901854,45.1937864],[14.2849624,45.1908196],[14.2822182,45.1884419],[14.2820925,45.188333],[14.2820925,45.188333],[14.2820925,45.188333]],[[14.291864,44.589722],[14.2928048,44.5900612],[14.2966037,44.5922145],[14.2928048,44.5900612],[14.291864,44.589722]],[[14.2955536,45.1959136],[14.2983173,45.1969],[14.2983173,45.1969],[14.2955536,45.1959136]],[[14.2990048,44.6513479],[14.3028134,44.6546209],[14.2990048,44.6513479],[14.3075582,44.6242074],[14.2990048,44.6513479]],[[14.2998197,44.713268],[14.3007061,44.7099439],[14.3065266,44.695711],[14.3065266,44.695711],[14.3007061,44.7099439],[14.2998197,44.713268]],[[14.300035,44.5945075],[14.3037497,44.59768],[14.3059482,44.6006044],[14.3037497,44.59768],[14.300035,44.5945075]],[[14.3013737,44.9705895],[14.3062262,44.9704634],[14.3092517,44.9699575],[14.3062262,44.9704634],[14.3013737,44.9705895]],[[14.3019619,44.7272612],[14.3035283,44.729994],[14.305434,44.7320686],[14.3035283,44.729994],[14.3019619,44.7272612]],[[14.3029008,44.6981804],[14.3029008,44.6981804],[14.3032656,44.697932],[14.3029008,44.6981804]],[[14.3095209,44.6173765],[14.3102174,44.6132244],[14.3099522,44.6109975],[14.3102174,44.6132244],[14.3095209,44.6173765]],[[14.310628,45.1985044],[14.314029,45.1986234],[14.3572494,45.1969342],[14.3644975,45.1961533],[14.3698287,45.1948083],[14.3644975,45.1961533],[14.3572494,45.1969342],[14.314029,45.1986234],[14.310628,45.1985044]],[[14.3111701,44.662284],[14.3129711,44.6641907],[14.3142407,44.6663764],[14.3129711,44.6641907],[14.3111701,44.662284]],[[14.3173056,44.7403735],[14.3184876,44.7409598],[14.3251168,44.7430512],[14.3314891,44.7440937],[14.3251168,44.7430512],[14.3184876,44.7409598],[14.3173056,44.7403735]],[[14.3173836,44.6691401],[14.3432675,44.6056979],[14.3432675,44.6056979],[14.3173836,44.6691401]],[[14.3245845,44.5720267],[14.3247437,44.5770785],[14.3262224,44.5820201],[14.328969,44.5866781],[14.3363272,44.596466],[14.328969,44.5866781],[14.3262224,44.5820201],[14.3247437,44.5770785],[14.3245845,44.5720267],[14.32575,44.5670419],[14.328199,44.562299],[14.328199,44.562299],[14.32575,44.5670419],[14.3245845,44.5720267]],[[14.3285018,44.561939],[14.3318453,44.5579643],[14.3365609,44.5541898],[14.3387996,44.552962],[14.3365609,44.5541898],[14.3318453,44.5579643],[14.3285018,44.561939]],[[14.3335929,44.7442425],[14.3382094,44.7443568],[14.3382094,44.7443568],[14.3335929,44.7442425]],[[14.3357036,44.7505432],[14.337293,44.7457375],[14.3379968,44.7446771],[14.337293,44.7457375],[14.3357036,44.7505432]],[[14.345414,44.9567429],[14.3525306,44.9538246],[14.3528267,44.9581682],[14.3525306,44.9538246],[14.345414,44.9567429]],[[14.3503342,44.5484505],[14.355317,44.5474256],[14.3582218,44.5472316],[14.355317,44.5474256],[14.3503342,44.5484505]],[[14.3818403,45.1891786],[14.3831847,45.1883346],[14.3876308,45.1842228],[14.3876308,45.1842228],[14.3831847,45.1883346],[14.3818403,45.1891786]],[[14.3915965,45.1777541],[14.3928222,45.1746026],[14.4082037,45.1119907],[14.4082037,45.1119907],[14.3928222,45.1746026],[14.3915965,45.1777541]],[[14.4231483,45.0510199],[14.4752437,45.0174158],[14.4231483,45.0510199],[14.4231483,45.0510199]],[[14.4232531,45.0505919],[14.5022194,44.9888294],[14.5031108,44.9879769],[14.5022194,44.9888294],[14.4232531,45.0505919],[14.4232531,45.0505919]],[[14.4235096,45.1172141],[14.4274232,45.1185497],[14.4279226,45.1218422],[14.4274232,45.1185497],[14.4235096,45.1172141]],[[14.4303641,45.1326328],[14.4304034,45.1327627],[14.4322464,45.1356914],[14.4304034,45.1327627],[14.4303641,45.1326328]],[[14.4336159,45.1378677],[14.4336159,45.1378677],[14.4382502,45.1423954],[14.4402448,45.1436744],[14.4382502,45.1423954],[14.4336159,45.1378677]],[[14.4496563,45.1484452],[14.4509375,45.1489748],[14.458446,45.150744],[14.4897835,45.1556475],[14.458446,45.150744],[14.4509375,45.1489748],[14.4496563,45.1484452]],[[14.4631019,44.5938261],[14.4660707,44.5931374],[14.4739697,44.5925456],[14.5135521,44.5925455],[14.5208856,44.5930548],[14.523924,44.5937055],[14.5208856,44.5930548],[14.5135521,44.5925455],[14.4739697,44.5925456],[14.4660707,44.5931374],[14.463102,44.5938261],[14.4631019,44.5938261]],[[14.4853881,45.0110203],[14.4909193,45.0081604],[14.4932702,45.0074302],[14.4909193,45.0081604],[14.4853881,45.0110203]],[[14.4935009,44.459972],[14.4944167,44.4594876],[14.4944167,44.4594876],[14.4935009,44.459972]],[[14.494423,44.4594856],[14.5017549,44.4571208],[14.5096277,44.4559172],[14.5176781,44.4559314],[14.5314013,44.4570042],[14.5176781,44.4559314],[14.5096277,44.4559172],[14.5017549,44.4571208],[14.494423,44.4594856]],[[14.503789,45.0050611],[14.5066279,45.0046617],[14.588158,44.9995718],[14.5896229,44.9859017],[14.588158,44.9995718],[14.5066279,45.0046617],[14.503789,45.0050611]],[[14.5038158,44.9437714],[14.510949,44.9642857],[14.5112689,44.9658479],[14.510949,44.9642857],[14.5038158,44.9437714]],[[14.5067118,44.9844954],[14.50982,44.9798449],[14.5110879,44.9762793],[14.50982,44.9798449],[14.5067118,44.9844954]],[[14.5315337,44.5959206],[14.5344531,44.5970216],[14.5401739,44.6003291],[14.5517908,44.6084998],[14.5401739,44.6003291],[14.5344531,44.5970216],[14.5315337,44.5959206]],[[14.5315453,45.1345389],[14.5469631,45.2328889],[14.5495455,45.2493622],[14.596346,45.2375421],[14.5869798,45.2258271],[14.5855459,45.2240335],[14.5869798,45.2258271],[14.5469631,45.2328889],[14.5315453,45.1345389]],[[14.5407801,44.4578436],[14.5463728,44.4586742],[14.5526858,44.4605662],[14.5463728,44.4586742],[14.5407801,44.4578436]],[[14.5590079,44.5180686],[14.5608881,44.5162469],[14.5617022,44.5148388],[14.5608881,44.5162469],[14.5590079,44.5180686]],[[14.5637034,44.6532679],[14.5676566,44.6485743],[14.5678056,44.6483515],[14.5676566,44.6485743],[14.5637034,44.6532679]],[[14.5648752,44.618161],[14.5663891,44.6194495],[14.5675691,44.6209641],[14.5663891,44.6194495],[14.5648752,44.618161]],[[14.5673067,44.4704363],[14.5683163,44.4714982],[14.5711686,44.4762621],[14.5712019,44.4763727],[14.5711686,44.4762621],[14.5683163,44.4714982],[14.5673067,44.4704363]],[[14.5693339,44.4974164],[14.5715801,44.4916127],[14.571616,44.4914664],[14.5715801,44.4916127],[14.5693339,44.4974164]],[[14.5721273,44.6401774],[14.5725608,44.6389899],[14.5727375,44.6370278],[14.5725608,44.6389899],[14.5721273,44.6401774]],[[14.5964515,44.9634227],[14.5993661,44.9603278],[14.6036065,44.9573705],[14.5993661,44.9603278],[14.5964515,44.9634227]],[[14.6110155,44.953669],[14.6114775,44.9534579],[14.6245318,44.9487483],[14.6114775,44.9534579],[14.6110155,44.953669]],[[14.6197948,44.7968839],[14.620029,44.7942457],[14.6218821,44.7892167],[14.6227197,44.7879816],[14.6218821,44.7892167],[14.620029,44.7942457],[14.6197948,44.7968839]],[[14.6203071,44.8034443],[14.6205175,44.8045868],[14.6228416,44.809515],[14.6228416,44.809515],[14.6205175,44.8045868],[14.6203071,44.8034443]],[[14.626781,44.7828955],[14.6294398,44.7803681],[14.6547131,44.7606181],[14.6294398,44.7803681],[14.626781,44.7828955]],[[14.6397267,44.822207],[14.64348,44.8235782],[14.6505138,44.8250259],[14.657809,44.825489],[14.660468,44.8252924],[14.660468,44.8252924],[14.657809,44.825489],[14.6505138,44.8250259],[14.64348,44.8235782],[14.6397267,44.822207]],[[14.6483696,44.8489343],[14.6485714,44.8498869],[14.6483696,44.8489343],[14.6486794,44.8437755],[14.6503688,44.8387526],[14.6512551,44.8373664],[14.6503688,44.8387526],[14.6486794,44.8437755],[14.6483696,44.8489343]],[[14.6511886,44.8575142],[14.6518845,44.8589057],[14.6530265,44.8602796],[14.6518845,44.8589057],[14.6511886,44.8575142]],[[14.6615892,44.8678628],[14.6661814,44.8703615],[14.6726967,44.8726657],[14.6797127,44.874047],[14.7234605,44.879519],[14.6797127,44.874047],[14.6726967,44.8726657],[14.6661814,44.8703615],[14.6615892,44.8678628]],[[14.6765032,44.7441844],[14.6788907,44.7426862],[14.682002,44.741468],[14.6788907,44.7426862],[14.6765032,44.7441844]],[[14.6954621,44.7058434],[14.695585,44.7077583],[14.696379,44.7101024],[14.695585,44.7077583],[14.6954621,44.7058434]],[[14.6961583,44.6982323],[14.6962994,44.6975452],[14.6964875,44.6971618],[14.6962994,44.6975452],[14.6961583,44.6982323]],[[14.6987679,44.7150816],[14.700268,44.7174252],[14.7044524,44.721611],[14.7096778,44.7251567],[14.7157547,44.7279336],[14.7185216,44.7287203],[14.7157547,44.7279336],[14.7096778,44.7251567],[14.7044524,44.721611],[14.700268,44.7174252],[14.6987679,44.7150816]],[[14.7011493,44.6896695],[14.7023059,44.6882532],[14.8387159,44.5523637],[14.7023059,44.6882532],[14.7011493,44.6896695]],[[14.7029478,45.1082639],[14.7029478,45.1082639],[14.7497141,45.0999011],[14.7520365,45.0993157],[14.7497141,45.0999011],[14.7029478,45.1082639]],[[14.7081347,44.9188761],[14.7129718,44.9175847],[14.7170189,44.9171873],[14.7129718,44.9175847],[14.7081347,44.9188761]],[[14.7099381,44.2629185],[14.7107202,44.2666366],[14.7099381,44.2629185],[14.7103012,44.2575845],[14.7117645,44.2534262],[14.7103012,44.2575845],[14.7099381,44.2629185]],[[14.7153332,44.2475855],[14.7198042,44.2433122],[14.7253614,44.2397531],[14.731787,44.2370477],[14.7388294,44.2353018],[14.746213,44.2345838],[14.7495695,44.2347364],[14.746213,44.2345838],[14.7388294,44.2353018],[14.731787,44.2370477],[14.7253614,44.2397531],[14.7198042,44.2433122],[14.7153332,44.2475855],[14.7153332,44.2475855]],[[14.7171498,44.3623731],[14.7172167,44.3672766],[14.7243851,44.4179361],[14.7258924,44.4230953],[14.7243851,44.4179361],[14.7172167,44.3672766],[14.7171498,44.3623731],[14.718325,44.3575416],[14.7198814,44.3545313],[14.718325,44.3575416],[14.7171498,44.3623731]],[[14.7213719,44.7347699],[14.7481675,44.7314183],[14.7543763,44.7310911],[14.8219568,44.6845805],[14.8219568,44.6845805],[14.7543763,44.7310911],[14.7481675,44.7314183],[14.7213719,44.7347699]],[[14.7241416,44.3488025],[14.7242057,44.3487254],[14.7242395,44.3486978],[14.7242057,44.3487254],[14.7241416,44.3488025]],[[14.7260012,44.4234675],[14.7260012,44.4234675],[14.7268005,44.4247611],[14.7260012,44.4234675]],[[14.726234,44.3058114],[14.7281243,44.3080578],[14.7296362,44.3092483],[14.7281243,44.3080578],[14.726234,44.3058114]],[[14.7269081,44.9170961],[14.7297904,44.9172699],[14.7657752,44.9223333],[14.7724732,44.9237373],[14.7786964,44.9259843],[14.7842355,44.9289987],[14.7850425,44.9296349],[14.7842355,44.9289987],[14.7786964,44.9259843],[14.7724732,44.9237373],[14.7657752,44.9223333],[14.7297904,44.9172699],[14.7269081,44.9170961]],[[14.7294066,44.7307888],[14.7295586,44.7308096],[14.7295586,44.7308096],[14.7294066,44.7307888]],[[14.7296749,44.7308095],[14.7367847,44.7308044],[14.7426995,44.7299881],[14.7367847,44.7308044],[14.7296749,44.7308095]],[[14.7410511,44.881206],[14.7410828,44.8812077],[14.7484011,44.8805993],[14.7554171,44.879002],[14.7618674,44.8764758],[14.7675099,44.8731155],[14.7721331,44.8690472],[14.7728636,44.8680626],[14.7721331,44.8690472],[14.7675099,44.8731155],[14.7618674,44.8764758],[14.7554171,44.879002],[14.7484011,44.8805993],[14.7410828,44.8812077],[14.7410511,44.881206]],[[14.7458786,44.4395653],[14.7465383,44.4398383],[14.7465383,44.4398383],[14.7458786,44.4395653]],[[14.7459271,44.7292397],[14.7505834,44.7279083],[14.7521123,44.7272068],[14.7505834,44.7279083],[14.7459271,44.7292397]],[[14.7540597,44.4415897],[14.7540597,44.4415897],[14.7550784,44.4416665],[14.7540597,44.4415897]],[[14.7593009,45.0970273],[14.7627176,45.0956074],[14.7648014,45.0943142],[14.7627176,45.0956074],[14.7593009,45.0970273]],[[14.7614643,44.7218483],[14.7618742,44.7215693],[14.7618742,44.7215693],[14.7614643,44.7218483]],[[14.7654586,44.3183281],[14.7673924,44.3181261],[14.7743273,44.3163675],[14.7806528,44.313678],[14.7843901,44.3112765],[14.7806528,44.313678],[14.7743273,44.3163675],[14.7673924,44.3181261],[14.7654586,44.3183281]],[[14.7689926,44.4421829],[14.7943426,44.442183],[14.7973561,44.4419801],[14.7943426,44.442183],[14.7689926,44.4421829]],[[14.7725591,45.0882266],[14.7725591,45.0882266],[14.7758364,45.0836913],[14.7775792,45.0794576],[14.7758364,45.0836913],[14.7725591,45.0882266]],[[14.7778491,45.0788019],[14.7778491,45.0788019],[14.7785258,45.0737329],[14.7785147,45.0567343],[14.8276244,45.0241986],[14.8287572,45.0232537],[14.8276244,45.0241986],[14.7785147,45.0567343],[14.7785258,45.0737329],[14.7778491,45.0788019]],[[14.7813462,44.3198649],[14.7876214,44.3175295],[14.7914977,44.3167388],[14.7876214,44.3175295],[14.7813462,44.3198649]],[[14.790651,44.9347048],[14.7925457,44.9369021],[14.7931376,44.9380005],[14.7925457,44.9369021],[14.790651,44.9347048]],[[14.7964224,44.947415],[14.7968145,44.950526],[14.7986084,44.9505257],[14.7968145,44.950526],[14.7964224,44.947415]],[[14.7986664,44.3158355],[14.8025108,44.3156267],[14.8092842,44.3162417],[14.8025108,44.3156267],[14.7986664,44.3158355]],[[14.8003857,44.29901],[14.8185262,44.2848239],[14.8229373,44.2806111],[14.8261216,44.2758651],[14.8279581,44.2707668],[14.8283771,44.2655104],[14.8273631,44.2602961],[14.8250167,44.25545],[14.8273631,44.2602961],[14.8283771,44.2655104],[14.8279581,44.2707668],[14.8261216,44.2758651],[14.8229373,44.2806111],[14.8185262,44.2848239],[14.8003857,44.29901]],[[14.8089672,44.2431029],[14.8105284,44.2436503],[14.8163741,44.2468381],[14.8163741,44.2468381],[14.8105284,44.2436503],[14.8089672,44.2431029]],[[14.8107662,44.1763377],[14.8113494,44.1795544],[14.8107662,44.1763377],[14.8112192,44.1711718],[14.8113115,44.1709176],[14.8112192,44.1711718],[14.8107662,44.1763377]],[[14.8107721,44.4393662],[14.8144868,44.4380214],[14.817076,44.4365959],[14.8144868,44.4380214],[14.8107721,44.4393662]],[[14.8120566,44.1822454],[14.8139767,44.1863806],[14.8175227,44.1908879],[14.8210698,44.1938717],[14.8175227,44.1908879],[14.8139767,44.1863806],[14.8120566,44.1822454]],[[14.8175611,44.1601392],[14.8204601,44.1573397],[14.9729491,44.0359641],[15.0620582,43.930901],[14.9729491,44.0359641],[14.8204601,44.1573397],[14.8175611,44.1601392]],[[14.8235908,44.1956179],[14.8278491,44.1980499],[14.8320521,44.19962],[14.8278491,44.1980499],[14.8235908,44.1956179]],[[14.8253449,44.6826779],[14.8279794,44.6811985],[14.8348344,44.6787473],[14.8422417,44.677327],[14.8498986,44.6769957],[14.8574922,44.6777669],[14.8608976,44.6786359],[14.8574922,44.6777669],[14.8498986,44.6769957],[14.8422417,44.677327],[14.8348344,44.6787473],[14.8279794,44.6811985],[14.8253449,44.6826779]],[[14.8264651,44.3225269],[14.8294555,44.3244502],[14.8309833,44.3259287],[14.8294555,44.3244502],[14.8264651,44.3225269]],[[14.8268979,44.4286411],[14.828418,44.426826],[14.8306024,44.4225722],[14.828418,44.426826],[14.8268979,44.4286411]],[[14.8308535,44.4220832],[14.8308535,44.4220832],[14.8311958,44.4206063],[14.8308535,44.4220832]],[[14.8382977,44.3371426],[14.8389297,44.3390506],[14.8390101,44.3409223],[14.8389297,44.3390506],[14.8382977,44.3371426]],[[14.8525702,44.9845079],[14.8535332,44.9819826],[14.8537486,44.9798227],[14.8535332,44.9819826],[14.8525702,44.9845079]],[[14.8591067,44.2011459],[14.8624576,44.200432],[14.8629743,44.2002386],[14.8624576,44.200432],[14.8591067,44.2011459]],[[14.8611033,44.4887502],[14.8611202,44.4927409],[14.8611033,44.4887502],[14.8624127,44.483764],[14.8648366,44.4793497],[14.8624127,44.483764],[14.8611033,44.4887502]],[[14.8617576,44.496154],[14.8624766,44.4988028],[14.8644226,44.5022822],[14.8624766,44.4988028],[14.8617576,44.496154]],[[14.8717939,44.1963575],[14.8745006,44.1948096],[14.9238831,44.1604593],[14.8745006,44.1948096],[14.8717939,44.1963575]],[[14.8718142,44.4724307],[14.8736363,44.4710343],[14.9913464,44.3961241],[14.8736363,44.4710343],[14.8718142,44.4724307]],[[14.8730602,44.6836369],[14.8730602,44.6836369],[14.8768777,44.6861647],[14.8739671,44.6842375],[14.8739671,44.6842375],[14.8739671,44.6842375],[14.8739671,44.6842375],[14.8739671,44.6842375],[14.8768777,44.6861647],[14.8813258,44.6906101],[14.8921311,44.7041157],[14.8951029,44.708829],[14.8955416,44.7101633],[14.9532178,44.6377576],[14.9479497,44.6352869],[14.9425723,44.6314745],[14.9383709,44.6269752],[14.9363785,44.6234845],[14.9169237,44.6286161],[14.9169185,44.6286174],[14.9169185,44.6286174],[14.9169185,44.6286174],[14.8730602,44.6836369]],[[14.8837218,44.6361584],[14.8865307,44.6360522],[14.8891822,44.635562],[14.8865307,44.6360522],[14.8837218,44.6361584]],[[14.997582,44.1222896],[15.016246,44.118787],[15.0232827,44.116908],[15.0296584,44.1140615],[15.0351185,44.1103613],[15.0388141,44.1065976],[15.0351185,44.1103613],[15.0296584,44.1140615],[15.0232827,44.116908],[15.016246,44.118787],[14.997582,44.1222896]],[[15.00315,44.0521609],[15.0473647,44],[15.0473647,44],[15.00315,44.0521609]],[[15.0235694,44.1585605],[15.0236615,44.1575219],[15.0244524,44.1554278],[15.0236615,44.1575219],[15.0235694,44.1585605]],[[15.0255836,44.3744181],[15.0304705,44.3718403],[15.0367864,44.3696611],[15.0435565,44.3683549],[15.053451,44.3671362],[15.053451,44.3671362],[15.0435565,44.3683549],[15.0367864,44.3696611],[15.0304705,44.3718403],[15.0255836,44.3744181]],[[15.0290155,44.1761445],[15.0306073,44.1780499],[15.0345328,44.1811265],[15.0306073,44.1780499],[15.0290155,44.1761445]],[[15.0357054,44.1820456],[15.0357054,44.1820456],[15.036035,44.1822174],[15.0357054,44.1820456]],[[15.039551,44.1057818],[15.0424648,44.1010196],[15.065122,44.0508592],[15.1044369,44.0199136],[15.065122,44.0508592],[15.0424648,44.1010196],[15.039551,44.1057818]],[[15.04386,44.1858973],[15.0486877,44.1874732],[15.0560481,44.188686],[15.0592531,44.1887424],[15.0560481,44.188686],[15.0486877,44.1874732],[15.04386,44.1858973]],[[15.0546304,44.364707],[15.0552011,44.3635315],[15.0801903,44.3241416],[15.0552011,44.3635315],[15.0546304,44.364707]],[[15.0738068,44.267897],[15.0738583,44.2686887],[15.0743032,44.2700333],[15.0738583,44.2686887],[15.0738068,44.267897]],[[15.0743652,44.2594337],[15.0745061,44.2587148],[15.0763386,44.2548262],[15.0745061,44.2587148],[15.0743652,44.2594337]],[[15.0759937,44.1864544],[15.0780538,44.1858678],[15.0843754,44.1829028],[15.1628108,44.1373733],[15.1628108,44.1373733],[15.0843754,44.1829028],[15.0780538,44.1858678],[15.0759937,44.1864544]],[[15.076745,44.2539639],[15.0781515,44.2521693],[15.076745,44.2539639],[15.076745,44.2539639]],[[15.0772835,44.276481],[15.0783193,44.2781473],[15.082301,44.2822706],[15.0872801,44.2857947],[15.1014197,44.2940888],[15.1014197,44.2940888],[15.0872801,44.2857947],[15.082301,44.2822706],[15.0783193,44.2781473],[15.0772835,44.276481]],[[15.078931,44],[15.078931,44],[15.1435514,43.9491577],[15.078931,44]],[[15.0914854,44.0770731],[15.0941929,44.0745252],[15.0973279,44.0724455],[15.0941929,44.0745252],[15.0914854,44.0770731]],[[15.095505,43.8930447],[15.0995455,43.8904006],[15.1715347,43.8515769],[15.1748089,43.8501489],[15.1715347,43.8515769],[15.0995455,43.8904006],[15.095505,43.8930447]],[[15.1060345,44.1976564],[15.1072556,44.2027857],[15.1077117,44.2036485],[15.1072556,44.2027857],[15.1060345,44.1976564],[15.1062093,44.1924542],[15.1065447,44.1913645],[15.1062093,44.1924542],[15.1060345,44.1976564]],[[15.1096824,44.1842247],[15.1106675,44.1826005],[15.1147845,44.1783155],[15.1549783,44.1440505],[15.1147845,44.1783155],[15.1106675,44.1826005],[15.1096824,44.1842247]],[[15.114337,44.2127122],[15.1150585,44.2133896],[15.1150585,44.2133896],[15.114337,44.2127122]],[[15.1435514,44.1956899],[15.371836,44],[15.371836,44],[15.1435514,44.1956899]],[[15.1504572,44.0426447],[15.2298468,43.9983733],[15.2305672,43.9973277],[15.2701821,43.9517468],[15.2742544,43.9478797],[15.2782789,43.945223],[15.2742544,43.9478797],[15.2701821,43.9517468],[15.2305672,43.9973277],[15.2298468,43.9983733],[15.1504572,44.0426447]],[[15.1814848,43.8478764],[15.1847895,43.847016],[15.1887639,43.8465861],[15.1847895,43.847016],[15.1814848,43.8478764]],[[15.2021049,43.8469661],[15.2035044,43.8472198],[15.204069,43.8466893],[15.2035044,43.8472198],[15.2021049,43.8469661]],[[15.2250059,43.9339386],[15.2437082,43.9222391],[15.2486966,43.9184434],[15.2525751,43.9140259],[15.2529338,43.9133596],[15.2525751,43.9140259],[15.2486966,43.9184434],[15.2437082,43.9222391],[15.2250059,43.9339386]],[[15.2558489,43.9065158],[15.2563982,43.9042896],[15.2563982,43.9042896],[15.2558489,43.9065158]],[[15.2607561,43.9027252],[15.2607561,43.9027252],[15.2610922,43.9025348],[15.2607561,43.9027252]],[[15.2623526,44.011635],[15.2724587,44],[15.2724587,44],[15.2623526,44.011635]],[[15.2829861,43.7864507],[15.2864419,43.7842076],[15.29139,43.7818953],[15.2970491,43.7796835],[15.29139,43.7818953],[15.2864419,43.7842076],[15.2829861,43.7864507]],[[15.2960885,44],[15.2960885,44],[15.3847538,43.9694206],[15.2960885,44]],[[15.3806482,43.7472543],[15.3843311,43.7461263],[15.391304,43.7450537],[15.396963,43.7449776],[15.391304,43.7450537],[15.3843311,43.7461263],[15.3806482,43.7472543]],[[15.4024552,43.7454646],[15.4054545,43.7458423],[15.4117882,43.7475844],[15.4054545,43.7458423],[15.4024552,43.7454646]],[[15.4121169,43.7476748],[15.4181761,43.7503886],[15.4181761,43.7503886],[15.4121169,43.7476748],[15.4121169,43.7476748]],[[15.4187468,43.7507697],[15.4234115,43.7538849],[15.4276321,43.7580364],[15.430684,43.7626918],[15.4324557,43.7676815],[15.4328823,43.7728236],[15.4324645,43.7751072],[15.4328823,43.7728236],[15.4324557,43.7676815],[15.430684,43.7626918],[15.4276321,43.7580364],[15.4234115,43.7538849],[15.4187468,43.7507697]],[[15.4234367,43.8651595],[15.4293494,43.8625054],[15.4361179,43.8606513],[15.4432545,43.8597718],[15.450492,43.8598998],[15.4544568,43.8605341],[15.450492,43.8598998],[15.4432545,43.8597718],[15.4361179,43.8606513],[15.4293494,43.8625054],[15.4234367,43.8651595]],[[15.4256903,43.787718],[15.4261796,43.7873029],[15.4270047,43.7862472],[15.4261796,43.7873029],[15.4256903,43.787718]],[[15.4681642,43.8651057],[15.4701446,43.8660951],[15.4710879,43.8667951],[15.4701446,43.8660951],[15.4681642,43.8651057]],[[15.4785973,43.8736111],[15.4791424,43.8742146],[15.4818517,43.8790567],[15.4826929,43.8822165],[15.5831128,43.8336273],[15.5819659,43.8306957],[15.5813744,43.8255179],[15.5821691,43.8203542],[15.5843202,43.815396],[15.586398,43.8126264],[15.5843202,43.815396],[15.5821691,43.8203542],[15.5813744,43.8255179],[15.5819659,43.8306957],[15.5831128,43.8336273],[15.4826929,43.8822165],[15.4818517,43.8790567],[15.4791424,43.8742146],[15.4785973,43.8736111]],[[15.6026,43.7993887],[15.6787249,43.7443589],[15.68378,43.7414193],[15.6787249,43.7443589],[15.6026,43.7993887]],[[15.6874416,43.7398261],[15.6923059,43.7380839],[15.7001755,43.7366763],[15.7619423,43.7306437],[15.7001755,43.7366763],[15.6923059,43.7380839],[15.6874416,43.7398261]],[[15.8485582,43.6810621],[15.8505976,43.6799268],[15.8553607,43.6781068],[15.8505976,43.6799268],[15.8485582,43.6810621]],[[15.8615952,43.6765103],[15.8622173,43.6763631],[15.8643208,43.6760049],[15.8622173,43.6763631],[15.8615952,43.6765103]],[[15.8659307,43.6472267],[15.8662272,43.6517367],[15.8659307,43.6472267],[15.8663641,43.6451408],[15.8659307,43.6472267]],[[15.8719062,43.6341145],[15.8732877,43.6324568],[15.8732877,43.6324568],[15.8719062,43.6341145]],[[15.8746199,43.6313997],[15.8782236,43.6285401],[15.8790254,43.6281129],[15.8782236,43.6285401],[15.8746199,43.6313997]],[[15.8802956,43.6274362],[15.8802956,43.6274362],[15.8803016,43.6175831],[15.8802956,43.6274362]],[[15.8828882,43.6711035],[15.8857734,43.6723516],[15.8857735,43.6723516],[15.8828882,43.6711035]],[[15.8868598,43.5574849],[15.887825,43.5565656],[15.88783,43.5564862],[15.887825,43.5565656],[15.8868598,43.5574849]],[[15.8890187,43.5519516],[15.8895388,43.5503753],[15.8914013,43.5473844],[15.8895388,43.5503753],[15.8890187,43.5519516]],[[15.9014149,43.5381007],[15.9015419,43.5380118],[15.9026249,43.5374985],[15.9015419,43.5380118],[15.9014149,43.5381007]],[[15.9115675,43.5339888],[15.9139361,43.5332834],[15.9227187,43.5313467],[15.9139361,43.5332834],[15.9115675,43.5339888]],[[15.9235759,43.5037881],[15.923968,43.5062871],[15.9235759,43.5037881],[15.9241813,43.4985151],[15.9261933,43.4934291],[15.9295342,43.4887258],[15.9308874,43.4874922],[15.9295342,43.4887258],[15.9261933,43.4934291],[15.9241813,43.4985151],[15.9235759,43.5037881]],[[15.9257142,43.5120217],[15.9266244,43.5140846],[15.9352652,43.52858],[15.9352652,43.52858],[15.9266244,43.5140846],[15.9257142,43.5120217]],[[15.9412259,43.4805318],[15.9460196,43.4786049],[15.9529638,43.4769937],[16.1041031,43.4533636],[16.112176,43.452754],[16.1202387,43.4534311],[16.1547769,43.4591487],[16.1202387,43.4534311],[16.112176,43.452754],[16.1041031,43.4533636],[15.9529638,43.4769937],[15.9460196,43.4786049],[15.9412259,43.4805318]],[[16.0106389,43.0603793],[16.0106516,43.060342],[16.0106389,43.0603793],[16.0106389,43.0603793]],[[16.0108254,43.0683996],[16.0112655,43.0706733],[16.0135792,43.0755654],[16.0163117,43.0790127],[16.0135792,43.0755654],[16.0112655,43.0706733],[16.0108254,43.0683996]],[[16.0130223,43.0542989],[16.0153385,43.0506643],[16.0176666,43.0483206],[16.0153385,43.0506643],[16.0130223,43.0542989]],[[16.0248035,43.0194036],[16.0261553,43.0246591],[16.0278964,43.0278053],[16.0261553,43.0246591],[16.0248035,43.0194036],[16.024896,43.0140564],[16.024896,43.0140564],[16.0248035,43.0194036]],[[16.0251546,43.0131741],[16.0264287,43.0088275],[16.0279609,43.006247],[16.0264287,43.0088275],[16.0251546,43.0131741]],[[16.0255031,43.0425672],[16.0306815,43.040201],[16.0377411,43.037627],[16.037741,43.037627],[16.0306815,43.040201],[16.0255031,43.0425672]],[[16.029794,43.0306088],[16.0329258,43.0340804],[16.0343572,43.0351346],[16.0329258,43.0340804],[16.029794,43.0306088]],[[16.0324138,43.0006942],[16.0335186,42.9995335],[16.0335186,42.9995335],[16.0324138,43.0006942]],[[16.0419629,42.9943629],[16.0449685,42.9929669],[16.0480154,42.9921095],[16.0449685,42.9929669],[16.0419629,42.9943629]],[[16.0720285,42.986979],[16.0769818,42.9859833],[16.0789687,42.9857137],[16.0769818,42.9859833],[16.0720285,42.986979]],[[16.087975,42.9851004],[16.0893907,42.9850863],[16.0955717,42.9857986],[16.2179244,43.0077409],[16.2247328,43.009489],[16.2290142,43.0113382],[16.2247328,43.009489],[16.2179244,43.0077409],[16.0955717,42.9857986],[16.0893907,42.9850863],[16.087975,42.9851004]],[[16.1324104,43.1147956],[16.1367091,43.114509],[16.1799182,43.1086249],[16.1367091,43.114509],[16.1324104,43.1147956]],[[16.1710521,43.4218303],[16.1729663,43.42398],[16.1781778,43.4278445],[16.1843465,43.4308757],[16.1912243,43.4329517],[16.1954603,43.4335527],[16.1912243,43.4329517],[16.1843465,43.4308757],[16.1781778,43.4278445],[16.1729663,43.42398],[16.1710521,43.4218303]],[[16.1715961,43.3763065],[16.1735576,43.3732014],[16.1767312,43.3700477],[16.1735576,43.3732014],[16.1715961,43.3763065]],[[16.1867166,43.4648465],[16.1883928,43.4652537],[16.1930007,43.4671743],[16.1966342,43.4655567],[16.203712,43.4636969],[16.2077015,43.4632755],[16.203712,43.4636969],[16.1966342,43.4655567],[16.1930007,43.4671743],[16.1883928,43.4652537],[16.1867166,43.4648465]],[[16.2345564,43.0145321],[16.2363269,43.0156891],[16.2368535,43.0162003],[16.2363269,43.0156891],[16.2345564,43.0145321]],[[16.2592434,43.0421549],[16.273082,43.0587327],[16.2761915,43.0634195],[16.2767156,43.0648701],[16.2761915,43.0634195],[16.273082,43.0587327],[16.2592434,43.0421549]],[[16.2615492,43.0954743],[16.2615492,43.0954743],[16.2671453,43.0922456],[16.2688234,43.0908161],[16.2671453,43.0922456],[16.2615492,43.0954743]],[[16.2748494,43.0843425],[16.2753015,43.0837595],[16.2775578,43.0788187],[16.2775578,43.0788187],[16.2753015,43.0837595],[16.2748494,43.0843425]],[[16.2777302,43.4390486],[16.2811897,43.4390408],[16.2880817,43.4380651],[16.2912645,43.4371367],[16.2880817,43.4380651],[16.2811897,43.4390408],[16.2777302,43.4390486]],[[16.2996807,43.4337914],[16.3005038,43.4334072],[16.3204651,43.4219984],[16.3005038,43.4334072],[16.2996807,43.4337914]],[[16.334365,43.1968558],[16.3344535,43.1994411],[16.3353091,43.2021476],[16.3344535,43.1994411],[16.334365,43.1968558]],[[16.3355151,43.1889169],[16.3355755,43.1886699],[16.3383236,43.1836248],[16.3394446,43.182376],[16.3383236,43.1836248],[16.3355755,43.1886699],[16.3355151,43.1889169]],[[16.3413721,43.2118253],[16.3436031,43.2140573],[16.3464949,43.2159799],[16.3436031,43.2140573],[16.3413721,43.2118253]],[[16.3465918,43.1759998],[16.3476411,43.1752279],[16.353833,43.1722159],[16.3607258,43.1701686],[16.6810067,43.1009657],[16.6916727,43.0998412],[16.7099562,43.0998412],[16.709956,43.0998421],[16.7099544,43.0998487],[16.7031901,43.1268205],[16.7099544,43.0998487],[16.709956,43.0998421],[16.7310529,43.0157199],[16.7310556,43.015709],[16.73876,42.9849885],[16.7310556,43.015709],[16.731053,43.0157195],[16.7250997,43.0168024],[16.7166236,43.0168857],[16.6730524,43.0136159],[16.6330409,43.0106132],[16.6373282,43.0122567],[16.6324215,43.0521687],[16.6395461,43.1033435],[16.6420387,43.1093855],[16.3607258,43.1701686],[16.353833,43.1722159],[16.3476411,43.1752279],[16.3465918,43.1759998]],[[16.3499153,43.3110165],[16.3528018,43.3110162],[16.3591912,43.3118385],[16.3787494,43.315663],[16.3787494,43.315663],[16.3591912,43.3118385],[16.3528018,43.3110162],[16.3499153,43.3110165]],[[16.3729247,43.4579746],[16.3766307,43.4581128],[16.3803205,43.4587795],[16.3766307,43.4581128],[16.3729247,43.4579746]],[[16.37921,43.3152231],[16.3800355,43.3144348],[16.3855424,43.3109091],[16.4791273,43.2619576],[16.4827657,43.2603991],[16.4791273,43.2619576],[16.3855424,43.3109091],[16.3800355,43.3144348],[16.37921,43.3152231]],[[16.3881911,43.3912127],[16.3881911,43.3912127],[16.3895239,43.3860758],[16.3921943,43.3812221],[16.3924585,43.3808509],[16.3924585,43.3808509],[16.3921943,43.3812221],[16.3895239,43.3860758],[16.3881911,43.3912127]],[[16.388199,43.391961],[16.3882461,43.3964401],[16.3896873,43.4015616],[16.3910364,43.4039077],[16.3896873,43.4015616],[16.3882461,43.3964401],[16.388199,43.391961]],[[16.3911746,43.4621565],[16.395825,43.4646129],[16.4006936,43.4684128],[16.4044706,43.4728189],[16.4070161,43.4776683],[16.4082356,43.4827817],[16.4082247,43.4831557],[16.5125344,43.4831548],[16.5755618,43.4451479],[16.5125344,43.4831548],[16.4082247,43.4831557],[16.4082356,43.4827817],[16.4070161,43.4776683],[16.4044706,43.4728189],[16.4006936,43.4684128],[16.395825,43.4646129],[16.3911746,43.4621565]],[[16.3943315,43.4084154],[16.3964629,43.410729],[16.3990158,43.412589],[16.3964629,43.410729],[16.3943315,43.4084154]],[[16.4065155,43.4168632],[16.4075115,43.4173505],[16.4093597,43.4179159],[16.4075115,43.4173505],[16.4065155,43.4168632]],[[16.416083,43.4196712],[16.4211889,43.4204402],[16.4427985,43.4221295],[16.4506261,43.4221377],[16.6919329,43.4035552],[16.6957947,43.4030402],[16.6919329,43.4035552],[16.4506261,43.4221377],[16.4427985,43.4221295],[16.4211889,43.4204402],[16.416083,43.4196712]],[[16.4940228,43.2497269],[16.4961094,43.2511635],[16.4993279,43.2526331],[16.4961094,43.2511635],[16.4940228,43.2497269]],[[16.5044034,43.2566168],[16.5119779,43.2562181],[16.5119776,43.2562181],[16.5044034,43.2566168]],[[16.5048431,43.2546909],[16.5091043,43.2558687],[16.5099185,43.2559677],[16.5091043,43.2558687],[16.5048431,43.2546909]],[[16.5461918,43.2544105],[16.7147927,43.2452859],[16.5461928,43.2544104],[16.5461918,43.2544105]],[[16.6047393,43.4277766],[16.6101998,43.42519],[16.618272,43.4230737],[16.7832252,43.394751],[16.618272,43.4230737],[16.6101998,43.42519],[16.6047393,43.4277766]],[[16.6054809,43.0030839],[16.6065279,43.0038771],[16.6085004,43.0048703],[16.6065279,43.0038771],[16.6054809,43.0030839]],[[16.6153795,43.0077998],[16.6193698,43.0090436],[16.6255573,43.0099742],[16.6193698,43.0090436],[16.6153795,43.0077998]],[[16.6708798,43.2418144],[16.6721353,43.2415857],[16.6795668,43.2388298],[16.6859625,43.2349318],[16.7041867,43.2209835],[16.6859625,43.2349318],[16.6795668,43.2388298],[16.6721353,43.2415857],[16.6708798,43.2418144]],[[16.7115671,43.2153347],[16.7367856,43.2382887],[16.7454177,43.2436285],[16.7740612,43.2420783],[16.8111636,43.2400704],[16.8180518,43.2401578],[16.8247988,43.241173],[16.8311713,43.2430809],[16.8369491,43.2458156],[16.9161395,43.2913917],[16.9211667,43.2948852],[16.9252103,43.2990003],[16.9281278,43.3035925],[16.9298166,43.3085002],[16.9302169,43.313551],[16.9301525,43.3139093],[16.9301267,43.3140527],[16.9377899,43.3147759],[16.9254401,43.3256064],[16.92544,43.3256065],[17.0446661,43.221048],[17.0488245,43.21794],[17.0536127,43.2153582],[17.1866329,43.1549222],[16.8707367,43.1956119],[16.8625254,43.1959806],[16.7426426,43.1915502],[16.7284785,43.2023911],[16.7115671,43.2153347]],[[16.842312,42.9706577],[16.8441257,42.9633798],[16.8441269,42.9633751],[16.8441257,42.9633798],[16.842312,42.9706577],[16.842312,42.9706577]],[[16.8431548,43.357571],[16.9078602,43.3373364],[16.9139587,43.3349051],[16.9150579,43.3342462],[16.9139587,43.3349051],[16.9078602,43.3373364],[16.8431548,43.357571]],[[16.8617489,43.3812683],[16.8617489,43.3812683],[16.9166668,43.3332817],[16.9166667,43.3332818],[16.8617489,43.3812683]],[[18.502385,42.4564553],[18.5072051,42.4559278],[18.5072052,42.4559278],[18.5072051,42.4559278],[18.5072051,42.4559278],[18.5072052,42.4559278],[18.5081652,42.4546321],[18.5045279,42.4545365],[18.5033922,42.4545066],[18.502385,42.4564553]],[[18.6329223,42.3728807],[18.6493931,42.3486348],[18.6641197,42.3527001],[18.748999,42.2560343],[18.7535521,42.2518286],[18.7591437,42.2483765],[18.7655505,42.2458159],[18.772517,42.2442487],[18.7797654,42.2437375],[18.7851393,42.2441569],[18.7797654,42.2437375],[18.7763952,42.2439752],[18.739049,42.2166563],[18.7194553,42.2454993],[18.6329223,42.3728807]],[[18.7890889,42.244788],[18.7939522,42.2459216],[18.800325,42.2485298],[18.8211312,42.2591765],[18.800325,42.2485298],[18.7939522,42.2459216],[18.7890889,42.244788]],[[18.8304269,42.2626542],[18.8594004,42.2597945],[18.8778831,42.2140221],[18.8808761,42.2087334],[18.8833329,42.2061292],[18.8808761,42.2087334],[18.8778831,42.2140221],[18.8594004,42.2597945],[18.8304269,42.2626542]],[[18.8962412,42.1947319],[18.8979376,42.1932884],[18.8979376,42.1932884],[18.8962412,42.1947319]],[[19.5906261,39.7492789],[19.5913985,39.7540211],[19.5924591,39.7564306],[19.5913985,39.7540211],[19.5906261,39.7492789]],[[19.6417733,39.8106456],[19.6446174,39.8131345],[19.6495558,39.8161296],[19.6446174,39.8131345],[19.6417733,39.8106456]],[[19.6458038,39.6738185],[19.6464434,39.6716988],[19.6479907,39.6691209],[19.6464434,39.6716988],[19.6458038,39.6738185]],[[19.6574813,39.8189955],[19.6613459,39.819928],[19.6694286,39.821266],[19.6613459,39.819928],[19.6574813,39.8189955]],[[19.6590463,39.6585952],[19.665243,39.6558351],[19.6701625,39.65458],[19.665243,39.6558351],[19.6590463,39.6585952],[19.6590463,39.6585952]],[[19.6844417,39.651987],[19.6937437,39.6504013],[19.7156037,39.6094168],[19.717479,39.6066199],[19.7156037,39.6094168],[19.6937437,39.6504013],[19.6844417,39.651987]],[[19.7224091,39.6012845],[19.7265759,39.5983201],[19.7972483,39.5561453],[19.8443705,39.444172],[19.8469728,39.4395199],[19.8506552,39.4353252],[19.8510832,39.4349936],[19.8506552,39.4353252],[19.8469728,39.4395199],[19.8443705,39.444172],[19.7972483,39.5561453],[19.7265759,39.5983201],[19.7224091,39.6012845]],[[19.7876468,39.841401],[19.7876468,39.841401],[19.7880363,39.8409007],[19.7880363,39.8409007],[19.7896953,39.8387696],[19.7896953,39.8387696],[19.7876468,39.841401]],[[19.7880363,39.8409007],[19.8450163,39.8503334],[19.8524054,39.850933],[19.8597942,39.850326],[19.8668519,39.8485397],[19.9302623,39.8265062],[19.8668519,39.8485397],[19.8597942,39.850326],[19.8524054,39.850933],[19.8450163,39.8503334],[19.7880363,39.8409007],[19.7880363,39.8409007]],[[19.7912776,39.8367371],[19.7923589,39.8353481],[19.7912776,39.8367371],[19.7912776,39.8367371]],[[19.8588725,39.4298453],[19.8607071,39.4288779],[19.8636976,39.427871],[19.8607071,39.4288779],[19.8588725,39.4298453]],[[19.8758547,39.4254573],[19.8758547,39.4254573],[19.8768248,39.4223385],[19.8758547,39.4254573]],[[19.8770575,39.4215903],[19.8779809,39.4200791],[19.8770575,39.4215903],[19.8770575,39.4215903]],[[19.8804561,39.4162387],[19.8844205,39.4121774],[19.8898024,39.4085339],[19.8960316,39.4058136],[20.0168762,39.3648808],[19.8960316,39.4058136],[19.8898024,39.4085339],[19.8844205,39.4121774],[19.8804561,39.4162387]],[[19.8943969,39.6684613],[19.8945414,39.6658937],[19.9295165,39.6537597],[19.8945414,39.6658937],[19.8943969,39.6684613]],[[19.9351994,39.7412231],[19.9490401,39.7882897],[19.9478607,39.790796],[19.9495995,39.7901918],[19.9490401,39.7882897],[19.9351994,39.7412231]],[[19.9418074,39.5794387],[19.9463905,39.5817681],[19.9500736,39.5845454],[19.9463905,39.5817681],[19.9418074,39.5794387],[19.9418074,39.5794387]],[[19.9514887,39.5857271],[19.954974,39.5896128],[19.9576604,39.5943332],[19.9576604,39.5943332],[19.954974,39.5896128],[19.9514887,39.5857271]],[[19.9560381,39.6406158],[19.958553,39.6378841],[19.9599853,39.6353077],[19.958553,39.6378841],[19.9560381,39.6406158]],[[19.9578455,39.5206423],[19.9651974,39.4936901],[20.0466279,39.4737151],[19.9651974,39.4936901],[19.9578455,39.5206423]],[[19.9580046,39.5955095],[19.959132,39.5993617],[19.9611571,39.6116722],[19.959132,39.5993617],[19.9580046,39.5955095]],[[19.9624799,39.628649],[19.9628909,39.6270234],[19.9628398,39.6250514],[19.9628909,39.6270234],[19.9624799,39.628649]],[[20.0815747,39.4368507],[20.0936009,39.433902],[20.1188012,39.378179],[20.1134299,39.3731402],[20.0815747,39.4368507]],[[20.0920026,39.4625847],[20.0921588,39.4625596],[20.1041892,39.4596098],[20.1101418,39.4576651],[20.1155275,39.4549063],[20.1201615,39.4514281],[20.1238854,39.4473497],[20.1265715,39.4428107],[20.1517485,39.3870801],[20.1517485,39.3870801],[20.1533984,39.3817079],[20.153598,39.376188],[20.1523392,39.3707518],[20.1496752,39.365627],[20.1457178,39.3610285],[20.1404537,39.356092],[20.1403575,39.3559795],[20.1313277,39.3475118],[20.1267859,39.3439762],[20.1214801,39.3411475],[20.1167662,39.3395263],[20.1214801,39.3411475],[20.1267859,39.3439762],[20.1313277,39.3475118],[20.1403575,39.3559795],[20.1444151,39.3607285],[20.1470927,39.3660307],[20.1482706,39.3716499],[20.1478959,39.3773357],[20.145985,39.3828348],[20.1141559,39.446554],[20.1113982,39.4508753],[20.1076886,39.4547494],[20.1031455,39.4580525],[20.0979138,39.4606793],[20.0921605,39.4625459],[20.0921019,39.4625603],[20.0920026,39.4625847]],[[20.0955519,39.3386509],[20.0964953,39.3384078],[20.0967126,39.3383847],[20.0964953,39.3384078],[20.0955519,39.3386509]],[[20.1021204,39.2116681],[20.1057045,39.2437524],[20.1065272,39.2471268],[20.1057045,39.2437524],[20.1021204,39.2116681],[20.10214,39.2093574],[20.1021204,39.2116681]],[[20.1028088,39.2040965],[20.1033956,39.20176],[20.1047499,39.1991159],[20.1033956,39.20176],[20.1028088,39.2040965]],[[20.1061086,39.3378493],[20.1093206,39.3379694],[20.1152182,39.3390536],[20.1093206,39.3379694],[20.1061086,39.3378493]],[[20.109223,39.192883],[20.1114421,39.1910327],[20.109223,39.192883],[20.109223,39.192883]],[[20.1136169,39.1892194],[20.1148656,39.1885042],[20.1136169,39.1892194],[20.1136169,39.1892194]],[[20.1193745,39.2628227],[20.1242542,39.2653078],[20.1307232,39.2673153],[20.1375802,39.268285],[20.1400035,39.2682478],[20.1375802,39.268285],[20.1307232,39.2673153],[20.1242542,39.2653078],[20.1193745,39.2628227]],[[20.1278614,39.1849186],[20.1324683,39.1788377],[20.4125436,38.8789273],[20.4188134,38.8734528],[20.4546081,38.8478932],[20.4188134,38.8734528],[20.4125436,38.8789273],[20.1324683,39.1788377],[20.1312907,39.1803921],[20.1312907,39.1803921],[20.1278614,39.1849186]],[[20.1522924,39.2666736],[20.1577186,39.2647943],[20.1631254,39.2617993],[20.1577186,39.2647943],[20.1522924,39.2666736]],[[20.1633893,39.2616531],[20.1633893,39.2616531],[20.1681388,39.2577011],[20.1832859,39.2422314],[20.1681388,39.2577011],[20.1633893,39.2616531]],[[20.1950723,39.230194],[20.2015073,39.2264215],[20.2015073,39.2264215],[20.1950724,39.2301939],[20.1950723,39.230194]],[[20.3113185,38.1836044],[20.3122002,38.1888381],[20.3661211,38.3695333],[20.3683925,38.374698],[20.3719462,38.3793965],[20.3748966,38.3819373],[20.3719462,38.3793965],[20.3683925,38.374698],[20.3661211,38.3695333],[20.3122002,38.1888381],[20.3113185,38.1836044],[20.3117513,38.1783348],[20.3134817,38.1732316],[20.3134817,38.1732316],[20.3117513,38.1783348],[20.3113185,38.1836044]],[[20.313578,38.1730774],[20.3164431,38.1684901],[20.3205219,38.1642922],[20.3338596,38.153035],[20.3205219,38.1642922],[20.3164431,38.1684901],[20.313578,38.1730774]],[[20.365549,38.1286084],[20.3678714,38.1275746],[20.3715782,38.1266375],[20.3678714,38.1275746],[20.365549,38.1286084]],[[20.3791953,38.3848954],[20.3822708,38.3866498],[20.3855698,38.3878227],[20.3822708,38.3866498],[20.3791953,38.3848954]],[[20.3829807,38.1254213],[20.3884304,38.1258398],[20.3929766,38.1269522],[20.3884304,38.1258398],[20.3829807,38.1254213]],[[20.3921906,38.3895405],[20.395416,38.390113],[20.4023865,38.3902198],[20.4023865,38.3902198],[20.395416,38.390113],[20.3921906,38.3895405]],[[20.413928,38.3877282],[20.4154006,38.3881763],[20.413928,38.3877282],[20.413928,38.3877282]],[[20.4221544,38.3897298],[20.426037,38.3902481],[20.4329247,38.3900704],[20.426037,38.3902481],[20.4221544,38.3897298]],[[20.4254675,38.1434061],[20.444405,38.1537676],[20.4471826,38.1556743],[20.444405,38.1537676],[20.4254675,38.1434061]],[[20.4338401,38.3899038],[20.4396862,38.3888097],[20.4443595,38.3871038],[20.4396862,38.3888097],[20.4338401,38.3899038]],[[20.449539,38.3844434],[20.4515261,38.3832905],[20.4561543,38.3792549],[20.4846782,38.3486725],[20.4561543,38.3792549],[20.4515261,38.3832905],[20.449539,38.3844434]],[[20.4863051,38.3469282],[20.494819,38.351777],[20.4947996,38.3920724],[20.4954489,38.3972955],[20.4965976,38.4002885],[20.4954489,38.3972955],[20.4947996,38.3920724],[20.494819,38.351777],[20.4863051,38.3469282],[20.4863051,38.3469282]],[[20.4910746,38.0882539],[20.4964985,38.0857149],[20.5504851,38.0654593],[20.5563651,38.0637507],[20.5625405,38.0629134],[20.5688051,38.0629754],[20.574621,38.0638834],[20.5688051,38.0629754],[20.5625405,38.0629134],[20.5563651,38.0637507],[20.5504851,38.0654593],[20.4964985,38.0857149],[20.4910746,38.0882539],[20.4910746,38.0882539]],[[20.4988727,38.4045317],[20.5005118,38.4069557],[20.5014333,38.4078442],[20.5005118,38.4069557],[20.4988727,38.4045317]],[[20.5020638,38.4738191],[20.5022429,38.4696851],[20.5084372,38.4320413],[20.5022429,38.4696851],[20.5020638,38.4738191]],[[20.5075526,38.4876761],[20.5084974,38.4889318],[20.5127788,38.4927444],[20.5164082,38.494953],[20.5127788,38.4927444],[20.5084974,38.4889318],[20.5075526,38.4876761]],[[20.5098909,38.5891036],[20.5099256,38.5888482],[20.5099256,38.5888482],[20.5098909,38.5891036]],[[20.5107632,38.4147533],[20.5112479,38.4149598],[20.5112479,38.4149598],[20.5107632,38.4147533]],[[20.5115766,38.5830501],[20.5171373,38.5635215],[20.5192993,38.5584035],[20.5192993,38.5584035],[20.5171373,38.5635215],[20.5115766,38.5830501]],[[20.5227188,38.5537227],[20.527259,38.549666],[20.5284981,38.5489264],[20.527259,38.549666],[20.5227188,38.5537227],[20.5227188,38.5537227]],[[20.5330869,38.4998238],[20.5363646,38.500067],[20.5491954,38.5000669],[20.5363646,38.500067],[20.5330869,38.4998238]],[[20.5408202,38.5436618],[20.5456128,38.5426965],[20.5524935,38.5424162],[20.559307,38.543211],[20.5657814,38.5450491],[20.5716583,38.5478573],[20.5716583,38.5478573],[20.5657814,38.5450491],[20.559307,38.543211],[20.5524935,38.5424162],[20.5456128,38.5426965],[20.5408202,38.5436618]],[[20.5741065,38.5496364],[20.5767034,38.5515235],[20.5789133,38.5539352],[20.5767034,38.5515235],[20.5741065,38.5496364]],[[20.5749493,38.0639347],[20.5752585,38.0640317],[20.5749493,38.0639347],[20.5749493,38.0639347]],[[20.5807152,38.5559015],[20.5827099,38.5586144],[20.5807152,38.5559015],[20.5807152,38.5559015]],[[20.5828877,38.49863],[20.5861824,38.4978061],[20.5902601,38.4959989],[20.5902601,38.4959989],[20.5861824,38.4978061],[20.5828877,38.49863]],[[20.5850541,37.8652416],[20.5859048,37.8712312],[20.5884201,37.8769203],[20.5924747,37.8820246],[20.6572675,37.9462061],[20.6590443,37.9476235],[20.6572675,37.9462061],[20.5924747,37.8820246],[20.5884201,37.8769203],[20.5859048,37.8712312],[20.5850541,37.8652416],[20.5850742,37.8230268],[20.5853423,37.8207224],[20.5850742,37.8230268],[20.5850541,37.8652416]],[[20.5887406,37.8111256],[20.5900741,37.8089805],[20.5937868,37.8050315],[20.7882038,37.6328404],[20.7902017,37.6313796],[20.7882038,37.6328404],[20.5937868,37.8050315],[20.5900741,37.8089805],[20.5887406,37.8111256]],[[20.5911259,38.4971904],[20.5911259,38.4971904],[20.595704,38.5012804],[20.5969705,38.5020324],[20.595704,38.5012804],[20.5911259,38.4971904]],[[20.5920952,38.0720242],[20.6177899,38.0875216],[20.7164997,38.0398113],[20.7214509,38.0379392],[20.7164997,38.0398113],[20.6177899,38.0875216],[20.5920952,38.0720242]],[[20.6285051,38.8416741],[20.6630716,38.8687034],[20.6681172,38.8719583],[20.6697568,38.8726593],[20.6681172,38.8719583],[20.6630716,38.8687034],[20.6285051,38.8416741]],[[20.6316405,38.5609698],[20.634074,38.5598911],[20.6405747,38.558222],[20.6473674,38.5575881],[20.6541852,38.5580144],[20.6607602,38.5594841],[20.6636776,38.5606635],[20.6607602,38.5594841],[20.6541852,38.5580144],[20.6473674,38.5575881],[20.6405747,38.558222],[20.634074,38.5598911],[20.6316405,38.5609698]],[[20.6362782,38.3039376],[20.657073,38.3392616],[20.6632963,38.3274697],[20.657073,38.3392616],[20.6362782,38.3039376],[20.6422585,38.2958309],[20.6422585,38.2958309],[20.6362782,38.3039376]],[[20.6605551,38.3044096],[20.6627673,38.3054468],[20.663204,38.3056096],[20.6627673,38.3054468],[20.6605551,38.3044096]],[[20.666953,38.5231904],[20.668047,38.5234063],[20.6747662,38.5236773],[20.6789815,38.5231989],[20.6747662,38.5236773],[20.668047,38.5234063],[20.666953,38.5231904]],[[20.6679586,37.9531518],[20.66846,37.9534096],[20.66846,37.9534096],[20.6679586,37.9531518]],[[20.6696402,37.9537648],[20.6752488,37.9554527],[20.6777861,37.9557579],[20.6752488,37.9554527],[20.6696402,37.9537648]],[[20.6765122,38.569349],[20.676552,38.5693862],[20.6798139,38.5740848],[20.6808638,38.5767527],[20.6798139,38.5740848],[20.676552,38.5693862],[20.6765122,38.569349]],[[20.6825067,38.5856479],[20.6825073,38.5869274],[20.6825073,38.5869274],[20.6825067,38.5856479]],[[20.6826093,38.5225945],[20.6877722,38.5211679],[20.6914057,38.5194833],[20.6877722,38.5211679],[20.6826093,38.5225945]],[[20.6847671,38.5873511],[20.7100848,38.5920978],[20.716609,38.5938764],[20.7225478,38.5966355],[20.7259824,38.5990722],[20.7225478,38.5966355],[20.716609,38.5938764],[20.7100848,38.5920978],[20.6847671,38.5873511]],[[20.6896755,38.8764483],[20.6931475,38.8762676],[20.6994912,38.8749735],[20.7054087,38.8727722],[20.7079919,38.8712898],[20.7054087,38.8727722],[20.6994912,38.8749735],[20.6931475,38.8762676],[20.6896755,38.8764483]],[[20.6960787,38.5167205],[20.6985771,38.51497],[20.7026239,38.5107622],[20.7055493,38.5060201],[20.7072418,38.5009247],[20.7076373,38.4956701],[20.7071309,38.4927889],[20.7076373,38.4956701],[20.7072418,38.5009247],[20.7055493,38.5060201],[20.7026239,38.5107622],[20.6985771,38.51497],[20.6960787,38.5167205]],[[20.698407,38.6892395],[20.72,38.7207491],[20.72,38.78],[20.7135269,38.8091287],[20.7308073,38.7821112],[20.7308073,38.7365196],[20.72,38.7207491],[20.698407,38.6892395]],[[20.70914,38.4752891],[20.7223817,38.4709867],[20.7249253,38.4699212],[20.7223817,38.4709867],[20.70914,38.4752891]],[[20.7137043,38.2886544],[20.7139851,38.2879601],[20.7147171,38.2831063],[20.7139851,38.2879601],[20.7137043,38.2886544]],[[20.7164072,38.6267621],[20.72,38.6672069],[20.72,38.705155],[20.7236072,38.7078138],[20.72,38.6672069],[20.7164072,38.6267621]],[[20.7206973,37.9513152],[20.721637,37.9511094],[20.721637,37.9511094],[20.7206973,37.9513152]],[[20.7278548,37.9485841],[20.7278548,37.9485841],[20.7332924,37.9451148],[20.7375893,37.9409748],[20.7332924,37.9451148],[20.7278548,37.9485841]],[[20.7281277,38.6007595],[20.7289749,38.6016621],[20.7347314,38.6038978],[20.7400529,38.6071013],[20.7444782,38.6110503],[20.7478396,38.6155952],[20.7500094,38.6205638],[20.750905,38.6257676],[20.7515365,38.6393993],[20.7380074,38.6520908],[20.7522702,38.655239],[20.7522702,38.655239],[20.799208,38.6655994],[20.7522702,38.655239],[20.7545363,38.7041587],[20.7541131,38.7094518],[20.7529716,38.7128099],[20.7541028,38.7163262],[20.754383,38.7189798],[20.7541028,38.7163262],[20.7544598,38.7197069],[20.7563034,38.7165671],[20.7578737,38.711331],[20.7580815,38.7059552],[20.7561301,38.6841238],[20.7898406,38.6915603],[20.7964181,38.6924857],[20.8031001,38.6924048],[20.8096363,38.6913207],[20.815782,38.6892739],[20.821307,38.6863412],[20.8260044,38.6826323],[20.8296987,38.6782861],[20.8322516,38.6734653],[20.8335678,38.6683504],[20.8335984,38.6631328],[20.8323425,38.6580076],[20.8298473,38.6531666],[20.8262065,38.6487908],[20.8067717,38.629744],[20.8257308,38.6119465],[20.8294518,38.6076785],[20.8320629,38.6029339],[20.8334686,38.5978867],[20.8336177,38.592722],[20.8325048,38.5876293],[20.8301711,38.5827953],[20.8267024,38.5783972],[20.8222261,38.5745962],[20.8169062,38.5715317],[20.8109379,38.5693159],[20.8045398,38.56803],[20.7979464,38.5677211],[20.7913993,38.5684005],[20.7851382,38.5700433],[20.7793926,38.5725893],[20.7743731,38.5759453],[20.7376815,38.6056647],[20.7374249,38.6055192],[20.7347314,38.6038978],[20.7342043,38.6036931],[20.7341868,38.6036832],[20.7341868,38.6036831],[20.7338591,38.6034974],[20.7315431,38.6026595],[20.7289749,38.6016621],[20.7281277,38.6007595]],[[20.7308073,38.8091284],[20.7339326,38.8173374],[20.7308073,38.8091284],[20.7308073,38.8091284]],[[20.730927,38.416369],[20.7410886,38.4358784],[20.7414698,38.4368805],[20.7410886,38.4358784],[20.730927,38.416369],[20.730927,38.416369]],[[20.7312325,38.4666287],[20.733522,38.4651588],[20.7374205,38.4614488],[20.733522,38.4651588],[20.7312325,38.4666287]],[[20.733224,38.0359751],[20.7368529,38.0358798],[20.7980305,38.0392561],[20.8027295,38.0399054],[20.7980305,38.0392561],[20.7368529,38.0358798],[20.733224,38.0359751]],[[20.7425155,38.4525323],[20.7429551,38.4514092],[20.7434733,38.4474362],[20.7429551,38.4514092],[20.7425155,38.4525323]],[[20.7436007,38.4458526],[20.7436387,38.4461686],[20.7436387,38.4461686],[20.7436007,38.4458526]],[[20.7540029,38.2948728],[20.7670615,38.2960211],[20.7698547,38.2964966],[20.7670615,38.2960211],[20.7540029,38.2948728]],[[20.7748004,38.394356],[20.7748004,38.394356],[20.7793418,38.3914939],[20.7748004,38.394356]],[[20.7806835,38.3904632],[20.7844268,38.3869555],[20.7876718,38.3822949],[20.7889591,38.3790619],[20.7876718,38.3822949],[20.7844268,38.3869555],[20.7806835,38.3904632]],[[20.7816398,38.300163],[20.7860304,38.3026389],[20.7907765,38.3066943],[20.7924624,38.3089111],[20.7907765,38.3066943],[20.7860304,38.3026389],[20.7816398,38.300163]],[[20.7833902,38.3556337],[20.7838868,38.3561119],[20.7833902,38.3556337],[20.7833902,38.3556337]],[[20.7863522,38.3593494],[20.7878552,38.3615795],[20.7886248,38.36361],[20.7878552,38.3615795],[20.7863522,38.3593494]],[[20.7912996,38.3402448],[20.795086,38.3328779],[20.7963526,38.3294335],[20.795086,38.3328779],[20.7912996,38.3402448]],[[20.7945074,38.3117284],[20.7966684,38.3166269],[20.7972395,38.3200956],[20.7966684,38.3166269],[20.7945074,38.3117284]],[[20.794565,37.6285536],[20.7987256,37.6265295],[20.8041004,37.624946],[20.7987256,37.6265295],[20.794565,37.6285536]],[[20.8147499,37.6239429],[20.8181012,37.624032],[20.8259179,37.6248468],[20.8181012,37.624032],[20.8147499,37.6239429]],[[20.8205807,38.0478845],[20.8225015,38.0494372],[20.826021,38.0538191],[20.8225015,38.0494372],[20.8205807,38.0478845]],[[20.8263024,38.0541694],[20.8287789,38.0594189],[20.8294024,38.0627252],[20.8287789,38.0594189],[20.8263024,38.0541694],[20.8263024,38.0541694]],[[20.8301704,38.1433684],[20.8306899,38.1426534],[20.8329234,38.136855],[20.8334554,38.1308122],[20.8308952,38.0843882],[20.8334554,38.1308122],[20.8329234,38.136855],[20.8306899,38.1426534],[20.8301704,38.1433684]],[[20.8666635,37.8597462],[20.8708537,37.8575939],[20.8755566,37.8540057],[20.980264,37.7569443],[20.8755566,37.8540057],[20.8708537,37.8575939],[20.8666635,37.8597462]],[[20.8985557,37.7025392],[20.8985557,37.7025392],[20.984338,37.6747837],[20.9905362,37.6733007],[20.9969752,37.6727719],[21.0034226,37.6732163],[21.0089894,37.6744701],[21.0034226,37.6732163],[20.9969752,37.6727719],[20.9905362,37.6733007],[20.984338,37.6747837],[20.8985557,37.7025392]],[[21.0096459,37.674618],[21.0101071,37.6748023],[21.0096459,37.674618],[21.0096459,37.674618]],[[21.0175422,37.6782246],[21.0205382,37.6800579],[21.0235861,37.6827966],[21.0205382,37.6800579],[21.0175422,37.6782246]],[[21.0255652,37.7144557],[21.0268559,37.7129953],[21.0294983,37.7083147],[21.0309743,37.7033243],[21.0312308,37.6982045],[21.0302589,37.69314],[21.0296586,37.6918019],[21.0302589,37.69314],[21.0312308,37.6982045],[21.0309743,37.7033243],[21.0294983,37.7083147],[21.0268559,37.7129953],[21.0255652,37.7144557]],[[22.8646083,36.3276944],[22.8648175,36.3303208],[22.864689,36.3272042],[22.8646083,36.3276944]],[[22.8650089,36.3327221],[22.8650288,36.3329723],[22.865789,36.3352727],[22.8654321,36.3341057],[22.8650089,36.3327221]],[[22.866143,36.3100644],[22.8682642,36.2859765],[22.9017644,36.2859748],[22.8682642,36.2859765],[22.866143,36.3100644]],[[22.8662222,36.3366889],[22.8665644,36.3378078],[22.8667035,36.3380396],[22.8667176,36.3380826],[22.8674644,36.339308],[22.8695865,36.3428452],[22.9048659,36.3886916],[22.9085396,36.3926098],[22.9050636,36.3889025],[22.9163963,36.4036299],[22.9204429,36.4078759],[22.9254504,36.4113942],[22.9312217,36.4140461],[22.9375295,36.415727],[22.9441249,36.4163708],[22.9507482,36.415952],[22.9571381,36.4144871],[22.9630428,36.4120339],[22.9682297,36.4086891],[22.9724944,36.4045845],[23.0391713,36.3255401],[23.0389754,36.3256945],[22.9865426,36.3878516],[22.9827579,36.391573],[22.9782141,36.3946959],[22.9730554,36.3971209],[22.967446,36.398771],[22.9615643,36.3995935],[22.9359876,36.4012989],[22.9298816,36.4012554],[22.9238902,36.4003194],[22.9182128,36.3985221],[22.9130385,36.3959234],[22.9085396,36.3926098],[22.9048659,36.3886916],[22.8695865,36.3428452],[22.8665644,36.3378078],[22.8662222,36.3366889]],[[22.8751974,36.2072463],[22.8755263,36.2035114],[22.8764703,36.1987836],[22.8766521,36.1983653],[22.8764703,36.1987836],[22.8755263,36.2035114],[22.8751974,36.2072463]],[[22.880182,36.1917709],[22.8813588,36.190092],[22.8839285,36.1875904],[22.8813588,36.190092],[22.880182,36.1917709]],[[22.898029,36.3286084],[22.9333183,36.3744454],[22.9448294,36.3893972],[22.9588859,36.3727409],[23.0132301,36.3083455],[22.9588859,36.3727409],[22.9333183,36.3744454],[22.898029,36.3286084]],[[22.9773839,36.1135272],[22.9780889,36.1132063],[22.9788156,36.1130067],[22.9780889,36.1132063],[22.9773839,36.1135272]],[[22.9918744,36.1109509],[22.996247,36.1111037],[23.0301614,36.1148469],[22.996247,36.1111037],[22.9918744,36.1109509]],[[23.0668198,36.1201998],[23.0695384,36.1211955],[23.072211,36.1227347],[23.0695384,36.1211955],[23.0668198,36.1201998]],[[23.0770054,36.1261167],[23.0791879,36.1279801],[23.0826238,36.132368],[23.0826238,36.132368],[23.0791879,36.1279801],[23.0770054,36.1261167]],[[23.1240268,36.2164413],[23.125572,36.2173478],[23.1269667,36.2185873],[23.125572,36.2173478],[23.1240268,36.2164413]],[[23.1282519,36.2550173],[23.1309277,36.2524248],[23.1330137,36.249272],[23.1309277,36.2524248],[23.1282519,36.2550173]],[[23.1349194,36.2292781],[23.1357912,36.2313494],[23.1366032,36.2366644],[23.1357912,36.2313494],[23.1349194,36.2292781]],[[23.135241,36.2445533],[23.1360673,36.2422877],[23.1360673,36.2422877],[23.135241,36.2445533]]]}}
