{"type":"Feature","properties":{"family":"rhine","name":"Duchy of Warsaw, 1807 – 1809"},"geometry":{"type":"Polygon","coordinates":[[[15.6,52.3],[15.75,52.05],[15.95,51.9],[16.075,51.85],[16.2,51.8],[16.5,51.75],[16.9,51.68],[17.075,51.615],[17.25,51.55],[17.425,51.475],[17.6,51.4],[17.85,51.25],[18.1,51.15],[18.35,50.95],[18.6,50.8],[18.8,50.65],[19.1,50.35],[19.15,50.2],[19.2,50.04],[19.3,50.3],[19.5,50.45],[19.66,50.54],[19.82,50.63],[19.88,51.09],[19.88,51.35],[19.9916667,51.5175],[19.9916667,51.5175],[20,51.53],[20.0055556,51.53],[20.22,51.53],[20.58,51.62],[20.7833333,51.6733333],[20.9866667,51.7266667],[21.19,51.78],[21.3,51.87],[21.15,52.05],[21.05,52.25],[21,52.45],[21.05,52.52],[21.45,52.6],[21.65,52.65],[21.85,52.7],[22.32,52.67],[22.49,52.535],[22.5625995,52.4773475],[22.6418398,52.4144214],[22.66,52.4],[23.15,52.35],[23.2,52.4],[23.05,52.39],[22.9,52.38],[22.75,52.4],[22.6418398,52.4144214],[22.5625995,52.4773475],[22.45,52.65],[22.35,52.95],[22.42,53.2],[22.56,53.275],[22.7,53.35],[23.05,53.6],[23.4,53.72],[23.83,53.68],[23.97,54.02],[24.01,54.21],[24.05,54.4],[23.95,54.63],[23.925,54.765],[23.9,54.9],[23.7,54.95],[23.5,55],[23.3,55.05],[23.075,55.06],[22.85,55.07],[22.85,54.85],[22.75,54.6],[22.65,54.3],[22.75,54],[22.65,53.75],[22.35,53.6],[22.125,53.525],[21.9,53.45],[21.5,53.33],[21.3333333,53.3033333],[21.1666667,53.2766667],[21,53.25],[20.6,53.2],[20.2,53.2],[20.0333333,53.2266667],[19.8666667,53.2533333],[19.7,53.28],[19.6,53.3],[19.475,53.35],[19.35,53.4],[19,53.45],[18.7,53.45],[18.45,53.42],[18.325,53.385],[18.2,53.35],[17.8,53.25],[17.4,53.25],[17.2333333,53.2333333],[17.0666667,53.2166667],[16.9,53.2],[16.5,53.12],[16.3,53.085],[16.1,53.05],[15.9,52.82],[15.75,52.6],[15.6,52.3]]]}}
