{"type":"Feature","properties":{"family":"client","name":"Kingdom of Westphalia, 1809 – 1813"},"geometry":{"type":"Polygon","coordinates":[[[8.1847826,52.046087],[8.3,52],[8.3,51.95],[8.3,51.85],[8.4,51.65],[8.6,51.5],[8.55,51.3],[8.6,51.1],[8.525,51],[8.45,50.9],[8.6,50.75],[8.8,50.75],[9,50.7],[9.2,50.65],[9.5,50.6],[9.9,50.65],[10,50.85],[10.4,51.15],[10.6,51.225],[10.8,51.3],[11,51.35],[11.3,51.4],[11.9,51.3],[12.15,51.45],[12.15,51.5],[12.15,51.6],[12.1,51.9],[11.9273973,51.960411],[11.9,51.97],[11.75,52.05],[11.65,52.13],[11.7,52.3],[11.85,52.45],[11.97,52.54],[12.05,52.7],[12.07,52.83],[11.9,52.95],[11.75,53],[11.5,53.07],[11.38,53.1],[11.3,53.12],[11.2856015,53.1065614],[11.2856015,53.1065614],[11.1,53.15],[10.9,53.3],[10.72,53.38],[10.95,53.45],[10.95,53.72],[10.7493631,53.8484076],[10.65,53.6],[10.56,53.37],[10.4,53.2],[10.1,53.05],[9.8,52.85],[9.5,52.62],[9.2,52.45],[9.06,52.37],[8.92,52.29],[8.7,52.27],[8.45,52.15],[8.25,52.08],[8.1847826,52.046087]]]}}
