{"type":"Feature","properties":{"name":"The Volga route from Ladoga to the Caspian Sea, c. 800","style":"solid","arrows":true},"geometry":{"type":"LineString","coordinates":[[32.3,60],[32.32,59.9],[32.1,59.6],[32,59.43],[31.7,59.13],[31.47,58.85],[31.28,58.52],[31.6,58.4],[32.5,58.45],[33.92,58.39],[34.57,57.59],[34.96,57.04],[35.9,56.86],[37,57.1],[38,57.7],[38.85,58.05],[39.87,57.63],[40.93,57.77],[42.2,57.44],[43.2,56.7],[44,56.33],[45.5,56.15],[47.25,56.13],[48.6,55.85],[49.1,55.78],[49.06,54.98],[48.4,54.32],[49.3,53.5],[50.1,53.2],[49,53.05],[48.45,53.15],[47.9,52.4],[46.03,51.53],[45.4,50.08],[44.52,48.71],[45.3,48.2],[46.2,47.6],[47,47],[47.6,46.6],[48.04,46.35],[47.88,46.03]]}}
