{"type":"Feature","properties":{"name":"Hastein and Björn’s fleet from the Loire round Spain to the Camargue, 859","style":"solid","arrows":true},"geometry":{"type":"LineString","coordinates":[[-2.2,47.25],[-2.6,46.8],[-1.8,45.5],[-1.8,44.2],[-2.5,43.65],[-5,43.8],[-8,43.75],[-9.35,43],[-9.05,41],[-9.55,39],[-9.05,37.2],[-8.99,36.95],[-7.5,36.95],[-6.95,37.15],[-6.4,36.55],[-5.8,35.95],[-5.45,36.08],[-5,35.9],[-3.9,35.27],[-2,35.8],[-0.65,37.95],[1.5,38.9],[2.6,39.45],[3.3,40.4],[3.25,42.2],[3.1,42.75],[3.8,43.25],[4.55,43.42]]}}
