{"type":"Feature","properties":{"name":"6,000 warriors sail from Kiev to help Basil II, 988","style":"solid","arrows":true},"geometry":{"type":"LineString","coordinates":[[30.52,50.45],[30.75,50.2],[31.3,50],[31.46,49.75],[32.06,49.44],[32.7,49.2],[33.42,49.07],[34,48.8],[34.61,48.51],[35.04,48.46],[35.17,48.2],[35.1,47.85],[34.6,47.62],[34,47.35],[33.48,46.82],[33,46.72],[32.6,46.63],[32.1,46.56],[31.55,46.58],[31.2,46.42],[30.8,46],[30.2,45.4],[29.8,44.9],[29.3,44.3],[28.95,43.6],[28.65,42.9],[28.35,42.3],[28.6,41.65],[29.12,41.24],[29.07,41.17],[29.05,41.1],[29.02,41.05],[28.99,41.02]]}}
