{"type":"Feature","properties":{"name":"Vladimir comes back from over the sea with a Varangian army, 978–980","style":"solid","arrows":true},"geometry":{"type":"LineString","coordinates":[[18.9,59.55],[20.5,59.65],[22.3,59.75],[24.6,59.75],[26.5,59.85],[28.2,60],[29.6,59.95],[30.25,59.93],[30.7,59.85],[31.03,59.95],[31.5,60.15],[32.1,60.17],[32.31,60.1],[32.3,60],[32.32,59.9],[32.1,59.6],[32,59.43],[31.7,59.13],[31.47,58.85],[31.28,58.52],[30.8,57.8],[30.2,57],[29.4,56.2],[28.78,55.49],[29.6,55.1],[30.42,54.51],[30.29,54.21],[30.33,53.9],[30.24,53.52],[30.05,53.09],[30,52.85],[30.39,52.36],[30.8,51.95],[30.66,51.7],[30.55,51.2],[30.49,50.58],[30.52,50.45]]}}
