{"type":"Feature","properties":{"family":"other","name":"Bithynia under Prusias I","clip":["Turkey"]},"geometry":{"type":"Polygon","coordinates":[[[29.1,41.25],[29.2833,41.2625],[29.4667,41.275],[29.65,41.2875],[29.8333,41.3],[30.0167,41.3125],[30.2,41.325],[30.3833,41.3375],[30.5667,41.35],[30.75,41.3625],[30.9333,41.375],[31.1167,41.3875],[31.3,41.4],[31.3,41.2],[31.3,41],[31.3,40.8],[31.3,40.6],[31.3,40.4],[31.16,40.29],[31.02,40.18],[30.88,40.07],[30.74,39.96],[30.6,39.85],[30.4286,39.8429],[30.2571,39.8357],[30.0857,39.8286],[29.9143,39.8214],[29.7429,39.8143],[29.5714,39.8071],[29.4,39.8],[29.24,39.86],[29.08,39.92],[28.92,39.98],[28.76,40.04],[28.6,40.1],[28.55,40.275],[28.5,40.45],[28.625,40.55],[28.75,40.65],[28.875,40.75],[29,40.85],[29.08,40.95],[29.09,41.1],[29.1,41.25]]]}}
