{"type":"Feature","properties":{"family":"carthage","name":"Carthage and the Barcid domain in Iberia, 219 BC"},"geometry":{"type":"Polygon","coordinates":[[[-7.45,37.6],[-7.44,37.46],[-7.43,37.32],[-7.42,37.18],[-7.42,37.04],[-7.42,36.9],[-7.2833,36.8],[-7.1467,36.7],[-7.01,36.6],[-6.8733,36.5],[-6.7367,36.4],[-6.6,36.3],[-6.45,36.22],[-6.3,36.14],[-6.15,36.06],[-6,35.98],[-5.8722,35.98],[-5.7445,35.98],[-5.7444,35.9653],[-5.8722,35.9577],[-6,35.95],[-6,35.825],[-6,35.7],[-5.925,35.625],[-5.85,35.55],[-5.6667,35.5],[-5.4833,35.45],[-5.3,35.4],[-5.125,35.3562],[-4.95,35.3125],[-4.775,35.2688],[-4.6,35.225],[-4.425,35.1813],[-4.25,35.1375],[-4.075,35.0938],[-3.9,35.05],[-3.7333,35.0417],[-3.5667,35.0333],[-3.4,35.025],[-3.2333,35.0167],[-3.0667,35.0083],[-2.9,35],[-2.725,34.9833],[-2.55,34.9667],[-2.375,34.95],[-2.2,34.9333],[-2.025,34.9167],[-1.85,34.9],[-1.6714,34.9857],[-1.4929,35.0714],[-1.3143,35.1571],[-1.1357,35.2429],[-0.9571,35.3286],[-0.7786,35.4143],[-0.6,35.5],[-0.425,35.55],[-0.25,35.6],[-0.075,35.65],[0.1,35.7],[0.2714,35.7857],[0.4429,35.8714],[0.6143,35.9571],[0.7857,36.0429],[0.9571,36.1286],[1.1286,36.2143],[1.3,36.3],[1.48,36.32],[1.66,36.34],[1.84,36.36],[2.02,36.38],[2.2,36.4],[2.36,36.43],[2.52,36.46],[2.68,36.49],[2.84,36.52],[3,36.55],[3.18,36.58],[3.36,36.61],[3.54,36.64],[3.72,36.67],[3.9,36.7],[4.0714,36.6786],[4.2429,36.6571],[4.4143,36.6357],[4.5857,36.6143],[4.7571,36.5929],[4.9286,36.5714],[5.1,36.55],[5.275,36.5625],[5.45,36.575],[5.625,36.5875],[5.8,36.6],[5.9833,36.6083],[6.1667,36.6167],[6.35,36.625],[6.5333,36.6333],[6.7167,36.6417],[6.9,36.65],[7.08,36.65],[7.26,36.65],[7.44,36.65],[7.62,36.65],[7.8,36.65],[7.96,36.67],[8.12,36.69],[8.28,36.71],[8.44,36.73],[8.6,36.75],[8.7055,36.7605],[8.8109,36.7711],[8.85,36.65],[8.7667,36.5167],[8.6833,36.3833],[8.6,36.25],[8.5167,36.0833],[8.4333,35.9167],[8.35,35.75],[8.2667,35.6167],[8.1833,35.4833],[8.1,35.35],[8.2,35.225],[8.3,35.1],[8.4,34.975],[8.5,34.85],[8.64,34.75],[8.78,34.65],[8.92,34.55],[9.06,34.45],[9.2,34.35],[9.34,34.27],[9.48,34.19],[9.62,34.11],[9.76,34.03],[9.9,33.95],[10.0167,33.8167],[10.1333,33.6833],[10.25,33.55],[10.4,33.47],[10.55,33.39],[10.7,33.31],[10.85,33.23],[11,33.15],[11.15,33.05],[11.3,32.95],[11.45,32.85],[11.6,32.75],[11.78,32.69],[11.96,32.63],[12.14,32.57],[12.32,32.51],[12.5,32.45],[12.6667,32.4417],[12.8333,32.4333],[13,32.425],[13.1667,32.4167],[13.3333,32.4083],[13.5,32.4],[13.66,32.36],[13.82,32.32],[13.98,32.28],[14.14,32.24],[14.3,32.2],[14.475,32.1375],[14.65,32.075],[14.825,32.0125],[15,31.95],[15.14,31.83],[15.28,31.71],[15.42,31.59],[15.56,31.47],[15.7,31.35],[15.85,31.2667],[16,31.1833],[16.15,31.1],[16.3,31.0167],[16.45,30.9333],[16.6,30.85],[16.78,30.79],[16.96,30.73],[17.14,30.67],[17.32,30.61],[17.5,30.55],[17.675,30.4833],[17.85,30.4167],[18.025,30.35],[18.2,30.2833],[18.375,30.2167],[18.55,30.15],[18.6833,30.1],[18.8167,30.05],[18.95,30],[18.9583,30.1667],[18.9667,30.3333],[18.975,30.5],[18.9833,30.6667],[18.9917,30.8333],[19,31],[18.8182,31.0545],[18.6364,31.1091],[18.4545,31.1636],[18.2727,31.2182],[18.0909,31.2727],[17.9091,31.3273],[17.7273,31.3818],[17.5455,31.4364],[17.3636,31.4909],[17.1818,31.5455],[17,31.6],[16.8444,31.7222],[16.6889,31.8444],[16.5333,31.9667],[16.3778,32.0889],[16.2222,32.2111],[16.0667,32.3333],[15.9111,32.4556],[15.7556,32.5778],[15.6,32.7],[15.4091,32.7364],[15.2182,32.7727],[15.0273,32.8091],[14.8364,32.8455],[14.6455,32.8818],[14.4545,32.9182],[14.2636,32.9545],[14.0727,32.9909],[13.8818,33.0273],[13.6909,33.0636],[13.5,33.1],[13.3182,33.1545],[13.1364,33.2091],[12.9545,33.2636],[12.7727,33.3182],[12.5909,33.3727],[12.4091,33.4273],[12.2273,33.4818],[12.0455,33.5364],[11.8636,33.5909],[11.6818,33.6455],[11.5,33.7],[11.48,33.86],[11.46,34.02],[11.44,34.18],[11.42,34.34],[11.4,34.5],[11.44,34.66],[11.48,34.82],[11.52,34.98],[11.56,35.14],[11.6,35.3],[11.5833,35.4667],[11.5667,35.6333],[11.55,35.8],[11.5333,35.9667],[11.5167,36.1333],[11.5,36.3],[11.4857,36.4219],[11.4713,36.5437],[11.6555,36.496],[11.8397,36.4482],[12.0239,36.4005],[12.2081,36.3527],[12.3923,36.305],[12.5765,36.2572],[12.7607,36.2095],[12.9449,36.1617],[13.129,36.114],[13.3132,36.0662],[13.4974,36.0185],[13.6816,35.9707],[13.8658,35.923],[14.05,35.8752],[14.05,35.7],[14.2125,35.7],[14.375,35.7],[14.5375,35.7],[14.7,35.7],[14.7,35.85],[14.7,36],[14.7,36.15],[14.5375,36.15],[14.375,36.15],[14.2125,36.15],[14.05,36.15],[14.05,35.9507],[13.8652,35.9987],[13.6803,36.0466],[13.4955,36.0945],[13.3106,36.1424],[13.1258,36.1904],[12.9409,36.2383],[12.7561,36.2862],[12.5712,36.3341],[12.3864,36.3821],[12.2015,36.43],[12.0167,36.4779],[11.8318,36.5258],[11.647,36.5738],[11.4622,36.6217],[11.4442,36.7742],[11.4263,36.9267],[11.6131,36.8677],[11.8,36.8087],[11.8,36.65],[11.95,36.65],[12.1,36.65],[12.1,36.785],[12.1,36.92],[11.95,36.92],[11.8,36.92],[11.8,36.886],[11.6723,36.9264],[11.5445,36.9667],[11.4168,37.0071],[11.4,37.15],[11.24,37.21],[11.08,37.27],[10.92,37.33],[10.76,37.39],[10.6,37.45],[10.44,37.46],[10.28,37.47],[10.12,37.48],[9.96,37.49],[9.8,37.5],[9.64,37.49],[9.48,37.48],[9.32,37.47],[9.16,37.46],[9,37.45],[8.9044,37.3735],[8.8088,37.2971],[8.6471,37.2676],[8.4853,37.2382],[8.3235,37.2088],[8.1618,37.1794],[8,37.15],[7.8167,37.1583],[7.6333,37.1667],[7.45,37.175],[7.2667,37.1833],[7.0833,37.1917],[6.9,37.2],[6.72,37.185],[6.54,37.17],[6.36,37.155],[6.18,37.14],[6,37.125],[5.82,37.11],[5.64,37.095],[5.46,37.08],[5.28,37.065],[5.1,37.05],[4.9132,37.0544],[4.7264,37.0589],[4.5396,37.0633],[4.3528,37.0678],[4.166,37.0722],[3.9791,37.0767],[3.7923,37.0811],[3.6055,37.0856],[3.4187,37.09],[3.2319,37.0945],[3.0451,37.0989],[3.0452,37.2859],[3.0453,37.4729],[3.0455,37.6599],[3.0456,37.8469],[3.0457,38.0339],[3.0458,38.2209],[3.0459,38.4078],[3.046,38.5948],[3.0462,38.7818],[3.0463,38.9688],[3.0464,39.1558],[3.2232,39.1779],[3.4,39.2],[3.575,39.2833],[3.75,39.3667],[3.925,39.45],[4.1,39.5333],[4.275,39.6167],[4.45,39.7],[4.45,39.85],[4.45,40],[4.45,40.15],[4.2688,40.1375],[4.0875,40.125],[3.9063,40.1125],[3.725,40.1],[3.5438,40.0875],[3.3625,40.075],[3.1813,40.0625],[3,40.05],[2.8333,40],[2.6667,39.95],[2.5,39.9],[2.3333,39.85],[2.1667,39.8],[2,39.75],[1.8333,39.65],[1.6667,39.55],[1.5,39.45],[1.3333,39.35],[1.1667,39.25],[1,39.15],[1,39.043],[1,38.936],[0.8333,38.936],[0.6667,38.936],[0.5,38.936],[0.5,39.1288],[0.5,39.3216],[0.5,39.5144],[0.5,39.7072],[0.5,39.9],[0.625,40.025],[0.75,40.15],[0.875,40.275],[1,40.4],[1.1,40.56],[1.2,40.72],[1.03,40.72],[0.86,40.72],[0.69,40.7633],[0.52,40.8067],[0.35,40.85],[0.1625,40.825],[-0.025,40.8],[-0.2125,40.775],[-0.4,40.75],[-0.56,40.72],[-0.72,40.69],[-0.88,40.66],[-1.04,40.63],[-1.2,40.6],[-1.3667,40.6083],[-1.5333,40.6167],[-1.7,40.625],[-1.8667,40.6333],[-2.0333,40.6417],[-2.2,40.65],[-2.3667,40.6833],[-2.5333,40.7167],[-2.7,40.75],[-2.8667,40.7833],[-3.0333,40.8167],[-3.2,40.85],[-3.3667,40.875],[-3.5333,40.9],[-3.7,40.925],[-3.8667,40.95],[-4.0333,40.975],[-4.2,41],[-4.36,41.03],[-4.52,41.06],[-4.68,41.09],[-4.84,41.12],[-5,41.15],[-5.175,41.15],[-5.35,41.15],[-5.525,41.15],[-5.7,41.15],[-5.85,41.075],[-6,41],[-6.15,40.925],[-6.3,40.85],[-6.425,40.7125],[-6.55,40.575],[-6.675,40.4375],[-6.8,40.3],[-6.84,40.12],[-6.88,39.94],[-6.92,39.76],[-6.96,39.58],[-7,39.4],[-7.0667,39.2333],[-7.1333,39.0667],[-7.2,38.9],[-7.2833,38.7333],[-7.3667,38.5667],[-7.45,38.4],[-7.45,38.2],[-7.45,38],[-7.45,37.8],[-7.45,37.6]],[[-5.6556,35.9707],[-5.6555,35.98],[-5.5,35.98],[-5.6556,35.9707]],[[-5.5,35.98],[-5.3167,36.0583],[-5.1333,36.1367],[-4.95,36.215],[-4.7667,36.2933],[-4.5833,36.3717],[-4.4,36.45],[-4.225,36.4625],[-4.05,36.475],[-3.875,36.4875],[-3.7,36.5],[-3.525,36.5125],[-3.35,36.525],[-3.175,36.5375],[-3,36.55],[-2.8167,36.5583],[-2.6333,36.5667],[-2.45,36.575],[-2.2667,36.5833],[-2.0833,36.5917],[-1.9,36.6],[-1.775,36.7375],[-1.65,36.875],[-1.525,37.0125],[-1.4,37.15],[-1.2667,37.25],[-1.1333,37.35],[-1,37.45],[-0.9,37.555],[-0.8,37.66],[-0.79,37.8],[-0.7,37.9],[-0.6,37.95],[-0.5,38],[-0.4,38.1],[-0.3,38.2],[-0.2,38.3],[-0.025,38.35],[0.15,38.4],[0.325,38.45],[0.5,38.5],[0.5,38.682],[0.5,38.864],[0.6667,38.864],[0.8333,38.864],[1,38.864],[1,38.707],[1,38.55],[1.15,38.55],[1.3,38.55],[1.45,38.55],[1.6,38.55],[1.7667,38.6417],[1.9333,38.7333],[2.1,38.825],[2.2667,38.9167],[2.4333,39.0083],[2.6,39.1],[2.7768,39.1221],[2.9536,39.1442],[2.9537,38.9578],[2.9538,38.7713],[2.954,38.5849],[2.9541,38.3984],[2.9542,38.212],[2.9543,38.0256],[2.9544,37.8391],[2.9546,37.6527],[2.9547,37.4662],[2.9548,37.2798],[2.9549,37.0934],[2.771,37.0663],[2.5871,37.0393],[2.4033,37.0122],[2.2194,36.9852],[2.0355,36.9582],[1.8516,36.9311],[1.6678,36.9041],[1.4839,36.877],[1.3,36.85],[1.1273,36.7727],[0.9545,36.6955],[0.7818,36.6182],[0.6091,36.5409],[0.4364,36.4636],[0.2636,36.3864],[0.0909,36.3091],[-0.0818,36.2318],[-0.2545,36.1545],[-0.4273,36.0773],[-0.6,36],[-0.7846,35.9615],[-0.9692,35.9231],[-1.1538,35.8846],[-1.3385,35.8462],[-1.5231,35.8077],[-1.7077,35.7692],[-1.8923,35.7308],[-2.0769,35.6923],[-2.2615,35.6538],[-2.4462,35.6154],[-2.6308,35.5769],[-2.8154,35.5385],[-3,35.5],[-3.1923,35.5369],[-3.3846,35.5738],[-3.5769,35.6108],[-3.7692,35.6477],[-3.9615,35.6846],[-4.1538,35.7215],[-4.3462,35.7585],[-4.5385,35.7954],[-4.7308,35.8323],[-4.9231,35.8692],[-5.1154,35.9062],[-5.3077,35.9431],[-5.5,35.98]]]}}
