{"type":"Feature","properties":{"family":"carthage","name":"Carthaginian Iberia, 209 BC"},"geometry":{"type":"Polygon","coordinates":[[[-7.45,37.6],[-7.44,37.46],[-7.43,37.32],[-7.42,37.18],[-7.42,37.04],[-7.42,36.9],[-7.2833,36.8],[-7.1467,36.7],[-7.01,36.6],[-6.8733,36.5],[-6.7367,36.4],[-6.6,36.3],[-6.45,36.22],[-6.3,36.14],[-6.15,36.06],[-6,35.98],[-5.8333,35.98],[-5.6667,35.98],[-5.5,35.98],[-5.3167,36.0583],[-5.1333,36.1367],[-4.95,36.215],[-4.7667,36.2933],[-4.5833,36.3717],[-4.4,36.45],[-4.225,36.4625],[-4.05,36.475],[-3.875,36.4875],[-3.7,36.5],[-3.525,36.5125],[-3.35,36.525],[-3.175,36.5375],[-3,36.55],[-2.8167,36.5583],[-2.6333,36.5667],[-2.45,36.575],[-2.2667,36.5833],[-2.0833,36.5917],[-1.9,36.6],[-1.775,36.7375],[-1.65,36.875],[-1.525,37.0125],[-1.4,37.15],[-1.2667,37.25],[-1.1333,37.35],[-1,37.45],[-0.9,37.555],[-0.8,37.66],[-0.79,37.8],[-0.7,37.9],[-0.6,37.95],[-0.5,38],[-0.4,38.1],[-0.3,38.2],[-0.2,38.3],[-0.025,38.35],[0.15,38.4],[0.325,38.45],[0.5,38.5],[0.5,38.682],[0.5,38.864],[0.6667,38.864],[0.8333,38.864],[1,38.864],[1,38.707],[1,38.55],[1.15,38.55],[1.3,38.55],[1.45,38.55],[1.6,38.55],[1.7667,38.6417],[1.9333,38.7333],[2.1,38.825],[2.2667,38.9167],[2.4333,39.0083],[2.6,39.1],[2.76,39.12],[2.92,39.14],[3.08,39.16],[3.24,39.18],[3.4,39.2],[3.555,39.2738],[3.7101,39.3476],[3.8651,39.4215],[4.0201,39.4953],[4.0823,39.309],[4.1445,39.1227],[4.2068,38.9363],[4.269,38.75],[4.3312,38.5637],[4.3934,38.3774],[4.4557,38.1911],[4.4587,38.1845],[4.4632,38.1786],[4.4691,38.1734],[4.4762,38.1693],[4.4841,38.1663],[4.4927,38.1645],[4.688,38.1352],[4.8834,38.1059],[5.0787,38.0766],[5.274,38.0473],[5.4694,38.018],[5.6647,37.9887],[5.86,37.9594],[6.0554,37.9301],[6.2507,37.9008],[6.4461,37.8715],[6.6414,37.8422],[6.8367,37.8129],[7.0321,37.7836],[7.2274,37.7543],[7.4227,37.725],[7.6181,37.6957],[7.8134,37.6664],[8.0088,37.6371],[8.2041,37.6078],[8.3994,37.5785],[8.5948,37.5492],[8.7901,37.5199],[8.9854,37.4906],[9.1808,37.4613],[9,37.45],[8.875,37.35],[8.75,37.25],[8.75,37.105],[8.75,36.96],[8.8,36.805],[8.85,36.65],[8.7667,36.5167],[8.6833,36.3833],[8.6,36.25],[8.5167,36.0833],[8.4333,35.9167],[8.35,35.75],[8.2667,35.6167],[8.1833,35.4833],[8.1,35.35],[8.2,35.225],[8.3,35.1],[8.4,34.975],[8.5,34.85],[8.64,34.75],[8.78,34.65],[8.92,34.55],[9.06,34.45],[9.2,34.35],[9.34,34.27],[9.48,34.19],[9.62,34.11],[9.76,34.03],[9.9,33.95],[10.0167,33.8167],[10.1333,33.6833],[10.25,33.55],[10.4,33.47],[10.55,33.39],[10.7,33.31],[10.85,33.23],[11,33.15],[11.15,33.05],[11.3,32.95],[11.45,32.85],[11.6,32.75],[11.78,32.69],[11.96,32.63],[12.14,32.57],[12.32,32.51],[12.5,32.45],[12.6667,32.4417],[12.8333,32.4333],[13,32.425],[13.1667,32.4167],[13.3333,32.4083],[13.5,32.4],[13.66,32.36],[13.82,32.32],[13.98,32.28],[14.14,32.24],[14.3,32.2],[14.475,32.1375],[14.65,32.075],[14.825,32.0125],[15,31.95],[15.14,31.83],[15.28,31.71],[15.42,31.59],[15.56,31.47],[15.7,31.35],[15.85,31.2667],[16,31.1833],[16.15,31.1],[16.3,31.0167],[16.45,30.9333],[16.6,30.85],[16.78,30.79],[16.96,30.73],[17.14,30.67],[17.32,30.61],[17.5,30.55],[17.675,30.4833],[17.85,30.4167],[18.025,30.35],[18.2,30.2833],[18.375,30.2167],[18.55,30.15],[18.6833,30.1],[18.8167,30.05],[18.95,30],[18.9583,30.1667],[18.9667,30.3333],[18.975,30.5],[18.9833,30.6667],[18.9917,30.8333],[19,31],[18.8182,31.0545],[18.6364,31.1091],[18.4545,31.1636],[18.2727,31.2182],[18.0909,31.2727],[17.9091,31.3273],[17.7273,31.3818],[17.5455,31.4364],[17.3636,31.4909],[17.1818,31.5455],[17,31.6],[16.8444,31.7222],[16.6889,31.8444],[16.5333,31.9667],[16.3778,32.0889],[16.2222,32.2111],[16.0667,32.3333],[15.9111,32.4556],[15.7556,32.5778],[15.6,32.7],[15.4091,32.7364],[15.2182,32.7727],[15.0273,32.8091],[14.8364,32.8455],[14.6455,32.8818],[14.4545,32.9182],[14.2636,32.9545],[14.0727,32.9909],[13.8818,33.0273],[13.6909,33.0636],[13.5,33.1],[13.3182,33.1545],[13.1364,33.2091],[12.9545,33.2636],[12.7727,33.3182],[12.5909,33.3727],[12.4091,33.4273],[12.2273,33.4818],[12.0455,33.5364],[11.8636,33.5909],[11.6818,33.6455],[11.5,33.7],[11.48,33.86],[11.46,34.02],[11.44,34.18],[11.42,34.34],[11.4,34.5],[11.44,34.66],[11.48,34.82],[11.52,34.98],[11.56,35.14],[11.6,35.3],[11.5833,35.4667],[11.5667,35.6333],[11.55,35.8],[11.5333,35.9667],[11.5167,36.1333],[11.5,36.3],[11.48,36.47],[11.46,36.64],[11.44,36.81],[11.42,36.98],[11.4,37.15],[11.24,37.21],[11.08,37.27],[10.92,37.33],[10.76,37.39],[10.6,37.45],[10.44,37.46],[10.28,37.47],[10.12,37.48],[9.96,37.49],[9.8,37.5],[9.6596,37.4912],[9.5193,37.4825],[9.5181,37.483],[9.5096,37.4851],[9.3184,37.5139],[9.1271,37.5426],[8.9359,37.5713],[8.7446,37.6],[8.5534,37.6287],[8.3621,37.6574],[8.1708,37.6861],[7.9796,37.7149],[7.7883,37.7436],[7.5971,37.7723],[7.4058,37.801],[7.2145,37.8297],[7.0233,37.8584],[6.832,37.8872],[6.6408,37.9159],[6.4495,37.9446],[6.2583,37.9733],[6.067,38.002],[5.8757,38.0307],[5.6845,38.0594],[5.4932,38.0882],[5.302,38.1169],[5.1107,38.1456],[4.9194,38.1743],[4.7282,38.203],[4.5369,38.2317],[4.475,38.4179],[4.413,38.6041],[4.3511,38.7902],[4.2891,38.9764],[4.2271,39.1625],[4.1652,39.3487],[4.1032,39.5349],[4.2766,39.6174],[4.45,39.7],[4.45,39.85],[4.45,40],[4.45,40.15],[4.2688,40.1375],[4.0875,40.125],[3.9063,40.1125],[3.725,40.1],[3.5438,40.0875],[3.3625,40.075],[3.1813,40.0625],[3,40.05],[2.8333,40],[2.6667,39.95],[2.5,39.9],[2.3333,39.85],[2.1667,39.8],[2,39.75],[1.8333,39.65],[1.6667,39.55],[1.5,39.45],[1.3333,39.35],[1.1667,39.25],[1,39.15],[1,39.043],[1,38.936],[0.8333,38.936],[0.6667,38.936],[0.5,38.936],[0.5,39.1288],[0.5,39.3216],[0.5,39.5144],[0.5,39.7072],[0.5,39.9],[0.625,40.025],[0.75,40.15],[0.875,40.275],[1,40.4],[1.1,40.56],[1.2,40.72],[1.03,40.72],[0.86,40.72],[0.69,40.7633],[0.52,40.8067],[0.35,40.85],[0.1625,40.825],[-0.025,40.8],[-0.2125,40.775],[-0.4,40.75],[-0.56,40.72],[-0.72,40.69],[-0.88,40.66],[-1.04,40.63],[-1.2,40.6],[-1.3667,40.6083],[-1.5333,40.6167],[-1.7,40.625],[-1.8667,40.6333],[-2.0333,40.6417],[-2.2,40.65],[-2.3667,40.6833],[-2.5333,40.7167],[-2.7,40.75],[-2.8667,40.7833],[-3.0333,40.8167],[-3.2,40.85],[-3.3667,40.875],[-3.5333,40.9],[-3.7,40.925],[-3.8667,40.95],[-4.0333,40.975],[-4.2,41],[-4.36,41.03],[-4.52,41.06],[-4.68,41.09],[-4.84,41.12],[-5,41.15],[-5.175,41.15],[-5.35,41.15],[-5.525,41.15],[-5.7,41.15],[-5.85,41.075],[-6,41],[-6.15,40.925],[-6.3,40.85],[-6.425,40.7125],[-6.55,40.575],[-6.675,40.4375],[-6.8,40.3],[-6.84,40.12],[-6.88,39.94],[-6.92,39.76],[-6.96,39.58],[-7,39.4],[-7.0667,39.2333],[-7.1333,39.0667],[-7.2,38.9],[-7.2833,38.7333],[-7.3667,38.5667],[-7.45,38.4],[-7.45,38.2],[-7.45,38],[-7.45,37.8],[-7.45,37.6]]]}}
