{"type":"Feature","properties":{"family":"carthage","name":"Carthage and its African territory, 202 BC"},"geometry":{"type":"Polygon","coordinates":[[[8.75,36.96],[8.8,36.805],[8.85,36.65],[8.7667,36.5167],[8.6833,36.3833],[8.6,36.25],[8.5167,36.0833],[8.4333,35.9167],[8.35,35.75],[8.2667,35.6167],[8.1833,35.4833],[8.1,35.35],[8.2,35.225],[8.3,35.1],[8.4,34.975],[8.5,34.85],[8.64,34.75],[8.78,34.65],[8.92,34.55],[9.06,34.45],[9.2,34.35],[9.34,34.27],[9.48,34.19],[9.62,34.11],[9.76,34.03],[9.9,33.95],[10.0167,33.8167],[10.1333,33.6833],[10.25,33.55],[10.4,33.47],[10.55,33.39],[10.7,33.31],[10.85,33.23],[11,33.15],[11.15,33.05],[11.3,32.95],[11.45,32.85],[11.6,32.75],[11.78,32.69],[11.96,32.63],[12.14,32.57],[12.32,32.51],[12.5,32.45],[12.6667,32.4417],[12.8333,32.4333],[13,32.425],[13.1667,32.4167],[13.3333,32.4083],[13.5,32.4],[13.66,32.36],[13.82,32.32],[13.98,32.28],[14.14,32.24],[14.3,32.2],[14.475,32.1375],[14.65,32.075],[14.825,32.0125],[15,31.95],[15.14,31.83],[15.28,31.71],[15.42,31.59],[15.56,31.47],[15.7,31.35],[15.85,31.2667],[16,31.1833],[16.15,31.1],[16.3,31.0167],[16.45,30.9333],[16.6,30.85],[16.78,30.79],[16.96,30.73],[17.14,30.67],[17.32,30.61],[17.5,30.55],[17.675,30.4833],[17.85,30.4167],[18.025,30.35],[18.2,30.2833],[18.375,30.2167],[18.55,30.15],[18.6833,30.1],[18.8167,30.05],[18.95,30],[18.9583,30.1667],[18.9667,30.3333],[18.975,30.5],[18.9833,30.6667],[18.9917,30.8333],[19,31],[18.8182,31.0545],[18.6364,31.1091],[18.4545,31.1636],[18.2727,31.2182],[18.0909,31.2727],[17.9091,31.3273],[17.7273,31.3818],[17.5455,31.4364],[17.3636,31.4909],[17.1818,31.5455],[17,31.6],[16.8444,31.7222],[16.6889,31.8444],[16.5333,31.9667],[16.3778,32.0889],[16.2222,32.2111],[16.0667,32.3333],[15.9111,32.4556],[15.7556,32.5778],[15.6,32.7],[15.4091,32.7364],[15.2182,32.7727],[15.0273,32.8091],[14.8364,32.8455],[14.6455,32.8818],[14.4545,32.9182],[14.2636,32.9545],[14.0727,32.9909],[13.8818,33.0273],[13.6909,33.0636],[13.5,33.1],[13.3182,33.1545],[13.1364,33.2091],[12.9545,33.2636],[12.7727,33.3182],[12.5909,33.3727],[12.4091,33.4273],[12.2273,33.4818],[12.0455,33.5364],[11.8636,33.5909],[11.6818,33.6455],[11.5,33.7],[11.48,33.86],[11.46,34.02],[11.44,34.18],[11.42,34.34],[11.4,34.5],[11.44,34.66],[11.48,34.82],[11.52,34.98],[11.56,35.14],[11.6,35.3],[11.5833,35.4667],[11.5667,35.6333],[11.55,35.8],[11.5333,35.9667],[11.5167,36.1333],[11.5,36.3],[11.48,36.47],[11.46,36.64],[11.44,36.81],[11.42,36.98],[11.4,37.15],[11.24,37.21],[11.08,37.27],[10.92,37.33],[10.76,37.39],[10.6,37.45],[10.44,37.46],[10.28,37.47],[10.12,37.48],[9.96,37.49],[9.8,37.5],[9.64,37.49],[9.48,37.48],[9.32,37.47],[9.16,37.46],[9,37.45],[8.875,37.35],[8.75,37.25],[8.75,37.105],[8.75,36.96]]]}}
