{"type":"Feature","properties":{"family":"carthage","name":"Carthage, 149 BC"},"geometry":{"type":"Polygon","coordinates":[[[8.75,36.96],[8.85,36.84],[8.95,36.72],[9.05,36.6],[9.2,36.475],[9.35,36.35],[9.4,36.2167],[9.45,36.0833],[9.5,35.95],[9.6,35.7833],[9.7,35.6167],[9.8,35.45],[9.9125,35.3375],[10.025,35.225],[10.1375,35.1125],[10.25,35],[10.3667,34.8733],[10.4833,34.7467],[10.6,34.62],[10.7333,34.58],[10.8667,34.54],[11,34.5],[11.12,34.66],[11.24,34.82],[11.36,34.98],[11.48,35.14],[11.6,35.3],[11.5833,35.4667],[11.5667,35.6333],[11.55,35.8],[11.5333,35.9667],[11.5167,36.1333],[11.5,36.3],[11.48,36.47],[11.46,36.64],[11.44,36.81],[11.42,36.98],[11.4,37.15],[11.24,37.21],[11.08,37.27],[10.92,37.33],[10.76,37.39],[10.6,37.45],[10.44,37.46],[10.28,37.47],[10.12,37.48],[9.96,37.49],[9.8,37.5],[9.64,37.49],[9.48,37.48],[9.32,37.47],[9.16,37.46],[9,37.45],[8.875,37.35],[8.75,37.25],[8.75,37.105],[8.75,36.96]]]}}
