{"type":"Feature","properties":{"family":"gauls","name":"Cisalpine Gaul, 207 BC","clip":["Italy","Switzerland"]},"geometry":{"type":"Polygon","coordinates":[[[6.5,44.4],[6.5,44.5875],[6.5,44.775],[6.5,44.9625],[6.5,45.15],[6.5,45.3375],[6.5,45.525],[6.5,45.7125],[6.5,45.9],[6.6667,45.9667],[6.8333,46.0333],[7,46.1],[7.1667,46.1667],[7.3333,46.2333],[7.5,46.3],[7.6667,46.3667],[7.8333,46.4333],[8,46.5],[8.1875,46.5125],[8.375,46.525],[8.5625,46.5375],[8.75,46.55],[8.9375,46.5625],[9.125,46.575],[9.3125,46.5875],[9.5,46.6],[9.7,46.6],[9.9,46.6],[10.1,46.6],[10.3,46.6],[10.5,46.6],[10.66,46.54],[10.82,46.48],[10.98,46.42],[11.14,46.36],[11.3,46.3],[11.425,46.175],[11.55,46.05],[11.675,45.925],[11.8,45.8],[11.9,45.6333],[12,45.4667],[12.1,45.3],[12.2167,45.2],[12.3333,45.1],[12.45,45],[12.625,44.95],[12.8,44.9],[12.8,44.72],[12.8,44.54],[12.8,44.36],[12.8,44.18],[12.8,44],[12.6333,43.9],[12.4667,43.8],[12.3,43.7],[12.1143,43.7171],[11.9286,43.7343],[11.7429,43.7514],[11.5571,43.7686],[11.3714,43.7857],[11.1857,43.8029],[11,43.82],[10.875,43.885],[10.75,43.95],[10.6,44.0333],[10.45,44.1167],[10.3,44.2],[10.125,44.275],[9.95,44.35],[9.775,44.425],[9.6,44.5],[9.44,44.51],[9.28,44.52],[9.12,44.53],[8.96,44.54],[8.8,44.55],[8.64,44.53],[8.48,44.51],[8.32,44.49],[8.16,44.47],[8,44.45],[7.8667,44.4],[7.7333,44.35],[7.6,44.3],[7.4167,44.3167],[7.2333,44.3333],[7.05,44.35],[6.8667,44.3667],[6.6833,44.3833],[6.5,44.4]]]}}
