{"type":"Feature","properties":{"family":"hannibal","name":"Italian cities on Hannibal’s side, 216 – 211 BC","clip":["Italy"]},"geometry":{"type":"Polygon","coordinates":[[[13.5527,40.7025],[13.5531,40.6947],[13.5557,40.6872],[13.6224,40.5539],[13.6892,40.4206],[13.7559,40.2872],[13.7596,40.2815],[13.7646,40.2763],[13.7707,40.2718],[13.7778,40.2683],[13.7855,40.2658],[13.9455,40.2258],[14.1054,40.1858],[14.2653,40.1458],[14.4252,40.1058],[14.5852,40.0659],[14.5937,40.0643],[14.6025,40.0641],[14.6112,40.0651],[14.6194,40.0672],[14.627,40.0706],[14.7604,40.142],[14.8938,40.2135],[15.0219,40.1067],[15.15,40],[15.275,39.95],[15.4,39.9],[15.5,39.75],[15.6,39.6],[15.6833,39.4333],[15.7667,39.2667],[15.85,39.1],[15.8,38.925],[15.75,38.75],[15.75,38.625],[15.75,38.5],[15.92,38.42],[15.9067,38.2467],[15.8933,38.0733],[15.88,37.9],[15.88,37.84],[15.99,37.82],[16.1,37.8],[16.2333,37.8667],[16.3667,37.9333],[16.5,38],[16.625,38.15],[16.75,38.3],[16.875,38.45],[17,38.6],[17.1,38.75],[17.2,38.9],[17.3,39.05],[17.4,39.2],[17.425,39.375],[17.45,39.55],[17.475,39.725],[17.5,39.9],[17.5396,40.0582],[17.649,39.9801],[17.7585,39.9019],[17.868,39.8237],[17.8744,39.8199],[17.8815,39.8169],[18.0315,39.767],[18.1814,39.717],[18.3313,39.667],[18.4813,39.617],[18.4901,39.6149],[18.4992,39.614],[18.5084,39.6146],[18.5173,39.6166],[18.5254,39.6198],[18.5326,39.6243],[18.5386,39.6297],[18.543,39.6359],[18.6264,39.7859],[18.7098,39.9359],[18.7932,40.0858],[18.796,40.0925],[18.797,40.0994],[18.7963,40.1064],[18.7938,40.1131],[18.7896,40.1194],[18.6797,40.2494],[18.5697,40.3795],[18.4598,40.5095],[18.3498,40.6395],[18.2399,40.7696],[18.2353,40.7741],[18.2298,40.778],[18.0631,40.8781],[17.8964,40.9781],[17.7297,41.0781],[17.563,41.1782],[17.3963,41.2782],[17.2296,41.3783],[17.2204,41.3825],[17.2101,41.3852],[17.02,41.4152],[16.8299,41.4452],[16.6398,41.4752],[16.4497,41.5052],[16.2596,41.5352],[16.2503,41.536],[16.2409,41.5353],[16.2319,41.5333],[16.2235,41.53],[16.2162,41.5256],[16.2102,41.5201],[16.2057,41.5139],[16.2047,41.5115],[16.1274,41.5857],[16.05,41.66],[15.95,41.66],[15.85,41.66],[15.675,41.64],[15.5,41.62],[15.475,41.52],[15.45,41.42],[15.55,41.28],[15.7,41.28],[15.85,41.28],[15.975,41.3],[16.1,41.32],[16.2,41.37],[16.3,41.42],[16.2559,41.4623],[16.4406,41.4332],[16.6252,41.404],[16.8098,41.3749],[16.9945,41.3457],[17.1791,41.3166],[17.3433,41.2181],[17.5075,41.1196],[17.6717,41.0211],[17.8359,40.9226],[18.0001,40.8241],[18.1643,40.7256],[18.2708,40.5998],[18.3774,40.474],[18.4839,40.3482],[18.5904,40.2224],[18.697,40.0966],[18.6231,39.9636],[18.5493,39.8306],[18.4754,39.6975],[18.2923,39.7585],[18.1092,39.8196],[17.926,39.8806],[17.8114,39.9625],[17.6967,40.0444],[17.582,40.1264],[17.5747,40.1306],[17.5664,40.1337],[17.5588,40.1352],[17.6,40.3],[17.5,40.46],[17.4,40.62],[17.25,40.62],[17.1,40.62],[16.95,40.62],[16.775,40.66],[16.6,40.7],[16.4667,40.7],[16.3333,40.7],[16.2,40.7],[16.05,40.7167],[15.9,40.7333],[15.75,40.75],[15.68,40.85],[15.55,41],[15.425,41.06],[15.3,41.12],[15.15,41.085],[15,41.05],[15,40.85],[15.125,40.725],[15.25,40.6],[15.115,40.49],[14.98,40.38],[14.9,40.38],[14.8628,40.2834],[14.8611,40.2829],[14.853,40.2795],[14.7227,40.2097],[14.5923,40.1399],[14.4033,40.1871],[14.2142,40.2344],[14.0251,40.2817],[13.8361,40.3289],[13.7748,40.4517],[13.7135,40.5744],[13.6522,40.6972],[13.7492,40.8293],[13.8462,40.9614],[13.85,40.95],[13.95,40.965],[14.05,40.98],[14.1833,40.9867],[14.3167,40.9933],[14.45,41],[14.45,41.11],[14.45,41.22],[14.275,41.235],[14.1,41.25],[13.95,41.15],[13.8,41.1],[13.8214,41.0358],[13.8161,41.0359],[13.8069,41.0346],[13.7982,41.032],[13.7904,41.0282],[13.7837,41.0233],[13.7783,41.0175],[13.6684,40.8674],[13.5585,40.7174],[13.5545,40.7102],[13.5527,40.7025]]]}}
