{"type":"Feature","properties":{"family":"hannibal","name":"Bruttium, held by Hannibal, 207 BC","clip":["Italy"]},"geometry":{"type":"Polygon","coordinates":[[[15.4,39.9],[15.5333,39.9],[15.6667,39.9],[15.8,39.9],[15.975,39.875],[16.15,39.85],[16.325,39.785],[16.5,39.72],[16.6333,39.7467],[16.7667,39.7733],[16.9,39.8],[17.025,39.65],[17.15,39.5],[17.275,39.35],[17.4,39.2],[17.3,39.05],[17.2,38.9],[17.1,38.75],[17,38.6],[16.875,38.45],[16.75,38.3],[16.625,38.15],[16.5,38],[16.3667,37.9333],[16.2333,37.8667],[16.1,37.8],[15.99,37.82],[15.88,37.84],[15.88,37.9],[15.8933,38.0733],[15.9067,38.2467],[15.92,38.42],[15.75,38.5],[15.75,38.625],[15.75,38.75],[15.8,38.925],[15.85,39.1],[15.7667,39.2667],[15.6833,39.4333],[15.6,39.6],[15.5,39.75],[15.4,39.9]]]}}
