{"type":"Feature","properties":{"family":"macedon","name":"Macedon under Philip V after 196 BC","clip":["Greece","Macedonia","Bulgaria","Albania"]},"geometry":{"type":"Polygon","coordinates":[[[20.5,40.45],[20.525,40.6375],[20.55,40.825],[20.575,41.0125],[20.6,41.2],[20.68,41.35],[20.76,41.5],[20.84,41.65],[20.92,41.8],[21,41.95],[21.1875,41.975],[21.375,42],[21.5625,42.025],[21.75,42.05],[21.9375,42.075],[22.125,42.1],[22.3125,42.125],[22.5,42.15],[22.675,42.1125],[22.85,42.075],[23.025,42.0375],[23.2,42],[23.36,41.94],[23.52,41.88],[23.68,41.82],[23.84,41.76],[24,41.7],[24.16,41.63],[24.32,41.56],[24.48,41.49],[24.64,41.42],[24.8,41.35],[24.8,41.2],[24.8,41.05],[24.8,40.9],[24.8,40.75],[24.9,40.6],[24.76,40.46],[24.62,40.32],[24.48,40.18],[24.34,40.04],[24.2,39.9],[24.025,39.8875],[23.85,39.875],[23.675,39.8625],[23.5,39.85],[23.35,39.875],[23.2,39.9],[23.05,39.925],[22.9,39.95],[22.7333,39.9333],[22.5667,39.9167],[22.4,39.9],[22.22,39.92],[22.04,39.94],[21.86,39.96],[21.68,39.98],[21.5,40],[21.3333,40.0333],[21.1667,40.0667],[21,40.1],[20.875,40.1875],[20.75,40.275],[20.625,40.3625],[20.5,40.45]]]}}
