{"type":"Feature","properties":{"family":"other","name":"Massalia, a Greek city allied to Rome","clip":["France"]},"geometry":{"type":"Polygon","coordinates":[[[4.5,43.2],[4.525,43.35],[4.55,43.5],[4.7,43.5267],[4.85,43.5533],[5,43.58],[5.1667,43.5533],[5.3333,43.5267],[5.5,43.5],[5.6667,43.4333],[5.8333,43.3667],[6,43.3],[6.1667,43.3167],[6.3333,43.3333],[6.5,43.35],[6.6667,43.46],[6.8333,43.57],[7,43.68],[7.175,43.74],[7.35,43.8],[7.4,43.675],[7.45,43.55],[7.32,43.44],[7.19,43.33],[7.06,43.22],[6.93,43.11],[6.8,43],[6.625,42.9813],[6.45,42.9625],[6.275,42.9438],[6.1,42.925],[5.925,42.9063],[5.75,42.8875],[5.575,42.8688],[5.4,42.85],[5.22,42.92],[5.04,42.99],[4.86,43.06],[4.68,43.13],[4.5,43.2]]]}}
