{"type":"Feature","properties":{"family":"numidia","name":"Numidia under Masinissa"},"geometry":{"type":"Polygon","coordinates":[[[-2.35,35.12],[-2.35,35.28],[-2.35,35.44],[-2.35,35.6],[-2.1692,35.6385],[-1.9885,35.6769],[-1.8077,35.7154],[-1.6269,35.7538],[-1.4462,35.7923],[-1.2654,35.8308],[-1.0846,35.8692],[-0.9038,35.9077],[-0.7231,35.9462],[-0.5423,35.9846],[-0.3615,36.0231],[-0.1808,36.0615],[0,36.1],[0.1818,36.1773],[0.3636,36.2545],[0.5455,36.3318],[0.7273,36.4091],[0.9091,36.4864],[1.0909,36.5636],[1.2727,36.6409],[1.4545,36.7182],[1.6364,36.7955],[1.8182,36.8727],[2,36.95],[2.1875,36.9625],[2.375,36.975],[2.5625,36.9875],[2.75,37],[2.9375,37.0125],[3.125,37.025],[3.3125,37.0375],[3.5,37.05],[3.6875,37.0625],[3.875,37.075],[4.0625,37.0875],[4.25,37.1],[4.4375,37.1125],[4.625,37.125],[4.8125,37.1375],[5,37.15],[5.1818,37.1545],[5.3636,37.1591],[5.5455,37.1636],[5.7273,37.1682],[5.9091,37.1727],[6.0909,37.1773],[6.2727,37.1818],[6.4545,37.1864],[6.6364,37.1909],[6.8182,37.1955],[7,37.2],[7.19,37.21],[7.38,37.22],[7.57,37.23],[7.76,37.24],[7.95,37.25],[8.14,37.26],[8.33,37.27],[8.52,37.28],[8.71,37.29],[8.9,37.3],[9.075,37.325],[9.25,37.35],[9.425,37.375],[9.6,37.4],[9.7167,37.25],[9.8333,37.1],[9.95,36.95],[10.0667,36.8],[10.1833,36.65],[10.3,36.5],[10.3667,36.3333],[10.4333,36.1667],[10.5,36],[10.5667,35.8333],[10.6333,35.6667],[10.7,35.5],[10.675,35.35],[10.65,35.2],[10.625,35.05],[10.6,34.9],[10.52,34.76],[10.44,34.62],[10.36,34.48],[10.28,34.34],[10.2,34.2],[10.2,34.04],[10.2,33.88],[10.2,33.72],[10.2,33.56],[10.2,33.4],[10.0111,33.4222],[9.8222,33.4444],[9.6333,33.4667],[9.4444,33.4889],[9.2556,33.5111],[9.0667,33.5333],[8.8778,33.5556],[8.6889,33.5778],[8.5,33.6],[8.3077,33.6462],[8.1154,33.6923],[7.9231,33.7385],[7.7308,33.7846],[7.5385,33.8308],[7.3462,33.8769],[7.1538,33.9231],[6.9615,33.9692],[6.7692,34.0154],[6.5769,34.0615],[6.3846,34.1077],[6.1923,34.1538],[6,34.2],[5.8125,34.1875],[5.625,34.175],[5.4375,34.1625],[5.25,34.15],[5.0625,34.1375],[4.875,34.125],[4.6875,34.1125],[4.5,34.1],[4.3125,34.0875],[4.125,34.075],[3.9375,34.0625],[3.75,34.05],[3.5625,34.0375],[3.375,34.025],[3.1875,34.0125],[3,34],[2.8,34],[2.6,34],[2.4,34],[2.2,34],[2,34],[1.8,34],[1.6,34],[1.4,34],[1.2,34],[1,34],[0.8,34],[0.6,34],[0.4,34],[0.2,34],[0,34],[-0.1846,34.0077],[-0.3692,34.0154],[-0.5538,34.0231],[-0.7385,34.0308],[-0.9231,34.0385],[-1.1077,34.0462],[-1.2923,34.0538],[-1.4769,34.0615],[-1.6615,34.0692],[-1.8462,34.0769],[-2.0308,34.0846],[-2.2154,34.0923],[-2.4,34.1],[-2.3917,34.27],[-2.3833,34.44],[-2.375,34.61],[-2.3667,34.78],[-2.3583,34.95],[-2.35,35.12]]]}}
