{"type":"Feature","properties":{"family":"numidia","name":"Numidia, 149 BC"},"geometry":{"type":"Polygon","coordinates":[[[-2.35,35.12],[-2.35,35.28],[-2.35,35.44],[-2.35,35.6],[-2.1692,35.6385],[-1.9885,35.6769],[-1.8077,35.7154],[-1.6269,35.7538],[-1.4462,35.7923],[-1.2654,35.8308],[-1.0846,35.8692],[-0.9038,35.9077],[-0.7231,35.9462],[-0.5423,35.9846],[-0.3615,36.0231],[-0.1808,36.0615],[0,36.1],[0.1818,36.1773],[0.3636,36.2545],[0.5455,36.3318],[0.7273,36.4091],[0.9091,36.4864],[1.0909,36.5636],[1.2727,36.6409],[1.4545,36.7182],[1.6364,36.7955],[1.8182,36.8727],[2,36.95],[2.1875,36.9625],[2.375,36.975],[2.5625,36.9875],[2.75,37],[2.9375,37.0125],[3.125,37.025],[3.3125,37.0375],[3.5,37.05],[3.6875,37.0625],[3.875,37.075],[4.0625,37.0875],[4.25,37.1],[4.4375,37.1125],[4.625,37.125],[4.8125,37.1375],[5,37.15],[5.1818,37.1545],[5.3636,37.1591],[5.5455,37.1636],[5.7273,37.1682],[5.9091,37.1727],[6.0909,37.1773],[6.2727,37.1818],[6.4545,37.1864],[6.6364,37.1909],[6.8182,37.1955],[7,37.2],[7.19,37.21],[7.38,37.22],[7.57,37.23],[7.76,37.24],[7.95,37.25],[8.14,37.26],[8.33,37.27],[8.52,37.28],[8.71,37.29],[8.9,37.3],[9.075,37.325],[9.25,37.35],[9.425,37.375],[9.6,37.4],[9.7167,37.25],[9.8333,37.1],[9.95,36.95],[10.0667,36.8],[10.1833,36.65],[10.3,36.5],[10.3667,36.3333],[10.4333,36.1667],[10.5,36],[10.5667,35.8333],[10.6333,35.6667],[10.7,35.5],[10.675,35.35],[10.65,35.2],[10.625,35.05],[10.6,34.9],[10.68,34.72],[10.76,34.54],[10.84,34.36],[10.92,34.18],[11,34],[11.15,33.95],[11.3,33.9],[11.45,33.85],[11.6,33.8],[11.775,33.725],[11.95,33.65],[12.125,33.575],[12.3,33.5],[12.475,33.425],[12.65,33.35],[12.825,33.275],[13,33.2],[13.1923,33.1692],[13.3846,33.1385],[13.5769,33.1077],[13.7692,33.0769],[13.9615,33.0462],[14.1538,33.0154],[14.3462,32.9846],[14.5385,32.9538],[14.7308,32.9231],[14.9231,32.8923],[15.1154,32.8615],[15.3077,32.8308],[15.5,32.8],[15.675,32.71],[15.85,32.62],[16.025,32.53],[16.2,32.44],[16.375,32.35],[16.55,32.26],[16.725,32.17],[16.9,32.08],[17.075,31.99],[17.25,31.9],[17.425,31.81],[17.6,31.72],[17.775,31.63],[17.95,31.54],[18.125,31.45],[18.3,31.36],[18.475,31.27],[18.65,31.18],[18.825,31.09],[19,31],[18.9833,30.8167],[18.9667,30.6333],[18.95,30.45],[18.9333,30.2667],[18.9167,30.0833],[18.9,29.9],[18.7154,29.9538],[18.5308,30.0077],[18.3462,30.0615],[18.1615,30.1154],[17.9769,30.1692],[17.7923,30.2231],[17.6077,30.2769],[17.4231,30.3308],[17.2385,30.3846],[17.0538,30.4385],[16.8692,30.4923],[16.6846,30.5462],[16.5,30.6],[16.3333,30.6778],[16.1667,30.7556],[16,30.8333],[15.8333,30.9111],[15.6667,30.9889],[15.5,31.0667],[15.3333,31.1444],[15.1667,31.2222],[15,31.3],[14.8182,31.3545],[14.6364,31.4091],[14.4545,31.4636],[14.2727,31.5182],[14.0909,31.5727],[13.9091,31.6273],[13.7273,31.6818],[13.5455,31.7364],[13.3636,31.7909],[13.1818,31.8455],[13,31.9],[12.8125,31.95],[12.625,32],[12.4375,32.05],[12.25,32.1],[12.0625,32.15],[11.875,32.2],[11.6875,32.25],[11.5,32.3],[11.3375,32.4125],[11.175,32.525],[11.0125,32.6375],[10.85,32.75],[10.6875,32.8625],[10.525,32.975],[10.3625,33.0875],[10.2,33.2],[10.0111,33.2444],[9.8222,33.2889],[9.6333,33.3333],[9.4444,33.3778],[9.2556,33.4222],[9.0667,33.4667],[8.8778,33.5111],[8.6889,33.5556],[8.5,33.6],[8.3077,33.6462],[8.1154,33.6923],[7.9231,33.7385],[7.7308,33.7846],[7.5385,33.8308],[7.3462,33.8769],[7.1538,33.9231],[6.9615,33.9692],[6.7692,34.0154],[6.5769,34.0615],[6.3846,34.1077],[6.1923,34.1538],[6,34.2],[5.8125,34.1875],[5.625,34.175],[5.4375,34.1625],[5.25,34.15],[5.0625,34.1375],[4.875,34.125],[4.6875,34.1125],[4.5,34.1],[4.3125,34.0875],[4.125,34.075],[3.9375,34.0625],[3.75,34.05],[3.5625,34.0375],[3.375,34.025],[3.1875,34.0125],[3,34],[2.8,34],[2.6,34],[2.4,34],[2.2,34],[2,34],[1.8,34],[1.6,34],[1.4,34],[1.2,34],[1,34],[0.8,34],[0.6,34],[0.4,34],[0.2,34],[0,34],[-0.1846,34.0077],[-0.3692,34.0154],[-0.5538,34.0231],[-0.7385,34.0308],[-0.9231,34.0385],[-1.1077,34.0462],[-1.2923,34.0538],[-1.4769,34.0615],[-1.6615,34.0692],[-1.8462,34.0769],[-2.0308,34.0846],[-2.2154,34.0923],[-2.4,34.1],[-2.3917,34.27],[-2.3833,34.44],[-2.375,34.61],[-2.3667,34.78],[-2.3583,34.95],[-2.35,35.12]]]}}
