{"type":"Feature","properties":{"family":"numidia","name":"Masinissa’s kingdom, 202 BC"},"geometry":{"type":"Polygon","coordinates":[[[6.2,37.2],[6.225,37.025],[6.25,36.85],[6.1833,36.7],[6.1167,36.55],[6.05,36.4],[6.01,36.22],[5.97,36.04],[5.93,35.86],[5.89,35.68],[5.85,35.5],[5.8143,35.3143],[5.7786,35.1286],[5.7429,34.9429],[5.7071,34.7571],[5.6714,34.5714],[5.6357,34.3857],[5.6,34.2],[5.7933,34.16],[5.9867,34.12],[6.18,34.08],[6.3733,34.04],[6.5667,34],[6.76,33.96],[6.9533,33.92],[7.1467,33.88],[7.34,33.84],[7.5333,33.8],[7.7267,33.76],[7.92,33.72],[8.1133,33.68],[8.3067,33.64],[8.5,33.6],[8.6889,33.5778],[8.8778,33.5556],[9.0667,33.5333],[9.2556,33.5111],[9.4444,33.4889],[9.6333,33.4667],[9.8222,33.4444],[10.0111,33.4222],[10.2,33.4],[10.2,33.56],[10.2,33.72],[10.2,33.88],[10.2,34.04],[10.2,34.2],[10.12,34.36],[10.04,34.52],[9.96,34.68],[9.88,34.84],[9.8,35],[9.7667,35.1667],[9.7333,35.3333],[9.7,35.5],[9.6667,35.6667],[9.6333,35.8333],[9.6,36],[9.6,36.2],[9.6,36.4],[9.6,36.6],[9.6,36.8],[9.6,37],[9.6,37.2],[9.6,37.4],[9.4143,37.3893],[9.2286,37.3786],[9.0429,37.3679],[8.8571,37.3571],[8.6714,37.3464],[8.4857,37.3357],[8.3,37.325],[8.1143,37.3143],[7.9286,37.3036],[7.7429,37.2929],[7.5571,37.2821],[7.3714,37.2714],[7.1857,37.2607],[7,37.25],[6.84,37.24],[6.68,37.23],[6.52,37.22],[6.36,37.21],[6.2,37.2]]]}}
