{"type":"Feature","properties":{"family":"rome","name":"Rome and its allies, 207 BC"},"geometry":{"type":"Polygon","coordinates":[[[7.9,38.7],[8.0864,38.7],[8.2727,38.7],[8.4591,38.7],[8.6455,38.7],[8.8318,38.7],[9.0182,38.7],[9.2045,38.7],[9.3909,38.7],[9.5773,38.7],[9.7636,38.7],[9.95,38.7],[9.95,38.8962],[9.95,39.0923],[9.95,39.2885],[9.95,39.4846],[9.95,39.6808],[9.95,39.8769],[9.95,40.0731],[9.95,40.2692],[9.95,40.4654],[9.95,40.6615],[9.95,40.8577],[9.95,41.0538],[9.95,41.25],[9.85,41.325],[9.75,41.4],[9.75,41.5559],[9.75,41.7118],[9.75,41.8678],[9.942,41.8726],[10.134,41.8774],[10.326,41.8822],[10.518,41.887],[10.71,41.8918],[10.9021,41.8966],[11.0941,41.9014],[11.2861,41.9062],[11.4781,41.911],[11.589,41.8555],[11.7,41.8],[11.8429,41.6786],[11.9857,41.5571],[12.1286,41.4357],[12.2714,41.3143],[12.4143,41.1929],[12.5571,41.0714],[12.7,40.95],[12.75,40.85],[12.8,40.75],[12.975,40.75],[13.15,40.75],[13.325,40.75],[13.5,40.75],[13.6,40.65],[13.7,40.55],[13.88,40.48],[14.06,40.41],[14.24,40.34],[14.42,40.27],[14.6,40.2],[14.76,40.14],[14.92,40.08],[15.08,40.02],[15.24,39.96],[15.4,39.9],[15.5,39.75],[15.6,39.6],[15.6833,39.4333],[15.7667,39.2667],[15.85,39.1],[15.8,38.925],[15.75,38.75],[15.75,38.6],[15.75,38.45],[15.7,38.32],[15.5167,38.32],[15.3333,38.32],[15.15,38.32],[14.9958,38.3046],[14.9959,38.34],[15.1729,38.34],[15.35,38.34],[15.35,38.5267],[15.35,38.7133],[15.35,38.9],[15.1583,38.9],[14.9667,38.9],[14.775,38.9],[14.5833,38.9],[14.3917,38.9],[14.2,38.9],[14.2,38.7333],[14.2,38.5667],[14.2,38.4],[14.375,38.385],[14.55,38.37],[14.725,38.355],[14.9,38.34],[14.9041,38.34],[14.9042,38.2969],[14.7281,38.2852],[14.5521,38.2735],[14.376,38.2617],[14.2,38.25],[14.025,38.2625],[13.85,38.275],[13.675,38.2875],[13.5,38.3],[13.34,38.3],[13.18,38.3],[13.02,38.3],[12.86,38.3],[12.7,38.3],[12.5125,38.2875],[12.325,38.275],[12.1375,38.2625],[11.95,38.25],[11.9,38.075],[11.85,37.9],[11.9333,37.7333],[12.0167,37.5667],[12.1,37.4],[12.2009,37.3697],[12.3019,37.3394],[12.1971,37.1996],[12.0923,37.0598],[11.9875,36.92],[11.8,36.92],[11.8,36.785],[11.8,36.65],[11.95,36.65],[12.1,36.65],[12.1,36.785],[12.1,36.92],[12.0925,36.92],[12.1909,37.0512],[12.2894,37.1824],[12.3879,37.3136],[12.4939,37.2818],[12.6,37.25],[12.7727,37.1864],[12.9455,37.1227],[13.1182,37.0591],[13.2909,36.9955],[13.4636,36.9318],[13.6364,36.8682],[13.8091,36.8045],[13.9818,36.7409],[14.1545,36.6773],[14.3273,36.6136],[14.5,36.55],[14.5446,36.55],[14.5181,36.4167],[14.4915,36.2833],[14.4649,36.15],[14.3266,36.15],[14.1883,36.15],[14.05,36.15],[14.05,36],[14.05,35.85],[14.05,35.7],[14.2125,35.7],[14.375,35.7],[14.5375,35.7],[14.7,35.7],[14.7,35.85],[14.7,36],[14.7,36.15],[14.5551,36.15],[14.5819,36.2833],[14.6086,36.4167],[14.6354,36.55],[14.8083,36.55],[14.9812,36.55],[15.1541,36.55],[15.3271,36.55],[15.5,36.55],[15.54,36.72],[15.58,36.89],[15.62,37.06],[15.66,37.23],[15.7,37.4],[15.6733,37.56],[15.6467,37.72],[15.62,37.88],[15.7467,37.8367],[15.8733,37.7933],[16,37.75],[16.175,37.75],[16.35,37.75],[16.525,37.75],[16.7,37.75],[16.8125,37.9],[16.925,38.05],[17.0375,38.2],[17.15,38.35],[17.2625,38.5],[17.375,38.65],[17.4875,38.8],[17.6,38.95],[17.7583,39.0667],[17.9167,39.1833],[18.075,39.3],[18.2333,39.4167],[18.3917,39.5333],[18.55,39.65],[18.6167,39.8167],[18.6833,39.9833],[18.75,40.15],[18.6375,40.3],[18.525,40.45],[18.4125,40.6],[18.3,40.75],[18.14,40.86],[17.98,40.97],[17.82,41.08],[17.66,41.19],[17.5,41.3],[17.35,41.375],[17.2,41.45],[17.05,41.525],[16.9,41.6],[16.75,41.675],[16.6,41.75],[16.475,41.875],[16.35,42],[16.225,42.125],[16.1,42.25],[15.92,42.27],[15.74,42.29],[15.56,42.31],[15.38,42.33],[15.2,42.35],[15.0667,42.4583],[14.9333,42.5667],[14.8,42.675],[14.6667,42.7833],[14.5333,42.8917],[14.4,43],[14.2667,43.125],[14.1333,43.25],[14,43.375],[13.8667,43.5],[13.7333,43.625],[13.6,43.75],[13.43,43.85],[13.26,43.95],[13.09,44.05],[12.92,44.15],[12.75,44.25],[12.585,44.21],[12.42,44.17],[12.28,44.1367],[12.14,44.1033],[12,44.07],[11.8667,44.07],[11.7333,44.07],[11.6,44.07],[11.425,44.035],[11.25,44],[11.075,43.925],[10.9,43.85],[10.75,43.8],[10.6,43.75],[10.435,43.715],[10.27,43.68],[10.11,43.68],[9.95,43.68],[9.95,43.514],[9.95,43.348],[9.95,43.182],[9.95,43.016],[9.95,42.85],[9.975,42.725],[10,42.6],[10.16,42.53],[10.32,42.46],[10.48,42.39],[10.64,42.32],[10.8,42.25],[10.9352,42.1824],[11.0705,42.1148],[11.2057,42.0471],[11.341,41.9795],[11.1421,41.9745],[10.9432,41.9696],[10.7444,41.9646],[10.5455,41.9596],[10.3466,41.9547],[10.1477,41.9497],[9.9489,41.9447],[9.75,41.9397],[9.75,42.1126],[9.75,42.2855],[9.75,42.4584],[9.75,42.6313],[9.75,42.8042],[9.75,42.9771],[9.75,43.15],[9.5667,43.15],[9.3833,43.15],[9.2,43.15],[9.0667,43.025],[8.9333,42.9],[8.8,42.775],[8.6667,42.65],[8.5333,42.525],[8.4,42.4],[8.3833,42.2167],[8.3667,42.0333],[8.35,41.85],[8.3333,41.6667],[8.3167,41.4833],[8.3,41.3],[8.1667,41.1667],[8.0333,41.0333],[7.9,40.9],[7.9,40.7],[7.9,40.5],[7.9,40.3],[7.9,40.1],[7.9,39.9],[7.9,39.7],[7.9,39.5],[7.9,39.3],[7.9,39.1],[7.9,38.9],[7.9,38.7]]]}}
