{"type":"Feature","properties":{"family":"rome","name":"Rome and Roman Sicily, 256 BC"},"geometry":{"type":"Polygon","coordinates":[[[9.95,42.85],[9.975,42.725],[10,42.6],[10.16,42.53],[10.32,42.46],[10.48,42.39],[10.64,42.32],[10.8,42.25],[10.95,42.175],[11.1,42.1],[11.25,42.025],[11.4,41.95],[11.55,41.875],[11.7,41.8],[11.8429,41.6786],[11.9857,41.5571],[12.1286,41.4357],[12.2714,41.3143],[12.4143,41.1929],[12.5571,41.0714],[12.7,40.95],[12.75,40.85],[12.8,40.75],[12.975,40.75],[13.15,40.75],[13.325,40.75],[13.5,40.75],[13.6,40.65],[13.7,40.55],[13.88,40.48],[14.06,40.41],[14.24,40.34],[14.42,40.27],[14.6,40.2],[14.76,40.14],[14.92,40.08],[15.08,40.02],[15.24,39.96],[15.4,39.9],[15.5,39.75],[15.6,39.6],[15.6833,39.4333],[15.7667,39.2667],[15.85,39.1],[15.8,38.925],[15.75,38.75],[15.75,38.6],[15.75,38.45],[15.7,38.32],[15.5167,38.32],[15.3333,38.32],[15.15,38.32],[15.05,38.31],[14.95,38.3],[14.7625,38.2875],[14.575,38.275],[14.3875,38.2625],[14.2,38.25],[14.025,38.2625],[13.85,38.275],[13.85,38.1375],[13.85,38],[13.7667,37.8667],[13.6833,37.7333],[13.6,37.6],[13.5,37.49],[13.4,37.38],[13.4,37.2384],[13.4,37.0968],[13.4,36.9553],[13.5017,36.9178],[13.6034,36.8803],[13.7965,36.8616],[13.9895,36.843],[14.1825,36.8243],[14.3756,36.8056],[14.5686,36.7869],[14.7616,36.7682],[14.9547,36.7495],[15.1477,36.7309],[15.3407,36.7122],[15.5338,36.6935],[15.5753,36.8701],[15.6169,37.0468],[15.6584,37.2234],[15.7,37.4],[15.6733,37.56],[15.6467,37.72],[15.62,37.88],[15.7467,37.8367],[15.8733,37.7933],[16,37.75],[16.175,37.75],[16.35,37.75],[16.525,37.75],[16.7,37.75],[16.8125,37.9],[16.925,38.05],[17.0375,38.2],[17.15,38.35],[17.2625,38.5],[17.375,38.65],[17.4875,38.8],[17.6,38.95],[17.7583,39.0667],[17.9167,39.1833],[18.075,39.3],[18.2333,39.4167],[18.3917,39.5333],[18.55,39.65],[18.6167,39.8167],[18.6833,39.9833],[18.75,40.15],[18.6375,40.3],[18.525,40.45],[18.4125,40.6],[18.3,40.75],[18.14,40.86],[17.98,40.97],[17.82,41.08],[17.66,41.19],[17.5,41.3],[17.35,41.375],[17.2,41.45],[17.05,41.525],[16.9,41.6],[16.75,41.675],[16.6,41.75],[16.475,41.875],[16.35,42],[16.225,42.125],[16.1,42.25],[15.92,42.27],[15.74,42.29],[15.56,42.31],[15.38,42.33],[15.2,42.35],[15.0667,42.4583],[14.9333,42.5667],[14.8,42.675],[14.6667,42.7833],[14.5333,42.8917],[14.4,43],[14.2667,43.125],[14.1333,43.25],[14,43.375],[13.8667,43.5],[13.7333,43.625],[13.6,43.75],[13.43,43.85],[13.26,43.95],[13.09,44.05],[12.92,44.15],[12.75,44.25],[12.585,44.21],[12.42,44.17],[12.28,44.1367],[12.14,44.1033],[12,44.07],[11.8667,44.07],[11.7333,44.07],[11.6,44.07],[11.425,44.035],[11.25,44],[11.075,43.925],[10.9,43.85],[10.75,43.8],[10.6,43.75],[10.435,43.715],[10.27,43.68],[10.11,43.68],[9.95,43.68],[9.95,43.514],[9.95,43.348],[9.95,43.182],[9.95,43.016],[9.95,42.85]]]}}
