{"type":"Feature","properties":{"family":"rome","name":"Roman Iberia after the fall of New Carthage, 209 BC"},"geometry":{"type":"Polygon","coordinates":[[[3.5,42.45],[3.325,42.44],[3.15,42.43],[2.9667,42.42],[2.7833,42.41],[2.6,42.4],[2.425,42.3375],[2.25,42.275],[2.075,42.2125],[1.9,42.15],[1.76,42.07],[1.62,41.99],[1.48,41.91],[1.34,41.83],[1.2,41.75],[1.05,41.6375],[0.9,41.525],[0.75,41.4125],[0.6,41.3],[0.5,41.1667],[0.4,41.0333],[0.3,40.9],[0.175,40.8],[0.05,40.7],[-0.075,40.6],[-0.2,40.5],[-0.31,40.38],[-0.42,40.26],[-0.53,40.14],[-0.64,40.02],[-0.75,39.9],[-0.8333,39.7333],[-0.9167,39.5667],[-1,39.4],[-1.0375,39.25],[-1.075,39.1],[-1.1125,38.95],[-1.15,38.8],[-1.2167,38.6333],[-1.2833,38.4667],[-1.35,38.3],[-1.3833,38.15],[-1.4167,38],[-1.45,37.85],[-1.375,37.675],[-1.3,37.5],[-1.3,37.4],[-1.3,37.3],[-1.14,37.33],[-0.98,37.36],[-0.82,37.39],[-0.66,37.42],[-0.5,37.45],[-0.44,37.62],[-0.38,37.79],[-0.32,37.96],[-0.26,38.13],[-0.2,38.3],[-0.025,38.35],[0.15,38.4],[0.325,38.45],[0.5,38.5],[0.5,38.7],[0.5,38.9],[0.5,39.1],[0.5,39.3],[0.5,39.5],[0.5,39.7],[0.5,39.9],[0.625,40.025],[0.75,40.15],[0.875,40.275],[1,40.4],[1.1667,40.4889],[1.3333,40.5778],[1.5,40.6667],[1.6667,40.7556],[1.8333,40.8444],[2,40.9333],[2.1667,41.0222],[2.3333,41.1111],[2.5,41.2],[2.6667,41.3],[2.8333,41.4],[3,41.5],[3.1667,41.6],[3.3333,41.7],[3.5,41.8],[3.5,41.9625],[3.5,42.125],[3.5,42.2875],[3.5,42.45]]]}}
