{"type":"Feature","properties":{"family":"rome","name":"Rome and its Italian allies, 264 BC"},"geometry":{"type":"Polygon","coordinates":[[[9.95,43.68],[10.11,43.68],[10.27,43.68],[10.435,43.715],[10.6,43.75],[10.75,43.8],[10.9,43.85],[11.075,43.925],[11.25,44],[11.425,44.035],[11.6,44.07],[11.7333,44.07],[11.8667,44.07],[12,44.07],[12.14,44.1033],[12.28,44.1367],[12.42,44.17],[12.585,44.21],[12.75,44.25],[12.92,44.15],[13.09,44.05],[13.26,43.95],[13.43,43.85],[13.6,43.75],[13.7333,43.625],[13.8667,43.5],[14,43.375],[14.1333,43.25],[14.2667,43.125],[14.4,43],[14.5333,42.8917],[14.6667,42.7833],[14.8,42.675],[14.9333,42.5667],[15.0667,42.4583],[15.2,42.35],[15.38,42.33],[15.56,42.31],[15.74,42.29],[15.92,42.27],[16.1,42.25],[16.225,42.125],[16.35,42],[16.475,41.875],[16.6,41.75],[16.75,41.675],[16.9,41.6],[17.05,41.525],[17.2,41.45],[17.35,41.375],[17.5,41.3],[17.66,41.19],[17.82,41.08],[17.98,40.97],[18.14,40.86],[18.3,40.75],[18.4125,40.6],[18.525,40.45],[18.6375,40.3],[18.75,40.15],[18.6833,39.9833],[18.6167,39.8167],[18.55,39.65],[18.3917,39.5333],[18.2333,39.4167],[18.075,39.3],[17.9167,39.1833],[17.7583,39.0667],[17.6,38.95],[17.4875,38.8],[17.375,38.65],[17.2625,38.5],[17.15,38.35],[17.0375,38.2],[16.925,38.05],[16.8125,37.9],[16.7,37.75],[16.525,37.75],[16.35,37.75],[16.175,37.75],[16,37.75],[15.8733,37.7933],[15.7467,37.8367],[15.62,37.88],[15.6,37.99],[15.58,38.1],[15.6,38.2],[15.685,38.27],[15.7,38.32],[15.75,38.45],[15.75,38.6],[15.75,38.75],[15.8,38.925],[15.85,39.1],[15.7667,39.2667],[15.6833,39.4333],[15.6,39.6],[15.5,39.75],[15.4,39.9],[15.2667,39.95],[15.1333,40],[15,40.05],[14.8667,40.1],[14.7333,40.15],[14.6,40.2],[14.42,40.27],[14.24,40.34],[14.06,40.41],[13.88,40.48],[13.7,40.55],[13.6,40.65],[13.5,40.75],[13.325,40.75],[13.15,40.75],[12.975,40.75],[12.8,40.75],[12.75,40.85],[12.7,40.95],[12.5571,41.0714],[12.4143,41.1929],[12.2714,41.3143],[12.1286,41.4357],[11.9857,41.5571],[11.8429,41.6786],[11.7,41.8],[11.55,41.875],[11.4,41.95],[11.25,42.025],[11.1,42.1],[10.95,42.175],[10.8,42.25],[10.64,42.32],[10.48,42.39],[10.32,42.46],[10.16,42.53],[10,42.6],[9.975,42.725],[9.95,42.85],[9.95,43.016],[9.95,43.182],[9.95,43.348],[9.95,43.514],[9.95,43.68]]]}}
