{"type":"Feature","properties":{"family":"rome","name":"Roman-held coast north of the Ebro, 218 – 211 BC"},"geometry":{"type":"Polygon","coordinates":[[[3.5,42.45],[3.325,42.44],[3.15,42.43],[2.9667,42.42],[2.7833,42.41],[2.6,42.4],[2.425,42.3375],[2.25,42.275],[2.075,42.2125],[1.9,42.15],[1.76,42.07],[1.62,41.99],[1.48,41.91],[1.34,41.83],[1.2,41.75],[1.05,41.6375],[0.9,41.525],[0.75,41.4125],[0.6,41.3],[0.5333,41.1667],[0.4667,41.0333],[0.4,40.9],[0.5533,40.84],[0.7067,40.78],[0.86,40.72],[1.0067,40.6967],[1.1533,40.6733],[1.3,40.65],[1.4714,40.7286],[1.6429,40.8071],[1.8143,40.8857],[1.9857,40.9643],[2.1571,41.0429],[2.3286,41.1214],[2.5,41.2],[2.6667,41.3],[2.8333,41.4],[3,41.5],[3.1667,41.6],[3.3333,41.7],[3.5,41.8],[3.5,41.9625],[3.5,42.125],[3.5,42.2875],[3.5,42.45]]]}}
