{"type":"Feature","properties":{"family":"rome","name":"Roman Iberia, 206 BC"},"geometry":{"type":"Polygon","coordinates":[[[3.5,42.45],[3.325,42.44],[3.15,42.43],[2.9667,42.42],[2.7833,42.41],[2.6,42.4],[2.425,42.3375],[2.25,42.275],[2.075,42.2125],[1.9,42.15],[1.76,42.07],[1.62,41.99],[1.48,41.91],[1.34,41.83],[1.2,41.75],[1.05,41.6375],[0.9,41.525],[0.75,41.4125],[0.6,41.3],[0.5,41.1667],[0.4,41.0333],[0.3,40.9],[0.175,40.8],[0.05,40.7],[-0.075,40.6],[-0.2,40.5],[-0.31,40.38],[-0.42,40.26],[-0.53,40.14],[-0.64,40.02],[-0.75,39.9],[-0.92,39.82],[-1.09,39.74],[-1.26,39.66],[-1.43,39.58],[-1.6,39.5],[-1.7667,39.4167],[-1.9333,39.3333],[-2.1,39.25],[-2.2667,39.1667],[-2.4333,39.0833],[-2.6,39],[-2.76,38.92],[-2.92,38.84],[-3.08,38.76],[-3.24,38.68],[-3.4,38.6],[-3.525,38.5],[-3.65,38.4],[-3.775,38.3],[-3.9,38.2],[-3.8,38.05],[-3.7,37.9],[-3.6,37.75],[-3.4333,37.6917],[-3.2667,37.6333],[-3.1,37.575],[-2.9333,37.5167],[-2.7667,37.4583],[-2.6,37.4],[-2.45,37.2875],[-2.3,37.175],[-2.15,37.0625],[-2,36.95],[-1.9,36.8],[-1.8,36.65],[-1.6375,36.75],[-1.475,36.85],[-1.3125,36.95],[-1.15,37.05],[-0.9875,37.15],[-0.825,37.25],[-0.6625,37.35],[-0.5,37.45],[-0.44,37.62],[-0.38,37.79],[-0.32,37.96],[-0.26,38.13],[-0.2,38.3],[-0.025,38.35],[0.15,38.4],[0.325,38.45],[0.5,38.5],[0.5,38.7],[0.5,38.9],[0.5,39.1],[0.5,39.3],[0.5,39.5],[0.5,39.7],[0.5,39.9],[0.625,40.025],[0.75,40.15],[0.875,40.275],[1,40.4],[1.1667,40.4889],[1.3333,40.5778],[1.5,40.6667],[1.6667,40.7556],[1.8333,40.8444],[2,40.9333],[2.1667,41.0222],[2.3333,41.1111],[2.5,41.2],[2.6667,41.3],[2.8333,41.4],[3,41.5],[3.1667,41.6],[3.3333,41.7],[3.5,41.8],[3.5,41.9625],[3.5,42.125],[3.5,42.2875],[3.5,42.45]]]}}
