{"type":"Feature","properties":{"family":"seleucid","name":"Seleucid lands of Antiochus III in Asia Minor, 192 BC","clip":["Turkey"]},"geometry":{"type":"Polygon","coordinates":[[[26,38.8],[26.1875,38.8],[26.375,38.8],[26.5625,38.8],[26.75,38.8],[26.9375,38.7875],[27.125,38.775],[27.3125,38.7625],[27.5,38.75],[27.6667,38.8333],[27.8333,38.9167],[28,39],[28.1667,39.0333],[28.3333,39.0667],[28.5,39.1],[28.6667,39.1333],[28.8333,39.1667],[29,39.2],[29.2,39.2],[29.4,39.2],[29.6,39.2],[29.8,39.2],[30,39.2],[30.1667,39.1583],[30.3333,39.1167],[30.5,39.075],[30.6667,39.0333],[30.8333,38.9917],[31,38.95],[31.1778,38.9222],[31.3556,38.8944],[31.5333,38.8667],[31.7111,38.8389],[31.8889,38.8111],[32.0667,38.7833],[32.2444,38.7556],[32.4222,38.7278],[32.6,38.7],[32.6,38.5133],[32.6,38.3267],[32.6,38.14],[32.6,37.9533],[32.6,37.7667],[32.6,37.58],[32.6,37.3933],[32.6,37.2067],[32.6,37.02],[32.6,36.8333],[32.6,36.6467],[32.6,36.46],[32.6,36.2733],[32.6,36.0867],[32.6,35.9],[32.4105,35.8947],[32.2211,35.8895],[32.0316,35.8842],[31.8421,35.8789],[31.6526,35.8737],[31.4632,35.8684],[31.2737,35.8632],[31.0842,35.8579],[30.8947,35.8526],[30.7053,35.8474],[30.5158,35.8421],[30.3263,35.8368],[30.1368,35.8316],[29.9474,35.8263],[29.7579,35.8211],[29.5684,35.8158],[29.3789,35.8105],[29.1895,35.8053],[29,35.8],[28.8125,35.8625],[28.625,35.925],[28.4375,35.9875],[28.25,36.05],[28.0625,36.1125],[27.875,36.175],[27.6875,36.2375],[27.5,36.3],[27.3333,36.4],[27.1667,36.5],[27,36.6],[26.8333,36.7],[26.6667,36.8],[26.5,36.9],[26.4,37.05],[26.3,37.2],[26.2,37.35],[26.1,37.5],[26,37.65],[25.9,37.8],[25.9167,37.9667],[25.9333,38.1333],[25.95,38.3],[25.9667,38.4667],[25.9833,38.6333],[26,38.8]]]}}
