{"type":"Feature","properties":{"family":"syracuse","name":"Syracuse under Hiero II, allied to Rome"},"geometry":{"type":"Polygon","coordinates":[[[14.78,37],[14.85,36.85],[14.88,36.72],[14.88,36.55],[15.035,36.55],[15.19,36.55],[15.345,36.55],[15.5,36.55],[15.52,36.72],[15.54,36.89],[15.56,37.06],[15.58,37.23],[15.6,37.4],[15.5653,37.4],[15.5654,37.54],[15.5655,37.68],[15.5655,37.82],[15.5647,37.827],[15.5621,37.8338],[15.5579,37.84],[15.5522,37.8454],[15.5453,37.8499],[15.5374,37.8532],[15.5289,37.8553],[15.52,37.856],[15.5111,37.8553],[15.5026,37.8532],[15.5,37.8521],[15.5,37.92],[15.4,37.925],[15.3,37.93],[15.18,37.9],[15.18,37.8],[15.3272,37.7908],[15.4745,37.7816],[15.4746,37.5908],[15.4747,37.4],[15.2824,37.4],[15.09,37.4],[14.95,37.35],[14.875,37.275],[14.8,37.2],[14.79,37.1],[14.78,37]]]}}
