{"type":"Feature","properties":{"name":"Igor’s second campaign to the Danube, 944","style":"solid","arrows":true,"offset":-6},"geometry":{"type":"LineString","coordinates":[[30.52,50.45],[30.75,50.2],[31.3,50],[31.46,49.75],[32.06,49.44],[32.7,49.2],[33.42,49.07],[34,48.8],[34.61,48.51],[35.04,48.46],[35.17,48.2],[35.1,47.85],[34.6,47.62],[34,47.35],[33.48,46.82],[33,46.72],[32.6,46.63],[32.1,46.56],[31.55,46.58],[31.2,46.42],[30.8,46],[30.2,45.3],[29.75,44.92],[29.6,44.88],[29.3,45],[29.08,45.08],[28.8,45.18]]}}
