{"type":"Feature","properties":{"name":"Sviatoslav’s campaign against the Khazars, c. 964–965","style":"solid","arrows":true},"geometry":{"type":"LineString","coordinates":[[30.52,50.45],[31.3,51.3],[32.4,52],[33.2,52.6],[34.36,53.25],[35.2,54],[36.25,54.52],[37.4,54.95],[38.8,54.95],[39.7,54.62],[40.6,54.8],[41.4,55.2],[42.05,55.57],[43,56.1],[44,56.33],[45.5,56.15],[47.25,56.13],[48.6,55.85],[49.1,55.78],[49.06,54.98],[48.4,54.32],[49.3,53.5],[50.1,53.2],[49,53.05],[48.45,53.15],[47.9,52.4],[46.03,51.53],[45.4,50.08],[44.52,48.71],[43.53,48.69],[43,48.2],[42.3,47.7]]}}
