{"type":"Feature","properties":{"name":"Sviatoslav sails to the Danube, 967 or 968, and takes Preslav, 969","style":"solid","arrows":true},"geometry":{"type":"LineString","coordinates":[[30.52,50.45],[30.75,50.2],[31.3,50],[31.46,49.75],[32.06,49.44],[32.7,49.2],[33.42,49.07],[34,48.8],[34.61,48.51],[35.04,48.46],[35.17,48.2],[35.1,47.85],[34.6,47.62],[34,47.35],[33.48,46.82],[33,46.72],[32.6,46.63],[32.1,46.56],[31.55,46.58],[31.2,46.42],[30.8,46],[30.2,45.3],[29.75,44.92],[29.6,44.88],[29.3,45],[29.08,45.08],[28.8,45.18],[28.46,45.27],[28.2,45.36],[28.05,45.43],[27.97,45.27],[27.95,45],[27.95,44.69],[28.03,44.34],[27.85,44.24],[27.6,44.18],[27.42,44.15],[27.28,44.128],[27.15,43.85],[27.05,43.55],[26.93,43.27],[26.82,43.16]]}}
